{"type":"Feature","id":"island-R12608090","properties":{"id":"island-R12608090","kind":"island","name":"東扇島","shortName":"東扇島","context":"神奈川県川崎市川崎区","aliases":["Higashi-Ogishima","東扇島人工島"],"osmType":"relation","osmId":12608090,"officialAreaKm2":null,"areaSourceLabel":"","areaSourceUrl":"","boundarySourceLabel":"© OpenStreetMap contributors","boundarySourceUrl":"https://www.openstreetmap.org/copyright","geometryFile":"natural-features/R12608090.geojson"},"geometry":{"type":"Polygon","coordinates":[[[139.7589022,35.4953113],[139.7611036,35.4919968],[139.7615604,35.4918838],[139.7787175,35.49949],[139.7821121,35.5009942],[139.7820738,35.5010488],[139.7786821,35.4995543],[139.7760888,35.5034521],[139.7783361,35.5044499],[139.7843947,35.5019714],[139.7844347,35.5020351],[139.7784454,35.5044898],[139.7783925,35.5045129],[139.7780749,35.5046444],[139.7778953,35.5047181],[139.7773385,35.5049437],[139.7772997,35.504883],[139.7774038,35.5048442],[139.7774353,35.5045264],[139.7764338,35.5040845],[139.7763754,35.5039849],[139.7759871,35.5038116],[139.7759042,35.5038879],[139.7758293,35.5039799],[139.7757242,35.5041106],[139.7756638,35.5042617],[139.7756246,35.5044748],[139.7756216,35.5046289],[139.7756191,35.5047481],[139.7756286,35.5049239],[139.7756935,35.5049455],[139.7757373,35.5049722],[139.7757697,35.5050033],[139.7757917,35.5050511],[139.7758056,35.5050998],[139.7757953,35.5051594],[139.7759549,35.5051886],[139.7770113,35.5050145],[139.7770155,35.5050306],[139.7770994,35.5050175],[139.7770944,35.5049982],[139.7771164,35.5049966],[139.7771223,35.5050298],[139.7713027,35.5060079],[139.7712054,35.5060204],[139.7711935,35.5062209],[139.7671783,35.5060189],[139.766466,35.505984],[139.7611926,35.5057209],[139.7599376,35.5051658],[139.7600532,35.5049876],[139.7600108,35.5049712],[139.7601523,35.5036585],[139.7592613,35.5035962],[139.7591665,35.5045748],[139.7591434,35.5045866],[139.7589128,35.504482],[139.758797,35.5046592],[139.7550217,35.502982],[139.7551337,35.5028064],[139.7415146,35.4967706],[139.7362866,35.4944535],[139.7363552,35.4943406],[139.7404388,35.4881557],[139.740658,35.48825],[139.7410657,35.4884173],[139.7411119,35.4883924],[139.7411646,35.4883939],[139.7412763,35.4883268],[139.7413135,35.4883499],[139.7455931,35.485002],[139.7467438,35.4855138],[139.7493656,35.4866711],[139.7519604,35.4878252],[139.7520675,35.4876822],[139.7562452,35.4895342],[139.756331,35.4895729],[139.7563091,35.4896051],[139.756265,35.4895852],[139.7562086,35.4896681],[139.7562532,35.4896882],[139.7562343,35.4897159],[139.7581755,35.4905835],[139.758263,35.490821],[139.7561039,35.4940738],[139.7589022,35.4953113]]]}}
