{"type":"Feature","id":"island-R12752844","properties":{"id":"island-R12752844","kind":"island","name":"夢の島","shortName":"夢の島","context":"東京都江東区","aliases":["夢の島公園","Yumenoshima","Yume no Shima"],"osmType":"relation","osmId":12752844,"officialAreaKm2":null,"areaSourceLabel":"","areaSourceUrl":"","boundarySourceLabel":"© OpenStreetMap contributors","boundarySourceUrl":"https://www.openstreetmap.org/copyright","geometryFile":"natural-features/R12752844.geojson","territoryNote":"人工島。OSMの町名境界（夢の島）を比較範囲とする。"},"geometry":{"type":"Polygon","coordinates":[[[139.8205252,35.6546816],[139.8217357,35.6465586],[139.8218296,35.6459286],[139.8255873,35.6463356],[139.8339488,35.6472412],[139.8372274,35.6475963],[139.837495,35.6475817],[139.8458919,35.6471206],[139.8459254,35.647531],[139.8459911,35.6483141],[139.8414963,35.6485795],[139.8302245,35.6556226],[139.8286348,35.6554704],[139.8243146,35.6550502],[139.8205252,35.6546816]]]}}
