{"type":"Feature","id":"island-overseas-アグリハン島","properties":{"id":"island-overseas-アグリハン島","kind":"island","name":"アグリハン島","shortName":"アグリハン島","context":"北マリアナ諸島・アメリカ合衆国","aliases":["アグリガン島","Agrihan","Agrigan"],"osmType":"relation","osmId":14087576,"officialAreaKm2":null,"boundarySourceLabel":"© OpenStreetMap contributors","boundarySourceUrl":"https://www.openstreetmap.org/copyright","geometryFile":"natural-features/R14087576.geojson"},"geometry":{"type":"Polygon","coordinates":[[[145.6359351,18.7769356],[145.6361926,18.7762601],[145.6361711,18.7757725],[145.6363453,18.7755376],[145.6364909,18.7755544],[145.6365318,18.775507],[145.6363749,18.7753815],[145.636496,18.7753452],[145.6364383,18.7752506],[145.6361655,18.7750931],[145.6362457,18.7749816],[145.6367275,18.7751531],[145.6369758,18.7751123],[145.6373728,18.775417],[145.6374505,18.7751529],[145.6379736,18.7750818],[145.638166,18.7746132],[145.6384014,18.7742057],[145.6383035,18.7740101],[145.6379508,18.7741498],[145.6375873,18.7741676],[145.6375713,18.773553],[145.6376678,18.7735225],[145.6377268,18.7731263],[145.6379333,18.7731314],[145.6380272,18.7731111],[145.6381935,18.7728826],[145.6382257,18.7723747],[145.6387621,18.7718668],[145.638966,18.7712776],[145.6389713,18.7706732],[145.6389445,18.7702313],[145.6388587,18.769891],[145.6382954,18.769764],[145.6379145,18.7696726],[145.6379735,18.7693425],[145.6383276,18.7690225],[145.6380916,18.7687177],[145.6380433,18.7684485],[145.6382257,18.7681844],[145.6383812,18.768093],[145.6386763,18.7679101],[145.6386656,18.7675495],[145.6384188,18.7673057],[145.6383437,18.7669248],[145.6383008,18.7666962],[145.6381613,18.7663356],[145.6377858,18.7658937],[145.6378984,18.7655381],[145.6383973,18.7647966],[145.6386495,18.7644969],[145.638923,18.7640397],[145.6389821,18.7636588],[145.6392342,18.7632778],[145.6390786,18.762902],[145.6391805,18.762582],[145.6396311,18.7622721],[145.639835,18.7620486],[145.6398511,18.7614696],[145.6400603,18.7607585],[145.6403768,18.7601693],[145.6404251,18.7597426],[145.6405109,18.7588131],[145.6407684,18.7584321],[145.6414175,18.758173],[145.6418413,18.7576499],[145.6418627,18.7573197],[145.6417018,18.7569692],[145.6415999,18.7566797],[145.6417876,18.7562327],[145.6414229,18.7557958],[145.6412083,18.7555012],[145.6410366,18.7552168],[145.640763,18.7549272],[145.6406397,18.7546428],[145.6406665,18.7541958],[145.6407148,18.753063],[145.6414121,18.7524992],[145.6416964,18.7523519],[145.6419486,18.7523519],[145.6424957,18.7519709],[145.6426942,18.7516915],[145.6428552,18.7513969],[145.6431448,18.7511734],[145.6436008,18.7510972],[145.6440461,18.751087],[145.6444001,18.751275],[145.6450921,18.7508229],[145.6453872,18.7504317],[145.6460363,18.749299],[145.6463098,18.7485471],[145.646444,18.7482068],[145.6465244,18.747582],[145.6466907,18.747267],[145.6470019,18.7467286],[145.6473023,18.7462054],[145.6474793,18.7458548],[145.6475329,18.7454231],[145.6475919,18.7449913],[145.647549,18.744656],[145.6475705,18.7443309],[145.6480479,18.7438585],[145.6485,18.7435953],[145.6486326,18.7435181],[145.6492549,18.7434216],[145.6496626,18.7432641],[145.6499469,18.7430761],[145.6502098,18.7427917],[145.6503063,18.7424107],[145.6506443,18.7419382],[145.6512344,18.740968],[145.6517762,18.7402568],[145.6520981,18.7396116],[145.6521946,18.7390883],[145.6521946,18.7385499],[145.6519371,18.7382247],[145.6517934,18.7376699],[145.6518605,18.7373253],[145.6520534,18.7367679],[145.6519124,18.7364004],[145.6514578,18.7360887],[145.6513083,18.7356915],[145.6515097,18.735446],[145.6515128,18.7353077],[145.6517641,18.7352078],[145.6517606,18.7350945],[145.6519264,18.7349483],[145.6519661,18.735052],[145.6523868,18.7350428],[145.6527677,18.7350564],[145.6529085,18.7348438],[145.6531354,18.734964],[145.6533694,18.734816],[145.6539327,18.7344502],[145.6542706,18.7342267],[145.654791,18.7340489],[145.6553596,18.7340336],[145.6558048,18.7341155],[145.6561005,18.7342771],[145.6565464,18.7341851],[145.6573116,18.7337964],[145.6581706,18.7332259],[145.658775,18.7328849],[145.6587196,18.7327709],[145.6587017,18.7326569],[145.6587054,18.7325439],[145.658707,18.7324943],[145.6586963,18.7322454],[145.6587231,18.7318694],[145.6590055,18.7316499],[145.6591317,18.7315588],[145.6592578,18.7315341],[145.6593293,18.7318491],[145.6593615,18.7319964],[145.6595492,18.7320269],[145.6596565,18.7318796],[145.6597102,18.7315849],[145.6597745,18.7313716],[145.6599355,18.7311988],[145.6600803,18.7314122],[145.6600964,18.7315189],[145.6602842,18.7314833],[145.6607509,18.7311633],[145.6613785,18.7308076],[145.6616472,18.7302222],[145.6621413,18.7295196],[145.6627219,18.7292123],[145.662787,18.7290752],[145.6627878,18.728938],[145.6625794,18.7287552],[145.6622583,18.7287044],[145.6622171,18.7283875],[145.6625295,18.728238],[145.6624825,18.7280834],[145.6623435,18.7277182],[145.6622527,18.7273378],[145.6623547,18.7270965],[145.6624004,18.7268844],[145.6625158,18.7268196],[145.6626555,18.7268411],[145.6627468,18.7269255],[145.6630258,18.7269931],[145.6631251,18.7271395],[145.6631235,18.7272208],[145.6630396,18.7273682],[145.6630576,18.7274343],[145.6630241,18.7275251],[145.6630012,18.7276007],[145.663079,18.7276248],[145.663189,18.7275524],[145.6632192,18.7276042],[145.6632172,18.7276508],[145.6632829,18.7276883],[145.6634009,18.727475],[145.6634261,18.727434],[145.6635809,18.7275621],[145.6636046,18.7274788],[145.6636541,18.7275616],[145.663609,18.727664],[145.6636643,18.7279209],[145.6635873,18.7281129],[145.6637786,18.7281728],[145.6640446,18.7282827],[145.6643042,18.7281085],[145.6647634,18.7280846],[145.6649834,18.7280643],[145.6652194,18.7279017],[145.6657505,18.7271904],[145.6663557,18.726824],[145.6667805,18.7265147],[145.6669494,18.7261312],[145.6671023,18.7256409],[145.6672311,18.7251074],[145.6675749,18.725206],[145.6677139,18.7254936],[145.6677782,18.725712],[145.667966,18.7260981],[145.668025,18.7263369],[145.6680411,18.7266367],[145.6681913,18.7268246],[145.6682718,18.7270329],[145.6685883,18.727165],[145.6687546,18.7272616],[145.6689155,18.7273378],[145.6690282,18.72748],[145.6692159,18.7276782],[145.6693447,18.7277391],[145.6696022,18.7276172],[145.6697309,18.7274495],[145.6700206,18.7271904],[145.6703907,18.7274902],[145.670616,18.7275511],[145.6709433,18.7277696],[145.6711739,18.7280897],[145.6711954,18.728298],[145.6711739,18.7284605],[145.6708789,18.7285977],[145.6707233,18.7287755],[145.6707662,18.728994],[145.6709325,18.7291057],[145.671131,18.7291413],[145.6714207,18.7291261],[145.6716353,18.7292226],[145.671705,18.7294004],[145.6717265,18.7297306],[145.6718552,18.7298678],[145.6720859,18.7302285],[145.6720322,18.7304368],[145.6719303,18.7305638],[145.6717265,18.7306095],[145.6714207,18.7307568],[145.6712651,18.7311836],[145.67119,18.7313919],[145.6710876,18.7316614],[145.6712168,18.7318796],[145.6713134,18.7320218],[145.6715602,18.7322606],[145.6716835,18.7324232],[145.6721342,18.7326061],[145.6724828,18.7328601],[145.6726652,18.7330887],[145.6729925,18.7333376],[145.6731963,18.7333427],[145.6734846,18.7335179],[145.6735933,18.7337593],[145.6735718,18.7339828],[145.6734967,18.7341809],[145.6734377,18.7344248],[145.6735021,18.7345467],[145.6738863,18.7349531],[145.6744516,18.7352783],[145.6749505,18.7359488],[145.6755254,18.7370544],[145.6764209,18.7377632],[145.6773056,18.7382309],[145.6777654,18.7384271],[145.6781852,18.7384381],[145.6784856,18.7383162],[145.6793062,18.7378728],[145.6792623,18.7378617],[145.6793173,18.7377688],[145.6793251,18.7377096],[145.6794508,18.7377208],[145.679512,18.7377089],[145.6795642,18.7377321],[145.6797413,18.7376635],[145.6798321,18.7377116],[145.6798734,18.7376479],[145.6799834,18.7377255],[145.6801431,18.7376316],[145.680269,18.7377652],[145.6803434,18.7377996],[145.6804653,18.7377614],[145.6806742,18.7377832],[145.680823,18.7378283],[145.6809318,18.7378444],[145.681033,18.737878],[145.6812322,18.7378285],[145.6814108,18.7377712],[145.6816033,18.7378059],[145.6822139,18.7380469],[145.6828721,18.7382546],[145.683437,18.7385041],[145.6837052,18.7386565],[145.6842041,18.7387226],[145.68469,18.7384921],[145.6851775,18.7380629],[145.6852912,18.7377708],[145.6854212,18.7377097],[145.6854698,18.7374336],[145.6857292,18.7373606],[145.6855689,18.7378277],[145.685936,18.7373375],[145.6863518,18.7372785],[145.6868064,18.7374792],[145.6868219,18.7380571],[145.6871523,18.7379151],[145.6871387,18.7384061],[145.6868648,18.7387124],[145.6870218,18.7386972],[145.6871672,18.7388131],[145.6875021,18.7390979],[145.6876212,18.7395405],[145.6880057,18.7394951],[145.6884875,18.7397049],[145.6890887,18.739918],[145.6901299,18.7400465],[145.6908519,18.7406606],[145.6910099,18.7409331],[145.6909742,18.7410787],[145.6907513,18.7413321],[145.6907328,18.7417642],[145.6908354,18.7420346],[145.6906669,18.7424184],[145.6908391,18.7426835],[145.6909724,18.7430347],[145.6910757,18.7434159],[145.6912501,18.7436061],[145.6913173,18.7439194],[145.6915319,18.7442801],[145.691607,18.7446357],[145.691784,18.7451284],[145.6918377,18.745291],[145.6919289,18.7454434],[145.6921436,18.745428],[145.6924367,18.7453547],[145.6924955,18.745379],[145.6925288,18.7454442],[145.6926443,18.7454857],[145.6928253,18.7453879],[145.6928858,18.7453424],[145.6930865,18.7454059],[145.693299,18.7456477],[145.6931498,18.7458309],[145.6930005,18.745877],[145.6930988,18.7459054],[145.6931551,18.7460356],[145.6930812,18.7460785],[145.6931297,18.7461732],[145.6929884,18.7462676],[145.6931559,18.7464194],[145.6930274,18.7466368],[145.6931032,18.7467388],[145.6929642,18.746947],[145.6930846,18.7469526],[145.6930561,18.7470593],[145.6931119,18.747168],[145.6930254,18.7472599],[145.6931561,18.7474977],[145.6930835,18.7479708],[145.6930064,18.7482405],[145.6930291,18.7483796],[145.692873,18.7485552],[145.6927925,18.748537],[145.6927335,18.7485167],[145.6925298,18.7483637],[145.6923864,18.7485047],[145.6924243,18.7486955],[145.6922247,18.7487554],[145.6920945,18.7487378],[145.6919877,18.7486804],[145.6918464,18.7487946],[145.6915587,18.7491313],[145.6913213,18.7493113],[145.6911627,18.7499874],[145.6914464,18.7506386],[145.691568,18.7508576],[145.6916872,18.7508344],[145.6918589,18.7506791],[145.6919698,18.7506299],[145.6921823,18.750684],[145.6922968,18.7508318],[145.6923993,18.7510377],[145.6923557,18.7510816],[145.6925604,18.7513999],[145.6925245,18.7515899],[145.6926476,18.7520357],[145.6926048,18.7523011],[145.6923213,18.7523924],[145.6922805,18.752474],[145.6923705,18.7526307],[145.6923214,18.7526976],[145.6923376,18.7529148],[145.6922983,18.7530037],[145.6923767,18.7530946],[145.6923458,18.7532639],[145.6924224,18.7534287],[145.6925465,18.7535651],[145.6925501,18.7536289],[145.6925076,18.7537271],[145.6924373,18.753732],[145.6923344,18.7536305],[145.6922829,18.7536573],[145.6921532,18.7537173],[145.6921892,18.7537529],[145.6923146,18.7538502],[145.6923528,18.7539575],[145.6922458,18.7540575],[145.6921153,18.7540501],[145.692078,18.7540286],[145.6919893,18.7540201],[145.6919963,18.753965],[145.6919345,18.7538734],[145.6918376,18.75389],[145.6917897,18.7538751],[145.6917465,18.7540281],[145.6915682,18.7541564],[145.6915441,18.7544219],[145.6915719,18.7547242],[145.6915735,18.7550317],[145.6916573,18.7554098],[145.6917295,18.7558874],[145.6919228,18.7562753],[145.6921164,18.756473],[145.6925082,18.7565984],[145.6931627,18.7577464],[145.6939459,18.7586708],[145.6947559,18.7592397],[145.6952119,18.7593413],[145.6955337,18.7593261],[145.6956732,18.7594683],[145.6958395,18.7596461],[145.6961346,18.7597274],[145.6964779,18.7597172],[145.6970143,18.7594683],[145.6974059,18.7594074],[145.6977224,18.7596105],[145.6978726,18.7597121],[145.6981194,18.7597121],[145.6984359,18.7596766],[145.698806,18.7597832],[145.6992549,18.7598494],[145.6993693,18.760215],[145.6992996,18.7604537],[145.6991923,18.7607178],[145.6993064,18.7609791],[145.6993854,18.7614442],[145.6993586,18.7616372],[145.6996053,18.7618048],[145.6998521,18.761815],[145.700174,18.7617642],[145.7001775,18.7619471],[145.7000184,18.7623839],[145.6999165,18.7626074],[145.7000023,18.7629121],[145.6998954,18.7634902],[145.699423,18.763801],[145.6990904,18.7637248],[145.6988651,18.7639636],[145.6990783,18.7642572],[145.6995249,18.7645223],[145.6996132,18.7650334],[145.6993908,18.7652334],[145.6991655,18.7652537],[145.6989026,18.7652486],[145.6987739,18.7658734],[145.6987631,18.766234],[145.6987685,18.7664372],[145.6987846,18.7672194],[145.6988436,18.7673768],[145.6989938,18.7676714],[145.698908,18.7681742],[145.698806,18.768606],[145.6987041,18.7688193],[145.6988329,18.7690174],[145.6985807,18.7693171],[145.6985003,18.7695101],[145.6986666,18.7700027],[145.6986719,18.7703786],[145.6987363,18.7706224],[145.6987739,18.7711303],[145.6988651,18.7714147],[145.6985968,18.7718414],[145.6983662,18.7720141],[145.6980389,18.7721461],[145.6978083,18.7723899],[145.6978619,18.7726388],[145.6980604,18.7727861],[145.6980818,18.7728927],[145.6980389,18.7730553],[145.6979477,18.7732635],[145.6979102,18.7735683],[145.6979209,18.7738273],[145.6979853,18.7740558],[145.6981409,18.7742895],[145.6983232,18.7745536],[145.6985003,18.7746602],[145.698747,18.774772],[145.6989455,18.7748939],[145.6989723,18.7751732],[145.6989294,18.7753154],[145.6987899,18.7754526],[145.6985432,18.7755795],[145.6987148,18.7756913],[145.6992191,18.7756252],[145.699423,18.7758487],[145.6994176,18.7760468],[145.6992727,18.7761738],[145.6991064,18.7761941],[145.6987417,18.776057],[145.6983179,18.7760773],[145.6983823,18.7762449],[145.6983983,18.7764176],[145.6982374,18.7765902],[145.6981194,18.776768],[145.6980818,18.7770931],[145.6981301,18.777474],[145.6981194,18.7776213],[145.6982052,18.7778295],[145.6985003,18.7780733],[145.6986183,18.7783069],[145.6986076,18.7785304],[145.6985325,18.7786827],[145.6984734,18.7788757],[145.6986827,18.7791906],[145.6985861,18.7795512],[145.6984788,18.7796528],[145.6983179,18.7798763],[145.6985593,18.7800032],[145.6987309,18.7801099],[145.6987899,18.7803232],[145.698849,18.7805721],[145.6987531,18.7808859],[145.6986344,18.7811257],[145.6984627,18.7811968],[145.6981194,18.7812679],[145.697599,18.7814101],[145.6972557,18.7816183],[145.6972504,18.7818367],[145.6973308,18.78205],[145.6973523,18.7823293],[145.6972825,18.7824461],[145.6971967,18.7824817],[145.6971377,18.7824868],[145.6968534,18.7825477],[145.6967461,18.7827407],[145.6966978,18.7831165],[145.6965315,18.7833552],[145.6963599,18.7839037],[145.6961453,18.7847925],[145.6960702,18.7853664],[145.6960165,18.7859657],[145.6960487,18.7867783],[145.6961453,18.787022],[145.6963062,18.7872506],[145.6963813,18.7873775],[145.696274,18.7875604],[145.6962901,18.7878092],[145.6964564,18.7879362],[145.6965423,18.7881342],[145.6964672,18.7884339],[145.6965852,18.7885304],[145.6965798,18.788698],[145.6968963,18.7887335],[145.6971753,18.7887335],[145.6973469,18.7888808],[145.697422,18.789089],[145.697245,18.7892972],[145.6971055,18.7892922],[145.696966,18.7892465],[145.6965905,18.7892465],[145.6964242,18.789414],[145.6964403,18.7896375],[145.6965905,18.7898153],[145.6964403,18.7899676],[145.6963545,18.7902317],[145.6964296,18.7904348],[145.6965101,18.7907345],[145.6964296,18.7909122],[145.6962472,18.7908919],[145.6961238,18.7907954],[145.6957912,18.7907903],[145.6955659,18.7910595],[145.695523,18.791349],[145.6955123,18.7916232],[145.6957376,18.7917349],[145.6957966,18.7919584],[145.6958072,18.792248],[145.6953996,18.7922021],[145.6952119,18.7921818],[145.6949651,18.7921412],[145.6946915,18.7921057],[145.6942731,18.7922174],[145.6936562,18.792451],[145.6935865,18.7926897],[145.6932753,18.7928065],[145.6931412,18.7929842],[145.6930393,18.793035],[145.6927174,18.792969],[145.692594,18.7931061],[145.6924385,18.7935022],[145.6923473,18.7937206],[145.6921595,18.793939],[145.6920522,18.7943046],[145.6921488,18.7944214],[145.6923205,18.794589],[145.6923258,18.7946804],[145.6920308,18.7946703],[145.6917036,18.7950765],[145.6915587,18.7951324],[145.691371,18.795234],[145.6912476,18.7954828],[145.6910866,18.7956402],[145.6910384,18.795823],[145.6910866,18.7959906],[145.6909901,18.7961176],[145.690636,18.796209],[145.6904107,18.796077],[145.6900835,18.795559],[145.6899601,18.7954472],[145.6895471,18.7953558],[145.6892037,18.7953203],[145.6889087,18.7952898],[145.6887317,18.7952238],[145.6883562,18.7952035],[145.6877124,18.7955336],[145.6874818,18.7957266],[145.6868327,18.7962192],[145.6864303,18.7967676],[145.6859153,18.7974024],[145.6856739,18.7976005],[145.6852448,18.7980372],[145.684939,18.7983927],[145.6845957,18.7987177],[145.6842846,18.7989817],[145.6840002,18.7992153],[145.6836462,18.7996318],[145.6834102,18.7998349],[145.6831741,18.7998908],[145.6829059,18.8002564],[145.6827503,18.8004697],[145.6824768,18.8008099],[145.6821495,18.8011603],[145.6819886,18.8018408],[145.6818116,18.8024095],[145.6816721,18.8027345],[145.6816077,18.8030088],[145.6814629,18.8031154],[145.681259,18.8031763],[145.6811839,18.8033084],[145.6812322,18.8034048],[145.6813878,18.8034607],[145.6814897,18.803608],[145.6815541,18.803872],[145.6814682,18.8041209],[145.6814092,18.8041005],[145.681318,18.8040396],[145.681141,18.8040244],[145.6809694,18.8041564],[145.6809318,18.8043494],[145.6806314,18.8048623],[145.6802827,18.8049029],[145.6796068,18.8050502],[145.679006,18.8054716],[145.678845,18.8057865],[145.6788075,18.8060861],[145.6788289,18.8064872],[145.6786734,18.8068681],[145.6784105,18.8069036],[145.6783462,18.8068935],[145.6781477,18.8067767],[145.678035,18.8066396],[145.6777507,18.8066497],[145.6776649,18.8068427],[145.6777132,18.8070611],[145.677799,18.8071931],[145.6775308,18.8073911],[145.6772089,18.8074317],[145.6771231,18.8074317],[145.6769568,18.8074216],[145.676828,18.8073454],[145.6767261,18.8072489],[145.6765974,18.8070306],[145.6762487,18.8071118],[145.6761253,18.807254],[145.6760663,18.8074114],[145.6760019,18.8075232],[145.6757659,18.8075028],[145.6755942,18.80732],[145.6754601,18.807188],[145.6750739,18.8071321],[145.6747949,18.8071474],[145.6743497,18.8072032],[145.6738079,18.8074521],[145.673148,18.8077872],[145.6716889,18.8082595],[145.6702407,18.8084076],[145.6697416,18.8082645],[145.6687868,18.808031],[145.667274,18.8080665],[145.6665619,18.8081565],[145.6658138,18.8084363],[145.665262,18.8087592],[145.6648199,18.8092028],[145.6645811,18.8097888],[145.6646253,18.8103161],[145.6647491,18.8108854],[145.6648225,18.811258],[145.6645192,18.8114713],[145.6645355,18.8116921],[145.6641036,18.8116555],[145.6642914,18.8119536],[145.6642002,18.8121415],[145.6639266,18.8119511],[145.6637844,18.8118572],[145.6635886,18.8119029],[145.6635028,18.8120654],[145.6632775,18.8121085],[145.6631112,18.8120527],[145.6628644,18.8120552],[145.6627142,18.812106],[145.6626096,18.8121974],[145.6625882,18.8123497],[145.6624943,18.8124056],[145.6624246,18.8122685],[145.6623387,18.8122913],[145.6623012,18.8124259],[145.662033,18.8125808],[145.6619096,18.8125452],[145.6617862,18.812596],[145.6617111,18.8127737],[145.6615823,18.8130124],[145.6612766,18.813185],[145.6611478,18.8129007],[145.6610995,18.8127179],[145.6609279,18.8126112],[145.6607723,18.8127382],[145.6605953,18.8128854],[145.6604934,18.8127636],[145.6603271,18.8126061],[145.6602091,18.8126823],[145.6601125,18.8126468],[145.6599623,18.8124792],[145.6597584,18.8124132],[145.659619,18.8123523],[145.6594527,18.8122507],[145.6591845,18.8122609],[145.6589431,18.8123878],[145.6588304,18.8124335],[145.6586963,18.8123776],[145.6585246,18.812337],[145.6584924,18.8125554],[145.6584924,18.8127382],[145.6583369,18.8127534],[145.6581223,18.8125858],[145.6579131,18.8125351],[145.6577468,18.8127026],[145.6575008,18.8126624],[145.6573391,18.8124233],[145.6572694,18.8124183],[145.6570923,18.8125198],[145.6570011,18.8127179],[145.6568885,18.8126925],[145.6566632,18.8124944],[145.6565666,18.8123269],[145.6563896,18.8120476],[145.6561214,18.8118546],[145.6558102,18.8116464],[145.6555796,18.8113672],[145.655306,18.8111488],[145.6540346,18.8108086],[145.6538361,18.8108187],[145.6536323,18.8108949],[145.6535357,18.8107223],[145.6532479,18.8107025],[145.6530851,18.810641],[145.6530529,18.8104024],[145.6530797,18.8100723],[145.65301,18.8099504],[145.6528598,18.8097016],[145.6525969,18.8094985],[145.6523555,18.8094985],[145.65198,18.8097067],[145.6517869,18.8096153],[145.6518352,18.8093715],[145.6519639,18.809204],[145.6522,18.8090008],[145.6521302,18.808879],[145.6518727,18.8089196],[145.6515723,18.809011],[145.6512183,18.8090567],[145.650993,18.8089094],[145.6512022,18.8088282],[145.6514865,18.8086708],[145.6515133,18.8086149],[145.6513095,18.8083204],[145.6511968,18.8079091],[145.650993,18.8076856],[145.6507462,18.8076146],[145.650478,18.8075079],[145.6501186,18.807188],[145.6499469,18.8068935],[145.6497645,18.8066193],[145.6494749,18.8064669],[145.6492005,18.8062662],[145.64933,18.8059693],[145.6495875,18.8058119],[145.649566,18.8056798],[145.649389,18.8052533],[145.6493729,18.805106],[145.6495446,18.8048064],[145.6496036,18.8045474],[145.6494909,18.8043443],[145.6492174,18.8040142],[145.6491905,18.8038771],[145.6493944,18.8037045],[145.649507,18.8034759],[145.6495178,18.8031459],[145.6493729,18.8028361],[145.6490779,18.801983],[145.6489545,18.8014498],[145.6488097,18.8011248],[145.6485629,18.8008607],[145.648343,18.8004087],[145.6480479,18.800104],[145.6475705,18.8000736],[145.6474686,18.8000431],[145.6471467,18.7996724],[145.6468034,18.7995048],[145.6465405,18.7994794],[145.6464493,18.7992458],[145.6461972,18.7987735],[145.6458324,18.798479],[145.6453013,18.79822],[145.645178,18.7978899],[145.6451243,18.7976258],[145.6448078,18.7973618],[145.6445128,18.7971079],[145.6442445,18.7970875],[145.6438154,18.7970368],[145.6435955,18.7967879],[145.6433916,18.7965086],[145.6431234,18.7963817],[145.6428122,18.7960465],[145.642662,18.7959195],[145.6423777,18.7957824],[145.6421524,18.7955691],[145.6419003,18.7953],[145.6414765,18.7949902],[145.641278,18.7946144],[145.6412566,18.7944925],[145.6414872,18.7943249],[145.6419164,18.7941624],[145.6418896,18.7940202],[145.641675,18.7939644],[145.6415838,18.7938526],[145.6415945,18.7937155],[145.6420183,18.7934514],[145.6420827,18.7932432],[145.6420827,18.7930198],[145.6420344,18.7926998],[145.6418145,18.7924764],[145.6414336,18.7923494],[145.6409025,18.792192],[145.6407362,18.7919787],[145.6405002,18.7918263],[145.6404734,18.7915419],[145.6405967,18.7912372],[145.6404841,18.7908868],[145.6403017,18.7903485],[145.6406826,18.7899524],[145.6406558,18.7898051],[145.6405324,18.7895359],[145.6408596,18.7893887],[145.6409132,18.7892058],[145.6408864,18.7886675],[145.6408435,18.7883983],[145.6405163,18.787987],[145.6406611,18.7875502],[145.640822,18.7870677],[145.6410205,18.7865142],[145.6409669,18.7862552],[145.6404465,18.7861282],[145.640071,18.7860977],[145.6395453,18.7860469],[145.6393093,18.7855594],[145.6392771,18.7850414],[145.6390947,18.7843761],[145.6386709,18.7840409],[145.6384242,18.7839393],[145.6379092,18.7837768],[145.6378072,18.7835584],[145.6380326,18.7830708],[145.6380004,18.7829185],[145.6377214,18.7826239],[145.6377107,18.7822379],[145.6378019,18.7819637],[145.6379574,18.7815878],[145.6380111,18.7812272],[145.6378877,18.7810647],[145.6375658,18.7808006],[145.6375551,18.7807905],[145.6374532,18.7804807],[145.6375498,18.7802927],[145.6377321,18.7798509],[145.637657,18.7795157],[145.6374156,18.7793125],[145.6372225,18.7791703],[145.6364393,18.7785761],[145.6363106,18.778378],[145.6362998,18.7776771],[145.6362569,18.7773318],[145.6359351,18.7769356]]]}}
