{"type":"Feature","id":"island-R3782450","properties":{"id":"island-R3782450","kind":"island","name":"お台場","shortName":"お台場","context":"東京都港区・江東区","aliases":["台場","Daiba","Odaiba"],"osmType":"relation","osmId":3782450,"officialAreaKm2":null,"areaSourceLabel":"","areaSourceUrl":"","boundarySourceLabel":"© OpenStreetMap contributors","boundarySourceUrl":"https://www.openstreetmap.org/copyright","geometryFile":"natural-features/R3782450.geojson"},"geometry":{"type":"Polygon","coordinates":[[[139.7746265,35.616703],[139.7770239,35.6137756],[139.7771537,35.6138461],[139.7774757,35.6137959],[139.7771436,35.6136186],[139.783031,35.606409],[139.7867391,35.6018351],[139.7869223,35.6019248],[139.7870276,35.6020651],[139.7897386,35.6057034],[139.79036,35.606507],[139.7901284,35.6068052],[139.7901991,35.606843],[139.790229,35.6068037],[139.7906044,35.6070097],[139.790576,35.6070443],[139.7906085,35.6070614],[139.7907702,35.6071481],[139.7908549,35.6071933],[139.7920733,35.6088176],[139.7926318,35.6095711],[139.790354,35.6123835],[139.7816276,35.6231037],[139.7814688,35.6233017],[139.7814039,35.623384],[139.7809861,35.6238743],[139.7846473,35.6258578],[139.784945,35.62635],[139.7845983,35.6267664],[139.7836639,35.6279321],[139.7835772,35.6280379],[139.7833284,35.6283418],[139.782952,35.6288029],[139.7826325,35.629193],[139.7823763,35.6295157],[139.7823064,35.6296008],[139.7819846,35.6299921],[139.7816672,35.6303781],[139.780975,35.6312284],[139.7808766,35.6313493],[139.780781,35.6314664],[139.7771819,35.6358733],[139.7770019,35.6360936],[139.7769367,35.6360614],[139.7769286,35.6360718],[139.7768757,35.6360445],[139.7768856,35.6360318],[139.776761,35.6359638],[139.7765381,35.6362487],[139.7757422,35.6358168],[139.7752602,35.6355681],[139.7751657,35.6355194],[139.7731416,35.6344127],[139.7730381,35.6343928],[139.7725318,35.6345078],[139.7724511,35.6342681],[139.7717043,35.6344606],[139.7715475,35.6343982],[139.7713586,35.634711],[139.7713459,35.6347132],[139.7713291,35.6347344],[139.7713159,35.6347257],[139.7715186,35.6343828],[139.7713704,35.6343255],[139.7713369,35.6342519],[139.7712557,35.6340593],[139.7711946,35.6339755],[139.7710784,35.6338181],[139.7710469,35.633763],[139.7710239,35.6337098],[139.7709746,35.6336052],[139.7709016,35.6334625],[139.7708753,35.6333857],[139.7708638,35.6333051],[139.770865,35.6331876],[139.770886,35.633132],[139.7708606,35.6330715],[139.7726627,35.6325696],[139.7732151,35.6339471],[139.7737209,35.6342303],[139.7747729,35.6348249],[139.7749201,35.6347636],[139.7751977,35.6346153],[139.775417,35.6344613],[139.7756757,35.6342348],[139.776333,35.6334725],[139.7767085,35.6329384],[139.7770452,35.6323839],[139.7772249,35.6319344],[139.7772452,35.6317192],[139.7772018,35.6316324],[139.7771344,35.6315015],[139.7770233,35.6313879],[139.7767715,35.6312812],[139.7764814,35.6311275],[139.7762833,35.6310405],[139.7759521,35.6308158],[139.7754558,35.6305789],[139.7744522,35.6298911],[139.774224,35.6297539],[139.7740443,35.6297439],[139.7740362,35.6298493],[139.7739745,35.6299218],[139.7739181,35.629894],[139.7739622,35.6298371],[139.7739873,35.6298499],[139.7739962,35.6298393],[139.774044,35.6293639],[139.7736269,35.6291403],[139.7736053,35.6291287],[139.7728539,35.6287198],[139.7721162,35.6282974],[139.7716947,35.6282617],[139.7714887,35.6282773],[139.7713234,35.6282908],[139.7713054,35.6281766],[139.7712329,35.6280319],[139.7708464,35.6276809],[139.7705175,35.6274291],[139.7702173,35.6273061],[139.7697896,35.6270313],[139.7695911,35.6269819],[139.7694446,35.6269214],[139.7693019,35.6267958],[139.7691305,35.6267119],[139.7690253,35.6266607],[139.7690305,35.6265975],[139.7687897,35.6264653],[139.76762,35.6258276],[139.7676018,35.6258038],[139.7675934,35.6257725],[139.7676595,35.6220729],[139.7681673,35.6214991],[139.7684684,35.6217151],[139.7687701,35.6214587],[139.7684367,35.6211957],[139.7706187,35.618728],[139.7720659,35.6195101],[139.7734387,35.6202506],[139.7742531,35.6192784],[139.7728865,35.6185312],[139.7729824,35.618408],[139.7731621,35.6185071],[139.773671,35.6178755],[139.7736882,35.6178543],[139.7745954,35.6167425],[139.7746265,35.616703]]]}}
