{"type":"Feature","id":"island-R6421263","properties":{"id":"island-R6421263","kind":"island","name":"ポートアイランド","shortName":"ポートアイランド","context":"兵庫県神戸市中央区","aliases":["神戸ポートアイランド","Port Island","Port Island (Kobe)"],"osmType":"relation","osmId":6421263,"officialAreaKm2":null,"areaSourceLabel":"","areaSourceUrl":"","boundarySourceLabel":"© OpenStreetMap contributors","boundarySourceUrl":"https://www.openstreetmap.org/copyright","geometryFile":"natural-features/R6421263.geojson"},"geometry":{"type":"Polygon","coordinates":[[[135.2148694,34.6517198],[135.2172089,34.6501813],[135.2254286,34.650338],[135.228742,34.6504362],[135.236491,34.6506046],[135.2451429,34.6507576],[135.2449162,34.6511396],[135.2439,34.652852],[135.2393246,34.6605547],[135.2388888,34.661258],[135.2354268,34.6601957],[135.2290996,34.6582541],[135.2281488,34.6579733],[135.227315,34.6593541],[135.2257263,34.661985],[135.227646,34.662577],[135.2279775,34.6626796],[135.2364476,34.665302],[135.2340394,34.6693097],[135.2340281,34.6693285],[135.2341281,34.6694408],[135.2338882,34.669959],[135.2334165,34.671046],[135.22962,34.669918],[135.2209861,34.6672554],[135.2202268,34.668537],[135.2195732,34.6696544],[135.220246,34.6698487],[135.2306344,34.6730478],[135.2318831,34.6734323],[135.2317266,34.6737518],[135.2280224,34.6758135],[135.2231661,34.6743387],[135.2177755,34.6726826],[135.2177403,34.6728642],[135.2165315,34.6748902],[135.2163241,34.6750569],[135.2182129,34.6756346],[135.2254902,34.6778664],[135.2255204,34.6779203],[135.225345,34.6783083],[135.2234996,34.6798491],[135.2208231,34.6820577],[135.2208407,34.6820722],[135.2199998,34.682777],[135.2135187,34.6818176],[135.2135268,34.6817621],[135.2102912,34.6812878],[135.2104307,34.6806365],[135.2103441,34.6805814],[135.2106957,34.6789437],[135.2072236,34.6772075],[135.206478,34.6768386],[135.2051506,34.67776],[135.2068225,34.6787241],[135.2067485,34.6788084],[135.2050483,34.677831],[135.2047856,34.6780133],[135.2032368,34.6771202],[135.2033058,34.6770354],[135.2033338,34.6770029],[135.2042426,34.6759132],[135.202732,34.674734],[135.2027851,34.6737841],[135.2015997,34.6737384],[135.2016032,34.6736373],[135.2014373,34.6736308],[135.2014922,34.6728716],[135.2015043,34.6727372],[135.2016651,34.669917],[135.2020027,34.6649591],[135.2022597,34.6609047],[135.2023557,34.6592373],[135.2025153,34.6592426],[135.2027562,34.658965],[135.2030939,34.6589798],[135.2036247,34.6592802],[135.2041481,34.6593094],[135.2042699,34.6574521],[135.2042852,34.6572195],[135.2042958,34.6570577],[135.2043402,34.6563547],[135.2042625,34.6563533],[135.2042661,34.6562116],[135.2043912,34.6562163],[135.2043852,34.6564284],[135.2044447,34.6564345],[135.2044172,34.6571101],[135.2057704,34.6577094],[135.2066862,34.657111],[135.2065352,34.656955],[135.21475,34.6515821],[135.2148381,34.6516808],[135.2148694,34.6517198]]]}}
