{"type":"Feature","id":"island-R6421264","properties":{"id":"island-R6421264","kind":"island","name":"神戸空港島","shortName":"神戸空港島","context":"兵庫県神戸市中央区","aliases":["神戸空港","Kobe Airport Island","空港島"],"osmType":"relation","osmId":6421264,"officialAreaKm2":2.72,"areaSourceLabel":"神戸空港「よくあるご質問」","areaSourceUrl":"https://www.kairport.co.jp/support/faq","boundarySourceLabel":"© OpenStreetMap contributors","boundarySourceUrl":"https://www.openstreetmap.org/copyright","geometryFile":"natural-features/R6421264.geojson"},"geometry":{"type":"Polygon","coordinates":[[[135.2087877,34.6338005],[135.2087911,34.6337689],[135.2090461,34.6315754],[135.209049,34.6315502],[135.2092179,34.6300978],[135.2110169,34.6293456],[135.2148593,34.6304864],[135.2270749,34.6314349],[135.2283714,34.6305487],[135.2286747,34.6305799],[135.2297327,34.6316711],[135.2387904,34.632344],[135.2405529,34.6330963],[135.2404558,34.6340093],[135.2404534,34.6340267],[135.2403593,34.6348811],[135.2385262,34.6352765],[135.238309,34.6371995],[135.2382568,34.6375779],[135.238187,34.6378313],[135.2372527,34.6395918],[135.2365322,34.640957],[135.2361704,34.6416248],[135.2360218,34.6417374],[135.2359702,34.6416906],[135.2357849,34.6417337],[135.2350512,34.6416796],[135.2348127,34.641662],[135.2328117,34.6415141],[135.2319815,34.6414429],[135.2321186,34.6402534],[135.2288004,34.6400031],[135.2287935,34.6400834],[135.2288644,34.6400875],[135.2288374,34.6403181],[135.228822,34.6404496],[135.2286062,34.6404385],[135.2286217,34.640305],[135.2286488,34.6400716],[135.228733,34.6400767],[135.2287389,34.6399979],[135.2279762,34.6399302],[135.2278499,34.6411238],[135.227207,34.6410733],[135.2271975,34.6411445],[135.2239191,34.6408812],[135.2239207,34.6408199],[135.2237408,34.6408061],[135.2220195,34.6406739],[135.2196032,34.6404884],[135.2194773,34.6405656],[135.2184409,34.6405033],[135.2183508,34.6404105],[135.216974,34.6403107],[135.2168715,34.6403665],[135.2164787,34.6403405],[135.2163805,34.6402395],[135.2158563,34.6401976],[135.2133139,34.6399946],[135.2129281,34.6398187],[135.2126629,34.639549],[135.210756,34.6366863],[135.2104541,34.636242],[135.2093128,34.6345624],[135.2089819,34.6340754],[135.2087877,34.6338005]]]}}
