{"type":"Feature","id":"island-overseas-マウグ島","properties":{"id":"island-overseas-マウグ島","kind":"island","name":"マウグ島","shortName":"マウグ島","context":"北マリアナ諸島・アメリカ合衆国","aliases":["マウグ諸島","Maug Islands","Måug"],"osmType":"relation","osmId":7262543,"officialAreaKm2":null,"boundarySourceLabel":"© OpenStreetMap contributors","boundarySourceUrl":"https://www.openstreetmap.org/copyright","geometryFile":"natural-features/R7262543.geojson"},"geometry":{"type":"MultiPolygon","coordinates":[[[[145.2081227,20.0181838],[145.2081978,20.0179217],[145.2082246,20.0177705],[145.2083749,20.0176042],[145.208466,20.0173017],[145.208422,20.0168607],[145.2084231,20.01646],[145.2085675,20.0160898],[145.2090082,20.0159342],[145.2092791,20.0157236],[145.2097274,20.0153199],[145.2099408,20.0150739],[145.2102037,20.0148987],[145.2103532,20.0144511],[145.2102318,20.0133453],[145.2104279,20.0128539],[145.2107856,20.0126362],[145.2111564,20.012573],[145.2113526,20.0126696],[145.211757,20.0126054],[145.2117943,20.0123421],[145.2125042,20.0122544],[145.2131393,20.0122544],[145.2136903,20.0120701],[145.2140826,20.0120042],[145.2145123,20.0117892],[145.2148873,20.0112381],[145.2152681,20.0111272],[145.2156517,20.0111486],[145.2160347,20.0113329],[145.2165193,20.0114069],[145.2167755,20.0115203],[145.2169407,20.0118243],[145.2173488,20.0124677],[145.2174729,20.0127906],[145.2172422,20.0129115],[145.2168131,20.0130527],[145.2166682,20.0131232],[145.2164644,20.0133198],[145.2163571,20.0135517],[145.2164805,20.0137281],[145.2165019,20.014091],[145.2160328,20.0144507],[145.2158017,20.0146182],[145.2156436,20.0147513],[145.2155685,20.015089],[145.2153593,20.015336],[145.2149194,20.015462],[145.2145649,20.0156354],[145.2141255,20.0159056],[145.2138358,20.0160517],[145.2137822,20.016208],[145.21375,20.0165306],[145.2134174,20.0166667],[145.213294,20.0167019],[145.2130204,20.0169993],[145.2127737,20.0171455],[145.2125913,20.0171959],[145.2120709,20.0173824],[145.2117652,20.0177806],[145.2115774,20.0180175],[145.2113253,20.0183048],[145.2110517,20.0184711],[145.211041,20.0186828],[145.2110892,20.0188894],[145.2112073,20.0190406],[145.2111643,20.0192322],[145.2109659,20.0193229],[145.2106494,20.0193531],[145.2106172,20.0193935],[145.2105153,20.0196404],[145.2104133,20.0199681],[145.2104133,20.0201596],[145.2103651,20.020467],[145.2103382,20.0206888],[145.2102953,20.0208904],[145.210349,20.0210769],[145.2102789,20.0212561],[145.2101237,20.0211878],[145.2099788,20.0213491],[145.2098072,20.0216717],[145.2097964,20.0218329],[145.2097911,20.02209],[145.2097461,20.0226388],[145.2096355,20.0233803],[145.2097642,20.0240355],[145.2099422,20.0243149],[145.2098393,20.0247764],[145.2099629,20.0251147],[145.2100807,20.0256786],[145.21007,20.0259306],[145.2101827,20.0261221],[145.2103221,20.0262531],[145.2105313,20.0262733],[145.210493,20.0264073],[145.2103811,20.0267672],[145.2103865,20.026994],[145.2104616,20.0272763],[145.2104884,20.0274073],[145.2106708,20.0275988],[145.2107828,20.0280356],[145.2111053,20.0283246],[145.2111536,20.0285514],[145.2112395,20.0287429],[145.2114916,20.0290151],[145.2116795,20.0296678],[145.2119536,20.0297688],[145.2120334,20.0301995],[145.212205,20.030396],[145.2124452,20.0309977],[145.2113972,20.030793],[145.2111429,20.0305623],[145.2111161,20.0301339],[145.2108642,20.0297579],[145.2104466,20.0288078],[145.2097922,20.0282022],[145.2094472,20.027825],[145.2092733,20.0278567],[145.2088338,20.0277437],[145.2088491,20.0269128],[145.2083557,20.0258851],[145.2084854,20.0251229],[145.209013,20.0248476],[145.2092332,20.0244942],[145.2090776,20.0239145],[145.208981,20.023718],[145.2089918,20.0234861],[145.2090293,20.0231484],[145.2089167,20.022967],[145.2088094,20.0229317],[145.2088737,20.0225285],[145.2086533,20.021849],[145.2088588,20.021577],[145.2087504,20.0211878],[145.2087235,20.0210114],[145.2086699,20.0205124],[145.2086323,20.0203209],[145.2087396,20.0199277],[145.2087187,20.0196112],[145.2085295,20.0194362],[145.2085304,20.0190054],[145.2085304,20.0187987],[145.2084553,20.0185618],[145.2082729,20.0183955],[145.2081227,20.0181838]]],[[[145.2148952,20.0319904],[145.2151941,20.0317623],[145.2162899,20.0317429],[145.2173334,20.0311923],[145.2175571,20.0309374],[145.2180415,20.0307337],[145.2181327,20.0306682],[145.2183977,20.0304022],[145.2192476,20.030332],[145.2200976,20.0304811],[145.2204984,20.0304918],[145.2209288,20.0303934],[145.2217591,20.0306279],[145.2219468,20.0306934],[145.2221292,20.0308043],[145.2225727,20.0308848],[145.2232358,20.0307795],[145.224055,20.0304615],[145.2242321,20.0302297],[145.2244145,20.0301087],[145.2245969,20.0302247],[145.2246344,20.0304313],[145.2245754,20.0306127],[145.22457,20.0306984],[145.2248236,20.0308058],[145.2252719,20.0312095],[145.2274051,20.0315219],[145.227809,20.031522],[145.2280181,20.0314403],[145.2282047,20.0312621],[145.2289969,20.0312346],[145.2295903,20.0312231],[145.2296817,20.0312547],[145.2297691,20.0314636],[145.2297836,20.0318513],[145.2296754,20.0320473],[145.2295978,20.0320689],[145.2293734,20.0320259],[145.2285783,20.032087],[145.2273174,20.0321659],[145.2267393,20.0320282],[145.2264907,20.0320396],[145.2262624,20.0320846],[145.2260378,20.0323151],[145.2255615,20.0325257],[145.2252719,20.0328416],[145.2247204,20.0329867],[145.2243379,20.0332979],[145.2239924,20.0335436],[145.2237064,20.0338181],[145.2233469,20.0340028],[145.2232611,20.0344834],[145.2217011,20.035016],[145.2212371,20.0354214],[145.2209252,20.0354518],[145.2206072,20.0353908],[145.2203379,20.0351306],[145.2197152,20.0349672],[145.2192324,20.0346698],[145.2188086,20.0345085],[145.2184975,20.0343574],[145.2180952,20.0341003],[145.2177572,20.0338735],[145.2172422,20.0336871],[145.2167541,20.0335963],[145.2163464,20.0334351],[145.2157306,20.0330245],[145.2151901,20.0326335],[145.2150643,20.0322809],[145.2148952,20.0319904]]],[[[145.2280553,20.0126756],[145.228186,20.0122193],[145.2284382,20.0119296],[145.2294282,20.0122719],[145.2299046,20.012737],[145.2303898,20.0132198],[145.2306372,20.0137684],[145.231297,20.0141212],[145.2318603,20.0144035],[145.2328253,20.0146598],[145.233229,20.0150504],[145.2333598,20.0155666],[145.2339032,20.0157002],[145.234639,20.0163441],[145.2350976,20.0165897],[145.2354759,20.0167725],[145.2360596,20.0174497],[145.2363312,20.0177841],[145.2368063,20.0180376],[145.2369726,20.0181788],[145.2371067,20.0184661],[145.2373964,20.0185568],[145.2376848,20.0189152],[145.2379382,20.0193783],[145.2379382,20.0196354],[145.2380562,20.0199529],[145.2380991,20.0202806],[145.2381688,20.0205527],[145.2382815,20.0212785],[145.2380884,20.0216918],[145.2376431,20.0221757],[145.2373749,20.0225386],[145.2369189,20.0231275],[145.2364951,20.0234408],[145.2363074,20.0237835],[145.2356476,20.0243782],[145.2353847,20.0247058],[145.2350205,20.0253663],[145.2347141,20.0264547],[145.2343118,20.0268832],[145.2344513,20.0272813],[145.2337665,20.0279283],[145.2329587,20.0281382],[145.2324824,20.0276907],[145.2325478,20.0269535],[145.2325478,20.0261462],[145.2323983,20.025804],[145.2321581,20.0255951],[145.2315335,20.0250308],[145.2303714,20.0241405],[145.2300954,20.0237381],[145.2301482,20.0234655],[145.2299891,20.0227459],[145.2298676,20.0222147],[145.2297199,20.0218128],[145.2299044,20.0209964],[145.2301453,20.0206518],[145.2302659,20.0201423],[145.2305728,20.0190709],[145.2303265,20.0185603],[145.2298218,20.0177201],[145.2293873,20.0168733],[145.2293873,20.0162735],[145.2290654,20.0156283],[145.2292134,20.0148257],[145.2290173,20.0141236],[145.2286437,20.0137726],[145.2282082,20.0134555],[145.2280553,20.0126756]]]]}}
