{"type":"Feature","id":"island-overseas-ファラリョン・デ・パハロス島","properties":{"id":"island-overseas-ファラリョン・デ・パハロス島","kind":"island","name":"ファラリョン・デ・パハロス島","shortName":"ファラリョン・デ・パハロス島","context":"北マリアナ諸島・アメリカ合衆国","aliases":["ウラカス島","Farallon de Pajaros","Urracas","Uracas"],"osmType":"relation","osmId":7262544,"officialAreaKm2":null,"boundarySourceLabel":"© OpenStreetMap contributors","boundarySourceUrl":"https://www.openstreetmap.org/copyright","geometryFile":"natural-features/R7262544.geojson"},"geometry":{"type":"Polygon","coordinates":[[[144.8862456,20.5400565],[144.8862531,20.5400276],[144.8862808,20.5399977],[144.8863734,20.5399658],[144.8864752,20.5399756],[144.8864773,20.5399018],[144.8864581,20.5398449],[144.8863676,20.539815],[144.8863325,20.5397881],[144.8863155,20.5397542],[144.8863197,20.5397073],[144.8863825,20.5396944],[144.8864113,20.5396176],[144.8864358,20.5395029],[144.8864475,20.5394541],[144.8864049,20.5394052],[144.8863772,20.5393892],[144.8863783,20.5393663],[144.8864134,20.5393444],[144.8864954,20.5393434],[144.8865184,20.5393477],[144.8865108,20.5392997],[144.8865334,20.5392327],[144.886489,20.5392207],[144.8864807,20.5392081],[144.886486,20.5391876],[144.8865274,20.539189],[144.8865477,20.539182],[144.886547,20.5391524],[144.8865477,20.5391249],[144.8865635,20.5391002],[144.8865824,20.5390854],[144.8865982,20.5390579],[144.886608,20.5390226],[144.8866095,20.5389979],[144.8865982,20.5389726],[144.8865605,20.53895],[144.8865688,20.5389232],[144.8865899,20.5389154],[144.8866291,20.5389161],[144.8866547,20.5389444],[144.886672,20.5389472],[144.8867043,20.5389218],[144.886736,20.538883],[144.8867827,20.5388379],[144.8868286,20.5388097],[144.8868135,20.5387681],[144.8868256,20.5387286],[144.8868489,20.5386898],[144.886876,20.5386736],[144.8869054,20.5386623],[144.8869272,20.5386355],[144.886931,20.5386024],[144.8869227,20.5385714],[144.8869001,20.5385558],[144.8868482,20.5385305],[144.8868233,20.5384994],[144.8868143,20.5384635],[144.8868218,20.5384332],[144.8868519,20.5384233],[144.8868851,20.5384275],[144.8869144,20.5384459],[144.8869558,20.5384882],[144.8869701,20.5385178],[144.886998,20.5385107],[144.8870695,20.5384529],[144.8870823,20.5384148],[144.887184,20.5382921],[144.8872156,20.5382541],[144.8872608,20.538223],[144.8872849,20.5381441],[144.8873075,20.5380947],[144.8873406,20.5381229],[144.8873843,20.5381257],[144.8874023,20.538106],[144.8873917,20.538052],[144.8873947,20.5380132],[144.8874173,20.5380153],[144.8874436,20.5380309],[144.8874722,20.5380506],[144.8875016,20.538045],[144.8875166,20.5380273],[144.8875114,20.5380012],[144.8874986,20.5379632],[144.8875023,20.5379328],[144.8875227,20.537918],[144.8875468,20.5379131],[144.887598,20.5379173],[144.8876371,20.537892],[144.8876206,20.5378687],[144.8876032,20.5378532],[144.887595,20.5378285],[144.8876025,20.5378095],[144.8876213,20.5378003],[144.887616,20.5377834],[144.8875904,20.5377044],[144.8875965,20.5376832],[144.8876296,20.537667],[144.8876499,20.5376713],[144.8876635,20.537691],[144.8876921,20.5377502],[144.8877162,20.5378102],[144.8877305,20.5378179],[144.8877531,20.5378024],[144.8877561,20.537782],[144.8877674,20.5377629],[144.8877998,20.5377241],[144.8878532,20.5376981],[144.8878773,20.5377009],[144.8878901,20.537715],[144.8879082,20.5377284],[144.887933,20.5377206],[144.8879564,20.5377037],[144.8879662,20.5376804],[144.8879684,20.5376522],[144.8879692,20.5376191],[144.8879541,20.5375803],[144.8879662,20.5375683],[144.887994,20.5375697],[144.8880264,20.5375521],[144.888061,20.5375394],[144.8881664,20.5375091],[144.8882922,20.5374088],[144.8886115,20.5373242],[144.8888042,20.5372847],[144.8892214,20.537131],[144.8895753,20.5370125],[144.8898448,20.5369378],[144.8902002,20.5368673],[144.8903477,20.5368202],[144.8904878,20.5367483],[144.8905119,20.5367568],[144.890554,20.5367906],[144.8907061,20.5367257],[144.8907106,20.5366877],[144.8907076,20.5366397],[144.8907332,20.53662],[144.8907754,20.5366284],[144.8908492,20.5366045],[144.8909606,20.5365932],[144.8911579,20.5365904],[144.8912362,20.5365607],[144.8913446,20.5365636],[144.8915539,20.5365889],[144.8917482,20.5365904],[144.8919093,20.5365424],[144.8921593,20.5365424],[144.8924438,20.5365049],[144.892754,20.5365006],[144.8929423,20.5364865],[144.8930657,20.5364231],[144.8930898,20.5363864],[144.8930432,20.5362595],[144.8930447,20.5362158],[144.8930191,20.5361537],[144.8930236,20.5361227],[144.8930552,20.5361015],[144.8930989,20.5361086],[144.8931395,20.5361622],[144.8931679,20.5361802],[144.8932297,20.5362949],[144.8932339,20.5363378],[144.8932659,20.5363717],[144.8933074,20.5364095],[144.8933468,20.5364644],[144.8933606,20.5364744],[144.8934512,20.5364375],[144.8935855,20.5363711],[144.8938432,20.5363492],[144.8940187,20.5363482],[144.8939942,20.5362944],[144.8939697,20.5362794],[144.8939452,20.5362515],[144.8939527,20.5362305],[144.8939751,20.5362266],[144.8940283,20.5362355],[144.8940837,20.5362415],[144.8941071,20.5362654],[144.8941124,20.5362874],[144.8941337,20.5363153],[144.8941848,20.5363352],[144.8942977,20.5363323],[144.8945184,20.5363333],[144.8946088,20.5363869],[144.894669,20.5363756],[144.8947278,20.536377],[144.8947774,20.5364095],[144.8948317,20.5364645],[144.8949973,20.5365745],[144.8950274,20.5365801],[144.8950545,20.5365223],[144.8951087,20.5364913],[144.8951452,20.5364821],[144.895158,20.5364891],[144.895167,20.5365117],[144.8951625,20.5365336],[144.8951475,20.5365392],[144.8951113,20.5365427],[144.8950887,20.5365759],[144.8950744,20.5366231],[144.8951118,20.5366647],[144.8952581,20.5367042],[144.8954668,20.5366862],[144.8956116,20.5367082],[144.8958054,20.5367261],[144.8958714,20.5366942],[144.895963,20.5366862],[144.8960077,20.5367002],[144.8960525,20.536748],[144.8961014,20.5367401],[144.8961377,20.53675],[144.8961526,20.536782],[144.8961675,20.5368338],[144.8962015,20.5368877],[144.8962356,20.5369036],[144.8963464,20.5369176],[144.8966722,20.5370532],[144.8968937,20.537127],[144.8970534,20.5371928],[144.8972749,20.5372307],[144.8974091,20.5373005],[144.8974261,20.5373563],[144.897441,20.5374421],[144.8974708,20.5375059],[144.8974857,20.5376136],[144.8975304,20.5377133],[144.8976029,20.5377432],[144.8977264,20.5377691],[144.8978861,20.5377671],[144.8979755,20.537801],[144.8980522,20.5378688],[144.8980543,20.5379446],[144.8980905,20.5380005],[144.8981715,20.5380802],[144.8982247,20.5381161],[144.898263,20.5381979],[144.8982268,20.5383275],[144.898148,20.5385389],[144.8980969,20.5386586],[144.8980969,20.5387483],[144.8981161,20.5388181],[144.8981864,20.5389478],[144.8983418,20.5391312],[144.8984526,20.5392668],[144.8985442,20.5393047],[144.8986144,20.5392728],[144.8986443,20.5392948],[144.8986485,20.5393346],[144.898689,20.5393825],[144.8987827,20.5394124],[144.8989445,20.5394304],[144.8990255,20.5394244],[144.8990493,20.5394611],[144.8990216,20.5395239],[144.8989897,20.5395977],[144.8990334,20.5395997],[144.8991388,20.539485],[144.8991835,20.5394235],[144.8991955,20.5393812],[144.8992302,20.5393643],[144.899291,20.5391909],[144.8993172,20.5391891],[144.8993006,20.5393066],[144.89934,20.5393444],[144.8993379,20.5393704],[144.8992431,20.5395399],[144.8992144,20.5396027],[144.8992314,20.5396266],[144.8993013,20.5395995],[144.8993375,20.5395596],[144.8993822,20.5395766],[144.8994258,20.5395636],[144.8994056,20.5395018],[144.899429,20.5394709],[144.8994642,20.5394509],[144.8995504,20.539447],[144.8995856,20.5394679],[144.8995771,20.5394848],[144.8995536,20.5395207],[144.8995579,20.5395507],[144.899592,20.5395756],[144.8996346,20.5395826],[144.8996708,20.5396125],[144.8996889,20.5396803],[144.899674,20.539791],[144.8996473,20.5398199],[144.899559,20.5398528],[144.8994461,20.5399016],[144.8994695,20.5399764],[144.8995196,20.5400193],[144.8995132,20.5400831],[144.8995579,20.5401459],[144.8995515,20.5401868],[144.8995664,20.5402137],[144.8995888,20.5402267],[144.8996314,20.5401988],[144.8996995,20.5402008],[144.8997623,20.5402197],[144.8998209,20.5402476],[144.8998347,20.5402706],[144.8998241,20.5403324],[144.8998496,20.5403573],[144.8998741,20.5403803],[144.8998954,20.5404092],[144.8998986,20.5404441],[144.899889,20.5404491],[144.8998571,20.5404431],[144.8998337,20.5404271],[144.8998134,20.5404341],[144.8997804,20.540467],[144.8997581,20.540476],[144.8996548,20.540475],[144.8996356,20.540487],[144.8996633,20.5405049],[144.8996889,20.5405418],[144.8997251,20.5405807],[144.8997378,20.5406126],[144.8997251,20.5406325],[144.8997368,20.5406684],[144.8997836,20.5407991],[144.8998166,20.5408011],[144.8998092,20.5408459],[144.8998273,20.5408878],[144.8998379,20.5409068],[144.899856,20.5409028],[144.8998763,20.5408719],[144.8999135,20.5408579],[144.899987,20.5408499],[144.9000381,20.5408539],[144.9000807,20.5408679],[144.9001041,20.5408858],[144.9001244,20.5408669],[144.9002468,20.540812],[144.900316,20.5407761],[144.9003959,20.5407003],[144.9004247,20.5406924],[144.9004651,20.5407133],[144.9005066,20.5407462],[144.9005216,20.5407861],[144.9005237,20.5408419],[144.9005003,20.5409377],[144.9004939,20.5409775],[144.9005961,20.5409566],[144.9006323,20.5409701],[144.9007023,20.5409518],[144.9007362,20.5409476],[144.9007707,20.5409596],[144.9008059,20.5409516],[144.9008341,20.5409758],[144.9009411,20.5409756],[144.9009975,20.5409855],[144.900999,20.541016],[144.9009831,20.5410484],[144.9009854,20.5410773],[144.9009869,20.5410921],[144.9009568,20.5411154],[144.9009342,20.5411485],[144.9009365,20.5411711],[144.9009666,20.5411929],[144.9009967,20.5412085],[144.9010012,20.5412324],[144.9009944,20.5412649],[144.9009764,20.541291],[144.9009568,20.5412938],[144.9009083,20.5412885],[144.9008657,20.5413104],[144.9008401,20.5413144],[144.9007816,20.5413583],[144.900756,20.5413683],[144.9006975,20.5414141],[144.9006783,20.5414311],[144.9006176,20.5415398],[144.9005186,20.5417033],[144.9004966,20.5417507],[144.9004748,20.5417923],[144.9004785,20.5418134],[144.9004838,20.5418254],[144.9004755,20.5418565],[144.9004868,20.5418804],[144.9005109,20.5418952],[144.9005779,20.5419157],[144.9006434,20.541934],[144.9006736,20.5419523],[144.9007082,20.5419876],[144.9007353,20.5419954],[144.9007933,20.5419925],[144.9008482,20.5419883],[144.9008693,20.5419975],[144.9008927,20.5420271],[144.9008882,20.5420567],[144.9008769,20.5421039],[144.9008769,20.5421223],[144.9008626,20.542143],[144.9008701,20.54216],[144.9008722,20.5421794],[144.9008812,20.5421874],[144.9008791,20.5422073],[144.900844,20.5422357],[144.9008408,20.5422482],[144.9008488,20.5422567],[144.900852,20.5422607],[144.9008493,20.5422756],[144.9008466,20.5422841],[144.900853,20.5423011],[144.9008722,20.5423095],[144.9008892,20.542334],[144.9009095,20.5423464],[144.9009467,20.5423554],[144.9009563,20.5423644],[144.900959,20.5423803],[144.9009537,20.5423913],[144.9009638,20.5424097],[144.9009718,20.5424097],[144.9009851,20.5424122],[144.9009925,20.5424302],[144.9010021,20.5424516],[144.9010191,20.5424601],[144.9010356,20.5424671],[144.901049,20.5424825],[144.9010479,20.5425085],[144.9010362,20.5425224],[144.9010277,20.5425369],[144.9010399,20.5425528],[144.901058,20.5425783],[144.9010596,20.5425997],[144.9010601,20.5426161],[144.9010756,20.5426201],[144.9010905,20.5426206],[144.901099,20.5426291],[144.9011006,20.5426416],[144.9010985,20.5426934],[144.9010729,20.5427193],[144.9010777,20.5427353],[144.9010926,20.5427403],[144.9011081,20.5427483],[144.9011171,20.5427682],[144.9011144,20.5427827],[144.90109,20.5427891],[144.901083,20.5428021],[144.9010905,20.5428156],[144.9011128,20.5428226],[144.9011526,20.542836],[144.9011827,20.5428579],[144.9012045,20.5428818],[144.9011947,20.5429403],[144.9012128,20.5429608],[144.9012286,20.5429721],[144.9012346,20.5429897],[144.9012181,20.5430158],[144.9012188,20.5430461],[144.9012233,20.5430807],[144.9012535,20.5431131],[144.9012776,20.5431561],[144.9012964,20.5431885],[144.9013092,20.5432019],[144.9013363,20.5431977],[144.9013566,20.5431984],[144.9013641,20.5432146],[144.9014008,20.5434031],[144.901449,20.543499],[144.9014821,20.5436132],[144.9015348,20.5436541],[144.9015695,20.5436908],[144.9016207,20.5438501],[144.9017351,20.5440137],[144.9017727,20.5441561],[144.9018541,20.5441632],[144.9019595,20.5442788],[144.90197,20.5443239],[144.9019113,20.5444649],[144.9018736,20.5445777],[144.9018827,20.5446722],[144.901964,20.5448471],[144.902095,20.5450501],[144.9020965,20.545122],[144.9021342,20.5451531],[144.9022366,20.5451531],[144.9023465,20.5451263],[144.9024293,20.5451516],[144.9024489,20.5451911],[144.9024338,20.5452278],[144.9024233,20.5452687],[144.9024474,20.5452884],[144.9025347,20.5453124],[144.9026507,20.5454012],[144.902732,20.5454858],[144.9028118,20.5455098],[144.9029517,20.5455294],[144.9030944,20.5455274],[144.9031795,20.5454875],[144.9031923,20.5455613],[144.9031519,20.5456471],[144.9031817,20.5457029],[144.90322,20.5457188],[144.9032392,20.5457667],[144.9032243,20.5457986],[144.9031007,20.5460838],[144.9030411,20.5461396],[144.902892,20.5462154],[144.9028665,20.5462972],[144.9029092,20.5463254],[144.9029122,20.5463705],[144.9028196,20.5463829],[144.9027493,20.5464348],[144.9027536,20.5464926],[144.9027792,20.5465923],[144.9027515,20.546686],[144.9027089,20.5467379],[144.9026663,20.5468136],[144.9026386,20.5469313],[144.9026343,20.547033],[144.9025759,20.5471066],[144.9025397,20.5471291],[144.9024795,20.5471658],[144.9024448,20.5472039],[144.9024418,20.5473068],[144.9023952,20.5473449],[144.9023605,20.5473773],[144.902356,20.5474069],[144.902359,20.5474478],[144.9023394,20.5474647],[144.9023168,20.5474817],[144.9023063,20.5475169],[144.9023123,20.5475648],[144.9023274,20.5476156],[144.9023184,20.5476664],[144.9023259,20.54772],[144.9023424,20.5477693],[144.9023334,20.5478187],[144.9023003,20.5478455],[144.9022024,20.5478737],[144.9021361,20.5478878],[144.9020187,20.547923],[144.9019313,20.5479681],[144.9018862,20.5480161],[144.9018877,20.5480654],[144.9019208,20.5481134],[144.901978,20.5481091],[144.9020292,20.5481148],[144.9021316,20.5481599],[144.9021678,20.5481909],[144.9021738,20.5482346],[144.9021632,20.5482755],[144.9020428,20.548346],[144.9019946,20.5483912],[144.901963,20.5483912],[144.9019268,20.5483319],[144.9019313,20.5482755],[144.9019133,20.5482685],[144.9018786,20.5482939],[144.901847,20.5483207],[144.9018289,20.5482953],[144.9017609,20.5483097],[144.9018233,20.5483728],[144.9018655,20.5483743],[144.9019031,20.5484462],[144.9019709,20.5485153],[144.9020718,20.5486224],[144.9020929,20.5486535],[144.9021802,20.5487169],[144.9022011,20.5487594],[144.9022237,20.5487693],[144.9022282,20.5487919],[144.9022102,20.5488088],[144.9022102,20.5488652],[144.9021816,20.5488976],[144.9021334,20.548892],[144.9020987,20.5489089],[144.9020792,20.54893],[144.90204,20.5489089],[144.9019366,20.5489151],[144.9018266,20.5489165],[144.9017973,20.5489207],[144.9017581,20.5489264],[144.9017408,20.5489144],[144.9017423,20.548889],[144.9017348,20.5488417],[144.9016941,20.5488178],[144.9016896,20.5488996],[144.9016474,20.5489729],[144.9016565,20.5490138],[144.9016414,20.5490504],[144.9016309,20.5490547],[144.9015917,20.5490547],[144.9016038,20.5491012],[144.9016324,20.5491618],[144.9017333,20.5491745],[144.9018613,20.5492366],[144.9019079,20.5492817],[144.9019245,20.5493155],[144.9019155,20.5493592],[144.9019546,20.5493762],[144.9020073,20.5493762],[144.9020691,20.5494156],[144.9021007,20.5494692],[144.9021158,20.5495327],[144.9021112,20.5495722],[144.9020706,20.5496046],[144.9020028,20.5496793],[144.9019878,20.549747],[144.9019802,20.549771],[144.9019411,20.5498006],[144.9018959,20.5497682],[144.9018552,20.5497315],[144.9018176,20.5497371],[144.9017995,20.5497696],[144.9018327,20.5498034],[144.9017543,20.5498951],[144.9016583,20.5499088],[144.9016199,20.5498859],[144.9016242,20.5498241],[144.9015827,20.5497971],[144.9015827,20.5497593],[144.9015614,20.5497303],[144.9015443,20.5496855],[144.9015433,20.5496556],[144.9015188,20.5496476],[144.9014996,20.5496356],[144.9014709,20.5496027],[144.901456,20.5495778],[144.9014698,20.5495608],[144.9016146,20.5495369],[144.9016327,20.5494711],[144.9015784,20.5494901],[144.9015241,20.549499],[144.901457,20.54951],[144.9014123,20.549511],[144.9013516,20.549503],[144.9013122,20.549496],[144.9012941,20.5494731],[144.9012728,20.5494691],[144.9012717,20.5494502],[144.9012845,20.5494402],[144.901309,20.5494382],[144.9013378,20.5494203],[144.901342,20.5493884],[144.9013399,20.5493684],[144.9013154,20.5493495],[144.9012515,20.5493854],[144.9012057,20.5493983],[144.9011503,20.5493943],[144.9011078,20.5493445],[144.9010854,20.5493106],[144.9010801,20.5492727],[144.9011099,20.5492139],[144.901112,20.549183],[144.9010833,20.549164],[144.9011035,20.5491012],[144.901046,20.5490503],[144.9010034,20.5490045],[144.900981,20.5489796],[144.900948,20.5489447],[144.9009068,20.5489573],[144.9008844,20.5489483],[144.9008695,20.5489303],[144.9008429,20.5489044],[144.9008184,20.5489174],[144.9008024,20.5489373],[144.9007694,20.5489443],[144.9006959,20.5489313],[144.9006427,20.5489134],[144.9006086,20.5488905],[144.9005692,20.5488815],[144.9005511,20.5488276],[144.9004947,20.5488087],[144.9004042,20.5487957],[144.9002296,20.5487977],[144.9001571,20.5487738],[144.900155,20.5487638],[144.9001412,20.5487608],[144.9001476,20.5487409],[144.9001539,20.548709],[144.900139,20.548696],[144.9001156,20.548692],[144.9000943,20.548701],[144.9000922,20.5487299],[144.9000794,20.5487539],[144.9000602,20.5487439],[144.9000507,20.548713],[144.8999229,20.5486751],[144.8998409,20.548714],[144.8997397,20.5487329],[144.8996609,20.5487349],[144.8996354,20.548716],[144.8996311,20.5486831],[144.8996173,20.5486701],[144.8995917,20.5486691],[144.8995523,20.548694],[144.8995065,20.548694],[144.8994243,20.5486793],[144.8994062,20.5486802],[144.8993817,20.5486603],[144.8993732,20.5486244],[144.8993718,20.5485802],[144.89933,20.5485774],[144.899327,20.5485612],[144.8992583,20.5485576],[144.8992387,20.5485809],[144.8992425,20.5485929],[144.899256,20.5486091],[144.8992741,20.5486197],[144.8992606,20.5486352],[144.8992274,20.5486345],[144.8992272,20.5486666],[144.8992159,20.5486814],[144.8991888,20.548687],[144.8991438,20.5486798],[144.8990714,20.5486459],[144.8989585,20.548624],[144.8987754,20.5487397],[144.8986583,20.5488035],[144.8986157,20.5488234],[144.8985922,20.5488673],[144.8985496,20.5488852],[144.8984645,20.5488753],[144.8983516,20.5489211],[144.8983175,20.548949],[144.8983452,20.5490029],[144.898326,20.5490248],[144.8982685,20.5490428],[144.898211,20.548979],[144.8980875,20.5490129],[144.8980236,20.5490507],[144.897947,20.5490109],[144.8976829,20.5490747],[144.8974912,20.5490727],[144.8974334,20.5490476],[144.8972979,20.5490701],[144.897078,20.5491378],[144.8969395,20.549214],[144.8968431,20.5492309],[144.896551,20.5493606],[144.8963793,20.5494706],[144.8962227,20.5495044],[144.8961293,20.5495806],[144.8960298,20.5497749],[144.8960085,20.5498248],[144.8960351,20.5498557],[144.8961065,20.5498766],[144.8961704,20.5499335],[144.8961906,20.5499624],[144.8961917,20.5499993],[144.896181,20.5500202],[144.8961682,20.5500471],[144.8961778,20.5500641],[144.8961906,20.550088],[144.8961799,20.550107],[144.8961629,20.5501139],[144.8961629,20.5501409],[144.8961927,20.5501797],[144.8962172,20.5502116],[144.8962098,20.5502386],[144.8961693,20.5502705],[144.8961373,20.5502864],[144.8960756,20.5502834],[144.8959627,20.5502804],[144.8958786,20.5502705],[144.8958296,20.5502735],[144.8957923,20.5502675],[144.8957689,20.5502376],[144.8957295,20.5501787],[144.8956729,20.5501537],[144.8956247,20.5502553],[144.8955735,20.5503808],[144.8955047,20.550466],[144.8954664,20.5505278],[144.8954333,20.5505817],[144.8953993,20.5506126],[144.8953737,20.5506505],[144.8954089,20.5507552],[144.8954152,20.550804],[144.8953631,20.550826],[144.895313,20.5508479],[144.8952821,20.5509456],[144.89523,20.5509606],[144.895181,20.5509875],[144.895148,20.5510433],[144.8951277,20.5511211],[144.8950702,20.5512018],[144.8950362,20.5512497],[144.8950095,20.5512986],[144.8949936,20.5513943],[144.8949893,20.5514671],[144.8949797,20.5515159],[144.8949233,20.5515478],[144.8948839,20.5515508],[144.8948658,20.5515767],[144.8948573,20.5516186],[144.8948551,20.5516675],[144.8948913,20.5517004],[144.8948615,20.5517572],[144.8948424,20.5517961],[144.8948125,20.551827],[144.8948062,20.5519137],[144.8947657,20.5519546],[144.8947487,20.5519935],[144.8947423,20.5520523],[144.8947401,20.5521122],[144.8947678,20.5521351],[144.8947894,20.5521823],[144.8947947,20.5522134],[144.8948082,20.5522261],[144.8948157,20.5522507],[144.894815,20.5522691],[144.8947698,20.5522966],[144.8947465,20.5523085],[144.8947254,20.5522937],[144.8947194,20.5523748],[144.8947111,20.5523931],[144.8946945,20.552403],[144.8946877,20.5524221],[144.8946945,20.5524608],[144.8946779,20.5524749],[144.8946501,20.5524756],[144.8946267,20.5524601],[144.89462,20.5524432],[144.8946102,20.5524122],[144.8945996,20.5524094],[144.8945861,20.5523642],[144.8945635,20.5523586],[144.894553,20.5523318],[144.8945153,20.5523628],[144.8944852,20.5523896],[144.8944686,20.5524016],[144.8944573,20.5524009],[144.89444,20.5523903],[144.8944106,20.5523664],[144.8943978,20.5523593],[144.8943835,20.5523635],[144.8943828,20.5523762],[144.8944046,20.5524009],[144.8944122,20.5524256],[144.8944122,20.5524503],[144.8943798,20.5524799],[144.8943331,20.5524926],[144.8942676,20.5524707],[144.8942104,20.5524524],[144.8941629,20.5524496],[144.8941313,20.5524601],[144.8941042,20.5524862],[144.8940974,20.5525137],[144.8941065,20.5525461],[144.8941434,20.5526244],[144.894178,20.5526857],[144.894184,20.5527231],[144.8941631,20.5527848],[144.894194,20.5527978],[144.894226,20.5528128],[144.8942473,20.5528377],[144.8942462,20.5528845],[144.8942249,20.5529085],[144.8942036,20.5529214],[144.8941738,20.5528955],[144.8941504,20.5528826],[144.8940939,20.5528845],[144.8940779,20.5529384],[144.8940524,20.5529394],[144.8940279,20.5529354],[144.8940077,20.5529135],[144.8940066,20.5528806],[144.8939949,20.5528596],[144.8939725,20.5528536],[144.8939427,20.5528217],[144.8938895,20.5528237],[144.8938522,20.5528556],[144.8938213,20.5528367],[144.8938096,20.5528098],[144.8937777,20.5528028],[144.8937734,20.5528327],[144.8937479,20.5528437],[144.8937351,20.5528247],[144.8937127,20.5528227],[144.8936584,20.5527629],[144.8936392,20.5527729],[144.8936034,20.5527446],[144.8935657,20.5527742],[144.8936365,20.552894],[144.8936421,20.5529227],[144.8936467,20.5529411],[144.8936549,20.552946],[144.89367,20.5529439],[144.8936933,20.5529545],[144.8937212,20.5529791],[144.8937333,20.5530052],[144.8937483,20.5530433],[144.8937732,20.5530553],[144.8938055,20.5530807],[144.8938198,20.5531089],[144.8938146,20.5531448],[144.8937553,20.5531837],[144.8937521,20.5532116],[144.8937585,20.5532405],[144.893783,20.5532465],[144.8938107,20.5532405],[144.8938187,20.553248],[144.8938172,20.5533706],[144.893766,20.5534538],[144.8937043,20.5534989],[144.8936395,20.5536047],[144.8935763,20.5536738],[144.8935025,20.5537147],[144.8934483,20.5537302],[144.8933895,20.553709],[144.8933534,20.5536428],[144.8932392,20.5535852],[144.8930618,20.5534902],[144.8930016,20.5534437],[144.8929383,20.5533718],[144.8928721,20.5533239],[144.8927636,20.55329],[144.892717,20.5532858],[144.8926748,20.5533196],[144.89261,20.5533281],[144.8925317,20.5533224],[144.8924526,20.5532763],[144.8924262,20.5532834],[144.8924074,20.5533158],[144.8923675,20.5533193],[144.8923502,20.5532968],[144.8923404,20.5532615],[144.8923426,20.5532213],[144.8923494,20.5531945],[144.8923359,20.553179],[144.8923178,20.5531875],[144.8923012,20.553215],[144.8922847,20.5532545],[144.8922673,20.5532601],[144.8922591,20.5532383],[144.8922636,20.5531593],[144.8922463,20.5530881],[144.8922192,20.5530331],[144.892192,20.5530134],[144.8921461,20.5530239],[144.8920979,20.5530359],[144.8920701,20.5530599],[144.8920452,20.5530641],[144.8919752,20.5530824],[144.8919285,20.5531304],[144.8918698,20.5532079],[144.8918495,20.5532312],[144.8918118,20.5532495],[144.891784,20.5532418],[144.8917666,20.5532016],[144.8917486,20.5531579],[144.8917463,20.553105],[144.8917538,20.5530514],[144.8918005,20.5529132],[144.8918073,20.5528533],[144.8917983,20.5528209],[144.8917968,20.5527581],[144.8917779,20.5527109],[144.8917719,20.5526355],[144.891528,20.5525678],[144.8912704,20.5525255],[144.8912328,20.5525241],[144.8911665,20.5525452],[144.8911274,20.5524916],[144.8910581,20.5524592],[144.8909979,20.552431],[144.8909331,20.5523267],[144.8907524,20.5521828],[144.8907178,20.5521772],[144.8906575,20.5521913],[144.8906184,20.5521871],[144.8905973,20.5521504],[144.8905702,20.5520996],[144.890382,20.5520291],[144.8902374,20.5519854],[144.8901275,20.5519262],[144.8897992,20.5517655],[144.8895086,20.5516287],[144.8894333,20.5515977],[144.8893851,20.5515624],[144.8892209,20.5514694],[144.8890959,20.5513819],[144.8890206,20.5512818],[144.8888049,20.5511523],[144.8885664,20.5509808],[144.8883673,20.5508044],[144.8882727,20.5506954],[144.8882311,20.5506884],[144.8881726,20.5506924],[144.8881566,20.5506695],[144.8881758,20.5506157],[144.8881236,20.5505738],[144.8880725,20.5505548],[144.8880416,20.5505299],[144.8880097,20.5504531],[144.8880097,20.5504003],[144.8880065,20.5503734],[144.8879777,20.5503754],[144.8879372,20.5504152],[144.8879042,20.5504242],[144.8878776,20.5504172],[144.8878521,20.5503933],[144.8878521,20.5503415],[144.8878936,20.5502727],[144.8878425,20.5501909],[144.8878265,20.550146],[144.8878297,20.5500792],[144.8878095,20.5500483],[144.8877743,20.5500364],[144.8876689,20.5499716],[144.8875635,20.5499406],[144.8875369,20.5499476],[144.8875188,20.5499925],[144.8875273,20.5500463],[144.8875624,20.5500852],[144.8875188,20.5501131],[144.8874506,20.5501311],[144.8873814,20.5501091],[144.8873282,20.5500623],[144.8872845,20.5500124],[144.8872845,20.5499745],[144.8873388,20.5499038],[144.8873761,20.5498449],[144.8873835,20.549807],[144.8873825,20.5497781],[144.887358,20.5497691],[144.8873292,20.5497841],[144.8873154,20.549821],[144.8872845,20.5498479],[144.8872536,20.5498399],[144.8872281,20.549804],[144.8872515,20.5497582],[144.887374,20.5496924],[144.8874048,20.5496724],[144.8874059,20.5496286],[144.8873761,20.5495867],[144.8871706,20.5496146],[144.8871557,20.5495887],[144.8871344,20.5495259],[144.8871738,20.549453],[144.8872039,20.5493875],[144.8872122,20.5493184],[144.8871956,20.5492613],[144.8871497,20.54925],[144.8871437,20.5492352],[144.8871504,20.549219],[144.8871715,20.5492063],[144.887201,20.5491979],[144.887189,20.5491584],[144.8871317,20.5491331],[144.8871016,20.549047],[144.8871167,20.5489554],[144.8870866,20.5489145],[144.8870308,20.5488694],[144.8870158,20.5488158],[144.8870519,20.5487594],[144.887061,20.5486818],[144.8870278,20.5486043],[144.8869525,20.548483],[144.8868803,20.5483829],[144.8868486,20.5483519],[144.886811,20.5482814],[144.886811,20.5482137],[144.886823,20.548139],[144.886811,20.54806],[144.8867824,20.5480064],[144.8867643,20.5479331],[144.8867447,20.5476976],[144.8867146,20.5474607],[144.8867026,20.5474226],[144.886677,20.547393],[144.8866559,20.5473634],[144.8866378,20.547307],[144.8866544,20.5472562],[144.8867011,20.5471547],[144.8866996,20.5470814],[144.8866484,20.5470588],[144.8866092,20.5470391],[144.8865926,20.5469883],[144.8866092,20.5469418],[144.8866634,20.5468713],[144.886683,20.5466753],[144.886677,20.546437],[144.8866845,20.5462325],[144.8866709,20.5461493],[144.8866393,20.5461014],[144.8866288,20.5460365],[144.8866438,20.5459998],[144.8866619,20.545935],[144.8866514,20.5458884],[144.8866694,20.5458461],[144.8867372,20.5458433],[144.8867703,20.5458095],[144.8867794,20.5455966],[144.8867688,20.5454654],[144.8867432,20.5453695],[144.8867071,20.5452877],[144.8866408,20.5451989],[144.8866378,20.5451411],[144.8866724,20.5449888],[144.8867086,20.544821],[144.8867523,20.5446715],[144.8867643,20.5445517],[144.8867643,20.5443824],[144.8867477,20.5440454],[144.8867146,20.5438903],[144.8866649,20.5438269],[144.8866468,20.5437719],[144.886674,20.5436111],[144.8866996,20.5433855],[144.8866619,20.5432177],[144.8866182,20.5429512],[144.8866167,20.5428778],[144.8866484,20.5428073],[144.8866303,20.5426381],[144.886558,20.5424196],[144.8865294,20.542349],[144.8864947,20.5422503],[144.8864978,20.5421587],[144.8865339,20.5420529],[144.8865143,20.5417977],[144.8864451,20.5414818],[144.8863652,20.5410024],[144.8863532,20.5407884],[144.8863894,20.5406109],[144.8864043,20.5404194],[144.8864288,20.5403297],[144.8864235,20.5402789],[144.8864171,20.5402569],[144.8864437,20.540238],[144.8864629,20.5401801],[144.8864501,20.5401562],[144.8863543,20.5401472],[144.8863,20.5401273],[144.8862552,20.5400944],[144.8862456,20.5400565]]]}}
