{"type":"Feature","id":"island-overseas-パガン島","properties":{"id":"island-overseas-パガン島","kind":"island","name":"パガン島","shortName":"パガン島","context":"北マリアナ諸島・アメリカ合衆国","aliases":["Pagan Island","Pagan","Pågan"],"osmType":"relation","osmId":7262520,"officialAreaKm2":null,"boundarySourceLabel":"© OpenStreetMap contributors","boundarySourceUrl":"https://www.openstreetmap.org/copyright","geometryFile":"natural-features/R7262520.geojson"},"geometry":{"type":"Polygon","coordinates":[[[145.7078179,18.048134],[145.7080191,18.047982],[145.7079681,18.0475729],[145.7081827,18.0469609],[145.7082256,18.0466548],[145.7084831,18.0460632],[145.7084402,18.0457572],[145.7086091,18.0455133],[145.7088049,18.0451859],[145.7091805,18.0449513],[145.7098135,18.0446146],[145.7107043,18.0447468],[145.71123,18.044859],[145.7115304,18.0451753],[145.7122385,18.0453283],[145.71329,18.0456955],[145.7149939,18.0459334],[145.7160338,18.0461236],[145.7170558,18.0464708],[145.7190299,18.0468789],[145.7195663,18.0472359],[145.7209755,18.047857],[145.7210573,18.0477721],[145.7211723,18.0477636],[145.7212389,18.0478695],[145.72119,18.0479958],[145.7218351,18.0481197],[145.7222071,18.0482778],[145.7228573,18.0484255],[145.7231937,18.0483796],[145.7234761,18.0480121],[145.7241088,18.0481827],[145.7245254,18.0484283],[145.7256192,18.0489995],[145.7264356,18.0492663],[145.7272666,18.0493729],[145.7275783,18.0493153],[145.7286565,18.0495902],[145.7291962,18.0498999],[145.7307363,18.0510576],[145.7310697,18.0514574],[145.7317377,18.0521061],[145.7320527,18.0523933],[145.7324067,18.052754],[145.7330746,18.0534026],[145.7337758,18.0544697],[145.7340064,18.0549541],[145.7343884,18.0548486],[145.7346464,18.0549823],[145.7347575,18.0551638],[145.7348104,18.0554744],[145.7350793,18.0556999],[145.7349195,18.0559778],[145.7349275,18.0562063],[145.7354738,18.0567664],[145.7358483,18.0569108],[145.7367225,18.0572478],[145.7368308,18.0570535],[145.7372578,18.0569229],[145.7372643,18.0573477],[145.7374889,18.057423],[145.738041,18.0578506],[145.7389664,18.0583882],[145.7394749,18.0589319],[145.7400505,18.0598749],[145.7400409,18.0600723],[145.7403526,18.0599136],[145.7407028,18.060108],[145.7405124,18.0604517],[145.7407173,18.0605772],[145.7407345,18.0610494],[145.7412237,18.0616436],[145.7414705,18.0620898],[145.7415,18.0622979],[145.7415783,18.0623851],[145.7419764,18.0625203],[145.7421561,18.062707],[145.742177,18.0632124],[145.7426303,18.0636714],[145.7428899,18.0638789],[145.7431147,18.0640865],[145.7432923,18.0639636],[145.7440722,18.063498],[145.7444462,18.0635213],[145.7438743,18.0640452],[145.743819,18.0644231],[145.7441554,18.0645608],[145.7437402,18.0650412],[145.7435567,18.0651269],[145.7432552,18.0652646],[145.742943,18.0656134],[145.7428427,18.0659592],[145.7431555,18.0661642],[145.7434628,18.0661148],[145.7437166,18.0660826],[145.743288,18.0666115],[145.7435991,18.0669675],[145.7440878,18.0669323],[145.7453388,18.0671715],[145.7460925,18.0679222],[145.7462105,18.0681813],[145.7459975,18.0685418],[145.7459847,18.0689182],[145.745717,18.0689825],[145.7459938,18.069191],[145.7456215,18.069674],[145.7456564,18.0699698],[145.7458371,18.070138],[145.7460141,18.0702278],[145.7458071,18.0703043],[145.7457186,18.0703824],[145.7454981,18.0703538],[145.7452873,18.0704553],[145.7450044,18.0710434],[145.7450259,18.0718696],[145.7451868,18.0723693],[145.7459915,18.0738177],[145.7466579,18.0745784],[145.7471716,18.0752354],[145.7475579,18.0762553],[145.7475793,18.0764185],[145.7479604,18.076856],[145.7483606,18.077114],[145.7485205,18.0774553],[145.7488024,18.0779076],[145.748899,18.0782238],[145.7491878,18.0783606],[145.7492745,18.0786929],[145.7493156,18.0792633],[145.7499634,18.0798504],[145.7506522,18.0803374],[145.751421,18.0809524],[145.7519735,18.0813987],[145.7527943,18.0823765],[145.7533237,18.0836678],[145.7535912,18.0839269],[145.7541885,18.0848234],[145.754535,18.0853665],[145.7547759,18.0856337],[145.754999,18.0859576],[145.7552211,18.086365],[145.7559732,18.0874282],[145.7563348,18.088112],[145.7566448,18.0883644],[145.756839,18.088752],[145.7573122,18.0894638],[145.7577219,18.0901348],[145.7580133,18.0907371],[145.7581043,18.0913293],[145.7584798,18.0917678],[145.7588882,18.0923602],[145.7591827,18.0929771],[145.7595416,18.0932296],[145.7598518,18.093625],[145.7602508,18.0942718],[145.7608194,18.0954625],[145.7613832,18.0965731],[145.7623901,18.0973798],[145.7627603,18.0978938],[145.7635113,18.0991165],[145.7639758,18.1000522],[145.7643814,18.1005661],[145.7648229,18.1010328],[145.7653785,18.1015248],[145.7660425,18.1020564],[145.7663652,18.102313],[145.7667085,18.1025884],[145.7670491,18.1027831],[145.7671781,18.1028941],[145.7674273,18.1031085],[145.7676714,18.1032013],[145.7677921,18.1031492],[145.7680791,18.1030585],[145.7683151,18.1030789],[145.7686584,18.1031809],[145.7690447,18.1033032],[145.7692834,18.103343],[145.7696053,18.1031594],[145.7700559,18.1032818],[145.7706781,18.1035775],[145.7710617,18.1037621],[145.7715043,18.1041792],[145.7716437,18.1042506],[145.7717725,18.1041894],[145.7717913,18.104527],[145.7720488,18.1045779],[145.7723062,18.1046799],[145.7725128,18.1048115],[145.7726925,18.1050062],[145.7729071,18.1049451],[145.7731967,18.1050776],[145.7733255,18.1052408],[145.7734247,18.1054539],[145.7734328,18.1055875],[145.7736152,18.1058832],[145.7738646,18.1060556],[145.7741516,18.1063115],[145.7743555,18.1065869],[145.7747122,18.1068],[145.7749885,18.1069642],[145.7753559,18.1071875],[145.7758494,18.1073303],[145.7762759,18.1074741],[145.7772656,18.1076974],[145.7775956,18.1077902],[145.7778316,18.1078922],[145.778242,18.1079319],[145.7785397,18.1080349],[145.7788642,18.1080951],[145.7791647,18.1081563],[145.7804843,18.1085336],[145.7813507,18.1087691],[145.7818898,18.1088497],[145.7823189,18.1088905],[145.7826944,18.1089211],[145.7831558,18.1089517],[145.7835608,18.1089731],[145.7842501,18.1090027],[145.7845505,18.1089925],[145.7849153,18.1089109],[145.785256,18.1088303],[145.78572,18.1088395],[145.7860418,18.1087273],[145.7862779,18.108605],[145.7867929,18.108401],[145.786986,18.1082276],[145.7872113,18.1080849],[145.7873937,18.1079727],[145.7877799,18.1078299],[145.7880481,18.1076362],[145.788252,18.1075342],[145.7885524,18.107422],[145.7889064,18.1071059],[145.7891505,18.1069336],[145.7890459,18.1067286],[145.7889815,18.1066674],[145.7888957,18.1065451],[145.7892176,18.1062595],[145.7892712,18.1064941],[145.7893463,18.1063819],[145.7894429,18.1065145],[145.7895716,18.1063513],[145.7895502,18.1062085],[145.7895716,18.1060862],[145.7897755,18.1060148],[145.7899257,18.1060556],[145.790041,18.1058628],[145.7900437,18.1056783],[145.7910629,18.1052602],[145.7914706,18.1050766],[145.7916208,18.104995],[145.7918676,18.1047605],[145.7920714,18.1045667],[145.7923075,18.1043424],[145.7926937,18.1039243],[145.7930451,18.1033848],[145.7930263,18.103241],[145.7929298,18.1032002],[145.7931524,18.1031197],[145.7932382,18.103242],[145.7933133,18.1031299],[145.7934018,18.1030269],[145.7934957,18.1029973],[145.7935091,18.1031085],[145.7937022,18.1029249],[145.7938417,18.1027719],[145.7938524,18.1026598],[145.7938953,18.1025986],[145.7940992,18.102568],[145.7941636,18.1027107],[145.7942709,18.1026699],[145.794346,18.1024558],[145.7946142,18.102262],[145.7947188,18.1021203],[145.7950085,18.1019061],[145.7951292,18.1016604],[145.7953545,18.1011505],[145.7955342,18.1010291],[145.7957836,18.1005998],[145.7958775,18.1005498],[145.7960089,18.1005488],[145.7959982,18.1008649],[145.7960948,18.1010383],[145.7962745,18.1010903],[145.7964569,18.1013249],[145.7962879,18.1013238],[145.7966097,18.1016604],[145.7967814,18.1016706],[145.7969182,18.1018042],[145.7970577,18.1019265],[145.7969101,18.1020479],[145.7967385,18.1022009],[145.7964381,18.102262],[145.7961377,18.1022824],[145.7958802,18.1023844],[145.7956871,18.1023028],[145.795569,18.1024762],[145.7957622,18.1025782],[145.7959955,18.1027627],[145.7956441,18.1030167],[145.7954296,18.1032614],[145.7953625,18.1035072],[145.7952257,18.1035572],[145.7953196,18.1037621],[145.7951935,18.1037713],[145.7951158,18.1039865],[145.7950943,18.1041088],[145.7949575,18.10422],[145.7949897,18.104373],[145.7951694,18.104425],[145.7951399,18.1045769],[145.7949253,18.1047401],[145.7947215,18.1047911],[145.7944103,18.1050562],[145.7942279,18.1053112],[145.7941072,18.1058017],[145.7939678,18.1065257],[145.7940241,18.1072079],[145.794236,18.1074129],[145.7944854,18.1076872],[145.7947617,18.107831],[145.7949334,18.1078514],[145.7951479,18.1077086],[145.7952767,18.1078718],[145.79562,18.1078106],[145.7958373,18.1078503],[145.7958453,18.1080247],[145.7961699,18.1081053],[145.7963818,18.1080655],[145.7966929,18.1080349],[145.7969611,18.1080043],[145.7970925,18.1079013],[145.7974117,18.107882],[145.797511,18.1080543],[145.7976263,18.1082287],[145.7977577,18.1083704],[145.7978543,18.108503],[145.7975834,18.1087793],[145.7974037,18.1088905],[145.7973071,18.1091658],[145.797114,18.1093596],[145.7969423,18.1095227],[145.7969718,18.1096563],[145.7970148,18.1098603],[145.7970925,18.1100326],[145.7973929,18.1101753],[145.7976907,18.1103599],[145.7977255,18.1102467],[145.7982727,18.1104609],[145.7983156,18.1103181],[145.7983907,18.1102467],[145.7984846,18.1102172],[145.798667,18.1101866],[145.7988387,18.1102477],[145.7989996,18.1104619],[145.7991176,18.1109412],[145.7991632,18.1112053],[145.7992383,18.1113378],[145.7994502,18.1111655],[145.7995468,18.1113695],[145.7995494,18.1115316],[145.7997533,18.1116642],[145.7996111,18.1118793],[145.7997506,18.1118895],[145.8000081,18.1118181],[145.8000403,18.1119405],[145.8002012,18.1123382],[145.8001047,18.1124911],[145.8003514,18.1125625],[145.8004694,18.1126339],[145.8005258,18.1127858],[145.8007591,18.1127869],[145.8009764,18.1127858],[145.8008879,18.11295],[145.8004829,18.1129898],[145.8005016,18.113154],[145.8006626,18.1132457],[145.8004936,18.1133467],[145.8005445,18.1134599],[145.8006652,18.1134487],[145.8006196,18.1136944],[145.8005365,18.1138769],[145.8006411,18.1140207],[145.8007833,18.1141115],[145.8009978,18.1143664],[145.8012017,18.1144276],[145.8013277,18.1145102],[145.8011588,18.1147539],[145.8013841,18.1154473],[145.8015531,18.1159989],[145.8017462,18.1162335],[145.8017998,18.116366],[145.8019715,18.1164272],[145.8019742,18.1165894],[145.8024462,18.1164058],[145.8024006,18.11657],[145.8021351,18.1166607],[145.802229,18.1168147],[145.8025321,18.1168137],[145.802693,18.1167831],[145.8028512,18.1172226],[145.8028834,18.1174673],[145.803098,18.1175591],[145.8032723,18.1177212],[145.803326,18.1179965],[145.803047,18.1181189],[145.8032723,18.1182311],[145.803444,18.1185574],[145.8036559,18.11864],[145.8038517,18.1184554],[145.804077,18.1183636],[145.8041816,18.1185482],[145.8039268,18.1188327],[145.8037981,18.1189958],[145.8039778,18.1190274],[145.8043452,18.1190876],[145.8044498,18.1190886],[145.8043747,18.1193027],[145.8040126,18.1193221],[145.8037981,18.1194853],[145.8039268,18.1195261],[145.8041602,18.1194863],[145.8041923,18.1197412],[145.804128,18.1199451],[145.8039912,18.1200359],[145.8037122,18.1200767],[145.8037659,18.1202296],[145.8041709,18.1203938],[145.8038517,18.1205865],[145.8037337,18.1207395],[145.8040851,18.1207507],[145.8039053,18.120923],[145.8036157,18.1214226],[145.8037873,18.1215348],[145.8037766,18.1217795],[145.8037981,18.1218815],[145.803967,18.1220865],[145.8041065,18.1226575],[145.8044391,18.1230857],[145.8047717,18.1235344],[145.8053081,18.1243501],[145.8056086,18.1245132],[145.8063381,18.1243603],[145.8063274,18.1245336],[145.8057078,18.124655],[145.8056193,18.1249415],[145.8058687,18.1248283],[145.8060511,18.1251036],[145.8065017,18.1250424],[145.8061799,18.1253687],[145.8056434,18.1256134],[145.805858,18.1257358],[145.8058875,18.1260733],[145.8060592,18.1263588],[145.8059116,18.1266841],[145.8062845,18.1273274],[145.8065312,18.1278679],[145.8068316,18.1279392],[145.8068665,18.128213],[145.8069818,18.1283981],[145.8071455,18.1285189],[145.8072715,18.1287039],[145.8074459,18.1288859],[145.8076497,18.1291409],[145.8079179,18.129355],[145.8080038,18.1295793],[145.8082693,18.129591],[145.8084624,18.1295706],[145.8084115,18.1298852],[145.8085939,18.1299769],[145.8087441,18.1299158],[145.8087011,18.1302013],[145.8088513,18.1305683],[145.8090096,18.1310083],[145.8091732,18.1316899],[145.8092778,18.1319769],[145.8093878,18.1322813],[145.8092778,18.1326499],[145.809259,18.1331377],[145.8090874,18.1334232],[145.8092456,18.1335777],[145.8091383,18.1338122],[145.8090096,18.1341691],[145.8088728,18.1345856],[145.8090311,18.13474],[145.8089479,18.1354318],[145.8089264,18.1375322],[145.8088835,18.1381337],[145.809141,18.1394387],[145.8093985,18.1403563],[145.8096533,18.1408473],[145.8094522,18.1423955],[145.8098277,18.1430276],[145.8100852,18.1430378],[145.8102327,18.1430189],[145.8097928,18.143233],[145.8099645,18.1434369],[145.8100315,18.1436801],[145.8096855,18.1437632],[145.8093556,18.143833],[145.8094843,18.1442204],[145.8090552,18.1447098],[145.80931,18.144956],[145.8096238,18.1450666],[145.8092912,18.1454235],[145.8092054,18.1457395],[145.809023,18.1463105],[145.808787,18.1466163],[145.8084222,18.1470241],[145.8081647,18.1476154],[145.8076926,18.1482985],[145.8073359,18.1491972],[145.8070814,18.1501999],[145.807017,18.1510155],[145.807017,18.1512908],[145.8068668,18.1522746],[145.8071267,18.1523781],[145.806896,18.1532344],[145.8068185,18.1535438],[145.8068078,18.1538395],[145.80684,18.1550679],[145.8069633,18.1555063],[145.8070623,18.1557219],[145.8071404,18.1559498],[145.806955,18.1562572],[145.806958,18.1564697],[145.8069633,18.1566838],[145.806601,18.1569402],[145.806263,18.1571186],[145.8056676,18.1577456],[145.8047824,18.1586988],[145.8047854,18.1590489],[145.8046269,18.1593512],[145.8044421,18.1595179],[145.8042353,18.1597539],[145.8036344,18.1602075],[145.8027386,18.1611505],[145.8026986,18.1614089],[145.8028113,18.1616995],[145.8027225,18.1617673],[145.8025323,18.1617301],[145.8023553,18.1618779],[145.8022212,18.1621073],[145.8015691,18.1626134],[145.8008074,18.1631486],[145.7999223,18.1636532],[145.7992118,18.163983],[145.7987904,18.1642343],[145.7986646,18.1644621],[145.7987826,18.1645437],[145.7987182,18.1646915],[145.7985222,18.1646828],[145.7983749,18.1645641],[145.7982378,18.1644586],[145.7980555,18.1646064],[145.797758,18.1647221],[145.7969289,18.1652129],[145.7965159,18.1653302],[145.796253,18.165427],[145.7959633,18.1656207],[145.7960092,18.1657874],[145.7958268,18.1658893],[145.795682,18.1657415],[145.7950138,18.1659163],[145.7947164,18.1661696],[145.7945501,18.1663786],[145.7940405,18.1663633],[145.7937746,18.1661508],[145.7933753,18.1659556],[145.7927315,18.165925],[145.7924794,18.1658078],[145.7922512,18.1658654],[145.7920795,18.1657634],[145.7919507,18.1657736],[145.7910203,18.1659097],[145.7906931,18.1659811],[145.7898187,18.1660167],[145.7892524,18.166059],[145.7885634,18.1661798],[145.787866,18.1663684],[145.7873081,18.1664857],[145.7863557,18.1668134],[145.785492,18.1670071],[145.7845532,18.167109],[145.7842313,18.1671192],[145.7840543,18.1672059],[145.7840251,18.167398],[145.7841485,18.1675611],[145.7837271,18.1678226],[145.7831829,18.168183],[145.7828825,18.1685499],[145.782622,18.1686483],[145.782287,18.1686723],[145.7819222,18.168764],[145.7816272,18.1687793],[145.7811015,18.1688405],[145.7807928,18.1689592],[145.7805919,18.1690189],[145.7804387,18.1688675],[145.7803183,18.1689832],[145.780447,18.1691463],[145.7802724,18.1691529],[145.7800018,18.1692635],[145.7798266,18.169528],[145.7793765,18.169525],[145.7790037,18.1694113],[145.7787784,18.169238],[145.7784566,18.1691565],[145.7782178,18.1690765],[145.7779845,18.1690342],[145.7775661,18.1689628],[145.7767614,18.168657],[145.7765978,18.1683017],[145.7758682,18.168159],[145.7753452,18.1682696],[145.7747444,18.1685754],[145.7741865,18.1686264],[145.7735749,18.1684123],[145.7731967,18.1681386],[145.7728856,18.1683119],[145.7723411,18.1684837],[145.7718985,18.1686177],[145.7714506,18.1685958],[145.7710429,18.1685143],[145.7705923,18.1682696],[145.7703134,18.1680046],[145.7698306,18.1675866],[145.7685431,18.1667507],[145.7664295,18.1654866],[145.7656892,18.1650483],[145.7654076,18.1649887],[145.7649704,18.1650585],[145.7649033,18.1647338],[145.7646378,18.1643857],[145.7641872,18.1639168],[145.7637259,18.1635396],[145.7618162,18.1620002],[145.7612234,18.1614716],[145.7609149,18.1612153],[145.7604214,18.1608992],[145.7597669,18.1604201],[145.7596382,18.160624],[145.7592412,18.1606954],[145.7591876,18.1603182],[145.7592197,18.1599613],[145.7589193,18.1597065],[145.7587477,18.159472],[145.7586726,18.1592375],[145.7585116,18.1590133],[145.7583614,18.1589623],[145.7580718,18.1589113],[145.7581764,18.1587497],[145.758458,18.1586055],[145.7583936,18.1584628],[145.7584365,18.1582283],[145.7578545,18.1575774],[145.757546,18.1576064],[145.7570713,18.1570778],[145.7567736,18.1572598],[145.7565483,18.1576166],[145.7564195,18.1574535],[145.7566019,18.1572292],[145.7568138,18.1569555],[145.7565375,18.156485],[145.7563015,18.1566685],[145.7562988,18.1565273],[145.7563873,18.1559855],[145.75628,18.1560874],[145.755926,18.1562403],[145.7557972,18.156118],[145.7558831,18.1558529],[145.7560762,18.1556694],[145.7562371,18.1555165],[145.7561272,18.1553549],[145.75569,18.155282],[145.7558616,18.1545276],[145.7556685,18.1544665],[145.7553681,18.1543033],[145.7554512,18.1541214],[145.7553681,18.1539567],[145.7557302,18.1539786],[145.7558187,18.1534368],[145.7554834,18.1534689],[145.7555719,18.1533043],[145.7555398,18.1529678],[145.7553466,18.1527639],[145.755647,18.1527028],[145.7555612,18.1524173],[145.7558294,18.1520605],[145.7558294,18.1517954],[145.7557731,18.1507061],[145.7560547,18.1499195],[145.7555693,18.1497478],[145.7551428,18.1496035],[145.7550462,18.1492671],[145.7555612,18.1490734],[145.7558509,18.1487573],[145.7557221,18.1482679],[145.7557221,18.1480844],[145.7556041,18.1479723],[145.7553359,18.1477378],[145.7553466,18.1475441],[145.7551642,18.1473912],[145.7551428,18.1471057],[145.7553145,18.1467794],[145.7554003,18.1465144],[145.755529,18.1463105],[145.755926,18.146025],[145.7561191,18.1457701],[145.7558294,18.1455356],[145.7559662,18.1454454],[145.7561298,18.1455356],[145.7563122,18.1454235],[145.7565483,18.1454439],[145.7567521,18.1452502],[145.7567923,18.1449866],[145.7566985,18.1448322],[145.7564946,18.1446384],[145.7564919,18.1443953],[145.7564088,18.1441898],[145.7565912,18.1441389],[145.7568379,18.1440675],[145.7570418,18.1438024],[145.7573181,18.1436408],[145.7574602,18.1437514],[145.7578894,18.1437412],[145.7582327,18.1435985],[145.7582688,18.143467],[145.7585819,18.1434471],[145.7586361,18.1435007],[145.7587386,18.1434587],[145.7588264,18.1434454],[145.7588873,18.1434066],[145.7589486,18.1433406],[145.7589874,18.143376],[145.7590671,18.143539],[145.7591057,18.143632],[145.7592407,18.1436715],[145.7593144,18.1436698],[145.7594106,18.1436362],[145.7597203,18.143505],[145.7598265,18.143399],[145.7599114,18.1432376],[145.7599915,18.1431455],[145.7600205,18.1431017],[145.7599981,18.1430762],[145.7599875,18.1430425],[145.7599999,18.1429921],[145.7600512,18.1429786],[145.7601096,18.1429686],[145.7601636,18.1429783],[145.7603414,18.1428441],[145.7605611,18.1426141],[145.7607431,18.1423514],[145.7608847,18.1419798],[145.7609578,18.1418276],[145.7610422,18.1416502],[145.7611643,18.1412937],[145.7612439,18.1410145],[145.7614863,18.1401327],[145.7618399,18.1389425],[145.7621594,18.1377514],[145.7622989,18.1372262],[145.7624543,18.1364508],[145.7625473,18.1357243],[145.7624013,18.1353914],[145.7619907,18.1350362],[145.7618934,18.1346864],[145.7619093,18.1346561],[145.7618447,18.1345226],[145.7617801,18.1344123],[145.7617748,18.1343215],[145.7616163,18.1341268],[145.7615586,18.1341675],[145.7613977,18.1339942],[145.7611912,18.1339447],[145.7609015,18.1338122],[145.7607406,18.1335573],[145.7604214,18.1335558],[145.7605609,18.133362],[145.7604428,18.1332091],[145.7603651,18.1328742],[145.7606145,18.1326789],[145.7602497,18.1326177],[145.7602068,18.1322099],[145.7604214,18.1317613],[145.7607432,18.1314146],[145.7606225,18.1310593],[145.760762,18.1308248],[145.760475,18.1305479],[145.7608398,18.1301401],[145.7607969,18.1296915],[145.7606333,18.1294585],[145.7604106,18.129406],[145.7604294,18.1289996],[145.7602926,18.1288146],[145.7602819,18.1286208],[145.7606038,18.1284271],[145.7605367,18.1282451],[145.7602113,18.1277768],[145.7598501,18.127511],[145.7595249,18.12729],[145.7592922,18.1270827],[145.7586542,18.1268226],[145.7583698,18.1266769],[145.75808,18.1265873],[145.7579257,18.1265619],[145.7577633,18.1265543],[145.7576049,18.1265773],[145.7574066,18.1267962],[145.7571357,18.1273376],[145.7567199,18.1282436],[145.7564624,18.1284067],[145.7564168,18.1281839],[145.7559448,18.1282247],[145.7556363,18.1280499],[145.7556685,18.1277746],[145.7559555,18.1275212],[145.7560333,18.1272652],[145.7562586,18.1269899],[145.7562049,18.1267146],[145.7563981,18.1262558],[145.757082,18.1259509],[145.7565483,18.1257664],[145.7565483,18.1255625],[145.7568245,18.1254819],[145.7568889,18.1251556],[145.7568567,18.1250231],[145.7572242,18.1247365],[145.7575246,18.124655],[145.7576104,18.1249405],[145.7578143,18.1251342],[145.7581683,18.125175],[145.7584687,18.1251138],[145.7587691,18.125073],[145.7590481,18.1248283],[145.7592519,18.1245326],[145.7595067,18.1242073],[145.7596355,18.1237587],[145.7596382,18.1233702],[145.7596596,18.1229419],[145.7594987,18.1225647],[145.7593244,18.122168],[145.7591339,18.1218815],[145.7587584,18.1218917],[145.7584982,18.1219029],[145.7581254,18.1220344],[145.7576185,18.1219233],[145.7576077,18.1216684],[145.757589,18.1214634],[145.7577472,18.1212299],[145.7578894,18.1209128],[145.7579859,18.1206375],[145.7578867,18.1203836],[145.7577177,18.1202194],[145.7576963,18.1199543],[145.7576966,18.1192299],[145.7576644,18.1186691],[145.7575142,18.1184244],[145.757546,18.117813],[145.7576614,18.1175081],[145.7578143,18.1172012],[145.7579859,18.1167933],[145.7579618,18.116468],[145.7579189,18.1162233],[145.7577928,18.1160999],[145.7578786,18.1159775],[145.7580047,18.1160193],[145.7581361,18.1157124],[145.7581549,18.1151424],[145.757997,18.1140805],[145.7583082,18.1126223],[145.7584047,18.1112559],[145.7586082,18.1098184],[145.7587262,18.1091352],[145.7585626,18.1086774],[145.7584473,18.1082378],[145.7587986,18.1074129],[145.7587588,18.1065752],[145.7586622,18.1058512],[145.7586729,18.1051374],[145.7585442,18.1045051],[145.7582545,18.1035262],[145.7577717,18.1023942],[145.7569881,18.1016604],[145.7568031,18.1015288],[145.7566529,18.1012637],[145.7567414,18.1011607],[145.7567521,18.1009669],[145.7569345,18.1009159],[145.7569855,18.1011107],[145.7571276,18.1008343],[145.7571035,18.1005906],[145.7568272,18.1004366],[145.7565778,18.1001215],[145.7561915,18.0996014],[145.7558268,18.0990711],[145.7554539,18.098652],[145.7550543,18.0985204],[145.7542094,18.0978157],[145.7538339,18.0977648],[145.7533511,18.097622],[145.7529622,18.0974292],[145.7527503,18.0972854],[145.7526832,18.0969397],[145.7524177,18.0966022],[145.7519858,18.0963992],[145.7517498,18.0962972],[145.7514306,18.0961738],[145.7506662,18.0957058],[145.7504945,18.0953692],[145.7501432,18.0951846],[145.7499929,18.0948073],[145.7497542,18.0945636],[145.7493895,18.0943188],[145.7488664,18.094073],[145.748338,18.0939211],[145.7477828,18.0937671],[145.7475012,18.0937171],[145.7473644,18.0934101],[145.7470747,18.0931144],[145.7469004,18.0929522],[145.7467609,18.0927381],[145.7467421,18.0924923],[145.7464498,18.0923403],[145.7462271,18.0923903],[145.7463237,18.0925841],[145.7460957,18.0926973],[145.7457095,18.0925749],[145.7458194,18.0922475],[145.7449611,18.0916356],[145.7442611,18.0912593],[145.7438534,18.0910757],[145.7433733,18.0907178],[145.7428449,18.0903414],[145.7426008,18.0898815],[145.7420295,18.089342],[145.7418578,18.0889952],[145.7414743,18.0885863],[145.7411417,18.0882701],[145.740978,18.0878632],[145.7407876,18.0875358],[145.7399082,18.0867603],[145.7386315,18.085924],[145.7376011,18.0854961],[145.7370325,18.0851187],[145.7366034,18.0851391],[145.7361313,18.0851799],[145.735627,18.0852921],[145.735163,18.0853237],[145.7346695,18.0855277],[145.734361,18.0855573],[145.73361,18.0853941],[145.7331594,18.0852921],[145.7327088,18.0851697],[145.7323413,18.0849463],[145.731998,18.0847424],[145.7316574,18.084619],[145.7313248,18.084568],[145.7308849,18.0847108],[145.7302385,18.0851911],[145.7300132,18.0854665],[145.7297879,18.0854155],[145.7295974,18.0856592],[145.7293614,18.0857408],[145.7289537,18.0853227],[145.7288571,18.0854553],[145.7285138,18.0854757],[145.7281172,18.0853019],[145.7279026,18.0854855],[145.7274275,18.0854665],[145.7276314,18.0850483],[145.7273229,18.0849555],[145.7271834,18.0846598],[145.7270332,18.0847617],[145.7268508,18.0846292],[145.7265826,18.0844354],[145.7265612,18.0841702],[145.7262688,18.0842222],[145.7260757,18.0840386],[145.7259174,18.0838744],[145.7257109,18.0838959],[145.7255097,18.0837419],[145.7254346,18.0838133],[145.7252844,18.0840172],[145.7250457,18.0839775],[145.7250779,18.0835593],[145.7245522,18.0833349],[145.7241257,18.0832115],[145.7240614,18.0828648],[145.7239085,18.0828862],[145.7236081,18.0830494],[145.7233532,18.0830075],[145.7235759,18.0829168],[145.7235544,18.0826516],[145.7232674,18.0824364],[145.7229,18.0823966],[145.7229348,18.0820998],[145.7227953,18.0820182],[145.7226881,18.0820998],[145.7226022,18.0821814],[145.7223421,18.0821722],[145.7222455,18.0819785],[145.7219773,18.0817133],[145.7214945,18.0812237],[145.7213443,18.0809178],[145.7212075,18.0807434],[145.7209044,18.0807036],[145.7205289,18.0802854],[145.7200273,18.0798153],[145.7197564,18.0795919],[145.7197779,18.0793267],[145.7196384,18.0790513],[145.7194667,18.0788678],[145.7191985,18.078776],[145.7191663,18.0784802],[145.7179459,18.0770411],[145.7175785,18.0770829],[145.7174738,18.0767555],[145.7173022,18.0763883],[145.7166906,18.0756438],[145.7164439,18.0749196],[145.716122,18.0739201],[145.7159584,18.0740537],[145.7157331,18.0740435],[145.7155614,18.0737987],[145.7157036,18.0736243],[145.7158726,18.0738089],[145.7159074,18.0736345],[145.7156258,18.0731459],[145.7152074,18.072279],[145.7150679,18.0718404],[145.7148533,18.0713712],[145.7148104,18.0706266],[145.7145449,18.0706766],[145.7144376,18.0702482],[145.7143705,18.0698617],[145.7143169,18.0695659],[145.7139548,18.0695445],[145.7142418,18.0694129],[145.7141774,18.0688825],[145.713987,18.0688815],[145.7138904,18.0685857],[145.7136302,18.0680359],[145.7136007,18.0672087],[145.7138797,18.0672087],[145.7138663,18.0670567],[145.7138475,18.0668925],[145.713826,18.0665457],[145.714113,18.0662611],[145.7140406,18.0661785],[145.7138985,18.0659347],[145.7136839,18.0657613],[145.71348,18.0655879],[145.7132976,18.0658429],[145.7131796,18.0657919],[145.7133003,18.0655257],[145.7131287,18.0655053],[145.7132252,18.0651687],[145.7130187,18.0651392],[145.7130214,18.0649545],[145.7129865,18.0644762],[145.7129463,18.0642609],[145.7127612,18.0639968],[145.7124957,18.0639753],[145.7121953,18.0638427],[145.7119244,18.0635378],[145.7117849,18.0631399],[145.7117768,18.0627921],[145.7119995,18.0625279],[145.7114335,18.0621903],[145.7116025,18.0621709],[145.7114442,18.0619557],[145.7115837,18.0619047],[145.7117983,18.0619659],[145.7119163,18.0617925],[145.7117554,18.0616905],[145.712088,18.0615477],[145.7120987,18.0617619],[145.712442,18.0617007],[145.7123884,18.0614253],[145.7127183,18.0611101],[145.7128604,18.0604257],[145.7129543,18.0599881],[145.7128792,18.0596107],[145.7125922,18.0592323],[145.7122677,18.0590497],[145.7119914,18.0588854],[145.7118305,18.0585692],[145.7116159,18.0585998],[145.7114094,18.0585193],[145.7112806,18.0582948],[145.7110687,18.057845],[145.7112055,18.0577542],[145.7113235,18.0571728],[145.7109829,18.0568046],[145.7110258,18.0564986],[145.7109614,18.0562741],[145.7112377,18.0557855],[145.7112511,18.0555703],[145.7115408,18.0551725],[145.7117527,18.0547451],[145.71186,18.0542045],[145.7118412,18.0537138],[145.7117527,18.0532048],[145.7115837,18.052857],[145.7113906,18.0523673],[145.7109507,18.0515309],[145.7107254,18.0512758],[145.7104974,18.0509402],[145.7101863,18.0505832],[145.7098778,18.0503476],[145.7095426,18.0500732],[145.7093494,18.0497876],[145.7090517,18.0496641],[145.7088666,18.0493489],[145.708695,18.0490123],[145.7085126,18.0488389],[145.7082256,18.0485624],[145.7079976,18.0483288],[145.7078179,18.048134]]]}}
