{"type":"Feature","id":"island-overseas-アギガン島","properties":{"id":"island-overseas-アギガン島","kind":"island","name":"アギガン島","shortName":"アギガン島","context":"北マリアナ諸島・アメリカ合衆国","aliases":["アグイハン島","Aguigan","Aguihan","Aguijan"],"osmType":"way","osmId":23719196,"officialAreaKm2":null,"boundarySourceLabel":"© OpenStreetMap contributors","boundarySourceUrl":"https://www.openstreetmap.org/copyright","geometryFile":"natural-features/W23719196.geojson"},"geometry":{"type":"Polygon","coordinates":[[[145.5372639,14.8456765],[145.5372987,14.8454831],[145.537406,14.8454773],[145.5375056,14.8454622],[145.5374584,14.8453312],[145.5373568,14.8451759],[145.5373627,14.8449664],[145.5373557,14.8447664],[145.5374478,14.8447254],[145.537544,14.8447272],[145.5375837,14.8446412],[145.5375722,14.8445134],[145.5375398,14.8443734],[145.5375192,14.8442592],[145.5375865,14.8442145],[145.5376906,14.844243],[145.537725,14.8443319],[145.5377819,14.8442793],[145.5378221,14.8442705],[145.5378263,14.8442268],[145.5378074,14.8440653],[145.5377613,14.8439563],[145.5376978,14.8438475],[145.5377046,14.8437552],[145.5380251,14.8437402],[145.53812,14.8436501],[145.5381712,14.843568],[145.5381631,14.8433523],[145.5382778,14.843318],[145.5383408,14.8432144],[145.5383827,14.8430932],[145.5383777,14.84297],[145.5384657,14.8428146],[145.5385883,14.8428167],[145.5387741,14.8425774],[145.5389237,14.8423232],[145.5390057,14.8420772],[145.5391417,14.842058],[145.5392245,14.8418934],[145.5393177,14.841792],[145.5394409,14.8417866],[145.5395887,14.8417144],[145.5399537,14.8417214],[145.5402201,14.841609],[145.5404251,14.8413077],[145.5408263,14.8411366],[145.5413401,14.841071],[145.5414817,14.8410664],[145.5415958,14.8411618],[145.5417973,14.8412549],[145.5418473,14.8413282],[145.5419542,14.8414081],[145.5419131,14.8412218],[145.5418858,14.8409689],[145.5420174,14.8408027],[145.5422727,14.8408328],[145.5423078,14.8407166],[145.5423778,14.8406703],[145.5425454,14.8407243],[145.5428463,14.8407325],[145.5433102,14.8405624],[145.5433783,14.840612],[145.5434193,14.8407499],[145.5437599,14.8406558],[145.5442124,14.8408085],[145.5444309,14.840615],[145.5463247,14.8406136],[145.546733,14.8407873],[145.5471551,14.8407614],[145.5482634,14.8412231],[145.5492408,14.8417382],[145.5502181,14.8421426],[145.5518053,14.8424102],[145.5520684,14.8426695],[145.5528628,14.8426744],[145.5533908,14.8429354],[145.5546503,14.8432101],[145.5549963,14.8435973],[145.5552573,14.8437029],[145.5553704,14.84385],[145.5557664,14.84411],[145.5558338,14.8438613],[145.55577,14.8435948],[145.5563983,14.8437498],[145.5563679,14.8438848],[145.5565196,14.8440373],[145.556811,14.8439845],[145.5570416,14.843961],[145.5572843,14.8439317],[145.5578858,14.843994],[145.5582979,14.8440608],[145.5583707,14.8442954],[145.5586438,14.8443893],[145.5588866,14.8444421],[145.5591051,14.8443482],[145.5591779,14.8445242],[145.5592811,14.8445888],[145.559451,14.8443893],[145.5600944,14.8443248],[145.5601429,14.8441253],[145.5603675,14.8440666],[145.5606527,14.8440138],[145.5607984,14.8439962],[145.5610169,14.8440666],[145.5611989,14.844137],[145.56129,14.8440666],[145.5614356,14.8439962],[145.5616663,14.8440197],[145.561818,14.8441488],[145.5621093,14.8441664],[145.5622186,14.844049],[145.5624553,14.8439141],[145.5628012,14.8439845],[145.5631824,14.8440273],[145.5638815,14.8443834],[145.5642383,14.8445491],[145.5649254,14.8449055],[145.5655573,14.84533],[145.5662667,14.8457386],[145.5667425,14.8462395],[145.5668747,14.8463688],[145.5672559,14.846601],[145.5674926,14.846994],[145.5682149,14.8473519],[145.5684758,14.8476452],[145.5687975,14.8480148],[145.5693801,14.8482025],[145.5700113,14.8487305],[145.5706668,14.8490942],[145.5710552,14.8493876],[145.571474,14.8496985],[145.5720506,14.8501209],[145.572615,14.8503907],[145.5734649,14.8510467],[145.5739928,14.8513075],[145.5744115,14.8517576],[145.5747089,14.8522856],[145.5750669,14.8530717],[145.5752381,14.8537692],[145.5753411,14.8539413],[145.5755128,14.8539372],[145.5755021,14.8538791],[145.5754549,14.8537899],[145.5754591,14.853738],[145.5755171,14.8536468],[145.575693,14.8534124],[145.5759012,14.853429],[145.5760128,14.8534601],[145.5761479,14.8534809],[145.5762037,14.8533937],[145.5762531,14.8533647],[145.5764183,14.8534975],[145.5764741,14.8535369],[145.5765492,14.8535286],[145.5766221,14.853597],[145.5766522,14.853736],[145.576738,14.8538189],[145.576796,14.8539102],[145.5768625,14.8538563],[145.5769397,14.8538998],[145.576899,14.8540201],[145.5769612,14.8541238],[145.5769934,14.8541342],[145.5770685,14.8540906],[145.5771736,14.8541487],[145.5772401,14.8543934],[145.5774247,14.8547419],[145.5774912,14.8549306],[145.5775556,14.8550965],[145.5776071,14.8553579],[145.5776736,14.855472],[145.5777766,14.8556897],[145.5778259,14.8559656],[145.5779096,14.8561087],[145.5778903,14.8562269],[145.5778388,14.8563493],[145.5779332,14.8563928],[145.5780644,14.8563567],[145.5781006,14.8564136],[145.5780169,14.8564862],[145.5779504,14.856621],[145.5779997,14.856735],[145.5781478,14.8568325],[145.5781778,14.8569321],[145.5781414,14.8570938],[145.5782036,14.8572141],[145.5782486,14.8573261],[145.5782122,14.8573946],[145.5781585,14.8575356],[145.5781821,14.8576746],[145.5781499,14.8577928],[145.5781607,14.857882],[145.5781242,14.8579898],[145.5780877,14.8580707],[145.5780941,14.8581952],[145.5781328,14.8582532],[145.57818,14.8583735],[145.5781027,14.8584917],[145.5781092,14.8585498],[145.5781499,14.8586058],[145.5782036,14.8586473],[145.5781971,14.8587054],[145.5781306,14.8587676],[145.5780405,14.8587717],[145.5779611,14.8587925],[145.5779375,14.8588381],[145.5779482,14.8588547],[145.577989,14.85889],[145.5780555,14.8588962],[145.5780984,14.8589377],[145.5781113,14.8589916],[145.5780834,14.8590123],[145.5780083,14.8589916],[145.577916,14.8589957],[145.5780298,14.8590953],[145.5781328,14.8592446],[145.5782401,14.859452],[145.5783817,14.8596532],[145.578504,14.8598461],[145.5785641,14.8600244],[145.578622,14.8601447],[145.5786864,14.8600908],[145.5787701,14.8601157],[145.5789224,14.8602049],[145.5790276,14.860292],[145.5790082,14.8603853],[145.5790104,14.8604724],[145.5789181,14.8605367],[145.5789739,14.8605803],[145.5789997,14.8606155],[145.5789631,14.8607415],[145.5789567,14.8609391],[145.5789095,14.8610884],[145.5787958,14.8611796],[145.5788151,14.8612813],[145.5787486,14.86147],[145.5787615,14.8618164],[145.5786536,14.8618752],[145.5786088,14.862005],[145.578563,14.8621505],[145.5785126,14.8622352],[145.5784729,14.8622128],[145.5784482,14.8623224],[145.5785018,14.8625817],[145.5785555,14.8626501],[145.5785126,14.8627662],[145.578431,14.8628679],[145.5783087,14.8629902],[145.5783087,14.8630856],[145.5782765,14.8632204],[145.5781285,14.8633158],[145.5781414,14.8634133],[145.5782036,14.8636332],[145.5781628,14.8637721],[145.5780791,14.863826],[145.5779933,14.8640687],[145.5777916,14.8643736],[145.5776564,14.864527],[145.577532,14.864637],[145.5774011,14.8647282],[145.5773217,14.8648485],[145.5772573,14.8649792],[145.5771371,14.8649522],[145.5770856,14.8649978],[145.5769483,14.8651015],[145.5767466,14.8651803],[145.5764741,14.865284],[145.576178,14.8653027],[145.5759548,14.8654313],[145.5757488,14.8655433],[145.57559,14.865591],[145.5752017,14.8656511],[145.5750257,14.8657362],[145.5746919,14.8658672],[145.5744579,14.8660187],[145.5742242,14.8660492],[145.5740644,14.8660369],[145.5738522,14.8661221],[145.573631,14.8661738],[145.5735086,14.8662546],[145.573324,14.8663823],[145.5732125,14.8664641],[145.5731653,14.8665326],[145.5730409,14.8665346],[145.5729292,14.8665445],[145.5729078,14.8664973],[145.5728992,14.8663542],[145.5728353,14.8662416],[145.5729872,14.8661904],[145.5730752,14.8661032],[145.5730988,14.8660182],[145.5731288,14.8660099],[145.5730366,14.8660099],[145.573028,14.865985],[145.573043,14.8659477],[145.5730301,14.8659187],[145.5729808,14.8658959],[145.5729357,14.8659187],[145.5728284,14.8659311],[145.5727147,14.8659373],[145.5725256,14.865955],[145.5720546,14.8659029],[145.5720069,14.8658054],[145.5720009,14.8657126],[145.5720324,14.8656287],[145.5719938,14.8655615],[145.5718031,14.8655727],[145.5716288,14.8656162],[145.5715826,14.8654815],[145.5712751,14.8655297],[145.5707158,14.8649961],[145.5704739,14.8650009],[145.5704417,14.8649544],[145.5704524,14.8649158],[145.5704182,14.8648818],[145.5701794,14.8647559],[145.5702031,14.8646357],[145.5701471,14.8645553],[145.5696985,14.8643521],[145.5696741,14.8643411],[145.5695806,14.8644754],[145.569442,14.864528],[145.5692296,14.8644725],[145.5690958,14.864527],[145.5686256,14.8645144],[145.5685326,14.864546],[145.5683785,14.8644397],[145.5682255,14.864409],[145.5680729,14.8643498],[145.5679839,14.8642186],[145.5678471,14.864268],[145.5677999,14.8643896],[145.5677151,14.8644024],[145.5675632,14.8643459],[145.5675021,14.8644257],[145.5673704,14.8645107],[145.5672102,14.864541],[145.5669263,14.8644371],[145.5668471,14.864437],[145.5667904,14.8644004],[145.5667191,14.8643765],[145.5667114,14.8642426],[145.5667559,14.8642034],[145.5668095,14.8641149],[145.5667357,14.8640467],[145.5666252,14.8639487],[145.5665876,14.8638427],[145.5666926,14.8637575],[145.5666733,14.8636819],[145.5666407,14.86363],[145.5665159,14.8635797],[145.5664027,14.8634768],[145.5663499,14.8633846],[145.5660751,14.863179],[145.5659005,14.8628837],[145.5657077,14.8626897],[145.5655591,14.8626603],[145.5655616,14.8625546],[145.5655066,14.8624737],[145.5647834,14.8621991],[145.5643899,14.8616814],[145.5633752,14.861661],[145.5628017,14.8615421],[145.5622736,14.8612813],[145.5610495,14.8610365],[145.5606156,14.8609112],[145.5603782,14.8610524],[145.5602506,14.8610543],[145.5599962,14.8609421],[145.5597322,14.8608063],[145.5596736,14.8607953],[145.5593946,14.8605948],[145.5591134,14.8604333],[145.5591017,14.8603603],[145.5590395,14.8603198],[145.558923,14.8603509],[145.5586209,14.8604645],[145.5584662,14.8603751],[145.5582815,14.8602494],[145.5581601,14.8602106],[145.5581387,14.8602883],[145.5580479,14.8602815],[145.5576685,14.8602056],[145.5574458,14.8601544],[145.5572502,14.8599617],[145.5570113,14.8598213],[145.5570317,14.8597661],[145.5566633,14.8594563],[145.5563331,14.8593343],[145.5561347,14.8591115],[145.5560514,14.8590751],[145.555991,14.8589822],[145.5558972,14.8588475],[145.5556068,14.8587174],[145.5554562,14.8586499],[145.5545555,14.858309],[145.5544395,14.8583191],[145.5540079,14.8582224],[145.553577,14.8579409],[145.5527925,14.8577227],[145.5524993,14.857485],[145.5519978,14.8572971],[145.5517468,14.8571158],[145.5515015,14.8569383],[145.5514088,14.8569317],[145.5513402,14.8568507],[145.5511805,14.8567039],[145.5508334,14.8566144],[145.5504464,14.8563979],[145.5497145,14.8563278],[145.5492687,14.8562661],[145.5489188,14.8561074],[145.5484091,14.8560267],[145.5480351,14.8559999],[145.5479722,14.8559725],[145.5479,14.8560265],[145.5477418,14.8560377],[145.5471393,14.8559524],[145.5463368,14.8554818],[145.5456149,14.8553654],[145.545515,14.855358],[145.5451632,14.8553061],[145.5451296,14.8549894],[145.5445723,14.8547296],[145.5435489,14.8541005],[145.5434355,14.8540308],[145.5432574,14.8540844],[145.542772,14.8537088],[145.5427416,14.8537444],[145.5426853,14.8537659],[145.5424606,14.8536857],[145.5403479,14.8527712],[145.5403532,14.8519983],[145.5398244,14.8518659],[145.5393423,14.8510291],[145.5393801,14.8508214],[145.5391403,14.8504973],[145.5388653,14.8500091],[145.5387723,14.8497033],[145.5386928,14.8496183],[145.538611,14.8489455],[145.5385612,14.8489167],[145.5385325,14.8487774],[145.5383726,14.8486445],[145.538345,14.8485372],[145.538164,14.8483495],[145.5381541,14.8482388],[145.5381283,14.8481113],[145.5380428,14.848049],[145.5377708,14.8481408],[145.5376471,14.8480714],[145.5377365,14.8478001],[145.5379238,14.847629],[145.5377299,14.8475495],[145.5376764,14.8475076],[145.5376679,14.8474246],[145.5377891,14.8472937],[145.5378768,14.8472465],[145.5378611,14.8471983],[145.5377953,14.8471663],[145.5377765,14.847082],[145.5376301,14.8469132],[145.5374103,14.8465774],[145.5374718,14.846451],[145.5374184,14.8462762],[145.5375552,14.8461821],[145.5375457,14.846076],[145.5373489,14.8457967],[145.5372639,14.8456765]]]}}
