{"type":"Feature","id":"island-overseas-アナタハン島","properties":{"id":"island-overseas-アナタハン島","kind":"island","name":"アナタハン島","shortName":"アナタハン島","context":"北マリアナ諸島・アメリカ合衆国","aliases":["Anatahan Island","Anatahan","Anatåhån"],"osmType":"way","osmId":23719121,"officialAreaKm2":null,"boundarySourceLabel":"© OpenStreetMap contributors","boundarySourceUrl":"https://www.openstreetmap.org/copyright","geometryFile":"natural-features/W23719121.geojson"},"geometry":{"type":"Polygon","coordinates":[[[145.632786,16.3640285],[145.6330915,16.3628693],[145.6339168,16.3620151],[145.6345999,16.3617273],[145.6348897,16.3608158],[145.634893,16.3600412],[145.6347116,16.3593497],[145.6341642,16.3580084],[145.6340548,16.3570182],[145.6341233,16.3559167],[145.6341385,16.3550782],[145.6339089,16.3545249],[145.6341042,16.3538241],[145.6341252,16.3533559],[145.6335479,16.3520805],[145.6330266,16.3520352],[145.6330591,16.3518509],[145.6336882,16.3517253],[145.6337559,16.3512779],[145.6336825,16.3505786],[145.6339061,16.3490768],[145.6344387,16.3494361],[145.6350384,16.3497756],[145.6354482,16.3498612],[145.6357669,16.3497453],[145.636028,16.3495103],[145.6361721,16.3491036],[145.6368447,16.3482068],[145.6371408,16.347522],[145.6371167,16.3470303],[145.6374548,16.3466171],[145.6377094,16.3464735],[145.637795,16.3458948],[145.6380277,16.3458621],[145.6381817,16.3455302],[145.6374569,16.345191],[145.6369162,16.3437181],[145.6378474,16.3437341],[145.6380425,16.3438982],[145.638358,16.3437374],[145.6385454,16.34334],[145.6388815,16.3419683],[145.639058,16.3413816],[145.6390317,16.3407094],[145.6396795,16.3394726],[145.6397068,16.3392662],[145.639551,16.3389691],[145.6411087,16.3388555],[145.6421144,16.3387042],[145.6436056,16.3386467],[145.6444363,16.338319],[145.6449504,16.3372437],[145.6455756,16.3366828],[145.6462757,16.3363026],[145.6462938,16.336101],[145.6464091,16.3360341],[145.6463125,16.3357921],[145.6464708,16.3357098],[145.6464815,16.3353906],[145.6463716,16.3352621],[145.6463474,16.3350431],[145.6462562,16.3349556],[145.6462294,16.3346828],[145.6461221,16.3347214],[145.6460443,16.3346004],[145.6460334,16.3343462],[145.6461414,16.3342366],[145.6463259,16.3342941],[145.6464171,16.3343083],[145.6464252,16.334222],[145.6461221,16.3339749],[145.6461355,16.3337227],[145.646216,16.3336094],[145.6461976,16.3333255],[145.6459987,16.333038],[145.646047,16.332993],[145.6461637,16.3330676],[145.6462361,16.3329788],[145.6459098,16.3327734],[145.6459531,16.3325824],[145.6461275,16.3325773],[145.6462039,16.3324125],[145.6459934,16.3323057],[145.6460725,16.3321384],[145.6459451,16.3320432],[145.6459679,16.3320033],[145.6460644,16.3320071],[145.6461208,16.3319685],[145.6460725,16.3319119],[145.6459209,16.3318566],[145.6459266,16.3317569],[145.6460564,16.3317137],[145.6461328,16.3317613],[145.6462146,16.3316944],[145.646271,16.3317304],[145.6463099,16.3319299],[145.6462508,16.3320303],[145.646338,16.3320998],[145.6464265,16.3320856],[145.6464453,16.3319312],[145.6464131,16.3318733],[145.6464466,16.3317678],[145.646537,16.3317639],[145.6466655,16.3322484],[145.6468114,16.3321809],[145.6467578,16.332011],[145.6468231,16.3318315],[145.6469241,16.3317999],[145.6469133,16.3320187],[145.6471226,16.3320908],[145.6471306,16.3318411],[145.6471896,16.3317819],[145.6473676,16.3317441],[145.6474712,16.3318025],[145.6475276,16.3321243],[145.6475973,16.3321371],[145.6476483,16.332253],[145.6477877,16.332168],[145.6477341,16.3320599],[145.6477234,16.331854],[145.6477846,16.3317234],[145.6480077,16.3317536],[145.6481391,16.3320419],[145.6483403,16.3320007],[145.6482289,16.3318597],[145.6484798,16.331854],[145.6485146,16.331679],[145.648469,16.3315683],[145.6485602,16.3312826],[145.6486528,16.3312337],[145.6485868,16.3311477],[145.6487493,16.3311075],[145.6487963,16.331168],[145.6488499,16.3311603],[145.6489237,16.3312813],[145.6490752,16.3311461],[145.6492207,16.3312793],[145.6490323,16.3316146],[145.6488701,16.3320561],[145.6490833,16.332132],[145.6491905,16.3319364],[145.649263,16.3319647],[145.6493154,16.3323081],[145.6494534,16.3322813],[145.6494588,16.3321732],[145.6495178,16.3321268],[145.6495419,16.3320187],[145.6494847,16.3319074],[145.6495741,16.3318282],[145.6496975,16.331872],[145.6497431,16.3317613],[145.6496765,16.331493],[145.6497538,16.3314113],[145.649844,16.3314379],[145.6499791,16.3318952],[145.6502526,16.3324084],[145.6504968,16.3324846],[145.6504512,16.3330174],[145.6505209,16.3330406],[145.6505799,16.3327497],[145.6506363,16.33276],[145.6507221,16.3322401],[145.6506363,16.3321629],[145.6506067,16.3320264],[145.6508341,16.331693],[145.6509259,16.3316867],[145.6508683,16.3318102],[145.6509179,16.3318231],[145.6509662,16.3317768],[145.6510466,16.3317793],[145.6510466,16.3319338],[145.6511549,16.3320591],[145.651176,16.3324012],[145.6509779,16.3326314],[145.6509774,16.3328518],[145.6515139,16.3334573],[145.6516448,16.3334164],[145.651677,16.3332053],[145.6518548,16.3330484],[145.6518701,16.3331847],[145.6520417,16.3333958],[145.6521946,16.3333443],[145.6523019,16.3332671],[145.6525004,16.3333469],[145.6525701,16.3335766],[145.6524441,16.3336969],[145.652892,16.3339286],[145.6532595,16.3339724],[145.65349,16.3339473],[145.6539136,16.3345593],[145.6543482,16.3347997],[145.6544879,16.3347368],[145.6545925,16.3347677],[145.6546676,16.3349633],[145.6549036,16.3350457],[145.6550914,16.3348269],[145.655387,16.3347088],[145.6554428,16.3347857],[145.655542,16.3348372],[145.6557277,16.3347404],[145.6558894,16.3345624],[145.655947,16.3341525],[145.6559225,16.333878],[145.6560141,16.3338102],[145.6562662,16.3339209],[145.6562999,16.3338645],[145.6564057,16.3341397],[145.6564158,16.3343467],[145.6563072,16.3344476],[145.6562903,16.3345232],[145.6567767,16.3348647],[145.6575046,16.3351562],[145.6585201,16.3353171],[145.6593581,16.3353549],[145.6602842,16.3352561],[145.6608863,16.3350574],[145.6610754,16.3349041],[145.661239,16.334585],[145.6614795,16.3344269],[145.6616843,16.3342941],[145.661931,16.3339518],[145.6619793,16.3336892],[145.662092,16.333648],[145.6621,16.3335682],[145.6622043,16.3334334],[145.6621751,16.3333211],[145.6619015,16.3330998],[145.6619257,16.3329788],[145.6617807,16.3328334],[145.661769,16.3323204],[145.6618398,16.3322632],[145.6619498,16.3322684],[145.6620129,16.3321503],[145.6621054,16.33215],[145.6622314,16.3322246],[145.6622529,16.33215],[145.6621349,16.3320007],[145.6620739,16.3318365],[145.6621027,16.331769],[145.6622067,16.3317331],[145.662611,16.3322131],[145.6625506,16.3322401],[145.6625372,16.3323508],[145.6625828,16.3324537],[145.6627201,16.3325638],[145.6628162,16.3324975],[145.6628269,16.3323173],[145.6629439,16.3320824],[145.6630924,16.3320856],[145.6632999,16.3322982],[145.6632641,16.3324383],[145.6633875,16.3324383],[145.6635028,16.3324949],[145.6635593,16.3323685],[145.663719,16.3325113],[145.6636986,16.3326777],[145.663706,16.3328382],[145.6639767,16.3330042],[145.6646535,16.3319414],[145.6648563,16.3318321],[145.6647232,16.3322658],[145.6647237,16.3331661],[145.6649017,16.3336882],[145.665035,16.3339784],[145.6654556,16.3342003],[145.6657173,16.334002],[145.6659934,16.3341344],[145.6658356,16.3345034],[145.6664132,16.3346474],[145.6670632,16.3346435],[145.667893,16.3348567],[145.6685448,16.3347842],[145.6694883,16.3345252],[145.6700125,16.3343695],[145.6707454,16.3341832],[145.6715054,16.3340714],[145.6720587,16.3337366],[145.6717647,16.3334222],[145.6722778,16.3332347],[145.6729099,16.3330542],[145.6732563,16.3333946],[145.6731107,16.3339956],[145.6734872,16.334447],[145.6739001,16.3345547],[145.6747976,16.3347872],[145.6758821,16.3347494],[145.6771149,16.3345612],[145.6776258,16.334378],[145.6784014,16.3337672],[145.6814075,16.3335313],[145.6822745,16.3337732],[145.683203,16.333854],[145.6843042,16.3338029],[145.6856165,16.3338135],[145.6868918,16.3339749],[145.6877253,16.3340535],[145.6888792,16.3335514],[145.6893424,16.3339412],[145.6900333,16.3342682],[145.6918176,16.3344239],[145.6925875,16.3341117],[145.6929132,16.3346634],[145.6935434,16.3347015],[145.6935996,16.3342566],[145.6941759,16.3339626],[145.6943138,16.3346027],[145.694974,16.3347988],[145.6953317,16.3345492],[145.6961684,16.3343789],[145.6965639,16.3338336],[145.6970377,16.333475],[145.6994896,16.3330974],[145.7002095,16.3333483],[145.7013265,16.3334328],[145.7022993,16.3332504],[145.7032373,16.3333182],[145.7041197,16.3337888],[145.7052633,16.334401],[145.7061654,16.3349506],[145.7078441,16.3355312],[145.7091483,16.3356983],[145.7100725,16.335872],[145.7114472,16.3362184],[145.7119177,16.3363189],[145.7129183,16.3371008],[145.7135895,16.3372628],[145.7141813,16.337469],[145.7145451,16.3373456],[145.7149151,16.3369973],[145.7150296,16.3376777],[145.7155211,16.3378675],[145.7158174,16.3384197],[145.7162685,16.3385879],[145.7163133,16.3390405],[145.7168917,16.3389883],[145.7173477,16.3402223],[145.7177757,16.3414585],[145.7183675,16.3422834],[145.7192823,16.3421131],[145.7196832,16.3422001],[145.7200529,16.3427901],[145.7198772,16.3434576],[145.7193121,16.343585],[145.7193694,16.3440891],[145.7196072,16.344672],[145.7198397,16.3463504],[145.7201711,16.3473656],[145.7204833,16.3479585],[145.7205833,16.3484509],[145.7211411,16.3486701],[145.7216142,16.3492],[145.7222151,16.3494083],[145.7229369,16.3500303],[145.7234463,16.3497825],[145.7246183,16.3510736],[145.7241937,16.3524645],[145.7242844,16.3535801],[145.724365,16.3540734],[145.7239065,16.3547651],[145.7236377,16.35519],[145.723375,16.3556242],[145.723577,16.3575007],[145.7232874,16.3581906],[145.7235802,16.3589532],[145.7228738,16.3592671],[145.7223767,16.3593499],[145.7218516,16.3599755],[145.7216465,16.3605988],[145.7210565,16.3602643],[145.7208391,16.3606296],[145.7211246,16.3608288],[145.7214748,16.3611606],[145.7214748,16.3615352],[145.7211494,16.3617238],[145.7208676,16.3615512],[145.7203793,16.3611447],[145.7198896,16.3611164],[145.7195765,16.3613795],[145.7195507,16.3621908],[145.7192021,16.3628597],[145.7186024,16.3628031],[145.7179822,16.3632692],[145.7172884,16.3637294],[145.7168457,16.3636758],[145.7161803,16.3641966],[145.716015,16.3648313],[145.7155685,16.3649194],[145.7145022,16.3650513],[145.7132438,16.3657511],[145.7129811,16.3661717],[145.7126349,16.3665788],[145.7125695,16.3672187],[145.7118197,16.3672248],[145.7105574,16.3671006],[145.709416,16.367596],[145.7084765,16.3676096],[145.7075207,16.3678705],[145.7065952,16.3690019],[145.7061021,16.3692929],[145.7046483,16.3695536],[145.7009845,16.3693985],[145.6982679,16.3686827],[145.6965753,16.3686171],[145.6957526,16.3688178],[145.695432,16.368684],[145.6936891,16.3685235],[145.692964,16.3686974],[145.6913327,16.3685294],[145.6903567,16.3682567],[145.6899523,16.3684298],[145.6893936,16.3681766],[145.6883346,16.36811],[145.687108,16.3680686],[145.6855189,16.3682068],[145.6835589,16.367802],[145.6820159,16.3677402],[145.679657,16.3675198],[145.6788012,16.3681185],[145.6779879,16.3682303],[145.6772036,16.3683257],[145.6755238,16.3686734],[145.6747355,16.3687922],[145.6736544,16.3689191],[145.6724656,16.3692955],[145.6715755,16.3690051],[145.6701564,16.3693603],[145.6683307,16.3695474],[145.6659093,16.3700299],[145.6640253,16.3701085],[145.6627648,16.3700416],[145.6613552,16.3694599],[145.6594729,16.3697141],[145.6589365,16.3700898],[145.6577579,16.3702358],[145.6569969,16.3704769],[145.6549445,16.3699931],[145.6530731,16.3693529],[145.6517699,16.3698107],[145.6504936,16.3698078],[145.6500196,16.3701823],[145.6485788,16.3702701],[145.6476873,16.3700843],[145.6463745,16.3694971],[145.6462488,16.3691792],[145.6454034,16.3687377],[145.6446262,16.3685973],[145.6438716,16.368582],[145.6433521,16.3684016],[145.6429746,16.3684661],[145.642072,16.3686439],[145.6412725,16.3690996],[145.6404322,16.3690426],[145.6397676,16.3692181],[145.6396504,16.3697882],[145.6389523,16.370073],[145.6383491,16.3702],[145.6385584,16.3694198],[145.6378473,16.3691924],[145.6374987,16.3696071],[145.6369483,16.3695122],[145.6355449,16.3681807],[145.6352818,16.3677609],[145.6328444,16.3668324],[145.6330607,16.3662837],[145.6331236,16.3651681],[145.6330649,16.364577],[145.632786,16.3640285]]]}}
