{"type":"Feature","id":"island-overseas-ファラリョン・デ・メディニラ島","properties":{"id":"island-overseas-ファラリョン・デ・メディニラ島","kind":"island","name":"ファラリョン・デ・メディニラ島","shortName":"ファラリョン・デ・メディニラ島","context":"北マリアナ諸島・アメリカ合衆国","aliases":["Farallon de Medinilla"],"osmType":"way","osmId":23719189,"officialAreaKm2":null,"boundarySourceLabel":"© OpenStreetMap contributors","boundarySourceUrl":"https://www.openstreetmap.org/copyright","geometryFile":"natural-features/W23719189.geojson"},"geometry":{"type":"Polygon","coordinates":[[[146.0515407,16.0055878],[146.0519832,16.0054161],[146.0522239,16.0054908],[146.0526121,16.0059012],[146.052845,16.0059684],[146.0529615,16.0062968],[146.0530236,16.0065654],[146.0532098,16.0065689],[146.053404,16.0066848],[146.0534506,16.0070206],[146.0536059,16.0074386],[146.0536757,16.007849],[146.0539475,16.0078863],[146.0540588,16.0081183],[146.054152,16.0088646],[146.054416,16.0094243],[146.0546597,16.0096668],[146.0543694,16.0103347],[146.0545014,16.0107004],[146.0547187,16.0110213],[146.0546954,16.0113198],[146.0548119,16.011887],[146.0545945,16.0122228],[146.0546023,16.0124317],[146.0549982,16.0127899],[146.0556271,16.0128422],[146.055992,16.0131108],[146.0562094,16.013372],[146.0564889,16.0132601],[146.0566286,16.0129317],[146.0567839,16.0128422],[146.057273,16.0127452],[146.0578398,16.0127153],[146.0582357,16.013372],[146.0582668,16.0138123],[146.058127,16.0143272],[146.0582668,16.0149615],[146.0583134,16.0151928],[146.0586394,16.0154242],[146.0588568,16.0151257],[146.059082,16.0151779],[146.0591907,16.0154242],[146.0595789,16.0153197],[146.0598195,16.0152451],[146.0600291,16.015357],[146.0600214,16.0156555],[146.0602854,16.0156555],[146.0603785,16.0160137],[146.0605648,16.016163],[146.0605648,16.0163197],[146.060922,16.0164092],[146.0609996,16.0167376],[146.0605881,16.0171555],[146.0606813,16.017439],[146.0610151,16.017648],[146.0609142,16.0180659],[146.0612869,16.0180435],[146.0615451,16.0181985],[146.0613878,16.0189464],[146.0615404,16.0192289],[146.0618303,16.019424],[146.0620477,16.0196255],[146.0622573,16.0196628],[146.0623505,16.0199687],[146.0629871,16.0202523],[146.0633443,16.0211851],[146.0641051,16.0216851],[146.0641983,16.0223417],[146.0636704,16.0226775],[146.0637635,16.0229686],[146.0641129,16.0230879],[146.0645942,16.0233864],[146.064734,16.0238939],[146.0645321,16.0242297],[146.0644545,16.0246102],[146.0647114,16.0246528],[146.0649203,16.0246699],[146.0649591,16.0251027],[146.0647728,16.025252],[146.0646563,16.0254758],[146.0645399,16.0256997],[146.0644467,16.0258489],[146.0642837,16.0262071],[146.0640275,16.0265578],[146.0639188,16.0267742],[146.0636005,16.0272145],[146.0632666,16.0272369],[146.0632666,16.0275055],[146.0630803,16.0277517],[146.0628008,16.0278338],[146.0625213,16.0277293],[146.0622185,16.027789],[146.0615276,16.0273712],[146.0614344,16.02711],[146.0612248,16.0264235],[146.0608443,16.0259161],[146.0607279,16.0256325],[146.0604717,16.0254684],[146.0605275,16.0249499],[146.0604427,16.0246597],[146.0603043,16.0245448],[146.0602239,16.0242058],[146.0601973,16.0238463],[146.0601318,16.0233608],[146.0602931,16.0232148],[146.0602621,16.0226925],[146.0600524,16.0222895],[146.0600007,16.0221606],[146.0597613,16.0221297],[146.0594649,16.0221761],[146.0594287,16.0220634],[146.0593066,16.0220074],[146.0591618,16.021954],[146.0590866,16.0218697],[146.0589541,16.0217553],[146.0589047,16.0216126],[146.0588767,16.0214131],[146.0587469,16.0213478],[146.0587514,16.0211759],[146.0587854,16.0210325],[146.0582901,16.0207971],[146.0583707,16.0204856],[146.0583655,16.0201895],[146.0583648,16.019949],[146.0582311,16.0197731],[146.0579913,16.0196123],[146.057587,16.0191411],[146.0572808,16.0189464],[146.0570323,16.0187822],[146.0569081,16.0183569],[146.0565355,16.0183793],[146.0561628,16.0180883],[146.0561628,16.0177972],[146.0564035,16.0175211],[146.0562327,16.0171107],[146.0561007,16.016842],[146.0560696,16.0163271],[146.0562094,16.0158794],[146.0560696,16.0156107],[146.0561395,16.0152973],[146.0562094,16.01476],[146.0561085,16.0144765],[146.0559144,16.0143944],[146.0559532,16.0142078],[146.0558381,16.0140516],[146.055006,16.0136556],[146.0549982,16.0134019],[146.0547886,16.0132228],[146.0548119,16.0129541],[146.0539657,16.0127526],[146.0533601,16.0124541],[146.0534222,16.0117079],[146.0535775,16.0108347],[146.0532126,16.0099019],[146.0532203,16.009678],[146.0530806,16.0096407],[146.0529641,16.0093945],[146.0530495,16.009275],[146.0528761,16.0088117],[146.0528683,16.0084087],[146.0526199,16.0084087],[146.0526121,16.008155],[146.052814,16.0081027],[146.0527751,16.007655],[146.0525374,16.0078541],[146.0522722,16.0075954],[146.0521075,16.007058],[146.052123,16.0068639],[146.0519832,16.0067893],[146.0517581,16.0063341],[146.0518745,16.0062669],[146.0515407,16.0055878]]]}}
