{"type":"Feature","id":"island-W484294967","properties":{"id":"island-W484294967","kind":"island","name":"出島（長崎）","shortName":"出島（長崎）","context":"長崎県長崎市","aliases":["出島","出島和蘭商館跡","Dejima","Dejima Dutch Trading Post"],"osmType":"way","osmId":484294967,"officialAreaKm2":0.015387,"areaSourceLabel":"公式「出島」：小さな島の魅力","areaSourceUrl":"https://nagasakidejima.jp/2091/","boundarySourceLabel":"© OpenStreetMap contributors","boundarySourceUrl":"https://www.openstreetmap.org/copyright","geometryFile":"natural-features/W484294967.geojson","territoryNote":"旧人工島。現在の復元史跡区画の面境界を比較範囲とする。"},"geometry":{"type":"Polygon","coordinates":[[[129.8719255,32.7440799],[129.8719117,32.7440066],[129.8720076,32.7435864],[129.8726251,32.743246],[129.8728208,32.7431694],[129.8733941,32.7429974],[129.8740378,32.7429489],[129.8740811,32.743412],[129.8735869,32.7435028],[129.8732207,32.7436167],[129.8729861,32.7437081],[129.8727453,32.7438113],[129.8724784,32.7439495],[129.8722525,32.7441023],[129.8719594,32.7443169],[129.8719255,32.7440799]]]}}
