{"type":"Feature","id":"island-W674864602","properties":{"id":"island-W674864602","kind":"island","name":"浮島","shortName":"浮島","context":"神奈川県川崎市川崎区","aliases":["浮島人工島","Ukishima"],"osmType":"way","osmId":674864602,"officialAreaKm2":null,"areaSourceLabel":"","areaSourceUrl":"","boundarySourceLabel":"© OpenStreetMap contributors","boundarySourceUrl":"https://www.openstreetmap.org/copyright","geometryFile":"natural-features/W674864602.geojson"},"geometry":{"type":"Polygon","coordinates":[[[139.7677632,35.5361689],[139.7674366,35.5358852],[139.7663381,35.534931],[139.7609864,35.5302695],[139.7627805,35.527041],[139.7627208,35.5270176],[139.7630928,35.5263329],[139.763141,35.5263536],[139.7656235,35.5219234],[139.7678518,35.5237568],[139.768969,35.5229069],[139.766415,35.5205509],[139.7701247,35.5138714],[139.7710329,35.5132218],[139.7735259,35.5156262],[139.7747097,35.5147873],[139.7724309,35.5124211],[139.7724187,35.5124305],[139.7723194,35.5123269],[139.7723077,35.5123075],[139.7727709,35.5119759],[139.7728021,35.5119532],[139.7736309,35.5113786],[139.7736661,35.5113526],[139.7744059,35.5108357],[139.7744513,35.5108037],[139.7753013,35.5102049],[139.7753511,35.51017],[139.7762306,35.5095522],[139.77794,35.5111707],[139.7779992,35.5111375],[139.7798896,35.512969],[139.7798641,35.5129891],[139.7800643,35.5131746],[139.7800938,35.5131572],[139.7801926,35.5132479],[139.781604,35.512558],[139.7886661,35.5088408],[139.7907281,35.5077583],[139.7919121,35.5071301],[139.7964687,35.5066773],[139.7986691,35.5091756],[139.7967118,35.510321],[139.7966791,35.5102858],[139.7984331,35.5092564],[139.797783,35.5085739],[139.7976853,35.5084814],[139.797523,35.5082711],[139.7974463,35.5080534],[139.7972972,35.5078662],[139.7972619,35.5078509],[139.7972244,35.5078603],[139.7970464,35.507976],[139.7969106,35.5080248],[139.7967724,35.5080469],[139.7967309,35.5079983],[139.7967081,35.507908],[139.7966159,35.5077805],[139.7963963,35.5075596],[139.796341,35.5074958],[139.7962109,35.5074433],[139.7960506,35.5074383],[139.7959275,35.5074676],[139.7957748,35.5074501],[139.7956082,35.5075086],[139.795396,35.5074463],[139.7950252,35.5074219],[139.7938856,35.5076033],[139.792385,35.5080781],[139.7919207,35.5082755],[139.7916278,35.5085282],[139.7915442,35.5086766],[139.7938802,35.5114069],[139.7939584,35.5114271],[139.7940213,35.5114629],[139.7942828,35.5117145],[139.7960612,35.5106558],[139.7960909,35.5106924],[139.794225,35.5117978],[139.7942341,35.5118085],[139.7941025,35.5118864],[139.7921468,35.5130365],[139.7915665,35.5133778],[139.7927575,35.5146358],[139.7945795,35.5166424],[139.7946403,35.5167164],[139.7946667,35.5167015],[139.7948343,35.5168834],[139.7948972,35.516939],[139.7957589,35.5166224],[139.796145,35.517226],[139.7961862,35.5173687],[139.7955089,35.5176104],[139.7955401,35.5176453],[139.7956468,35.5177732],[139.7957066,35.517845],[139.7956584,35.5178694],[139.7962559,35.5185824],[139.7952685,35.5192744],[139.7930272,35.5196018],[139.7917424,35.5198433],[139.7902018,35.520059],[139.7885533,35.5211946],[139.7891992,35.5218231],[139.7876263,35.5244704],[139.7744517,35.5322381],[139.7738367,35.5325724],[139.7719568,35.5337313],[139.7677632,35.5361689]]]}}
