{"type":"Feature","id":"island-overseas-サリガン島","properties":{"id":"island-overseas-サリガン島","kind":"island","name":"サリガン島","shortName":"サリガン島","context":"北マリアナ諸島・アメリカ合衆国","aliases":["Sarigan Island","Sarigan"],"osmType":"way","osmId":93996245,"officialAreaKm2":null,"boundarySourceLabel":"© OpenStreetMap contributors","boundarySourceUrl":"https://www.openstreetmap.org/copyright","geometryFile":"natural-features/W93996245.geojson"},"geometry":{"type":"Polygon","coordinates":[[[145.7663174,16.7052457],[145.7663545,16.7052087],[145.7663646,16.7051731],[145.7664075,16.7051498],[145.7664175,16.7051293],[145.766386,16.705095],[145.7663445,16.7050676],[145.7663488,16.705032],[145.7663803,16.705006],[145.7664318,16.7049937],[145.7664689,16.7050183],[145.7665047,16.7050238],[145.7665462,16.7050019],[145.7665662,16.7049745],[145.7665562,16.7049416],[145.7665033,16.7048868],[145.7665161,16.7048471],[145.7665605,16.7048457],[145.766642,16.7048649],[145.7667178,16.704843],[145.7667449,16.7047827],[145.7667607,16.7046965],[145.7667392,16.7046389],[145.766702,16.7045882],[145.7667035,16.7045239],[145.7667421,16.7044869],[145.766775,16.7044746],[145.7667449,16.704454],[145.7667535,16.7044184],[145.7667836,16.7044116],[145.7668207,16.7044225],[145.7668536,16.7044376],[145.766928,16.7044253],[145.7669695,16.7043581],[145.7669881,16.7043102],[145.7669709,16.7042623],[145.7669866,16.7042212],[145.7670381,16.7041979],[145.7670924,16.7041404],[145.7671196,16.7040623],[145.7671325,16.7039541],[145.7671639,16.703865],[145.7672026,16.7038212],[145.7672641,16.7038007],[145.7672898,16.7037459],[145.7672712,16.7036788],[145.767214,16.7035459],[145.7671854,16.7034788],[145.767184,16.7033952],[145.7672097,16.7033281],[145.7672083,16.703298],[145.7671711,16.703287],[145.7671153,16.7032829],[145.7671082,16.7032583],[145.7671296,16.7032295],[145.7671997,16.7032226],[145.7672412,16.7032199],[145.7672769,16.7031911],[145.7672769,16.7031596],[145.767244,16.7031473],[145.7671825,16.7031747],[145.7671525,16.7031679],[145.7671067,16.7031144],[145.7670395,16.7029569],[145.7670553,16.7029295],[145.7670453,16.7029186],[145.7669923,16.7029213],[145.7669695,16.702872],[145.7669666,16.7028336],[145.7670367,16.7026926],[145.7670924,16.7026145],[145.7671768,16.7025008],[145.7672726,16.7024118],[145.767337,16.702394],[145.7674414,16.7023926],[145.7675472,16.7024529],[145.7675858,16.7024597],[145.7676387,16.7024173],[145.767653,16.7023679],[145.7676931,16.7023173],[145.7677403,16.70232],[145.7677674,16.7023036],[145.7677646,16.7022693],[145.7677946,16.7022296],[145.7678432,16.7021899],[145.7678904,16.7021693],[145.7679362,16.702183],[145.7680005,16.7021543],[145.7680463,16.7020926],[145.7680306,16.7020625],[145.7680434,16.7020406],[145.7680892,16.7020324],[145.7681021,16.7020063],[145.7680692,16.7019748],[145.7680806,16.7019611],[145.7681307,16.7019557],[145.7681478,16.7019365],[145.7681607,16.7019173],[145.7682165,16.7019187],[145.7682308,16.7018995],[145.7682322,16.7018803],[145.7682665,16.7018201],[145.7683623,16.7017694],[145.7685655,16.7016342],[145.7685982,16.7015088],[145.7685,16.7014513],[145.7685164,16.7013572],[145.7686691,16.7013416],[145.7688219,16.7013363],[145.7689146,16.7011639],[145.7688655,16.7010019],[145.7689201,16.7009288],[145.769231,16.700887],[145.7694983,16.7008765],[145.7695365,16.7008347],[145.7696129,16.7008295],[145.7696511,16.7008922],[145.7699075,16.7009392],[145.7701202,16.7010228],[145.770213,16.7010751],[145.7703439,16.7010072],[145.7707476,16.7007564],[145.7710203,16.7003802],[145.7710313,16.7002025],[145.7709494,16.6999935],[145.7709221,16.6998367],[145.771004,16.6997375],[145.7712113,16.6997322],[145.7713313,16.6998263],[145.771424,16.6999203],[145.7715277,16.6998681],[145.7717295,16.699518],[145.7720732,16.6991261],[145.7723623,16.6988596],[145.7726624,16.6985566],[145.7733681,16.6978213],[145.7739075,16.6970517],[145.7740449,16.6965374],[145.7740675,16.6961518],[145.7740934,16.6955322],[145.7746367,16.6954207],[145.7752189,16.69464],[145.7761374,16.6940204],[145.776836,16.6935867],[145.7775475,16.6931902],[145.7780521,16.6929423],[145.7786213,16.6928184],[145.7790353,16.692806],[145.7794492,16.6926573],[145.7800193,16.6928677],[145.7803528,16.6929255],[145.7811569,16.692868],[145.7818533,16.6927986],[145.7824506,16.6925706],[145.7825679,16.6924914],[145.7827879,16.6924869],[145.7828281,16.6924436],[145.7827267,16.6923704],[145.7828434,16.6921328],[145.782936,16.6920605],[145.7828861,16.6918445],[145.7830553,16.6915513],[145.7832072,16.6912755],[145.7836386,16.6910657],[145.7836831,16.6910441],[145.7838001,16.6912071],[145.7837078,16.6915027],[145.7836265,16.6916328],[145.7835263,16.6916042],[145.7835316,16.6917561],[145.7836963,16.6918014],[145.7839489,16.6916599],[145.7842825,16.69166],[145.7844517,16.6915098],[145.7846954,16.6915556],[145.7852341,16.6913787],[145.7857967,16.6915136],[145.78595,16.6912345],[145.7860928,16.6910993],[145.7863925,16.691132],[145.7865054,16.6911964],[145.7864489,16.6914666],[145.7868132,16.6915515],[145.7868511,16.6917104],[145.7870547,16.691794],[145.7871795,16.6919919],[145.7872475,16.6920272],[145.7873187,16.6921282],[145.7874219,16.6921801],[145.787539,16.6921794],[145.7875951,16.692372],[145.7874645,16.6925445],[145.7875869,16.6929267],[145.7873199,16.693065],[145.7868154,16.6930363],[145.7866674,16.694048],[145.7867096,16.6945741],[145.7865455,16.6948523],[145.7866145,16.6950425],[145.7862772,16.6957735],[145.7863611,16.6961895],[145.7863348,16.6964366],[145.786627,16.6975371],[145.7869406,16.698487],[145.7872424,16.699546],[145.7878387,16.7005542],[145.7880735,16.7004883],[145.7881087,16.7005114],[145.7880875,16.7005637],[145.7879319,16.7006283],[145.7879764,16.7008986],[145.7880106,16.7011314],[145.7882411,16.7014994],[145.7882781,16.701646],[145.7884438,16.7020475],[145.7884784,16.7024666],[145.7889191,16.7024837],[145.7887509,16.7028554],[145.7889579,16.7033511],[145.7893589,16.7034502],[145.7895279,16.7032915],[145.7897143,16.7034415],[145.7902249,16.7039364],[145.790172,16.7040881],[145.7900899,16.7043552],[145.7899723,16.7043877],[145.7892797,16.7047069],[145.7891189,16.7049575],[145.7887741,16.7050507],[145.7891575,16.705079],[145.7892612,16.705185],[145.7891013,16.7052254],[145.7889095,16.7056597],[145.7886553,16.7056718],[145.7882189,16.705487],[145.7881687,16.7057302],[145.788117,16.7061267],[145.7882852,16.7068082],[145.7877159,16.707564],[145.7873925,16.7083694],[145.787302,16.7090757],[145.7873278,16.7097076],[145.7875089,16.7102156],[145.7871019,16.7123739],[145.786494,16.7131833],[145.785697,16.7136068],[145.7855006,16.7137939],[145.7847593,16.7138507],[145.7849372,16.7142909],[145.7842997,16.7149867],[145.7838253,16.7148731],[145.7834117,16.7140587],[145.7826462,16.7144575],[145.7824997,16.714425],[145.7822487,16.7146477],[145.7820996,16.714955],[145.7818048,16.7153075],[145.7813885,16.7155344],[145.7814357,16.7158393],[145.7813744,16.7159483],[145.7814624,16.7160709],[145.7814105,16.7162037],[145.7811711,16.7161322],[145.7813567,16.7162743],[145.7818237,16.7172161],[145.7816458,16.7179403],[145.7812007,16.7181971],[145.7803296,16.7178179],[145.7795947,16.7173849],[145.7793316,16.7175782],[145.7791342,16.7177461],[145.7787147,16.7178237],[145.7781425,16.717529],[145.7779425,16.7176827],[145.7774986,16.717261],[145.7771241,16.7166472],[145.777108,16.7165022],[145.7773703,16.7162141],[145.7778145,16.7160821],[145.777601,16.7153749],[145.7774301,16.7153621],[145.7773606,16.7151766],[145.77717,16.71517],[145.7769131,16.7152672],[145.7763479,16.714336],[145.7763363,16.714146],[145.77621,16.7143096],[145.7761321,16.7142892],[145.7759264,16.7144498],[145.775935,16.7141607],[145.775591,16.7143973],[145.7752776,16.7142416],[145.7753199,16.7140756],[145.7750243,16.7138413],[145.7748272,16.7139814],[145.774712,16.7139115],[145.7746901,16.7137015],[145.7743966,16.7135269],[145.7743676,16.7131777],[145.7742106,16.71331],[145.7741372,16.7132011],[145.7742872,16.7130216],[145.7741244,16.7128747],[145.7742756,16.7127934],[145.7742634,16.7125784],[145.7737544,16.7123364],[145.7737299,16.7121529],[145.7732066,16.7118739],[145.7727605,16.7119346],[145.7723445,16.7118579],[145.7719439,16.7115337],[145.7714922,16.7116288],[145.7714994,16.7124039],[145.7702774,16.7125739],[145.7692877,16.7126958],[145.7695255,16.7119557],[145.7691688,16.7115003],[145.7690945,16.7110448],[145.7686784,16.7108456],[145.7683515,16.7104328],[145.7687527,16.7102051],[145.7684406,16.7095788],[145.7679502,16.7093796],[145.7676382,16.7088245],[145.7672815,16.7079562],[145.7671598,16.7073151],[145.7668208,16.7065756],[145.7667525,16.7058098],[145.7666961,16.7057918],[145.7666194,16.7058024],[145.7665791,16.7058359],[145.766535,16.7058407],[145.7664998,16.7058089],[145.7664688,16.705745],[145.7664301,16.705639],[145.7664349,16.7055101],[145.7664354,16.7054418],[145.7663531,16.7053757],[145.7663402,16.7053224],[145.7663202,16.7052799],[145.7663174,16.7052457]]]}}
