{"type":"Feature","id":"attraction-botanical-garden-W1392256950","properties":{"id":"attraction-botanical-garden-W1392256950","kind":"attraction","name":"萬葉植物園","shortName":"萬葉植物園","context":"日本","subtype":"botanical-garden","subtypeLabel":"植物園・植物公園","statusLabel":"","aliases":["Manyo Botanical Garden","春日大社神苑"],"osmType":"way","osmId":1392256950,"osmDate":null,"officialAreaKm2":null,"areaSourceLabel":"","areaSourceUrl":"","boundarySourceLabel":"© OpenStreetMap contributors","boundarySourceUrl":"https://www.openstreetmap.org/copyright","geometryFile":"attractions/botanical-garden-W1392256950.geojson"},"geometry":{"type":"Polygon","coordinates":[[[135.8452016,34.6829884],[135.8454105,34.6828979],[135.8453657,34.6826234],[135.8452277,34.6823489],[135.845224,34.6820851],[135.8454589,34.6816649],[135.845513,34.6815943],[135.8456641,34.6814977],[135.8457089,34.6813489],[135.8454328,34.6812048],[135.8450449,34.6811312],[135.8445954,34.6811419],[135.8443287,34.6813091],[135.8440061,34.6815882],[135.8438849,34.6817416],[135.8436972,34.6821123],[135.8435891,34.6821763],[135.843425,34.6824574],[135.8432871,34.6826075],[135.843354,34.6828369],[135.8435604,34.6829317],[135.8440602,34.6828642],[135.8447614,34.6828366],[135.8452016,34.6829884]]]}}
