{"type":"Feature","id":"attraction-botanical-garden-W472957044","properties":{"id":"attraction-botanical-garden-W472957044","kind":"attraction","name":"波崎海岸砂丘植物公園","shortName":"波崎海岸砂丘植物公園","context":"日本","subtype":"botanical-garden","subtypeLabel":"植物園・植物公園","statusLabel":"","aliases":[],"osmType":"way","osmId":472957044,"osmDate":null,"officialAreaKm2":null,"areaSourceLabel":"","areaSourceUrl":"","boundarySourceLabel":"© OpenStreetMap contributors","boundarySourceUrl":"https://www.openstreetmap.org/copyright","geometryFile":"attractions/botanical-garden-W472957044.geojson"},"geometry":{"type":"Polygon","coordinates":[[[140.8234587,35.7599492],[140.8248164,35.7606102],[140.8212063,35.7647114],[140.8201934,35.7641758],[140.820704,35.7636374],[140.8212291,35.7630126],[140.821882,35.7621573],[140.8223124,35.7615829],[140.8231183,35.7604007],[140.8234587,35.7599492]]]}}
