{"type":"Feature","id":"attraction-botanical-garden-W102474363","properties":{"id":"attraction-botanical-garden-W102474363","kind":"attraction","name":"北海道大学植物園","shortName":"北海道大学植物園","context":"日本","subtype":"botanical-garden","subtypeLabel":"植物園・植物公園","statusLabel":"","aliases":["Botanical Garden of Hokkaido University"],"osmType":"way","osmId":102474363,"osmDate":null,"officialAreaKm2":null,"areaSourceLabel":"","areaSourceUrl":"","boundarySourceLabel":"© OpenStreetMap contributors","boundarySourceUrl":"https://www.openstreetmap.org/copyright","geometryFile":"attractions/botanical-garden-W102474363.geojson"},"geometry":{"type":"Polygon","coordinates":[[[141.3405913,43.0619713],[141.3397896,43.065109],[141.3398499,43.0651733],[141.3426684,43.0655675],[141.3441618,43.0657764],[141.3442546,43.065749],[141.3445519,43.0647081],[141.3445151,43.0644871],[141.3446747,43.0640495],[141.3444963,43.0638745],[141.3445819,43.0636754],[141.3446232,43.0635777],[141.3445954,43.0635456],[141.3446055,43.0635016],[141.3446177,43.0634578],[141.344658,43.0634428],[141.3446827,43.0633726],[141.3447329,43.0632028],[141.3449458,43.0631122],[141.3451444,43.0624526],[141.345123,43.0624214],[141.3441667,43.0622992],[141.3441393,43.062409],[141.3428281,43.0622656],[141.3427227,43.0623073],[141.3425761,43.0622884],[141.3421968,43.0626853],[141.3418203,43.0626055],[141.341099,43.0622338],[141.3405913,43.0619713]]]}}
