{"type":"Feature","id":"attraction-botanical-garden-W1306870804","properties":{"id":"attraction-botanical-garden-W1306870804","kind":"attraction","name":"弘前城植物園","shortName":"弘前城植物園","context":"日本","subtype":"botanical-garden","subtypeLabel":"植物園・植物公園","statusLabel":"","aliases":["Hirosaki Castle Botanical Garden"],"osmType":"way","osmId":1306870804,"osmDate":null,"officialAreaKm2":null,"areaSourceLabel":"","areaSourceUrl":"","boundarySourceLabel":"© OpenStreetMap contributors","boundarySourceUrl":"https://www.openstreetmap.org/copyright","geometryFile":"attractions/botanical-garden-W1306870804.geojson"},"geometry":{"type":"Polygon","coordinates":[[[140.4647143,40.6054857],[140.4646936,40.6054095],[140.4647347,40.6054014],[140.464721,40.6053453],[140.4647069,40.605297],[140.4646485,40.6053069],[140.4643479,40.6041552],[140.4644041,40.6040593],[140.4645025,40.6040423],[140.4669401,40.6036205],[140.4678048,40.6066383],[140.4677421,40.6066502],[140.466725,40.6068421],[140.4658575,40.6070066],[140.4657733,40.6070226],[140.4657272,40.607032],[140.4652143,40.6054604],[140.4652005,40.6054428],[140.4651758,40.6054323],[140.465145,40.6054264],[140.4651096,40.6054253],[140.4647143,40.6054857]]]}}
