{"type":"Feature","id":"attraction-botanical-garden-W784803920","properties":{"id":"attraction-botanical-garden-W784803920","kind":"attraction","name":"白野江植物公園","shortName":"白野江植物公園","context":"日本","subtype":"botanical-garden","subtypeLabel":"植物園・植物公園","statusLabel":"","aliases":[],"osmType":"way","osmId":784803920,"osmDate":null,"officialAreaKm2":null,"areaSourceLabel":"","areaSourceUrl":"","boundarySourceLabel":"© OpenStreetMap contributors","boundarySourceUrl":"https://www.openstreetmap.org/copyright","geometryFile":"attractions/botanical-garden-W784803920.geojson"},"geometry":{"type":"Polygon","coordinates":[[[131.003621,33.935494],[131.003462,33.935509],[131.0031189,33.935635],[131.002841,33.935771],[131.002647,33.935786],[131.002473,33.935741],[131.001698,33.935502],[131.000798,33.935264],[131.000343,33.935224],[131.000105,33.935228],[130.999877,33.935339],[130.999736,33.935444],[130.999688,33.935577],[130.999636,33.935826],[130.999658,33.936126],[130.999668,33.936276],[130.999666,33.93648],[130.999677,33.936642],[130.999614,33.936733],[130.999551,33.9368],[130.999266,33.936973],[130.999246,33.937015],[130.999241,33.937117],[130.999279,33.937195],[130.999319,33.937219],[130.999514,33.937246],[131.000004,33.93722],[131.000185,33.937241],[131.000563,33.937379],[131.0007291,33.937406],[131.000995,33.937354],[131.001238,33.93726],[131.002305,33.937255],[131.0024209,33.937283],[131.002479,33.937336],[131.002489,33.937432],[131.002492,33.937546],[131.002493,33.937612],[131.002547,33.937643],[131.002662,33.937647],[131.0028348,33.9376332],[131.003364,33.937444],[131.003581,33.9374],[131.003594,33.937398],[131.0041837,33.9372922],[131.0041959,33.9371286],[131.0041614,33.9370966],[131.0041398,33.9367283],[131.0040392,33.9367238],[131.0038595,33.936666],[131.003948,33.9365013],[131.0041224,33.9365903],[131.0041124,33.9364624],[131.0040373,33.9363778],[131.0040199,33.9362265],[131.0040615,33.9360362],[131.0040058,33.9360346],[131.0038516,33.9360401],[131.0037081,33.9361186],[131.0036489,33.9359622],[131.0036827,33.9359548],[131.0039683,33.9358425],[131.0040327,33.9358165],[131.0039984,33.9355996],[131.0039566,33.935436],[131.0039425,33.9353809],[131.0039269,33.9353197],[131.0038877,33.9352094],[131.0036469,33.935247],[131.0036561,33.9354165],[131.003621,33.935494]]]}}
