{"type":"Feature","id":"attraction-botanical-garden-W651852720","properties":{"id":"attraction-botanical-garden-W651852720","kind":"attraction","name":"薬用植物園","shortName":"薬用植物園","context":"日本","subtype":"botanical-garden","subtypeLabel":"植物園・植物公園","statusLabel":"","aliases":[],"osmType":"way","osmId":651852720,"osmDate":null,"officialAreaKm2":null,"areaSourceLabel":"","areaSourceUrl":"","boundarySourceLabel":"© OpenStreetMap contributors","boundarySourceUrl":"https://www.openstreetmap.org/copyright","geometryFile":"attractions/botanical-garden-W651852720.geojson"},"geometry":{"type":"Polygon","coordinates":[[[139.468099,35.5555108],[139.4684016,35.5557028],[139.4689454,35.5558655],[139.4698225,35.5561826],[139.4703135,35.5558117],[139.4706861,35.5559359],[139.4707178,35.5559313],[139.4707308,35.5559074],[139.4707554,35.5557768],[139.4710178,35.555233],[139.4709095,35.5550716],[139.470764,35.5549231],[139.4702601,35.5548609],[139.4692205,35.554784],[139.468304,35.5548776],[139.468099,35.5555108]]]}}
