{"type":"Feature","id":"attraction-botanical-garden-W23061245","properties":{"id":"attraction-botanical-garden-W23061245","kind":"attraction","name":"小石川植物園","shortName":"小石川植物園","context":"東京都・文京区","subtype":"botanical-garden","subtypeLabel":"植物園・植物公園","statusLabel":"","aliases":["Koishikawa Botanical Gardens","東京大学大学院理学系研究科附属植物園"],"osmType":"way","osmId":23061245,"osmDate":null,"officialAreaKm2":null,"areaSourceLabel":"","areaSourceUrl":"","boundarySourceLabel":"© OpenStreetMap contributors","boundarySourceUrl":"https://www.openstreetmap.org/copyright","geometryFile":"attractions/botanical-garden-W23061245.geojson"},"geometry":{"type":"Polygon","coordinates":[[[139.7428493,35.7227507],[139.7432551,35.722587],[139.743084,35.7223219],[139.7430959,35.7222446],[139.7434527,35.7220279],[139.7439926,35.7216752],[139.743892,35.7215275],[139.7452256,35.7205618],[139.7453618,35.7206799],[139.7467619,35.7195263],[139.7478936,35.7185983],[139.7474612,35.7182507],[139.7469276,35.7177645],[139.7468855,35.717713],[139.7467713,35.7173123],[139.7467432,35.7172997],[139.7454748,35.7179129],[139.7450903,35.7181914],[139.7444982,35.7183225],[139.7440422,35.7184876],[139.7437538,35.7186369],[139.7434671,35.7188702],[139.74321,35.7191867],[139.7429348,35.7196474],[139.7425134,35.7201725],[139.7422839,35.7202766],[139.7418182,35.7204517],[139.7407186,35.7210983],[139.7409335,35.7214951],[139.7410725,35.7218034],[139.7411717,35.7220144],[139.7413223,35.7222504],[139.7414848,35.7224687],[139.7417333,35.7227791],[139.7419278,35.7231224],[139.7428493,35.7227507]]]}}
