{"type":"Feature","id":"attraction-botanical-garden-W599909001","properties":{"id":"attraction-botanical-garden-W599909001","kind":"attraction","name":"２１世紀の森・紀伊半島森林植物公園","shortName":"２１世紀の森・紀伊半島森林植物公園","context":"日本","subtype":"botanical-garden","subtypeLabel":"植物園・植物公園","statusLabel":"","aliases":[],"osmType":"way","osmId":599909001,"osmDate":null,"officialAreaKm2":null,"areaSourceLabel":"","areaSourceUrl":"","boundarySourceLabel":"© OpenStreetMap contributors","boundarySourceUrl":"https://www.openstreetmap.org/copyright","geometryFile":"attractions/botanical-garden-W599909001.geojson"},"geometry":{"type":"Polygon","coordinates":[[[135.8542621,33.9687783],[135.8550078,33.968914],[135.8559465,33.9689451],[135.8563945,33.9691409],[135.856593,33.9695079],[135.8575076,33.9699528],[135.8584169,33.9690675],[135.8583257,33.9684558],[135.8577624,33.9681955],[135.8574298,33.9674881],[135.8558232,33.9667696],[135.8550855,33.9665827],[135.8540019,33.9666584],[135.853385,33.9669809],[135.8533287,33.9674814],[135.8539671,33.9686293],[135.8542621,33.9687783]]]}}
