{"type":"Feature","id":"attraction-botanical-garden-W584680765","properties":{"id":"attraction-botanical-garden-W584680765","kind":"attraction","name":"玉露の里 椿園","shortName":"玉露の里 椿園","context":"日本","subtype":"botanical-garden","subtypeLabel":"植物園・植物公園","statusLabel":"","aliases":[],"osmType":"way","osmId":584680765,"osmDate":null,"officialAreaKm2":null,"areaSourceLabel":"","areaSourceUrl":"","boundarySourceLabel":"© OpenStreetMap contributors","boundarySourceUrl":"https://www.openstreetmap.org/copyright","geometryFile":"attractions/botanical-garden-W584680765.geojson"},"geometry":{"type":"Polygon","coordinates":[[[138.2483013,34.9507396],[138.2485856,34.9507638],[138.2489853,34.9511057],[138.2491435,34.9512156],[138.2493205,34.951143],[138.249629,34.9512903],[138.2497993,34.9511815],[138.2498945,34.9512233],[138.2500635,34.9511936],[138.2496112,34.9509331],[138.2495093,34.9510048],[138.248363,34.9503752],[138.2482262,34.9505308],[138.2483013,34.9507396]]]}}
