{"type":"Feature","id":"attraction-botanical-garden-W1458028346","properties":{"id":"attraction-botanical-garden-W1458028346","kind":"attraction","name":"宮交ボタニックガーデン青島","shortName":"宮交ボタニックガーデン青島","context":"日本","subtype":"botanical-garden","subtypeLabel":"植物園・植物公園","statusLabel":"","aliases":[],"osmType":"way","osmId":1458028346,"osmDate":null,"officialAreaKm2":null,"areaSourceLabel":"","areaSourceUrl":"","boundarySourceLabel":"© OpenStreetMap contributors","boundarySourceUrl":"https://www.openstreetmap.org/copyright","geometryFile":"attractions/botanical-garden-W1458028346.geojson"},"geometry":{"type":"Polygon","coordinates":[[[131.469205,31.8022319],[131.4694761,31.8023259],[131.4695325,31.8022093],[131.4696385,31.8022432],[131.4696177,31.8022987],[131.4696846,31.802322],[131.4696564,31.8024008],[131.4697726,31.8024369],[131.4697614,31.8024613],[131.4703592,31.8026165],[131.4706659,31.802392],[131.4708056,31.8021338],[131.4708056,31.8019093],[131.4697304,31.8003011],[131.4696764,31.800306],[131.4695943,31.8003807],[131.469438,31.800482],[131.4694028,31.8005202],[131.4693696,31.8005485],[131.4691781,31.8004837],[131.4690433,31.8004372],[131.4688264,31.8004223],[131.4685939,31.8004073],[131.4686188,31.8006934],[131.4686643,31.8009103],[131.4687312,31.8011065],[131.4687251,31.8013491],[131.4687676,31.801504],[131.4687943,31.8016944],[131.4689814,31.8017065],[131.4690027,31.8018029],[131.4692324,31.8018256],[131.4693075,31.8019231],[131.4691741,31.8022204],[131.469205,31.8022319]]]}}
