{"type":"Feature","id":"attraction-botanical-garden-W611970342","properties":{"id":"attraction-botanical-garden-W611970342","kind":"attraction","name":"赤塚植物園","shortName":"赤塚植物園","context":"日本","subtype":"botanical-garden","subtypeLabel":"植物園・植物公園","statusLabel":"","aliases":["Akatsuka Botanical Garden","板橋区立赤塚植物園"],"osmType":"way","osmId":611970342,"osmDate":null,"officialAreaKm2":null,"areaSourceLabel":"","areaSourceUrl":"","boundarySourceLabel":"© OpenStreetMap contributors","boundarySourceUrl":"https://www.openstreetmap.org/copyright","geometryFile":"attractions/botanical-garden-W611970342.geojson"},"geometry":{"type":"Polygon","coordinates":[[[139.6433121,35.7801352],[139.6433865,35.7799997],[139.6439575,35.7801644],[139.6440928,35.7799343],[139.6443141,35.7797809],[139.644346,35.7797896],[139.6445946,35.7801587],[139.6445763,35.7802613],[139.6445776,35.7804412],[139.6447681,35.7807217],[139.6447955,35.780818],[139.6448026,35.7810432],[139.6446629,35.7810712],[139.6436658,35.7806307],[139.6436554,35.7806042],[139.6437258,35.7805111],[139.6434245,35.7803809],[139.6434323,35.7802994],[139.6434871,35.7802021],[139.6433121,35.7801352]]]}}
