{"type":"Feature","id":"attraction-botanical-garden-W1108948716","properties":{"id":"attraction-botanical-garden-W1108948716","kind":"attraction","name":"はぼろバラ園","shortName":"はぼろバラ園","context":"日本","subtype":"botanical-garden","subtypeLabel":"植物園・植物公園","statusLabel":"","aliases":["Haboro Rose Park"],"osmType":"way","osmId":1108948716,"osmDate":null,"officialAreaKm2":null,"areaSourceLabel":"","areaSourceUrl":"","boundarySourceLabel":"© OpenStreetMap contributors","boundarySourceUrl":"https://www.openstreetmap.org/copyright","geometryFile":"attractions/botanical-garden-W1108948716.geojson"},"geometry":{"type":"Polygon","coordinates":[[[141.7074116,44.3665086],[141.7074979,44.3664557],[141.7074933,44.3664024],[141.7075001,44.3663566],[141.707541,44.3662938],[141.7077567,44.3661066],[141.7078953,44.3659359],[141.7080078,44.3656441],[141.708087,44.3655485],[141.7081803,44.3654646],[141.7078045,44.3652465],[141.7069911,44.366143],[141.7072598,44.3663391],[141.7072452,44.3663621],[141.707246,44.3663792],[141.7072576,44.366393],[141.7074116,44.3665086]]]}}
