{"type":"Feature","id":"attraction-botanical-garden-W599390008","properties":{"id":"attraction-botanical-garden-W599390008","kind":"attraction","name":"越谷アリタキ植物園","shortName":"越谷アリタキ植物園","context":"日本","subtype":"botanical-garden","subtypeLabel":"植物園・植物公園","statusLabel":"","aliases":[],"osmType":"way","osmId":599390008,"osmDate":null,"officialAreaKm2":null,"areaSourceLabel":"","areaSourceUrl":"","boundarySourceLabel":"© OpenStreetMap contributors","boundarySourceUrl":"https://www.openstreetmap.org/copyright","geometryFile":"attractions/botanical-garden-W599390008.geojson"},"geometry":{"type":"Polygon","coordinates":[[[139.7897229,35.8999468],[139.7900095,35.8998123],[139.7897262,35.898757],[139.7890586,35.8989945],[139.7897229,35.8999468]]]}}
