{"type":"Feature","id":"attraction-botanical-garden-W1148260828","properties":{"id":"attraction-botanical-garden-W1148260828","kind":"attraction","name":"京都薬用植物園","shortName":"京都薬用植物園","context":"日本","subtype":"botanical-garden","subtypeLabel":"植物園・植物公園","statusLabel":"","aliases":["Kyoto Medicinal Plant Garden","武田薬品工業 京都薬用植物園"],"osmType":"way","osmId":1148260828,"osmDate":null,"officialAreaKm2":null,"areaSourceLabel":"","areaSourceUrl":"","boundarySourceLabel":"© OpenStreetMap contributors","boundarySourceUrl":"https://www.openstreetmap.org/copyright","geometryFile":"attractions/botanical-garden-W1148260828.geojson"},"geometry":{"type":"Polygon","coordinates":[[[135.8002077,35.048741],[135.8010673,35.0488852],[135.8012251,35.048838],[135.8012547,35.048884],[135.8016963,35.0488784],[135.8018677,35.0488678],[135.8022174,35.0488343],[135.8022728,35.0487772],[135.8022607,35.048471],[135.8022402,35.0481629],[135.8020476,35.0479552],[135.8020335,35.047621],[135.8020248,35.0475344],[135.8018078,35.0475959],[135.8012107,35.0475002],[135.8011956,35.0476145],[135.8012221,35.0477443],[135.8012282,35.0478493],[135.8009689,35.0480441],[135.800353,35.0485228],[135.8002077,35.048741]]]}}
