{"type":"Feature","id":"attraction-botanical-garden-W1466244077","properties":{"id":"attraction-botanical-garden-W1466244077","kind":"attraction","name":"与野公園 バラ園","shortName":"与野公園 バラ園","context":"日本","subtype":"botanical-garden","subtypeLabel":"植物園・植物公園","statusLabel":"","aliases":["Rose Garden (Yono Park)"],"osmType":"way","osmId":1466244077,"osmDate":null,"officialAreaKm2":null,"areaSourceLabel":"","areaSourceUrl":"","boundarySourceLabel":"© OpenStreetMap contributors","boundarySourceUrl":"https://www.openstreetmap.org/copyright","geometryFile":"attractions/botanical-garden-W1466244077.geojson"},"geometry":{"type":"Polygon","coordinates":[[[139.6173077,35.8820163],[139.6173963,35.8818441],[139.6174186,35.8817954],[139.6174541,35.8817143],[139.6174887,35.8816275],[139.617575,35.8814266],[139.6175981,35.8813848],[139.6176412,35.881293],[139.6176551,35.8812524],[139.6177437,35.8810465],[139.6176836,35.8810303],[139.6176381,35.8810184],[139.6175873,35.8810128],[139.6176212,35.880931],[139.6177814,35.8809716],[139.6178376,35.8808387],[139.6174679,35.88081],[139.6174656,35.8808268],[139.6173855,35.8808212],[139.6173763,35.8808549],[139.6173339,35.8808505],[139.617005,35.88165],[139.6170366,35.8816731],[139.6170227,35.8817392],[139.6169472,35.8819015],[139.6169649,35.8819215],[139.6172668,35.8820096],[139.6173077,35.8820163]]]}}
