{"type":"Feature","id":"attraction-botanical-garden-W1005792746","properties":{"id":"attraction-botanical-garden-W1005792746","kind":"attraction","name":"宮古島市熱帯植物園","shortName":"宮古島市熱帯植物園","context":"日本","subtype":"botanical-garden","subtypeLabel":"植物園・植物公園","statusLabel":"","aliases":[],"osmType":"way","osmId":1005792746,"osmDate":null,"officialAreaKm2":null,"areaSourceLabel":"","areaSourceUrl":"","boundarySourceLabel":"© OpenStreetMap contributors","boundarySourceUrl":"https://www.openstreetmap.org/copyright","geometryFile":"attractions/botanical-garden-W1005792746.geojson"},"geometry":{"type":"Polygon","coordinates":[[[125.3151733,24.8005587],[125.3155303,24.7999309],[125.316153,24.7995057],[125.3164977,24.7993778],[125.3167401,24.7995126],[125.3160364,24.8017156],[125.3155976,24.8016862],[125.3154601,24.8012407],[125.315167,24.801005],[125.3151505,24.8009009],[125.3151733,24.8005587]]]}}
