{"type":"Feature","id":"attraction-botanical-garden-W525316091","properties":{"id":"attraction-botanical-garden-W525316091","kind":"attraction","name":"延岡植物園","shortName":"延岡植物園","context":"日本","subtype":"botanical-garden","subtypeLabel":"植物園・植物公園","statusLabel":"","aliases":[],"osmType":"way","osmId":525316091,"osmDate":null,"officialAreaKm2":null,"areaSourceLabel":"","areaSourceUrl":"","boundarySourceLabel":"© OpenStreetMap contributors","boundarySourceUrl":"https://www.openstreetmap.org/copyright","geometryFile":"attractions/botanical-garden-W525316091.geojson"},"geometry":{"type":"Polygon","coordinates":[[[131.612374,32.5742605],[131.6117678,32.5740356],[131.6114567,32.5739745],[131.6108129,32.5740333],[131.6104106,32.5741915],[131.6102939,32.5741497],[131.6100244,32.5739033],[131.6097213,32.5732173],[131.6092438,32.5726514],[131.6090024,32.5723652],[131.6090105,32.5721301],[131.6110783,32.5711528],[131.6118289,32.5707388],[131.6129565,32.5722869],[131.6136128,32.5724575],[131.6138944,32.5728285],[131.6136963,32.5729825],[131.6134831,32.5731642],[131.6133084,32.5734221],[131.6129785,32.5739375],[131.6128859,32.5740482],[131.6128028,32.5741002],[131.6126526,32.5741703],[131.612374,32.5742605]]]}}
