{"type":"Feature","id":"attraction-botanical-garden-W235640732","properties":{"id":"attraction-botanical-garden-W235640732","kind":"attraction","name":"筑波実験植物園 (つくば植物園)","shortName":"筑波実験植物園 (つくば植物園)","context":"日本","subtype":"botanical-garden","subtypeLabel":"植物園・植物公園","statusLabel":"","aliases":["Tsukuba Botanical Garden","国立科学博物館 筑波実験植物園"],"osmType":"way","osmId":235640732,"osmDate":null,"officialAreaKm2":null,"areaSourceLabel":"","areaSourceUrl":"","boundarySourceLabel":"© OpenStreetMap contributors","boundarySourceUrl":"https://www.openstreetmap.org/copyright","geometryFile":"attractions/botanical-garden-W235640732.geojson"},"geometry":{"type":"Polygon","coordinates":[[[140.1098016,36.1033751],[140.1109958,36.1034847],[140.1117162,36.1035506],[140.1128442,36.1036738],[140.113184,36.1035039],[140.1133602,36.1032817],[140.113477,36.1029592],[140.1137422,36.102636],[140.1137901,36.1024454],[140.113925,36.1023108],[140.1140025,36.1021237],[140.1139975,36.1020765],[140.1139552,36.1019737],[140.1137957,36.1018348],[140.1136466,36.101734],[140.1133194,36.1015487],[140.113262,36.1014788],[140.1132659,36.1013981],[140.1133538,36.1011454],[140.113397,36.1006943],[140.1134272,36.1006132],[140.1135739,36.1003601],[140.1131703,36.1000365],[140.1128994,36.0998248],[140.1125829,36.0995786],[140.1123448,36.0994536],[140.1121451,36.099346],[140.1118029,36.0991709],[140.1105343,36.0990416],[140.1104622,36.0994555],[140.1100305,36.1019332],[140.1098016,36.1033751]]]}}
