{"type":"Feature","id":"attraction-botanical-garden-W385508218","properties":{"id":"attraction-botanical-garden-W385508218","kind":"attraction","name":"なかふらのフラワーパーク","shortName":"なかふらのフラワーパーク","context":"日本","subtype":"botanical-garden","subtypeLabel":"植物園・植物公園","statusLabel":"","aliases":[],"osmType":"way","osmId":385508218,"osmDate":null,"officialAreaKm2":null,"areaSourceLabel":"","areaSourceUrl":"","boundarySourceLabel":"© OpenStreetMap contributors","boundarySourceUrl":"https://www.openstreetmap.org/copyright","geometryFile":"attractions/botanical-garden-W385508218.geojson"},"geometry":{"type":"Polygon","coordinates":[[[142.4215671,43.4134429],[142.4216629,43.4134011],[142.4216876,43.4132424],[142.4217745,43.4130923],[142.4219201,43.4129556],[142.4220026,43.4129076],[142.4234608,43.4122702],[142.4232732,43.4120904],[142.424118,43.4116948],[142.4235239,43.4110132],[142.4230836,43.4112145],[142.4224901,43.411503],[142.4222536,43.4116615],[142.421974,43.4118937],[142.421819,43.4120841],[142.4216983,43.4122717],[142.4216171,43.4124352],[142.4215349,43.4126875],[142.4215118,43.4128102],[142.421501,43.4130329],[142.4215228,43.4132394],[142.4215671,43.4134429]]]}}
