{"type":"Feature","id":"attraction-botanical-garden-W923032264","properties":{"id":"attraction-botanical-garden-W923032264","kind":"attraction","name":"藤花園","shortName":"藤花園","context":"日本","subtype":"botanical-garden","subtypeLabel":"植物園・植物公園","statusLabel":"","aliases":[],"osmType":"way","osmId":923032264,"osmDate":null,"officialAreaKm2":null,"areaSourceLabel":"","areaSourceUrl":"","boundarySourceLabel":"© OpenStreetMap contributors","boundarySourceUrl":"https://www.openstreetmap.org/copyright","geometryFile":"attractions/botanical-garden-W923032264.geojson"},"geometry":{"type":"Polygon","coordinates":[[[139.7733921,35.985665],[139.7730821,35.9854192],[139.773017,35.9852894],[139.7729146,35.985213],[139.7728888,35.9848211],[139.7729685,35.9847223],[139.7729884,35.9846885],[139.7730641,35.9847285],[139.7731107,35.9847335],[139.7732889,35.9845874],[139.7733295,35.9845809],[139.7733874,35.9845977],[139.7738284,35.9849037],[139.7739036,35.9849849],[139.7741847,35.9851911],[139.7740103,35.9853879],[139.7737829,35.9855162],[139.7736317,35.985643],[139.7733921,35.985665]]]}}
