{"type":"Feature","id":"attraction-botanical-garden-W236985100","properties":{"id":"attraction-botanical-garden-W236985100","kind":"attraction","name":"小田原フラワーガーデン","shortName":"小田原フラワーガーデン","context":"神奈川県・小田原市","subtype":"botanical-garden","subtypeLabel":"植物園・植物公園","statusLabel":"","aliases":[],"osmType":"way","osmId":236985100,"osmDate":null,"officialAreaKm2":null,"areaSourceLabel":"","areaSourceUrl":"","boundarySourceLabel":"© OpenStreetMap contributors","boundarySourceUrl":"https://www.openstreetmap.org/copyright","geometryFile":"attractions/botanical-garden-W236985100.geojson"},"geometry":{"type":"Polygon","coordinates":[[[139.1270721,35.2809457],[139.1274631,35.2799507],[139.1295719,35.2799858],[139.1305911,35.2799157],[139.1306555,35.2804587],[139.1307735,35.2808528],[139.1303369,35.2808355],[139.1302446,35.2808318],[139.1291225,35.2815064],[139.1288602,35.281358],[139.1286658,35.2812395],[139.1281267,35.2809365],[139.1270721,35.2809457]]]}}
