{"type":"Feature","id":"attraction-botanical-garden-R15536493","properties":{"id":"attraction-botanical-garden-R15536493","kind":"attraction","name":"理学研究科植物園","shortName":"理学研究科植物園","context":"日本","subtype":"botanical-garden","subtypeLabel":"植物園・植物公園","statusLabel":"","aliases":[],"osmType":"relation","osmId":15536493,"osmDate":null,"officialAreaKm2":null,"areaSourceLabel":"","areaSourceUrl":"","boundarySourceLabel":"© OpenStreetMap contributors","boundarySourceUrl":"https://www.openstreetmap.org/copyright","geometryFile":"attractions/botanical-garden-R15536493.geojson"},"geometry":{"type":"Polygon","coordinates":[[[135.785614,35.0298134],[135.7856626,35.0300596],[135.7858604,35.0300376],[135.7859803,35.0306279],[135.7862291,35.0305997],[135.7862853,35.0309413],[135.7857979,35.0309967],[135.7858158,35.0310845],[135.7863343,35.0310211],[135.7863704,35.0312734],[135.7868856,35.0312542],[135.787578,35.0311814],[135.7874286,35.0308123],[135.7874306,35.0300026],[135.787073,35.0300061],[135.7870268,35.0297448],[135.7867548,35.0298098],[135.7863362,35.0298223],[135.7861574,35.0298277],[135.7859152,35.0298024],[135.785614,35.0298134]]]}}
