{"type":"Feature","id":"attraction-botanical-garden-W577750055","properties":{"id":"attraction-botanical-garden-W577750055","kind":"attraction","name":"須磨離宮公園 植物園","shortName":"須磨離宮公園 植物園","context":"日本","subtype":"botanical-garden","subtypeLabel":"植物園・植物公園","statusLabel":"","aliases":["Suma Rikyu Park"],"osmType":"way","osmId":577750055,"osmDate":null,"officialAreaKm2":null,"areaSourceLabel":"","areaSourceUrl":"","boundarySourceLabel":"© OpenStreetMap contributors","boundarySourceUrl":"https://www.openstreetmap.org/copyright","geometryFile":"attractions/botanical-garden-W577750055.geojson"},"geometry":{"type":"Polygon","coordinates":[[[135.1190316,34.654074],[135.1196678,34.6547329],[135.1200637,34.6549787],[135.1202963,34.6555865],[135.1205256,34.6555843],[135.1205631,34.6556185],[135.1211184,34.6554993],[135.1212552,34.6553978],[135.1211876,34.6550317],[135.1209086,34.6549214],[135.1208427,34.6549197],[135.1208825,34.6547349],[135.120879,34.6544596],[135.1208676,34.6543288],[135.1211252,34.6542374],[135.1213443,34.654256],[135.1218533,34.6540233],[135.1219244,34.6539361],[135.1218868,34.6536273],[135.1220263,34.6534198],[135.1218854,34.6530227],[135.1221688,34.6529137],[135.1226137,34.6527425],[135.122371,34.6524965],[135.12127,34.652738],[135.1204312,34.6527679],[135.1198277,34.6530371],[135.1193771,34.6534166],[135.1192336,34.6536328],[135.1191035,34.6540311],[135.1190316,34.654074]]]}}
