{"type":"Feature","id":"attraction-botanical-garden-W236240648","properties":{"id":"attraction-botanical-garden-W236240648","kind":"attraction","name":"ぐんまフラワーパークプラス","shortName":"ぐんまフラワーパークプラス","context":"日本","subtype":"botanical-garden","subtypeLabel":"植物園・植物公園","statusLabel":"","aliases":["ぐんまフラワーパーク","Gunma Flower Park","Gunma Flower Park +"],"osmType":"way","osmId":236240648,"osmDate":null,"officialAreaKm2":null,"areaSourceLabel":"","areaSourceUrl":"","boundarySourceLabel":"© OpenStreetMap contributors","boundarySourceUrl":"https://www.openstreetmap.org/copyright","geometryFile":"attractions/botanical-garden-W236240648.geojson"},"geometry":{"type":"Polygon","coordinates":[[[139.1756197,36.4588621],[139.1756747,36.4568109],[139.1756228,36.4568078],[139.1756071,36.4568182],[139.174599,36.456828],[139.1742925,36.4568643],[139.174331,36.4566517],[139.1742988,36.4565891],[139.173934,36.4562569],[139.1738777,36.4562504],[139.173478,36.456313],[139.1733806,36.4562913],[139.1735151,36.4544377],[139.174862,36.4541449],[139.1747842,36.4539248],[139.1746582,36.453366],[139.1758321,36.4532963],[139.1767264,36.4532743],[139.1771856,36.4532789],[139.1775749,36.4532981],[139.1781687,36.4533364],[139.1781499,36.4535286],[139.1781552,36.4539817],[139.1781611,36.454352],[139.178137,36.454572],[139.1780393,36.4549059],[139.1779458,36.4550852],[139.1777529,36.4556989],[139.177677,36.4565281],[139.1777211,36.4568369],[139.177936,36.4573045],[139.1783518,36.4577127],[139.1782893,36.4579682],[139.1779643,36.458268],[139.1779487,36.4585115],[139.177181,36.458513],[139.17681,36.4585729],[139.176501,36.4586614],[139.1764112,36.4586886],[139.1762514,36.4587371],[139.175637,36.4589021],[139.1756197,36.4588621]]]}}
