{"type":"Feature","id":"attraction-botanical-garden-W768537153","properties":{"id":"attraction-botanical-garden-W768537153","kind":"attraction","name":"植物園","shortName":"植物園","context":"日本","subtype":"botanical-garden","subtypeLabel":"植物園・植物公園","statusLabel":"","aliases":[],"osmType":"way","osmId":768537153,"osmDate":null,"officialAreaKm2":null,"areaSourceLabel":"","areaSourceUrl":"","boundarySourceLabel":"© OpenStreetMap contributors","boundarySourceUrl":"https://www.openstreetmap.org/copyright","geometryFile":"attractions/botanical-garden-W768537153.geojson"},"geometry":{"type":"Polygon","coordinates":[[[136.0461098,35.0507469],[136.0459703,35.0515022],[136.0459274,35.0520138],[136.0458831,35.0526462],[136.0462452,35.0526813],[136.0469292,35.0523618],[136.0471921,35.0525671],[136.047294,35.0526945],[136.0474321,35.0527033],[136.0477996,35.0522916],[136.0476507,35.0521686],[136.0474388,35.0514023],[136.0472725,35.0514023],[136.0472697,35.0510217],[136.0467079,35.050961],[136.046724,35.0507985],[136.0466945,35.0507754],[136.0461098,35.0507469]]]}}
