{"type":"Feature","id":"attraction-botanical-garden-W397666711","properties":{"id":"attraction-botanical-garden-W397666711","kind":"attraction","name":"牧野植物園","shortName":"牧野植物園","context":"日本","subtype":"botanical-garden","subtypeLabel":"植物園・植物公園","statusLabel":"","aliases":["Makino Botanical Garden"],"osmType":"way","osmId":397666711,"osmDate":null,"officialAreaKm2":null,"areaSourceLabel":"","areaSourceUrl":"","boundarySourceLabel":"© OpenStreetMap contributors","boundarySourceUrl":"https://www.openstreetmap.org/copyright","geometryFile":"attractions/botanical-garden-W397666711.geojson"},"geometry":{"type":"Polygon","coordinates":[[[133.5777114,33.5468806],[133.5777148,33.5468722],[133.5777586,33.5467627],[133.5778415,33.546647],[133.577934,33.546527],[133.578018,33.5465381],[133.5781056,33.5464959],[133.5781965,33.546392],[133.5783043,33.5462545],[133.5784122,33.5461365],[133.5786109,33.5460354],[133.5787895,33.5459709],[133.578958,33.5459568],[133.5791635,33.5459821],[133.5793656,33.5460326],[133.5795543,33.5461253],[133.5797463,33.5462825],[133.5798373,33.5463499],[133.5798002,33.5464314],[133.5797362,33.5465689],[133.5797901,33.5467852],[133.579935,33.5469115],[133.5800799,33.5469957],[133.5800967,33.5471249],[133.5803022,33.5472204],[133.5807031,33.5474197],[133.5809087,33.5475657],[133.580939,33.5476668],[133.5808783,33.5477314],[133.5805279,33.5476668],[133.5802315,33.5475517],[133.5799687,33.5475124],[133.5799451,33.5476191],[133.5801102,33.5477539],[133.5803022,33.5479083],[133.5806021,33.5480824],[133.5808143,33.5481835],[133.5810737,33.5484671],[133.5814612,33.5486355],[133.5818318,33.5488152],[133.5818486,33.548936],[133.5817846,33.5490792],[133.5818217,33.5492785],[133.5818722,33.5495341],[133.5819463,33.5496913],[133.5821518,33.5496997],[133.5823338,33.5497222],[133.58229,33.5498457],[133.5820036,33.5499861],[133.5818082,33.55009],[133.5817004,33.5502023],[133.5816465,33.5503567],[133.5815488,33.5504634],[133.5814309,33.5504382],[133.5812691,33.5503567],[133.5810434,33.5503343],[133.5807402,33.5502079],[133.5805448,33.5500703],[133.580437,33.5498682],[133.5804505,33.5496492],[133.5805448,33.5494751],[133.5805717,33.5493347],[133.5805145,33.5492336],[133.5802679,33.5492127],[133.580223,33.5493098],[133.5802466,33.5494892],[133.5804256,33.5495049],[133.5803215,33.5497152],[133.5801486,33.5497524],[133.579981,33.5497921],[133.5798373,33.5498205],[133.5796958,33.5497503],[133.5795139,33.549652],[133.5792308,33.5496099],[133.5787423,33.5494919],[133.5783852,33.5493403],[133.5781965,33.549214],[133.5780416,33.549096],[133.5777754,33.5489219],[133.5776979,33.5488096],[133.5776743,33.5486412],[133.5775665,33.5485064],[133.5773543,33.5484867],[133.5772431,33.5481947],[133.5772498,33.5478578],[133.577361,33.5476724],[133.5775699,33.5475264],[133.577927,33.547358],[133.5778293,33.5471895],[133.5777349,33.547068],[133.5777114,33.5468806]]]}}
