{"type":"Feature","id":"attraction-botanical-garden-W439428868","properties":{"id":"attraction-botanical-garden-W439428868","kind":"attraction","name":"辻村植物公園","shortName":"辻村植物公園","context":"日本","subtype":"botanical-garden","subtypeLabel":"植物園・植物公園","statusLabel":"","aliases":[],"osmType":"way","osmId":439428868,"osmDate":null,"officialAreaKm2":null,"areaSourceLabel":"","areaSourceUrl":"","boundarySourceLabel":"© OpenStreetMap contributors","boundarySourceUrl":"https://www.openstreetmap.org/copyright","geometryFile":"attractions/botanical-garden-W439428868.geojson"},"geometry":{"type":"Polygon","coordinates":[[[139.1310826,35.2592702],[139.1312717,35.2592987],[139.1312958,35.2596754],[139.1312046,35.259706],[139.1311121,35.2595341],[139.1298246,35.2593304],[139.1294411,35.2594027],[139.1294357,35.2597389],[139.1286713,35.2595155],[139.1285398,35.2594689],[139.1283668,35.2592998],[139.1282461,35.2592056],[139.1281603,35.259164],[139.1280812,35.2591453],[139.1279538,35.2591322],[139.127754,35.2591234],[139.1276172,35.2591147],[139.1274884,35.2590939],[139.127353,35.2590457],[139.1272457,35.2589909],[139.1271612,35.2589384],[139.1271116,35.2588803],[139.1269158,35.2587796],[139.1267481,35.2587194],[139.1265215,35.2586175],[139.1268205,35.2571742],[139.1270633,35.2570154],[139.1274857,35.2573384],[139.1275608,35.2573428],[139.1278197,35.2575903],[139.1286579,35.2576396],[139.128804,35.2576506],[139.1288858,35.2577195],[139.1289408,35.2578192],[139.1290401,35.2579462],[139.1290629,35.258036],[139.1290508,35.2581258],[139.1289931,35.2581981],[139.1288684,35.2583306],[139.1288014,35.2584226],[139.1287732,35.2584565],[139.1287665,35.258612],[139.1288537,35.2586712],[139.1294867,35.258669],[139.1295108,35.2589526],[139.12948,35.2592362],[139.1296007,35.2592406],[139.1298166,35.259153],[139.1300204,35.2590446],[139.1301317,35.2590139],[139.1302363,35.2590074],[139.1303141,35.2590205],[139.1305166,35.2591322],[139.1306561,35.2591946],[139.1307473,35.2592154],[139.1308452,35.2592319],[139.131041,35.2592165],[139.1310826,35.2592702]]]}}
