{"type":"Feature","id":"attraction-botanical-garden-W696657700","properties":{"id":"attraction-botanical-garden-W696657700","kind":"attraction","name":"軽井沢町植物園","shortName":"軽井沢町植物園","context":"日本","subtype":"botanical-garden","subtypeLabel":"植物園・植物公園","statusLabel":"","aliases":[],"osmType":"way","osmId":696657700,"osmDate":null,"officialAreaKm2":null,"areaSourceLabel":"","areaSourceUrl":"","boundarySourceLabel":"© OpenStreetMap contributors","boundarySourceUrl":"https://www.openstreetmap.org/copyright","geometryFile":"attractions/botanical-garden-W696657700.geojson"},"geometry":{"type":"Polygon","coordinates":[[[138.5983625,36.3229614],[138.5985481,36.322939],[138.5986828,36.3229227],[138.5985136,36.3219507],[138.5983904,36.3215183],[138.5981826,36.3210867],[138.5981123,36.3209406],[138.5978425,36.3210681],[138.5979095,36.3211348],[138.5978468,36.3211804],[138.5977159,36.3211162],[138.5974047,36.3211863],[138.5976166,36.3217991],[138.5977172,36.3218013],[138.5977437,36.3218995],[138.5978802,36.322404],[138.5981727,36.322363],[138.5983076,36.322865],[138.5983414,36.322873],[138.5983625,36.3229614]]]}}
