{"type":"Feature","id":"attraction-botanical-garden-W1132947420","properties":{"id":"attraction-botanical-garden-W1132947420","kind":"attraction","name":"堺市都市緑化センター","shortName":"緑化センター","context":"日本","subtype":"botanical-garden","subtypeLabel":"植物園・植物公園","statusLabel":"","aliases":["都市緑化センター","緑の相談所－都市緑化植物園－","緑化センター"],"osmType":"way","osmId":1132947420,"osmDate":null,"officialAreaKm2":null,"areaSourceLabel":"","areaSourceUrl":"","boundarySourceLabel":"© OpenStreetMap contributors","boundarySourceUrl":"https://www.openstreetmap.org/copyright","geometryFile":"attractions/botanical-garden-W1132947420.geojson"},"geometry":{"type":"Polygon","coordinates":[[[135.4818236,34.5564379],[135.4817662,34.5562815],[135.4813878,34.5558368],[135.4835969,34.5559133],[135.483801,34.5557817],[135.4838504,34.5559889],[135.483761,34.5560102],[135.4838393,34.5562805],[135.4837717,34.5562949],[135.4836648,34.5563175],[135.4835592,34.5563322],[135.4818236,34.5564379]]]}}
