{"type":"Feature","id":"attraction-botanical-garden-W241423246","properties":{"id":"attraction-botanical-garden-W241423246","kind":"attraction","name":"函館市熱帯植物園","shortName":"函館市熱帯植物園","context":"北海道・函館市","subtype":"botanical-garden","subtypeLabel":"植物園・植物公園","statusLabel":"","aliases":["Hakodate City Tropical Botanical Garden"],"osmType":"way","osmId":241423246,"osmDate":null,"officialAreaKm2":null,"areaSourceLabel":"","areaSourceUrl":"","boundarySourceLabel":"© OpenStreetMap contributors","boundarySourceUrl":"https://www.openstreetmap.org/copyright","geometryFile":"attractions/botanical-garden-W241423246.geojson"},"geometry":{"type":"Polygon","coordinates":[[[140.7897536,41.7744472],[140.7898635,41.7744512],[140.7906254,41.7743241],[140.7902498,41.773527],[140.7895927,41.7736731],[140.7879887,41.7739851],[140.7882113,41.7743132],[140.7884984,41.7746332],[140.7891018,41.7743672],[140.7897536,41.7744472]]]}}
