{"type":"Feature","id":"attraction-botanical-garden-W406678528","properties":{"id":"attraction-botanical-garden-W406678528","kind":"attraction","name":"鳥取県立とっとり花回廊","shortName":"鳥取県立とっとり花回廊","context":"鳥取県・南部町","subtype":"botanical-garden","subtypeLabel":"植物園・植物公園","statusLabel":"","aliases":["Tottori Flower Park"],"osmType":"way","osmId":406678528,"osmDate":null,"officialAreaKm2":null,"areaSourceLabel":"","areaSourceUrl":"","boundarySourceLabel":"© OpenStreetMap contributors","boundarySourceUrl":"https://www.openstreetmap.org/copyright","geometryFile":"attractions/botanical-garden-W406678528.geojson"},"geometry":{"type":"Polygon","coordinates":[[[133.4217549,35.3477838],[133.4216899,35.348599],[133.4217589,35.349195],[133.4219048,35.3495317],[133.4221694,35.3498835],[133.4224373,35.3501145],[133.4226275,35.3502467],[133.422826,35.3505075],[133.4229454,35.350665],[133.423084,35.3510247],[133.4230981,35.3511409],[133.4232929,35.3511472],[133.4232578,35.3514299],[133.4232436,35.3516304],[133.4233201,35.3518084],[133.4234111,35.3518684],[133.4235677,35.3519454],[133.4237027,35.3521515],[133.4237854,35.3522001],[133.4236025,35.352373],[133.4235673,35.3525324],[133.423657,35.3526937],[133.4238744,35.3527335],[133.4241912,35.3526612],[133.4244193,35.3525364],[133.424561,35.3524348],[133.424671,35.352338],[133.4247681,35.3522115],[133.4248389,35.3521186],[133.4249266,35.352071],[133.4249773,35.3521291],[133.4250608,35.3522489],[133.4251563,35.3523425],[133.4252953,35.3524204],[133.4254448,35.3524512],[133.4255585,35.3524215],[133.4257971,35.3523744],[133.4258396,35.3522148],[133.4258301,35.3519865],[133.4258691,35.3517285],[133.4260934,35.3515512],[133.4262678,35.3514896],[133.4263847,35.3515222],[133.4265561,35.351587],[133.4268966,35.3517104],[133.4271333,35.3516177],[133.4271236,35.3513916],[133.4271549,35.3512577],[133.4273519,35.3510234],[133.4272971,35.3507355],[133.4270553,35.3504422],[133.4271265,35.3502097],[133.4270648,35.3500986],[133.4268023,35.3497869],[133.4268821,35.3495205],[133.4270555,35.3494951],[133.4276054,35.3494588],[133.4276927,35.3494449],[133.4277715,35.3493992],[133.4278458,35.3492331],[133.4279525,35.3490925],[133.4281044,35.3489065],[133.4282959,35.3487727],[133.4284113,35.3486846],[133.428875,35.3485973],[133.4289428,35.3485295],[133.4289866,35.348282],[133.428901,35.3482032],[133.42867,35.3481286],[133.4283946,35.3480403],[133.4281061,35.3480273],[133.4280045,35.3479092],[133.4280136,35.3475854],[133.4279283,35.3472603],[133.4279073,35.3469853],[133.4279619,35.3467284],[133.4279888,35.346397],[133.428166,35.3460835],[133.4282893,35.3458336],[133.4283833,35.3453578],[133.4283128,35.3450731],[133.4278542,35.345277],[133.4274746,35.3452769],[133.4274473,35.3455351],[133.4273141,35.3457489],[133.4268498,35.3458665],[133.4266664,35.3459077],[133.4263974,35.3457787],[133.4262502,35.3454551],[133.4261571,35.345355],[133.4260329,35.345326],[133.4259466,35.3453272],[133.4259335,35.3453274],[133.4258404,35.3453796],[133.4256523,35.3454176],[133.4255109,35.3453794],[133.4252778,35.3452283],[133.4251285,35.3451487],[133.4248662,35.345157],[133.4245862,35.3452669],[133.4244724,35.3452319],[133.4244214,35.3450366],[133.424414,35.3449655],[133.424368,35.3449402],[133.4241952,35.344915],[133.4242439,35.3447967],[133.4243065,35.3446051],[133.4244267,35.3440829],[133.424382,35.3438428],[133.424162,35.3437515],[133.4240064,35.3437274],[133.4239288,35.3436592],[133.4237853,35.3436079],[133.4236378,35.3434767],[133.4235495,35.3433362],[133.4230651,35.3431202],[133.4227276,35.3432641],[133.4225055,35.3433421],[133.4223894,35.3435179],[133.4222599,35.3436226],[133.4221582,35.3437672],[133.422062,35.3439809],[133.4219477,35.3441249],[133.4218408,35.3442805],[133.4216295,35.3445232],[133.4210781,35.3450573],[133.421371,35.3454],[133.42167,35.3457781],[133.4219078,35.346318],[133.4218793,35.347023],[133.4218501,35.3472575],[133.4217549,35.3477838]]]}}
