{"type":"Feature","id":"attraction-botanical-garden-W1300036582","properties":{"id":"attraction-botanical-garden-W1300036582","kind":"attraction","name":"高松公園ボタン園","shortName":"高松公園ボタン園","context":"日本","subtype":"botanical-garden","subtypeLabel":"植物園・植物公園","statusLabel":"","aliases":[],"osmType":"way","osmId":1300036582,"osmDate":null,"officialAreaKm2":null,"areaSourceLabel":"","areaSourceUrl":"","boundarySourceLabel":"© OpenStreetMap contributors","boundarySourceUrl":"https://www.openstreetmap.org/copyright","geometryFile":"attractions/botanical-garden-W1300036582.geojson"},"geometry":{"type":"Polygon","coordinates":[[[141.1465681,39.7265253],[141.1463886,39.7265042],[141.1462019,39.7264432],[141.146056,39.7263656],[141.1460453,39.7262303],[141.1460818,39.7261742],[141.1461419,39.7260619],[141.146159,39.7259118],[141.1461354,39.7258045],[141.1460646,39.7256015],[141.1458801,39.7252962],[141.1457835,39.7252269],[141.1455732,39.7251295],[141.145511,39.7251048],[141.1453329,39.7251493],[141.1451977,39.7251543],[141.1450969,39.7251394],[141.1449252,39.7250206],[141.14476,39.7249892],[141.144584,39.724877],[141.1444252,39.7247433],[141.1442739,39.7245387],[141.1439499,39.7242812],[141.1438769,39.7241987],[141.1441924,39.7240485],[141.1445056,39.7240419],[141.1449005,39.7241327],[141.1450979,39.7242202],[141.1454197,39.7242251],[141.1455463,39.7243456],[141.1456772,39.7244925],[141.1458331,39.7246641],[141.1459254,39.7248374],[141.1460971,39.7248902],[141.1462065,39.7249117],[141.1462881,39.7249661],[141.1463205,39.7251349],[141.1463245,39.7251559],[141.1465134,39.7255619],[141.1465348,39.7256213],[141.1465691,39.7257929],[141.1466035,39.7260917],[141.1466078,39.7262765],[141.1465946,39.7264498],[141.1465681,39.7265253]]]}}
