{"type":"Feature","id":"attraction-botanical-garden-W140209690","properties":{"id":"attraction-botanical-garden-W140209690","kind":"attraction","name":"あしかがフラワーパーク","shortName":"あしかがフラワーパーク","context":"日本","subtype":"botanical-garden","subtypeLabel":"植物園・植物公園","statusLabel":"","aliases":["Ashikaga Flower Park"],"osmType":"way","osmId":140209690,"osmDate":null,"officialAreaKm2":null,"areaSourceLabel":"","areaSourceUrl":"","boundarySourceLabel":"© OpenStreetMap contributors","boundarySourceUrl":"https://www.openstreetmap.org/copyright","geometryFile":"attractions/botanical-garden-W140209690.geojson"},"geometry":{"type":"Polygon","coordinates":[[[139.5206442,36.3151565],[139.5192743,36.3149629],[139.5191325,36.3149231],[139.5190278,36.3148842],[139.5189125,36.3147934],[139.5188589,36.3147459],[139.5188267,36.3146853],[139.5188106,36.314601],[139.5188253,36.3142164],[139.5186441,36.3139155],[139.5183988,36.3136671],[139.5183787,36.3136271],[139.518363,36.3135958],[139.5183256,36.3135213],[139.5183216,36.3135132],[139.5183163,36.3135028],[139.5182875,36.3131149],[139.5183813,36.3130652],[139.5188235,36.3129092],[139.5189139,36.3124743],[139.5193955,36.3124745],[139.5196426,36.3128754],[139.5198437,36.3127597],[139.5200917,36.3128672],[139.5202079,36.3130047],[139.5204091,36.3132359],[139.5207712,36.313545],[139.521036,36.3137346],[139.5212613,36.3138773],[139.5214985,36.3139925],[139.5218718,36.3141223],[139.5219711,36.3142044],[139.5220328,36.3143211],[139.5220054,36.3144436],[139.5221238,36.3144563],[139.5220879,36.3146734],[139.5219696,36.3146607],[139.5219917,36.3146751],[139.5219752,36.3147599],[139.5220799,36.3147716],[139.5220736,36.3148028],[139.5220673,36.314834],[139.5220413,36.3149579],[139.5220826,36.314964],[139.5220356,36.3151942],[139.5219914,36.3151877],[139.5215984,36.3151358],[139.5215303,36.3151474],[139.5210677,36.3150866],[139.5206735,36.3150325],[139.5206442,36.3151565]]]}}
