{"type":"Feature","id":"attraction-botanical-garden-W662040899","properties":{"id":"attraction-botanical-garden-W662040899","kind":"attraction","name":"六甲高山植物園","shortName":"六甲高山植物園","context":"日本","subtype":"botanical-garden","subtypeLabel":"植物園・植物公園","statusLabel":"","aliases":[],"osmType":"way","osmId":662040899,"osmDate":null,"officialAreaKm2":null,"areaSourceLabel":"","areaSourceUrl":"","boundarySourceLabel":"© OpenStreetMap contributors","boundarySourceUrl":"https://www.openstreetmap.org/copyright","geometryFile":"attractions/botanical-garden-W662040899.geojson"},"geometry":{"type":"Polygon","coordinates":[[[135.2399758,34.7619015],[135.2401777,34.7621052],[135.240669,34.7623956],[135.2409031,34.7625767],[135.2410271,34.7628256],[135.2411464,34.7630632],[135.2415275,34.7630707],[135.2417341,34.7630707],[135.2420923,34.7629764],[135.2423815,34.7627841],[135.2426477,34.7625653],[135.2428543,34.7623428],[135.2428314,34.7619656],[135.2426432,34.7616488],[135.2422575,34.7616224],[135.2411189,34.7616563],[135.2399758,34.7619015]]]}}
