{"type":"Feature","id":"attraction-botanical-garden-W620267524","properties":{"id":"attraction-botanical-garden-W620267524","kind":"attraction","name":"あずま水生植物公園","shortName":"あずま水生植物公園","context":"日本","subtype":"botanical-garden","subtypeLabel":"植物園・植物公園","statusLabel":"","aliases":[],"osmType":"way","osmId":620267524,"osmDate":null,"officialAreaKm2":null,"areaSourceLabel":"","areaSourceUrl":"","boundarySourceLabel":"© OpenStreetMap contributors","boundarySourceUrl":"https://www.openstreetmap.org/copyright","geometryFile":"attractions/botanical-garden-W620267524.geojson"},"geometry":{"type":"Polygon","coordinates":[[[139.2491252,36.33238],[139.2491676,36.3322161],[139.2489801,36.3321947],[139.2491287,36.3314748],[139.2492597,36.3313123],[139.2493074,36.3311954],[139.2495322,36.331251],[139.2496733,36.3310894],[139.2501816,36.3312467],[139.2504931,36.3313023],[139.250739,36.3314178],[139.2507125,36.3317741],[139.2499075,36.331588],[139.2496986,36.3319643],[139.2496986,36.3320784],[139.2496597,36.3324148],[139.2491252,36.33238]]]}}
