{"type":"Feature","id":"attraction-botanical-garden-W461377243","properties":{"id":"attraction-botanical-garden-W461377243","kind":"attraction","name":"鈴鹿フラワーパーク","shortName":"鈴鹿フラワーパーク","context":"日本","subtype":"botanical-garden","subtypeLabel":"植物園・植物公園","statusLabel":"","aliases":[],"osmType":"way","osmId":461377243,"osmDate":null,"officialAreaKm2":null,"areaSourceLabel":"","areaSourceUrl":"","boundarySourceLabel":"© OpenStreetMap contributors","boundarySourceUrl":"https://www.openstreetmap.org/copyright","geometryFile":"attractions/botanical-garden-W461377243.geojson"},"geometry":{"type":"Polygon","coordinates":[[[136.5239847,34.9008413],[136.5240114,34.9008103],[136.5239956,34.9007501],[136.5239983,34.9006583],[136.523915,34.9006276],[136.5232526,34.9003966],[136.5219131,34.8999501],[136.5217313,34.8999091],[136.5216194,34.8999109],[136.5215399,34.8999241],[136.5214525,34.8999507],[136.5213326,34.9000149],[136.5211539,34.9001418],[136.5207929,34.9003883],[136.5206978,34.9004793],[136.5206336,34.9005581],[136.5205825,34.9006329],[136.5205126,34.900763],[136.5204603,34.9009927],[136.5204265,34.90116],[136.5204073,34.9012778],[136.520387,34.9013324],[136.5203464,34.901405],[136.5202926,34.9014669],[136.5202363,34.901513],[136.5201552,34.901556],[136.5200654,34.9015912],[136.5199584,34.9016142],[136.5188954,34.9017819],[136.5187339,34.9018074],[136.5185131,34.9018422],[136.5181995,34.9018973],[136.5175198,34.9030701],[136.517369,34.9033244],[136.5173508,34.9033298],[136.5172296,34.9035271],[136.5172346,34.9035398],[136.5171569,34.903659],[136.5170815,34.9037951],[136.5180704,34.9041917],[136.5182636,34.9039364],[136.518431,34.9036452],[136.5185792,34.9033712],[136.5187165,34.9032415],[136.5187757,34.9032014],[136.5189889,34.903255],[136.5190794,34.9033634],[136.5191465,34.9035423],[136.5192958,34.9037486],[136.5193493,34.9037231],[136.5194191,34.9036653],[136.5200368,34.9030769],[136.5203101,34.9028378],[136.5205428,34.9025547],[136.5211279,34.9017424],[136.5211884,34.9017681],[136.5216281,34.90212],[136.5217371,34.9022052],[136.5222272,34.9024984],[136.5222737,34.9024933],[136.5224806,34.9022871],[136.5226435,34.9019078],[136.5227794,34.9016668],[136.5229977,34.9010782],[136.5231569,34.9010872],[136.5232476,34.9010731],[136.5239847,34.9008413]]]}}
