{"type":"Feature","id":"attraction-botanical-garden-W413606677","properties":{"id":"attraction-botanical-garden-W413606677","kind":"attraction","name":"千葉市都市緑化植物園","shortName":"千葉市都市緑化植物園","context":"日本","subtype":"botanical-garden","subtypeLabel":"植物園・植物公園","statusLabel":"","aliases":[],"osmType":"way","osmId":413606677,"osmDate":null,"officialAreaKm2":null,"areaSourceLabel":"","areaSourceUrl":"","boundarySourceLabel":"© OpenStreetMap contributors","boundarySourceUrl":"https://www.openstreetmap.org/copyright","geometryFile":"attractions/botanical-garden-W413606677.geojson"},"geometry":{"type":"Polygon","coordinates":[[[140.1521957,35.6026119],[140.1520853,35.6026251],[140.1519119,35.6026048],[140.151718,35.6025685],[140.151061,35.602424],[140.1509139,35.602272],[140.1506656,35.6016386],[140.1508333,35.6015966],[140.1506614,35.6012833],[140.1508478,35.6012233],[140.1509821,35.6014914],[140.1510787,35.601498],[140.1512478,35.6015354],[140.1514522,35.6015508],[140.1516433,35.6015394],[140.1519269,35.6015492],[140.1521368,35.601125],[140.1527336,35.6007303],[140.153152,35.6004511],[140.1539352,35.6009985],[140.153704,35.6012603],[140.1534931,35.6013863],[140.1533607,35.6013553],[140.1535341,35.6015481],[140.1528373,35.6019559],[140.1528104,35.6020234],[140.1528909,35.6021581],[140.1528906,35.6021819],[140.1527192,35.6023046],[140.152515,35.6024325],[140.1524286,35.6025048],[140.1523759,35.6025532],[140.1522973,35.6025922],[140.1521957,35.6026119]]]}}
