{"type":"Feature","id":"attraction-botanical-garden-W1418377588","properties":{"id":"attraction-botanical-garden-W1418377588","kind":"attraction","name":"都市緑化植物園","shortName":"都市緑化植物園","context":"日本","subtype":"botanical-garden","subtypeLabel":"植物園・植物公園","statusLabel":"","aliases":[],"osmType":"way","osmId":1418377588,"osmDate":null,"officialAreaKm2":null,"areaSourceLabel":"","areaSourceUrl":"","boundarySourceLabel":"© OpenStreetMap contributors","boundarySourceUrl":"https://www.openstreetmap.org/copyright","geometryFile":"attractions/botanical-garden-W1418377588.geojson"},"geometry":{"type":"Polygon","coordinates":[[[139.8077301,35.6740225],[139.8077183,35.6736835],[139.8081717,35.6736809],[139.8081719,35.6736189],[139.8082375,35.6736191],[139.8082569,35.6735773],[139.8081856,35.6735351],[139.8080481,35.6734552],[139.8079661,35.6734257],[139.8078837,35.673404],[139.8078216,35.6733893],[139.8077842,35.6733721],[139.8077609,35.673351],[139.8077321,35.6733135],[139.8077133,35.6732749],[139.8077153,35.6731729],[139.8076547,35.6729412],[139.807579,35.6727772],[139.8074447,35.6725013],[139.8073627,35.6724717],[139.8069095,35.6725332],[139.8068964,35.6728209],[139.8069001,35.6729521],[139.806906,35.6730667],[139.8069471,35.6732593],[139.8070443,35.6735568],[139.8070841,35.6736937],[139.8070932,35.6739272],[139.8073781,35.6739286],[139.8073778,35.673972],[139.8073653,35.6739844],[139.8073576,35.6740179],[139.8076878,35.6740507],[139.807705,35.6740447],[139.8077175,35.674036],[139.8077301,35.6740225]]]}}
