{"type":"Feature","id":"attraction-botanical-garden-W474336848","properties":{"id":"attraction-botanical-garden-W474336848","kind":"attraction","name":"宇治市植物公園","shortName":"宇治市植物公園","context":"日本","subtype":"botanical-garden","subtypeLabel":"植物園・植物公園","statusLabel":"","aliases":[],"osmType":"way","osmId":474336848,"osmDate":null,"officialAreaKm2":null,"areaSourceLabel":"","areaSourceUrl":"","boundarySourceLabel":"© OpenStreetMap contributors","boundarySourceUrl":"https://www.openstreetmap.org/copyright","geometryFile":"attractions/botanical-garden-W474336848.geojson"},"geometry":{"type":"Polygon","coordinates":[[[135.7958262,34.8705369],[135.7956169,34.8703795],[135.7955432,34.8703212],[135.795102,34.8700175],[135.7949008,34.8698811],[135.7947412,34.8698517],[135.7946835,34.8699177],[135.7944622,34.870239],[135.7943871,34.8702445],[135.793726,34.870053],[135.7935744,34.8704035],[135.7934873,34.8704728],[135.7933304,34.8705707],[135.7932097,34.870865],[135.793215,34.8711676],[135.7933371,34.871292],[135.7936133,34.8713893],[135.7937582,34.8714674],[135.7940867,34.8715742],[135.7941323,34.8716644],[135.79419,34.8717535],[135.7943201,34.8718272],[135.7943107,34.8719422],[135.7944032,34.8721458],[135.7944394,34.8722448],[135.7945803,34.8723482],[135.7947452,34.8723669],[135.7949263,34.8723548],[135.7951583,34.8723086],[135.7953554,34.8723185],[135.795511,34.8723889],[135.7956759,34.8725122],[135.7958664,34.8725078],[135.79603,34.872466],[135.796368,34.8722839],[135.7967891,34.8721463],[135.7969822,34.8718206],[135.7970425,34.8718448],[135.7971512,34.8717997],[135.7972531,34.8718019],[135.7973108,34.8717843],[135.7972397,34.8716688],[135.7971096,34.8715445],[135.7968186,34.8712584],[135.7962526,34.870815],[135.7960448,34.8707016],[135.7958262,34.8705369]]]}}
