{"type":"Feature","id":"attraction-botanical-garden-W460262470","properties":{"id":"attraction-botanical-garden-W460262470","kind":"attraction","name":"さいたま市園芸植物園","shortName":"さいたま市園芸植物園","context":"日本","subtype":"botanical-garden","subtypeLabel":"植物園・植物公園","statusLabel":"","aliases":["Saitama City Botanical Garden"],"osmType":"way","osmId":460262470,"osmDate":null,"officialAreaKm2":null,"areaSourceLabel":"","areaSourceUrl":"","boundarySourceLabel":"© OpenStreetMap contributors","boundarySourceUrl":"https://www.openstreetmap.org/copyright","geometryFile":"attractions/botanical-garden-W460262470.geojson"},"geometry":{"type":"Polygon","coordinates":[[[139.7137592,35.8833801],[139.7140211,35.8816452],[139.7141733,35.8816624],[139.7142263,35.8815936],[139.7152279,35.8817427],[139.7148563,35.8831507],[139.7137592,35.8833801]]]}}
