{"type":"Feature","id":"attraction-botanical-garden-W558124072","properties":{"id":"attraction-botanical-garden-W558124072","kind":"attraction","name":"風土記植物園","shortName":"風土記植物園","context":"日本","subtype":"botanical-garden","subtypeLabel":"植物園・植物公園","statusLabel":"","aliases":[],"osmType":"way","osmId":558124072,"osmDate":null,"officialAreaKm2":null,"areaSourceLabel":"","areaSourceUrl":"","boundarySourceLabel":"© OpenStreetMap contributors","boundarySourceUrl":"https://www.openstreetmap.org/copyright","geometryFile":"attractions/botanical-garden-W558124072.geojson"},"geometry":{"type":"Polygon","coordinates":[[[133.0889353,35.4261484],[133.0894207,35.426075],[133.0894107,35.4259894],[133.0894772,35.4258264],[133.0895004,35.425637],[133.08955,35.4254314],[133.0896405,35.4251406],[133.0895427,35.4250066],[133.0894827,35.4250003],[133.0890233,35.4251627],[133.0888386,35.425608],[133.0889033,35.4257823],[133.0889028,35.4259629],[133.0889353,35.4261484]]]}}
