{"type":"Feature","id":"attraction-botanical-garden-W875983377","properties":{"id":"attraction-botanical-garden-W875983377","kind":"attraction","name":"雪国植物園","shortName":"雪国植物園","context":"新潟県・長岡市","subtype":"botanical-garden","subtypeLabel":"植物園・植物公園","statusLabel":"","aliases":["Yukiguni Botanical Gardens"],"osmType":"way","osmId":875983377,"osmDate":null,"officialAreaKm2":null,"areaSourceLabel":"","areaSourceUrl":"","boundarySourceLabel":"© OpenStreetMap contributors","boundarySourceUrl":"https://www.openstreetmap.org/copyright","geometryFile":"attractions/botanical-garden-W875983377.geojson"},"geometry":{"type":"Polygon","coordinates":[[[138.7494869,37.4645441],[138.7493405,37.4644111],[138.749082,37.4642027],[138.7487807,37.4640307],[138.7486655,37.4639949],[138.7480362,37.4640446],[138.7469236,37.4638937],[138.7468697,37.4639638],[138.7467609,37.4639834],[138.7456557,37.4638181],[138.7455726,37.4641362],[138.7456535,37.464431],[138.7455304,37.4648298],[138.7454426,37.4647592],[138.7452081,37.4650092],[138.7456139,37.4653256],[138.7463088,37.4661484],[138.7463055,37.4669673],[138.7458822,37.4675557],[138.746687,37.4675055],[138.7473468,37.4675739],[138.7476479,37.467556],[138.7479501,37.4678467],[138.7483482,37.4678244],[138.748819,37.4676805],[138.7523852,37.4674088],[138.7518114,37.4678498],[138.7481032,37.4682225],[138.745248,37.4679699],[138.7428842,37.4679691],[138.7399503,37.4676703],[138.7390192,37.4672506],[138.739472,37.4657579],[138.7400571,37.4659559],[138.7410687,37.4648397],[138.7408471,37.4644708],[138.7415518,37.4637567],[138.7420909,37.463996],[138.7422698,37.4637757],[138.7419875,37.4634703],[138.7419454,37.4630401],[138.7419765,37.4626766],[138.7422633,37.4625749],[138.7429761,37.4627095],[138.7430957,37.4625552],[138.7432023,37.46197],[138.7436134,37.4617991],[138.7436933,37.4614404],[138.7438623,37.461384],[138.744228,37.4611415],[138.7441098,37.4608938],[138.7450376,37.460211],[138.7450702,37.4608806],[138.7451241,37.4610964],[138.7452405,37.461216],[138.745514,37.4614679],[138.7459122,37.4617955],[138.7463038,37.4613085],[138.7467749,37.4616245],[138.7472296,37.4617007],[138.74747,37.4615611],[138.7475617,37.4616526],[138.7476621,37.4617338],[138.747405,37.4619105],[138.7476834,37.4621546],[138.7499996,37.463834],[138.750225,37.4640615],[138.7494869,37.4645441]]]}}
