{"type":"Feature","id":"attraction-botanical-garden-W237097913","properties":{"id":"attraction-botanical-garden-W237097913","kind":"attraction","name":"草津市立水生植物公園 みずの森","shortName":"草津市立水生植物公園 みずの森","context":"日本","subtype":"botanical-garden","subtypeLabel":"植物園・植物公園","statusLabel":"","aliases":[],"osmType":"way","osmId":237097913,"osmDate":null,"officialAreaKm2":null,"areaSourceLabel":"","areaSourceUrl":"","boundarySourceLabel":"© OpenStreetMap contributors","boundarySourceUrl":"https://www.openstreetmap.org/copyright","geometryFile":"attractions/botanical-garden-W237097913.geojson"},"geometry":{"type":"Polygon","coordinates":[[[135.9394904,35.0749341],[135.9400198,35.0748983],[135.940451,35.0748849],[135.9406165,35.074937],[135.9409349,35.0748894],[135.9412393,35.07485],[135.9413952,35.0748179],[135.9414898,35.0747762],[135.9415504,35.0747359],[135.9416518,35.0746631],[135.9417591,35.0745544],[135.9418155,35.0744621],[135.9418319,35.0743936],[135.9418319,35.0743176],[135.9418082,35.0742491],[135.9417752,35.0741831],[135.9417409,35.0741494],[135.9416663,35.0740958],[135.9400016,35.0729939],[135.9394121,35.0726023],[135.9393084,35.0727155],[135.9392338,35.0727438],[135.9393184,35.0729989],[135.9394349,35.0743756],[135.9394575,35.0743744],[135.9394659,35.0744735],[135.9394515,35.0744743],[135.9394904,35.0749341]]]}}
