{"type":"Feature","id":"attraction-botanical-garden-W686999911","properties":{"id":"attraction-botanical-garden-W686999911","kind":"attraction","name":"神戸市立森林植物園","shortName":"神戸市立森林植物園","context":"日本","subtype":"botanical-garden","subtypeLabel":"植物園・植物公園","statusLabel":"","aliases":[],"osmType":"way","osmId":686999911,"osmDate":null,"officialAreaKm2":null,"areaSourceLabel":"","areaSourceUrl":"","boundarySourceLabel":"© OpenStreetMap contributors","boundarySourceUrl":"https://www.openstreetmap.org/copyright","geometryFile":"attractions/botanical-garden-W686999911.geojson"},"geometry":{"type":"Polygon","coordinates":[[[135.1766074,34.7453593],[135.1811242,34.7454298],[135.1816606,34.7435961],[135.182358,34.7402372],[135.1848578,34.7379713],[135.18489,34.7364196],[135.1795256,34.7350442],[135.1779163,34.7332896],[135.1735282,34.7334659],[135.1726377,34.7345416],[135.1732921,34.7366665],[135.1726699,34.7384033],[135.1758242,34.7385003],[135.1770687,34.7393203],[135.1764464,34.7402724],[135.1761246,34.7423883],[135.1766074,34.7453593]]]}}
