{"type":"Feature","id":"attraction-botanical-garden-W961017086","properties":{"id":"attraction-botanical-garden-W961017086","kind":"attraction","name":"花巻温泉バラ園","shortName":"花巻温泉バラ園","context":"日本","subtype":"botanical-garden","subtypeLabel":"植物園・植物公園","statusLabel":"","aliases":[],"osmType":"way","osmId":961017086,"osmDate":null,"officialAreaKm2":null,"areaSourceLabel":"","areaSourceUrl":"","boundarySourceLabel":"© OpenStreetMap contributors","boundarySourceUrl":"https://www.openstreetmap.org/copyright","geometryFile":"attractions/botanical-garden-W961017086.geojson"},"geometry":{"type":"Polygon","coordinates":[[[141.0688986,39.4532898],[141.0694366,39.4530111],[141.0699215,39.4528225],[141.0702542,39.4528362],[141.0706907,39.4528516],[141.0712841,39.4528772],[141.0713372,39.4530384],[141.0711779,39.4531586],[141.0707461,39.4532843],[141.070332,39.4536123],[141.0696277,39.4537161],[141.0691535,39.4536888],[141.0688986,39.4532898]]]}}
