{"type":"Feature","id":"attraction-botanical-garden-W268858009","properties":{"id":"attraction-botanical-garden-W268858009","kind":"attraction","name":"服部緑地 都市緑化植物園","shortName":"服部緑地 都市緑化植物園","context":"日本","subtype":"botanical-garden","subtypeLabel":"植物園・植物公園","statusLabel":"","aliases":[],"osmType":"way","osmId":268858009,"osmDate":null,"officialAreaKm2":null,"areaSourceLabel":"","areaSourceUrl":"","boundarySourceLabel":"© OpenStreetMap contributors","boundarySourceUrl":"https://www.openstreetmap.org/copyright","geometryFile":"attractions/botanical-garden-W268858009.geojson"},"geometry":{"type":"Polygon","coordinates":[[[135.4916622,34.7717836],[135.4918259,34.7718154],[135.4919346,34.7716579],[135.4920869,34.7716043],[135.4925122,34.7716076],[135.4925501,34.7715711],[135.4923024,34.7695108],[135.4921719,34.7694848],[135.4918872,34.7693695],[135.4915847,34.7691145],[135.4913036,34.7689651],[135.4910357,34.7688681],[135.4908757,34.7687885],[135.4907712,34.7687074],[135.4906803,34.7686032],[135.4905325,34.7682828],[135.4904149,34.7681672],[135.4900926,34.7679616],[135.4898114,34.7678114],[135.4892944,34.7682302],[135.4893261,34.7686544],[135.4893936,34.768945],[135.4895087,34.7690447],[135.4896748,34.7691275],[135.4898784,34.769259],[135.4900526,34.7694195],[135.4901429,34.7695331],[135.4902343,34.769682],[135.4904893,34.7702465],[135.4905995,34.7704983],[135.4907426,34.7709107],[135.4908343,34.7712796],[135.49119,34.7710731],[135.4914305,34.7709904],[135.4915827,34.7710066],[135.4916934,34.7710618],[135.4917706,34.7711304],[135.491834,34.771225],[135.4918704,34.7713303],[135.4918211,34.7714072],[135.4917128,34.77151],[135.4916622,34.7717836]]]}}
