{"type":"Feature","id":"attraction-botanical-garden-W1447684621","properties":{"id":"attraction-botanical-garden-W1447684621","kind":"attraction","name":"東大付属植物園日光分園","shortName":"東大付属植物園日光分園","context":"日本","subtype":"botanical-garden","subtypeLabel":"植物園・植物公園","statusLabel":"","aliases":["Nikko Botanical Garden"],"osmType":"way","osmId":1447684621,"osmDate":null,"officialAreaKm2":null,"areaSourceLabel":"","areaSourceUrl":"","boundarySourceLabel":"© OpenStreetMap contributors","boundarySourceUrl":"https://www.openstreetmap.org/copyright","geometryFile":"attractions/botanical-garden-W1447684621.geojson"},"geometry":{"type":"Polygon","coordinates":[[[139.5915592,36.7508224],[139.5918571,36.7514618],[139.5917879,36.7516433],[139.5913108,36.7515253],[139.5909025,36.7517061],[139.5906989,36.7518824],[139.5898411,36.7513571],[139.589316,36.7512445],[139.588455,36.7512378],[139.5879423,36.7510954],[139.5876635,36.7506314],[139.587393,36.7505663],[139.5864435,36.7504816],[139.5861852,36.7511924],[139.5858272,36.7511416],[139.58573,36.7514381],[139.5855469,36.7513994],[139.5852229,36.7513291],[139.5853294,36.7509825],[139.5841786,36.7507487],[139.5842476,36.7505131],[139.5844029,36.750323],[139.5846473,36.750119],[139.5849783,36.7501182],[139.5852874,36.750065],[139.5856153,36.7498109],[139.5859032,36.74953],[139.586215,36.7493893],[139.5865158,36.7492824],[139.5875965,36.7490972],[139.587989,36.7490924],[139.5887587,36.7492675],[139.5896718,36.7497405],[139.5909892,36.7503368],[139.5915592,36.7508224]]]}}
