{"type":"Feature","id":"attraction-botanical-garden-W601321779","properties":{"id":"attraction-botanical-garden-W601321779","kind":"attraction","name":"湿性植物園","shortName":"湿性植物園","context":"日本","subtype":"botanical-garden","subtypeLabel":"植物園・植物公園","statusLabel":"","aliases":[],"osmType":"way","osmId":601321779,"osmDate":null,"officialAreaKm2":null,"areaSourceLabel":"","areaSourceUrl":"","boundarySourceLabel":"© OpenStreetMap contributors","boundarySourceUrl":"https://www.openstreetmap.org/copyright","geometryFile":"attractions/botanical-garden-W601321779.geojson"},"geometry":{"type":"Polygon","coordinates":[[[136.0922312,35.0040225],[136.0920491,35.003687],[136.092252,35.0035239],[136.0926067,35.0034477],[136.0927338,35.0032411],[136.0929822,35.0030966],[136.093446,35.0034143],[136.0927926,35.0037367],[136.0925043,35.0038858],[136.0922312,35.0040225]]]}}
