{"type":"Feature","id":"attraction-botanical-garden-W81366899","properties":{"id":"attraction-botanical-garden-W81366899","kind":"attraction","name":"国立科学博物館附属自然教育園","shortName":"国立科学博物館附属自然教育園","context":"日本","subtype":"botanical-garden","subtypeLabel":"植物園・植物公園","statusLabel":"","aliases":["Institute for Nature Study, National Museum of Nature and Science"],"osmType":"way","osmId":81366899,"osmDate":null,"officialAreaKm2":null,"areaSourceLabel":"","areaSourceUrl":"","boundarySourceLabel":"© OpenStreetMap contributors","boundarySourceUrl":"https://www.openstreetmap.org/copyright","geometryFile":"attractions/botanical-garden-W81366899.geojson"},"geometry":{"type":"Polygon","coordinates":[[[139.719528,35.6411186],[139.7198836,35.6410034],[139.7202475,35.6407982],[139.7204744,35.6406494],[139.720641,35.6405302],[139.7208439,35.6403615],[139.7209672,35.6402554],[139.721324,35.639828],[139.7218837,35.6395546],[139.722343,35.6393161],[139.7223699,35.6392907],[139.7223653,35.6392302],[139.7220013,35.6387908],[139.7217651,35.6385676],[139.7217268,35.638486],[139.7217186,35.6384121],[139.7217331,35.6383656],[139.7220701,35.6377827],[139.721786,35.6376791],[139.7216583,35.6378368],[139.721466,35.6377711],[139.721483,35.6376258],[139.7216245,35.6372242],[139.7216531,35.6371431],[139.7218267,35.6368021],[139.7218582,35.6368117],[139.7225251,35.6370143],[139.7227769,35.6365832],[139.7220862,35.6362765],[139.7218843,35.6361744],[139.721799,35.6361312],[139.7214548,35.6359615],[139.7212987,35.6358846],[139.7212191,35.635844],[139.7212523,35.6358033],[139.7210102,35.635678],[139.7207975,35.6360978],[139.7201656,35.6366755],[139.7199776,35.6373466],[139.7183977,35.6373512],[139.7183719,35.6361073],[139.7177068,35.6368112],[139.7173809,35.6372025],[139.7171634,35.6376363],[139.7170308,35.6380812],[139.7170092,35.6383555],[139.7170513,35.6388509],[139.7171135,35.6395407],[139.7171712,35.6397588],[139.7172811,35.640027],[139.7174351,35.6402905],[139.7176838,35.6405579],[139.7177937,35.6406456],[139.7179457,35.6407576],[139.7184021,35.6410426],[139.7189499,35.6413566],[139.7191605,35.6413291],[139.7193232,35.6412969],[139.7193959,35.6412729],[139.7194163,35.6412679],[139.7193906,35.6411499],[139.719528,35.6411186]]]}}
