{"type":"Feature","id":"attraction-botanical-garden-W1150604058","properties":{"id":"attraction-botanical-garden-W1150604058","kind":"attraction","name":"駒井萬葉園","shortName":"駒井萬葉園","context":"日本","subtype":"botanical-garden","subtypeLabel":"植物園・植物公園","statusLabel":"","aliases":[],"osmType":"way","osmId":1150604058,"osmDate":null,"officialAreaKm2":null,"areaSourceLabel":"","areaSourceUrl":"","boundarySourceLabel":"© OpenStreetMap contributors","boundarySourceUrl":"https://www.openstreetmap.org/copyright","geometryFile":"attractions/botanical-garden-W1150604058.geojson"},"geometry":{"type":"Polygon","coordinates":[[[135.7366482,35.0577833],[135.7366562,35.0584585],[135.7373663,35.0582955],[135.7375914,35.0584513],[135.7376687,35.0579721],[135.7378323,35.0578523],[135.7377475,35.0575251],[135.7384405,35.0573918],[135.738566,35.0564482],[135.7373188,35.0566924],[135.7372263,35.0573922],[135.7371872,35.0574342],[135.7366801,35.0574764],[135.736668,35.0575922],[135.7366482,35.0577833]]]}}
