{"type":"Feature","id":"attraction-botanical-garden-W1485631144","properties":{"id":"attraction-botanical-garden-W1485631144","kind":"attraction","name":"かのやばら園","shortName":"かのやばら園","context":"日本","subtype":"botanical-garden","subtypeLabel":"植物園・植物公園","statusLabel":"","aliases":[],"osmType":"way","osmId":1485631144,"osmDate":null,"officialAreaKm2":null,"areaSourceLabel":"","areaSourceUrl":"","boundarySourceLabel":"© OpenStreetMap contributors","boundarySourceUrl":"https://www.openstreetmap.org/copyright","geometryFile":"attractions/botanical-garden-W1485631144.geojson"},"geometry":{"type":"Polygon","coordinates":[[[130.8165396,31.3458099],[130.8166696,31.3458001],[130.8166593,31.3457114],[130.8170023,31.345686],[130.8170483,31.345717],[130.8170695,31.3457169],[130.8171846,31.3457162],[130.8174828,31.345658],[130.8177208,31.3455832],[130.817824,31.3457148],[130.8180563,31.3456276],[130.8182086,31.3455623],[130.818584,31.3453404],[130.8183591,31.3450298],[130.8183225,31.3449143],[130.8182676,31.3447338],[130.8182188,31.344555],[130.8180793,31.3440974],[130.8180154,31.3438974],[130.8177412,31.343381],[130.8177121,31.3432828],[130.8177289,31.343183],[130.8177661,31.3430992],[130.8178448,31.3430312],[130.8179209,31.3429813],[130.8183492,31.3427621],[130.8184164,31.3427062],[130.8184642,31.3426458],[130.8184766,31.342574],[130.8184757,31.3425248],[130.8184175,31.3424116],[130.8183222,31.3422533],[130.8183191,31.3422483],[130.8182501,31.3421916],[130.8181704,31.342147],[130.8180943,31.3421258],[130.8180404,31.3421258],[130.817966,31.3421538],[130.8176988,31.3423012],[130.8176325,31.3423193],[130.8175564,31.3423185],[130.8174794,31.3423072],[130.817398,31.3422709],[130.8173281,31.3422082],[130.8172918,31.3421387],[130.8171856,31.3418523],[130.817091,31.3417072],[130.8166574,31.3414397],[130.8165105,31.3413596],[130.816429,31.3413437],[130.8164212,31.3413422],[130.8163672,31.3413505],[130.8163123,31.3413739],[130.816249,31.3414225],[130.8162404,31.3414598],[130.816251,31.3414798],[130.8163471,31.3415588],[130.8164045,31.3416204],[130.8164228,31.3416651],[130.8164274,31.3417068],[130.8164264,31.3417532],[130.8164116,31.3417992],[130.8163801,31.3418526],[130.81634,31.3418917],[130.8162739,31.3419264],[130.8162114,31.3419485],[130.8161535,31.3419511],[130.8160925,31.3419507],[130.8160244,31.3419303],[130.8159639,31.3418999],[130.8158923,31.3418404],[130.8157672,31.3417007],[130.8157343,31.3417242],[130.815762,31.3418328],[130.8157459,31.3421775],[130.815705,31.3423038],[130.8156504,31.3423663],[130.8155417,31.342409],[130.8154108,31.3424347],[130.8153684,31.3424472],[130.8153284,31.3425419],[130.8154254,31.3425597],[130.815427,31.3427518],[130.8154432,31.3428649],[130.8155079,31.3430452],[130.8156034,31.3432768],[130.8162959,31.3430747],[130.8163683,31.3431899],[130.81638,31.3433664],[130.8164724,31.3434756],[130.8164894,31.3435486],[130.8164955,31.3436611],[130.8165225,31.3437756],[130.8166157,31.3440091],[130.8166727,31.3440999],[130.8167474,31.3442447],[130.8167836,31.3443854],[130.8167944,31.3445091],[130.8167721,31.3446538],[130.8167536,31.3447183],[130.8166619,31.3448893],[130.816588,31.3449834],[130.8164809,31.3450887],[130.8164347,31.3451623],[130.816427,31.3452176],[130.8164378,31.3453386],[130.8163827,31.3453401],[130.8164089,31.3456065],[130.8164166,31.3456953],[130.8165298,31.3456841],[130.8165396,31.3458099]]]}}
