{"type":"Feature","id":"attraction-botanical-garden-W237092188","properties":{"id":"attraction-botanical-garden-W237092188","kind":"attraction","name":"八ヶ岳薬用植物園","shortName":"八ヶ岳薬用植物園","context":"日本","subtype":"botanical-garden","subtypeLabel":"植物園・植物公園","statusLabel":"","aliases":[],"osmType":"way","osmId":237092188,"osmDate":null,"officialAreaKm2":null,"areaSourceLabel":"","areaSourceUrl":"","boundarySourceLabel":"© OpenStreetMap contributors","boundarySourceUrl":"https://www.openstreetmap.org/copyright","geometryFile":"attractions/botanical-garden-W237092188.geojson"},"geometry":{"type":"Polygon","coordinates":[[[138.3423516,35.8688062],[138.34288,35.8687931],[138.3428821,35.8666212],[138.3442442,35.8657118],[138.344532,35.8640718],[138.3445813,35.863339],[138.3446932,35.8626699],[138.3423114,35.8626743],[138.3422523,35.8630829],[138.3422684,35.8652697],[138.3423489,35.8669955],[138.3423516,35.8688062]]]}}
