{"type":"Feature","id":"attraction-botanical-garden-W869043434","properties":{"id":"attraction-botanical-garden-W869043434","kind":"attraction","name":"岩手大学農学部附属植物園","shortName":"岩手大学農学部附属植物園","context":"日本","subtype":"botanical-garden","subtypeLabel":"植物園・植物公園","statusLabel":"","aliases":[],"osmType":"way","osmId":869043434,"osmDate":null,"officialAreaKm2":null,"areaSourceLabel":"","areaSourceUrl":"","boundarySourceLabel":"© OpenStreetMap contributors","boundarySourceUrl":"https://www.openstreetmap.org/copyright","geometryFile":"attractions/botanical-garden-W869043434.geojson"},"geometry":{"type":"Polygon","coordinates":[[[141.1385255,39.7126716],[141.1386779,39.71229],[141.1387878,39.7122243],[141.1388254,39.712169],[141.138851,39.7121263],[141.1390598,39.712168],[141.1392805,39.7122201],[141.1397278,39.7123311],[141.1397812,39.7123696],[141.1397809,39.7124093],[141.1397587,39.7124326],[141.1397395,39.7124858],[141.1396862,39.7126345],[141.1396481,39.712697],[141.1395609,39.7127401],[141.1392666,39.7128202],[141.1391922,39.7128631],[141.1391222,39.7129404],[141.1390257,39.7129871],[141.1388834,39.7128075],[141.1387917,39.7127425],[141.1385255,39.7126716]]]}}
