{"type":"Feature","id":"attraction-botanical-garden-W153760077","properties":{"id":"attraction-botanical-garden-W153760077","kind":"attraction","name":"東京都薬用植物園","shortName":"東京都薬用植物園","context":"日本","subtype":"botanical-garden","subtypeLabel":"植物園・植物公園","statusLabel":"","aliases":["Tokyo Medicinal Botanical Garden"],"osmType":"way","osmId":153760077,"osmDate":null,"officialAreaKm2":null,"areaSourceLabel":"","areaSourceUrl":"","boundarySourceLabel":"© OpenStreetMap contributors","boundarySourceUrl":"https://www.openstreetmap.org/copyright","geometryFile":"attractions/botanical-garden-W153760077.geojson"},"geometry":{"type":"Polygon","coordinates":[[[139.4329798,35.73089],[139.4335324,35.7308638],[139.4335683,35.7309629],[139.4342952,35.7308706],[139.4343317,35.7310709],[139.4348353,35.7309885],[139.4354488,35.7329663],[139.434458,35.7325206],[139.4329777,35.7318794],[139.4330421,35.7313805],[139.4329798,35.73089]]]}}
