{
  "type": "Feature",
  "properties": {
    "name": "大仙古墳外濠",
    "kind": "water",
    "context": "大阪府 堺市 大仙古墳",
    "boundaryDefinition": "OSMに記録された閉じた水域境界。周囲の陸地は含めない。",
    "geometryType": "Polygon",
    "boundaryStatus": "closed-area-boundary",
    "osmType": "way",
    "osmId": 41374179,
    "boundarySourceUrl": "https://www.openstreetmap.org/way/41374179",
    "license": "OpenStreetMap contributors, ODbL 1.0"
  },
  "geometry": {
    "type": "Polygon",
    "coordinates": [
      [
        [
          135.485593,
          34.561206
        ],
        [
          135.4854911,
          34.5612552
        ],
        [
          135.4855013,
          34.5612835
        ],
        [
          135.4831751,
          34.5622995
        ],
        [
          135.4831208,
          34.5623802
        ],
        [
          135.4862134,
          34.5663327
        ],
        [
          135.4865044,
          34.5665216
        ],
        [
          135.4867364,
          34.5666486
        ],
        [
          135.4870194,
          34.566748
        ],
        [
          135.487356,
          34.5668319
        ],
        [
          135.4877758,
          34.5668717
        ],
        [
          135.4882613,
          34.5668717
        ],
        [
          135.4886596,
          34.5668109
        ],
        [
          135.4889841,
          34.566716
        ],
        [
          135.4891933,
          34.5666475
        ],
        [
          135.4893932,
          34.5665569
        ],
        [
          135.489538,
          34.5664741
        ],
        [
          135.4897057,
          34.5663703
        ],
        [
          135.4899189,
          34.5662024
        ],
        [
          135.4901268,
          34.5659981
        ],
        [
          135.4903333,
          34.565753
        ],
        [
          135.4904419,
          34.5654625
        ],
        [
          135.4905197,
          34.5652306
        ],
        [
          135.4905398,
          34.5649059
        ],
        [
          135.4905224,
          34.5646099
        ],
        [
          135.4904889,
          34.564367
        ],
        [
          135.4903507,
          34.5639749
        ],
        [
          135.4901268,
          34.563542
        ],
        [
          135.4891652,
          34.5617562
        ],
        [
          135.488437,
          34.5603977
        ],
        [
          135.4881956,
          34.5600056
        ],
        [
          135.4858124,
          34.5611421
        ],
        [
          135.4857927,
          34.5611051
        ],
        [
          135.4856842,
          34.5611618
        ],
        [
          135.4855728,
          34.5610008
        ],
        [
          135.4860102,
          34.5607928
        ],
        [
          135.487497,
          34.5600859
        ],
        [
          135.4878843,
          34.5599217
        ],
        [
          135.4882273,
          34.5597869
        ],
        [
          135.4882956,
          34.559811
        ],
        [
          135.4883333,
          34.5598723
        ],
        [
          135.4887619,
          34.5606616
        ],
        [
          135.4893466,
          34.5618191
        ],
        [
          135.4901746,
          34.5633948
        ],
        [
          135.4904418,
          34.563947
        ],
        [
          135.4905931,
          34.5643185
        ],
        [
          135.4906444,
          34.564639
        ],
        [
          135.4906373,
          34.5649209
        ],
        [
          135.4906293,
          34.5652415
        ],
        [
          135.4905471,
          34.5655037
        ],
        [
          135.490425,
          34.5658097
        ],
        [
          135.4901994,
          34.5660646
        ],
        [
          135.4899844,
          34.5662744
        ],
        [
          135.4897857,
          34.5664395
        ],
        [
          135.4894829,
          34.5666172
        ],
        [
          135.4892383,
          34.5667268
        ],
        [
          135.4887731,
          34.5668989
        ],
        [
          135.4884236,
          34.5669757
        ],
        [
          135.4881217,
          34.5670058
        ],
        [
          135.4877534,
          34.5670025
        ],
        [
          135.4873362,
          34.5669653
        ],
        [
          135.4869433,
          34.5668984
        ],
        [
          135.4866663,
          34.5668149
        ],
        [
          135.4863515,
          34.5666585
        ],
        [
          135.4860967,
          34.5664947
        ],
        [
          135.4858447,
          34.5662651
        ],
        [
          135.483744,
          34.5635386
        ],
        [
          135.4836703,
          34.5634501
        ],
        [
          135.4828475,
          34.5623019
        ],
        [
          135.4828634,
          34.5622166
        ],
        [
          135.4831302,
          34.5621079
        ],
        [
          135.4854054,
          34.5610685
        ],
        [
          135.4854733,
          34.5610375
        ],
        [
          135.485593,
          34.561206
        ]
      ]
    ]
  }
}
