{"type":"Feature","id":"attraction-imperial-site-W554879249","properties":{"id":"attraction-imperial-site-W554879249","kind":"attraction","name":"京都御所","shortName":"京都御所","context":"京都府京都市上京区","subtype":"imperial-site","subtypeLabel":"皇居・御所","statusLabel":"京都御苑内・宮内庁管理の御所","aliases":["Kyoto Imperial Palace"],"osmType":"way","osmId":554879249,"osmDate":null,"officialAreaKm2":null,"areaSourceLabel":"","areaSourceUrl":"","boundarySourceLabel":"© OpenStreetMap contributors","boundarySourceUrl":"https://www.openstreetmap.org/copyright","boundaryDefinition":"京都御所の施設敷地・外周境界。隣接する京都御苑全体は含めない。","boundaryStatus":"closed-area-boundary","geometryAreaKm2":0.11179164,"geometrySha256":"35327e6e29115d247888282a7d0ee3d175136273c6e7faf56053c952a3051dd5","geometryFile":"attractions/imperial-site-W554879249.geojson"},"geometry":{"type":"Polygon","coordinates":[[[135.7637337,35.0235863],[135.7637123,35.0235862],[135.7637124,35.0236375],[135.7637125,35.0236899],[135.7637331,35.0236902],[135.7636674,35.0272678],[135.763622,35.0272678],[135.7636225,35.0273041],[135.7624557,35.0272935],[135.7624558,35.0272836],[135.7624069,35.0272832],[135.7623531,35.0272827],[135.762353,35.0272923],[135.7609667,35.0272867],[135.7609677,35.027131],[135.760953,35.0271308],[135.7609535,35.0270929],[135.7609539,35.0270556],[135.7609702,35.0270557],[135.76098,35.0258524],[135.7609666,35.0258524],[135.7609667,35.0258138],[135.7609667,35.0257764],[135.7609807,35.0257763],[135.7609887,35.0247504],[135.7610144,35.0247506],[135.7610152,35.024646],[135.7609896,35.0246459],[135.7610007,35.0232258],[135.7620826,35.0232315],[135.7620822,35.0232498],[135.7621442,35.0232499],[135.7622106,35.0232499],[135.7622111,35.0232348],[135.7637449,35.0232324],[135.7637337,35.0235863]]]}}
