{"type":"Feature","id":"attraction-kofun-W41939887","properties":{"id":"attraction-kofun-W41939887","kind":"attraction","name":"五色塚古墳","shortName":"五色塚古墳","context":"兵庫県神戸市垂水区","subtype":"kofun","subtypeLabel":"古墳・前方後円墳","statusLabel":"前方後円墳・史跡五色塚古墳","aliases":["Goshikizuka Kofun"],"osmType":"way","osmId":41939887,"osmDate":null,"officialAreaKm2":null,"areaSourceLabel":"","areaSourceUrl":"","boundarySourceLabel":"© OpenStreetMap contributors","boundarySourceUrl":"https://www.openstreetmap.org/copyright","boundaryDefinition":"五色塚古墳の墳丘・周濠を含むOSM記録の古墳境界。周辺の公園や道路は含めない。","boundaryStatus":"closed-area-boundary","geometryAreaKm2":0.023601,"geometrySha256":"46c18db6402f12660e7068e9e6f72a9af067ef0a7c844855d2dce3eddae7401f","geometryFile":"attractions/kofun-W41939887.geojson"},"geometry":{"type":"Polygon","coordinates":[[[135.0461349,34.6289798],[135.0462502,34.6291337],[135.0463227,34.6292108],[135.046652,34.6295486],[135.0467626,34.6296891],[135.0468399,34.629855],[135.0468691,34.6300126],[135.0468642,34.6301406],[135.0468178,34.6302157],[135.0466793,34.6303602],[135.0465614,34.6304855],[135.0461987,34.6305908],[135.046029,34.6306036],[135.0458265,34.6305636],[135.0457026,34.6305272],[135.0456123,34.6304951],[135.0455527,34.6304645],[135.0454801,34.630413],[135.0453799,34.6303388],[135.0453475,34.6302971],[135.0453141,34.630212],[135.0452815,34.6301303],[135.0452682,34.6300849],[135.0452495,34.6299239],[135.0452844,34.629861],[135.0452573,34.629856],[135.0452299,34.6298508],[135.0452594,34.629748],[135.0453046,34.6296176],[135.0453306,34.6295293],[135.0453248,34.6294693],[135.0453052,34.6293921],[135.0451514,34.6291803],[135.0450863,34.6290826],[135.0450485,34.6290144],[135.0449904,34.6289096],[135.0449939,34.6289015],[135.04532,34.6288111],[135.045805,34.6287518],[135.0461949,34.628745],[135.0461953,34.6287895],[135.0461396,34.6287891],[135.0461349,34.6289798]]]}}
