{"type":"Feature","id":"attraction-kofun-W307990128","properties":{"id":"attraction-kofun-W307990128","kind":"attraction","name":"西殿塚古墳","shortName":"西殿塚古墳","context":"奈良県天理市","subtype":"kofun","subtypeLabel":"古墳・前方後円墳","statusLabel":"前方後円墳・西殿塚古墳","aliases":["Nishitonozuka Kofun"],"osmType":"way","osmId":307990128,"osmDate":null,"officialAreaKm2":null,"areaSourceLabel":"","areaSourceUrl":"","boundarySourceLabel":"© OpenStreetMap contributors","boundarySourceUrl":"https://www.openstreetmap.org/copyright","boundaryDefinition":"西殿塚古墳の墳丘・周濠を含むOSM記録の古墳境界。周辺の道路や集落は含めない。","boundaryStatus":"closed-area-boundary","geometryAreaKm2":0.0249434,"geometrySha256":"c1f2c9af1ee89b134b9f58ab90ffb6fc276f1c9f4eb3cfa90a5b138a1362cbd5","geometryFile":"attractions/kofun-W307990128.geojson"},"geometry":{"type":"Polygon","coordinates":[[[135.8502697,34.5689522],[135.8502541,34.5688062],[135.8502749,34.5685999],[135.8504054,34.5683378],[135.8505202,34.5682175],[135.8504836,34.5679812],[135.8504628,34.5675988],[135.8504367,34.5675],[135.850541,34.5673926],[135.850588,34.5673625],[135.8508124,34.5673754],[135.8510576,34.5673668],[135.8514124,34.5673969],[135.8514959,34.5674485],[135.851715,34.567457],[135.8517829,34.5674914],[135.8517881,34.5675645],[135.851642,34.5678266],[135.8515063,34.5680672],[135.8514698,34.5683078],[135.8516107,34.5684152],[135.8517202,34.568514],[135.8517724,34.5686601],[135.8517776,34.5688234],[135.8517359,34.5689737],[135.8516576,34.5691413],[135.8515585,34.5692186],[135.8514333,34.569296],[135.8513237,34.5693948],[135.8511359,34.5694206],[135.8510054,34.5694292],[135.8507811,34.5693948],[135.8506715,34.5693346],[135.8506297,34.5692702],[135.8505045,34.5692014],[135.8504054,34.5691499],[135.8503219,34.5690597],[135.8502697,34.5689522]]]}}
