{"type":"Feature","id":"attraction-kofun-W699645282","properties":{"id":"attraction-kofun-W699645282","kind":"attraction","name":"津堂城山古墳","shortName":"津堂城山古墳","context":"大阪府藤井寺市","subtype":"kofun","subtypeLabel":"古墳・前方後円墳","statusLabel":"前方後円墳・津堂城山古墳","aliases":["Tsudō Shiroyama Kofun"],"osmType":"way","osmId":699645282,"osmDate":null,"officialAreaKm2":null,"areaSourceLabel":"","areaSourceUrl":"","boundarySourceLabel":"© OpenStreetMap contributors","boundarySourceUrl":"https://www.openstreetmap.org/copyright","boundaryDefinition":"津堂城山古墳の墳丘・周濠を含むOSM記録の古墳境界。周辺の道路や公園は含めない。","boundaryStatus":"closed-area-boundary","geometryAreaKm2":0.04708978,"geometrySha256":"575a99f7baf927398b3df4707a0b9f2d79dff4ec51a67d4e7fe51810b0bd2245","geometryFile":"attractions/kofun-W699645282.geojson"},"geometry":{"type":"Polygon","coordinates":[[[135.5952613,34.5813948],[135.5947584,34.5820507],[135.5944499,34.5823499],[135.5940302,34.5827342],[135.5939189,34.5827993],[135.5937137,34.5828457],[135.5934307,34.5828512],[135.5931625,34.5827817],[135.592901,34.5827253],[135.5925415,34.582435],[135.5924678,34.5821932],[135.5924463,34.5819006],[135.5925174,34.5816753],[135.59285,34.5812557],[135.5932724,34.5808361],[135.5936265,34.5805248],[135.593939,34.5802311],[135.5939846,34.5802366],[135.5953646,34.5812215],[135.5952613,34.5813948]]]}}
