{"type":"Feature","id":"attraction-kofun-W44348046","properties":{"id":"attraction-kofun-W44348046","kind":"attraction","name":"渋谷向山古墳","shortName":"渋谷向山古墳","context":"奈良県天理市","subtype":"kofun","subtypeLabel":"古墳・前方後円墳","statusLabel":"前方後円墳・景行天皇陵","aliases":["景行天皇陵","Shibutani Mukaiyama Kofun"],"osmType":"way","osmId":44348046,"osmDate":null,"officialAreaKm2":null,"areaSourceLabel":"","areaSourceUrl":"","boundarySourceLabel":"© OpenStreetMap contributors","boundarySourceUrl":"https://www.openstreetmap.org/copyright","boundaryDefinition":"渋谷向山古墳（景行天皇陵）の墳丘・周濠を含むOSM記録の古墳境界。周辺の道路や集落は含めない。","boundaryStatus":"closed-area-boundary","geometryAreaKm2":0.04805983,"geometrySha256":"44635d36e04a2aa2b082c45e33a4a4973891ee417921c5029ace9c0aa872ad90","geometryFile":"attractions/kofun-W44348046.geojson"},"geometry":{"type":"Polygon","coordinates":[[[135.849033,34.5516482],[135.8489183,34.5516067],[135.8485457,34.5513458],[135.8483236,34.5512629],[135.8471627,34.5512298],[135.84717,34.5511383],[135.8471843,34.5510613],[135.8471987,34.5509842],[135.8472202,34.5509012],[135.8472417,34.5508241],[135.8472703,34.5507352],[135.8472918,34.5506463],[135.8473205,34.5505514],[135.847342,34.5504684],[135.8474351,34.5498045],[135.8474781,34.5497274],[135.847693,34.5496681],[135.8487535,34.5498341],[135.8488323,34.5498756],[135.8489112,34.5500179],[135.8498498,34.5501779],[135.8503298,34.5503973],[135.8504947,34.5506226],[135.8505806,34.5508479],[135.8505161,34.5511147],[135.8502869,34.5514288],[135.8500464,34.5515848],[135.8500218,34.5516007],[135.8496563,34.5517134],[135.8493124,34.5517252],[135.849033,34.5516482]]]}}
