{"type":"Feature","id":"attraction-kofun-W44774270","properties":{"id":"attraction-kofun-W44774270","kind":"attraction","name":"誉田御廟山古墳","shortName":"誉田御廟山古墳","context":"大阪府羽曳野市","subtype":"kofun","subtypeLabel":"古墳・前方後円墳","statusLabel":"前方後円墳・応神天皇陵（誉田陵）","aliases":["誉田陵","応神天皇陵","Konda Gobyoyama Kofun"],"osmType":"way","osmId":44774270,"osmDate":null,"officialAreaKm2":null,"areaSourceLabel":"","areaSourceUrl":"","boundarySourceLabel":"© OpenStreetMap contributors","boundarySourceUrl":"https://www.openstreetmap.org/copyright","boundaryDefinition":"誉田御廟山古墳（応神天皇陵）の墳丘・濠を含むOSM記録の古墳境界。周辺の市街地や大仙公園は含めない。","boundaryStatus":"closed-area-boundary","geometryAreaKm2":0.24564797,"geometrySha256":"62a2ce197777c0aef9745cadfef5e985e5064d7fdd981b3b234b02bc5abc9cf5","geometryFile":"attractions/kofun-W44774270.geojson"},"geometry":{"type":"Polygon","coordinates":[[[135.6112671,34.5658421],[135.6087142,34.5653825],[135.6085353,34.5653446],[135.6082768,34.5652848],[135.6055347,34.5646981],[135.6058538,34.564219],[135.6065847,34.5627893],[135.6069008,34.5621637],[135.6073186,34.561304],[135.6073213,34.5612073],[135.607414,34.5611781],[135.6078277,34.5607577],[135.6081586,34.5605425],[135.6086313,34.5603275],[135.6090333,34.5602003],[135.6094469,34.5600341],[135.6096833,34.5599949],[135.6099788,34.5600048],[135.6102506,34.5600341],[135.6104988,34.5601026],[135.6107116,34.5602003],[135.6111016,34.5604252],[135.6113617,34.5606404],[135.6115862,34.5609239],[135.6117517,34.5613052],[135.6118462,34.5616573],[135.6118344,34.5618723],[135.6117044,34.562635],[135.6116099,34.5629968],[135.6115862,34.5631435],[135.6114917,34.563251],[135.6112553,34.5633488],[135.6110779,34.563427],[135.6109125,34.563515],[135.6108888,34.5636519],[135.6108888,34.5639257],[135.6109243,34.5641115],[135.6109834,34.564307],[135.6110543,34.5646003],[135.6112671,34.5658421]]]}}
