{"type":"Feature","id":"attraction-large-park-W765326143","properties":{"id":"attraction-large-park-W765326143","kind":"attraction","name":"津久井湖城山公園","shortName":"津久井湖城山公園","context":"日本","subtype":"large-park","subtypeLabel":"大型都市公園・広域公園","statusLabel":"","aliases":[],"osmType":"way","osmId":765326143,"osmDate":null,"officialAreaKm2":null,"areaSourceLabel":"","areaSourceUrl":"","boundarySourceLabel":"© OpenStreetMap contributors","boundarySourceUrl":"https://www.openstreetmap.org/copyright","geometryFile":"attractions/large-park-W765326143.geojson"},"geometry":{"type":"Polygon","coordinates":[[[139.2734769,35.5801038],[139.2734179,35.5800707],[139.2734243,35.5800039],[139.2734652,35.5799727],[139.2735014,35.5798904],[139.2735276,35.5798124],[139.2735336,35.5797333],[139.2735037,35.5796934],[139.2734621,35.579677],[139.2734715,35.5795036],[139.2731483,35.5794283],[139.2731497,35.5791045],[139.273213,35.5791042],[139.2732332,35.5791039],[139.2732463,35.5791041],[139.273258,35.5791043],[139.2732706,35.5791045],[139.2732825,35.5791047],[139.2732932,35.5791048],[139.2733033,35.579105],[139.2733239,35.5791049],[139.2736098,35.579088],[139.2736363,35.5793608],[139.2737541,35.5793938],[139.2742304,35.5793104],[139.2742612,35.579324],[139.2742795,35.5793248],[139.2745202,35.5792838],[139.2748272,35.5791953],[139.2749812,35.579214],[139.2750325,35.5791965],[139.2750319,35.5790078],[139.2749782,35.5789686],[139.2750728,35.5789157],[139.2750989,35.5789435],[139.2753826,35.5788824],[139.2755489,35.5788906],[139.2756923,35.5788548],[139.275844,35.5788129],[139.2760476,35.5787563],[139.2762225,35.5786876],[139.27636,35.5785996],[139.2764124,35.5786421],[139.2765338,35.5787052],[139.2766126,35.5787143],[139.276673,35.5787037],[139.2767277,35.5786762],[139.2767866,35.5786186],[139.2770434,35.5780502],[139.2771179,35.5779383],[139.2771695,35.5779017],[139.2772286,35.5778912],[139.2773393,35.5778923],[139.2778485,35.5779854],[139.277933,35.577979],[139.2780352,35.5779562],[139.2782992,35.5777767],[139.278472,35.5776038],[139.2786039,35.5775321],[139.2788988,35.5774373],[139.27908,35.5774184],[139.2792636,35.5774151],[139.2796449,35.5773833],[139.2800527,35.5773974],[139.2802065,35.5775159],[139.2803127,35.5775264],[139.2811796,35.5774358],[139.2812632,35.5773808],[139.2812929,35.5772716],[139.2814801,35.5772404],[139.2821229,35.5770828],[139.2823315,35.5769902],[139.2827447,35.577118],[139.2830839,35.5773605],[139.2830976,35.5775046],[139.282741,35.5780746],[139.2825565,35.5785087],[139.2825477,35.5790505],[139.2826746,35.5793472],[139.2827915,35.5794831],[139.2829509,35.5792512],[139.283168,35.5790837],[139.2832408,35.5789769],[139.2834013,35.5789339],[139.2836231,35.578906],[139.2838404,35.5788962],[139.283953,35.5789222],[139.2840429,35.5790092],[139.2840872,35.5791051],[139.2840636,35.5793952],[139.2842213,35.5795139],[139.2842999,35.5797484],[139.2847217,35.5801712],[139.2852706,35.5798893],[139.2854942,35.5798217],[139.2859042,35.5798264],[139.2861533,35.5798944],[139.2864893,35.5800338],[139.2870373,35.5801156],[139.2872017,35.5815903],[139.2877171,35.5816417],[139.2880945,35.5818886],[139.2868765,35.5842995],[139.2867063,35.5842336],[139.2865123,35.5841278],[139.2860438,35.5839406],[139.2857918,35.5838466],[139.2857561,35.5837201],[139.2856104,35.583647],[139.285911,35.5830459],[139.286293,35.5825111],[139.286148,35.582355],[139.2859481,35.5822213],[139.2855158,35.5820533],[139.2852614,35.5819755],[139.2849511,35.5818369],[139.2847288,35.5817838],[139.2845404,35.581798],[139.2843706,35.5817917],[139.2841429,35.5817395],[139.2839647,35.5816724],[139.2836832,35.5814587],[139.2834983,35.5812577],[139.283367,35.5810645],[139.2830186,35.5811152],[139.2825097,35.5812124],[139.2819078,35.581404],[139.2816255,35.5812872],[139.2814186,35.5813307],[139.2812316,35.5814439],[139.2812352,35.5816187],[139.2793055,35.5827456],[139.2791686,35.5833768],[139.2810389,35.5844575],[139.2807259,35.585131],[139.2810618,35.5853094],[139.2809818,35.5855899],[139.2807905,35.5857895],[139.2811565,35.5861959],[139.2811174,35.5862238],[139.2809122,35.586281],[139.2806946,35.5863713],[139.2804395,35.5864724],[139.2802732,35.5865155],[139.2801216,35.5865384],[139.2798159,35.5865417],[139.2788798,35.5864272],[139.2786706,35.5864119],[139.2775776,35.5862799],[139.2771394,35.5862368],[139.2768164,35.5861886],[139.2769653,35.5858338],[139.2765243,35.5856598],[139.2762599,35.5859477],[139.2759807,35.585817],[139.2759701,35.5857478],[139.2756057,35.5855586],[139.275829,35.5853718],[139.2758709,35.5852383],[139.275845,35.5850483],[139.276061,35.5849359],[139.2758225,35.5846171],[139.2756446,35.5842376],[139.2752926,35.5838175],[139.2751907,35.5837744],[139.275136,35.5838174],[139.2751023,35.5837876],[139.2750177,35.5838536],[139.2748769,35.5836602],[139.275031,35.583591],[139.2747743,35.5831479],[139.2747412,35.5830718],[139.2746454,35.5829017],[139.2745512,35.5826784],[139.2745082,35.5825695],[139.2744488,35.5824865],[139.2743745,35.5824231],[139.2742256,35.5824278],[139.2741219,35.5825671],[139.2740247,35.582545],[139.2739413,35.5825533],[139.2739659,35.5826358],[139.2738242,35.5826027],[139.2737141,35.5826179],[139.2737032,35.5827517],[139.2735179,35.5827329],[139.2733247,35.5826913],[139.2731581,35.5826234],[139.2729785,35.5824425],[139.2726917,35.5823715],[139.27215,35.5823576],[139.2721379,35.5820033],[139.271956,35.5818928],[139.2717699,35.5819191],[139.2717453,35.5817489],[139.2716282,35.5817515],[139.2714073,35.5817166],[139.2711123,35.5816749],[139.2709216,35.5816127],[139.2709029,35.5815858],[139.2715111,35.581515],[139.2716738,35.5814868],[139.2718679,35.5814359],[139.2720195,35.5813733],[139.2721261,35.581298],[139.2721813,35.5812503],[139.2721612,35.581306],[139.272149,35.5813763],[139.2721633,35.5815229],[139.2729396,35.5819061],[139.2729913,35.5818993],[139.2730481,35.5819269],[139.2730601,35.5819096],[139.2731528,35.5817764],[139.2733298,35.5818554],[139.2736804,35.5819519],[139.2737943,35.5819773],[139.2739158,35.5819845],[139.2740676,35.5819733],[139.2742353,35.5819423],[139.2743729,35.581884],[139.2744744,35.5818141],[139.2745111,35.5817758],[139.2745317,35.5817318],[139.2745449,35.5816792],[139.2745422,35.5816129],[139.2744794,35.5815195],[139.2744207,35.5814694],[139.2743684,35.5814027],[139.2743717,35.5812743],[139.2744101,35.5812328],[139.2744057,35.5811705],[139.2743503,35.5810527],[139.2743123,35.5809108],[139.2743057,35.580737],[139.2742612,35.5806164],[139.2741803,35.5805361],[139.2740731,35.5805113],[139.2738316,35.5804943],[139.2737424,35.5804639],[139.2736665,35.5804125],[139.2736104,35.5803556],[139.2735485,35.5802834],[139.2735365,35.5802361],[139.2735056,35.5801534],[139.2734769,35.5801038]]]}}
