{"type":"Feature","id":"attraction-large-large-farm-W927225216","properties":{"id":"attraction-large-large-farm-W927225216","kind":"attraction","name":"栃木第二牧野","shortName":"栃木第二牧野","context":"日本","subtype":"large-farm","subtypeLabel":"大規模農場・牧場","statusLabel":"","aliases":[],"osmType":"way","osmId":927225216,"osmDate":null,"officialAreaKm2":null,"areaSourceLabel":"","areaSourceUrl":"","boundarySourceLabel":"© OpenStreetMap contributors","boundarySourceUrl":"https://www.openstreetmap.org/copyright","geometryFile":"attractions/large-large-farm-W927225216.geojson"},"geometry":{"type":"Polygon","coordinates":[[[143.6984843,43.8954107],[143.6986399,43.8954571],[143.6987632,43.8955615],[143.6990207,43.8957625],[143.6991924,43.89589],[143.6996108,43.8961143],[143.7010056,43.8968101],[143.7018746,43.8972507],[143.7028563,43.8977648],[143.7034839,43.898105],[143.7039185,43.898306],[143.7063593,43.8989631],[143.707357,43.904587],[143.7094223,43.9046295],[143.7100393,43.9093486],[143.7038165,43.9101022],[143.7033176,43.9076403],[143.7011826,43.9078683],[143.7010753,43.9074819],[143.700968,43.9070026],[143.7011182,43.9068248],[143.7013328,43.9064422],[143.7014401,43.9060403],[143.7014991,43.9054605],[143.7013221,43.9050315],[143.7013864,43.9043938],[143.7008285,43.9035435],[143.7006515,43.9028709],[143.7006676,43.9028013],[143.7008125,43.9025231],[143.7006247,43.9024805],[143.6995625,43.90284],[143.6966604,43.9025037],[143.6966014,43.901491],[143.6967087,43.9007528],[143.6964941,43.9002928],[143.6959845,43.8997787],[143.6957484,43.8994463],[143.6955714,43.8990018],[143.6953783,43.8985573],[143.6953783,43.8984722],[143.6954212,43.8983717],[143.6957645,43.8979542],[143.6962688,43.8974285],[143.6965531,43.8971386],[143.6968803,43.8968526],[143.6970895,43.8967211],[143.6972451,43.8966245],[143.6973417,43.8965317],[143.697862,43.895662],[143.6979747,43.8955421],[143.6980712,43.8954648],[143.698259,43.8954068],[143.6983985,43.8953991],[143.6984843,43.8954107]]]}}
