{"type":"Feature","id":"attraction-large-park-W896573359","properties":{"id":"attraction-large-park-W896573359","kind":"attraction","name":"愛媛県総合運動公園","shortName":"愛媛県総合運動公園","context":"日本","subtype":"large-park","subtypeLabel":"大型都市公園・広域公園","statusLabel":"著名な公園","aliases":[],"osmType":"way","osmId":896573359,"osmDate":null,"officialAreaKm2":null,"areaSourceLabel":"","areaSourceUrl":"","boundarySourceLabel":"© OpenStreetMap contributors","boundarySourceUrl":"https://www.openstreetmap.org/copyright","geometryFile":"attractions/large-park-W896573359.geojson"},"geometry":{"type":"Polygon","coordinates":[[[132.7913294,33.7675808],[132.7913876,33.7675808],[132.7915911,33.7676001],[132.7918761,33.7675566],[132.7921116,33.7674696],[132.7924954,33.7673125],[132.7927949,33.7672037],[132.7930828,33.7671191],[132.7934346,33.7670417],[132.7938853,33.7669789],[132.7942488,33.7669571],[132.794557,33.7669861],[132.7949351,33.767049],[132.7952375,33.7670973],[132.7954003,33.767136],[132.7954933,33.7671553],[132.7955195,33.7662199],[132.7955574,33.7652655],[132.7971882,33.7652744],[132.7977998,33.7656134],[132.7978427,33.7666569],[132.7983898,33.7668598],[132.7985615,33.7668553],[132.7987385,33.7668553],[132.7990175,33.7668999],[132.7996129,33.7670962],[132.7999831,33.7673414],[132.8002727,33.7676135],[132.8004659,33.7679613],[132.8005517,33.7682779],[132.8007234,33.7687907],[132.8006161,33.7688532],[132.8006053,33.7689646],[132.8005463,33.7691341],[132.8004069,33.7693838],[132.8002567,33.7695299],[132.8000153,33.7696124],[132.7997095,33.7696079],[132.79968,33.7695098],[132.7996317,33.7694028],[132.7992455,33.7692712],[132.798886,33.7691642],[132.7987224,33.7691932],[132.7985803,33.7693515],[132.7982611,33.7694741],[132.7981109,33.7695276],[132.7980948,33.7702211],[132.7969173,33.770114],[132.7964265,33.7697907],[132.79611,33.7696793],[132.7958525,33.7694451],[132.7958444,33.7693136],[132.7955735,33.769269],[132.795536,33.7689992],[132.7950263,33.7689903],[132.7950263,33.7687807],[132.7946616,33.7686402],[132.79405,33.7686291],[132.7930335,33.7686213],[132.7926526,33.768483],[132.7922181,33.7683894],[132.7917567,33.7680505],[132.7914671,33.7678766],[132.7913329,33.7677517],[132.7913294,33.7675808]]]}}
