{"type":"Feature","id":"attraction-large-park-W543891213","properties":{"id":"attraction-large-park-W543891213","kind":"attraction","name":"西山公園","shortName":"西山公園","context":"日本","subtype":"large-park","subtypeLabel":"大型都市公園・広域公園","statusLabel":"著名な公園","aliases":["Nishiyama park"],"osmType":"way","osmId":543891213,"osmDate":null,"officialAreaKm2":null,"areaSourceLabel":"","areaSourceUrl":"","boundarySourceLabel":"© OpenStreetMap contributors","boundarySourceUrl":"https://www.openstreetmap.org/copyright","geometryFile":"attractions/large-park-W543891213.geojson"},"geometry":{"type":"Polygon","coordinates":[[[136.1815978,35.9483532],[136.1811671,35.9483847],[136.1810665,35.9483921],[136.1810352,35.9484151],[136.1809544,35.9485449],[136.1806491,35.9490575],[136.1808266,35.9490298],[136.1807287,35.9491375],[136.1806854,35.9492836],[136.1807378,35.949396],[136.1807429,35.9495465],[136.1806559,35.9497643],[136.1805565,35.9497315],[136.180506,35.9498446],[136.1804014,35.9498243],[136.1803117,35.9499319],[136.1801768,35.9499626],[136.1800797,35.950184],[136.1801678,35.9502951],[136.179986,35.9503664],[136.1799202,35.9504142],[136.1798125,35.9505456],[136.179792,35.9506874],[136.1796333,35.9507964],[136.1796836,35.9509046],[136.1795703,35.9510918],[136.179742,35.9511879],[136.179625,35.951353],[136.179326,35.951794],[136.179069,35.952187],[136.1788776,35.9522958],[136.1787191,35.9523616],[136.178587,35.9525064],[136.1783796,35.9531087],[136.1782719,35.9532436],[136.1782353,35.9534526],[136.1781662,35.9535858],[136.1781764,35.9536813],[136.178093,35.9539561],[136.1781967,35.9540351],[136.1783695,35.954063],[136.1785727,35.9540597],[136.1785971,35.9542243],[136.1784508,35.9543066],[136.1782475,35.9543378],[136.1781418,35.9547673],[136.1779162,35.9548792],[136.1777922,35.9550914],[136.177847,35.9551211],[136.1778267,35.9551968],[136.1776905,35.9553893],[136.1774791,35.9555588],[136.1773897,35.9556493],[136.1773856,35.9557299],[136.1774202,35.9558352],[136.1775218,35.9560639],[136.1773653,35.9564292],[136.1771051,35.9566349],[136.1769405,35.9567122],[136.1767108,35.9568027],[136.1764506,35.9571071],[136.1764384,35.9572338],[136.1765725,35.9573194],[136.1767514,35.9574214],[136.1768998,35.9574921],[136.1770299,35.9576435],[136.177288,35.9577225],[136.1775787,35.9578722],[136.1776722,35.9578459],[136.1777271,35.9577653],[136.1777962,35.9577472],[136.1781194,35.9579265],[136.1783532,35.9579413],[136.1784609,35.9582112],[136.1789041,35.9583938],[136.1790342,35.9587048],[136.1790586,35.9589285],[136.1792883,35.958945],[136.1798595,35.9588051],[136.1804042,35.9586258],[136.1806177,35.958787],[136.1807965,35.9587031],[136.1810669,35.9583675],[136.1811889,35.9580746],[136.1812925,35.958147],[136.1814836,35.9579907],[136.1816889,35.9580121],[136.1818332,35.9580516],[136.1817987,35.9581667],[136.1820467,35.9584234],[136.1820894,35.9585912],[136.1824878,35.9586538],[136.1827012,35.9586126],[136.1829899,35.9586324],[136.1831626,35.9586933],[136.1834296,35.9587495],[136.1836464,35.9588167],[136.1837806,35.9588298],[136.1839493,35.9587936],[136.184053,35.9588282],[136.184366,35.9588627],[136.1844743,35.9588054],[136.1845833,35.9586341],[136.1846825,35.95849],[136.184788,35.9583042],[136.1847384,35.9581859],[136.1848263,35.9579831],[136.1846722,35.957863],[136.1847307,35.9577978],[136.1848113,35.9577573],[136.1849408,35.9577089],[136.1849982,35.9577388],[136.1851337,35.9576158],[136.1849036,35.9574315],[136.1846954,35.9573413],[136.1844543,35.957289],[136.1842461,35.9572272],[136.1840367,35.9570512],[136.1836952,35.9569738],[136.1833334,35.9569623],[136.1832964,35.9567046],[136.1833202,35.9564764],[136.183328,35.9563045],[136.1831079,35.956247],[136.1827459,35.956189],[136.1826302,35.9562455],[136.1825507,35.9563183],[136.1825119,35.9564628],[136.1822833,35.9565314],[136.1821224,35.9565716],[136.1819374,35.956564],[136.1818063,35.9565513],[136.1817408,35.956426],[136.1817264,35.9563236],[136.1813942,35.9563008],[136.1811787,35.9562712],[136.181136,35.95624],[136.181134,35.9561643],[136.181199,35.9558385],[136.181571,35.9557019],[136.1815304,35.9554518],[136.181506,35.9552938],[136.1814125,35.9550421],[136.1811929,35.9550306],[136.1811685,35.9549302],[136.1811726,35.954792],[136.1813088,35.954787],[136.1814348,35.9547953],[136.1815039,35.9546653],[136.1817364,35.954445],[136.1817962,35.9543135],[136.1820102,35.9542454],[136.1821528,35.9542471],[136.1822034,35.954391],[136.1823464,35.9544327],[136.1827593,35.9544603],[136.1828632,35.954506],[136.1830326,35.9545007],[136.1830956,35.9544563],[136.1830446,35.9541576],[136.1833023,35.9540988],[136.1833319,35.9536335],[136.1832065,35.9529999],[136.1831004,35.9525698],[136.1833306,35.9524996],[136.1832167,35.9518548],[136.1831229,35.9512752],[136.1834077,35.9512425],[136.1835453,35.9516932],[136.1837067,35.951959],[136.1839459,35.9522154],[136.1843932,35.952291],[136.1846491,35.9522167],[136.1849269,35.9520725],[136.1851705,35.9520651],[136.1853379,35.9520552],[136.1854167,35.951901],[136.1855108,35.9517534],[136.1855776,35.9516757],[136.1855172,35.9512992],[136.1854834,35.9511566],[136.1853774,35.9508869],[136.1853066,35.9507567],[136.1851293,35.9505379],[136.1850048,35.9504236],[136.1847925,35.9502813],[136.1847111,35.9502345],[136.1846376,35.9502154],[136.1845729,35.9501942],[136.1844972,35.9501353],[136.184367,35.95009],[136.1842585,35.9501045],[136.1840599,35.950048],[136.1839092,35.9500954],[136.1834971,35.9502699],[136.1833501,35.9504056],[136.1832457,35.9505917],[136.1832925,35.9506032],[136.1833093,35.9506701],[136.1832729,35.9507334],[136.183385,35.9510578],[136.1834122,35.9511843],[136.1831281,35.9512149],[136.1830644,35.9507574],[136.182948,35.9506604],[136.1828811,35.9503714],[136.182861,35.9503333],[136.1824795,35.949517],[136.1823025,35.9492622],[136.1821806,35.9490871],[136.1815978,35.9483532]]]}}
