{"type":"Feature","id":"attraction-large-industrial-complex-W316883077","properties":{"id":"attraction-large-industrial-complex-W316883077","kind":"attraction","name":"株式会社トクヤマ","shortName":"株式会社トクヤマ","context":"日本","subtype":"industrial-complex","subtypeLabel":"工業地帯・大規模工場","statusLabel":"","aliases":[],"osmType":"way","osmId":316883077,"osmDate":null,"officialAreaKm2":null,"areaSourceLabel":"","areaSourceUrl":"","boundarySourceLabel":"© OpenStreetMap contributors","boundarySourceUrl":"https://www.openstreetmap.org/copyright","geometryFile":"attractions/large-industrial-complex-W316883077.geojson"},"geometry":{"type":"Polygon","coordinates":[[[131.7953912,34.0593868],[131.7968581,34.0591517],[131.7973384,34.060289],[131.7972898,34.0603045],[131.7971781,34.060321],[131.7967762,34.0604503],[131.7968644,34.0606635],[131.7967414,34.0609336],[131.796598,34.0609438],[131.7964627,34.0612391],[131.7965599,34.0613824],[131.7956879,34.0618935],[131.7954736,34.0620008],[131.7934042,34.0623251],[131.7920841,34.062561],[131.7915848,34.0626237],[131.7896735,34.0629343],[131.7889949,34.0630289],[131.7890097,34.0624812],[131.7888897,34.0603572],[131.789068,34.059331],[131.7891899,34.0581083],[131.7893094,34.0563875],[131.7889064,34.0546488],[131.7889791,34.0545141],[131.7898773,34.0542378],[131.7899115,34.0542268],[131.7903203,34.0540945],[131.7903943,34.0541328],[131.7913685,34.0562792],[131.7917384,34.0561616],[131.7907929,34.0540815],[131.7908438,34.0539904],[131.7918591,34.0537866],[131.7931821,34.054259],[131.793875,34.0564596],[131.7940795,34.0565021],[131.7953912,34.0593868]]]}}
