{"type":"Feature","id":"attraction-large-park-W483607949","properties":{"id":"attraction-large-park-W483607949","kind":"attraction","name":"憩いの森公園","shortName":"憩いの森公園","context":"日本","subtype":"large-park","subtypeLabel":"大型都市公園・広域公園","statusLabel":"","aliases":[],"osmType":"way","osmId":483607949,"osmDate":null,"officialAreaKm2":null,"areaSourceLabel":"","areaSourceUrl":"","boundarySourceLabel":"© OpenStreetMap contributors","boundarySourceUrl":"https://www.openstreetmap.org/copyright","geometryFile":"attractions/large-park-W483607949.geojson"},"geometry":{"type":"Polygon","coordinates":[[[132.7424697,34.4451439],[132.7420647,34.4450886],[132.7418394,34.4450598],[132.7416919,34.4450377],[132.7416034,34.4449846],[132.7414988,34.4448475],[132.7414049,34.4447944],[132.7412279,34.4447258],[132.7409221,34.44479],[132.7408228,34.4448608],[132.7407719,34.4450532],[132.7406968,34.4451527],[132.7404473,34.4452191],[132.7402596,34.4454115],[132.7401416,34.445531],[132.7400048,34.4456814],[132.7398868,34.4458053],[132.7398143,34.4458849],[132.7397365,34.4459667],[132.7396078,34.4459092],[132.739522,34.4458716],[132.7393503,34.4458097],[132.739184,34.4457057],[132.7390392,34.4456084],[132.738834,34.4455796],[132.7385792,34.4456084],[132.7383136,34.4457168],[132.738083,34.4458318],[132.7379006,34.4460088],[132.7378738,34.4461105],[132.737635,34.4460596],[132.737348,34.4459977],[132.7370503,34.445938],[132.7368679,34.4458893],[132.7365192,34.4458207],[132.7359882,34.4457079],[132.7357334,34.4456504],[132.7352586,34.4455443],[132.7350185,34.4455089],[132.7348952,34.4455531],[132.7347906,34.4457478],[132.7346779,34.4460043],[132.734643,34.4463029],[132.7345545,34.4465839],[132.7344821,34.4467918],[132.7343614,34.4469289],[132.7342662,34.4470992],[132.734175,34.4472253],[132.7340167,34.4474575],[132.7338907,34.4475925],[132.7337002,34.4477185],[132.7335769,34.4478358],[132.7335795,34.4479619],[132.7336922,34.4481189],[132.7337485,34.4483511],[132.7337271,34.4486719],[132.73366,34.4489749],[132.7336841,34.4492204],[132.7336788,34.4494593],[132.7337727,34.4498021],[132.7339282,34.4499636],[132.734175,34.4500366],[132.734462,34.4500852],[132.7346122,34.4501781],[132.7348187,34.4503108],[132.7349528,34.4505231],[132.7350306,34.4506713],[132.7351459,34.4507952],[132.7351459,34.4508969],[132.7350494,34.4510252],[132.7349072,34.451253],[132.7348858,34.4514034],[132.7349475,34.451545],[132.7350762,34.4517109],[132.7351406,34.4518192],[132.7351915,34.452078],[132.7352613,34.4522527],[132.73539,34.4524275],[132.7354624,34.4525226],[132.7354571,34.4527172],[132.7354812,34.4528455],[132.7354008,34.4530357],[132.7353364,34.453279],[132.7352935,34.4534692],[132.7352801,34.453655],[132.7352666,34.453781],[132.7352345,34.453916],[132.7352264,34.4540553],[132.7352908,34.4541592],[132.7354839,34.4542654],[132.7356475,34.4543782],[132.7358353,34.4544799],[132.7360445,34.454564],[132.7362698,34.4545706],[132.7363744,34.4545043],[132.7364227,34.4544888],[132.736656,34.4546016],[132.7369698,34.4547498],[132.7370905,34.4548382],[132.7373319,34.4550705],[132.7374339,34.4551479],[132.7376243,34.4552142],[132.7378147,34.455212],[132.7379194,34.4552761],[132.7380696,34.4554354],[132.7382412,34.4555548],[132.7384719,34.4556742],[132.7388206,34.4557605],[132.7391424,34.4558401],[132.7393382,34.4559286],[132.7395019,34.4560613],[132.7397406,34.4560989],[132.7399498,34.4562183],[132.7402126,34.4563731],[132.7403763,34.4564395],[132.7404916,34.4565501],[132.7405613,34.4566628],[132.7406954,34.4568287],[132.7409798,34.4569393],[132.7412748,34.457041],[132.7414746,34.4571627],[132.741606,34.457218],[132.7416248,34.4573418],[132.7416409,34.4573993],[132.7417241,34.4575121],[132.7418314,34.4575232],[132.7419735,34.4574922],[132.7421559,34.4574192],[132.7424134,34.457333],[132.7426065,34.4572976],[132.742754,34.4572733],[132.7429311,34.4572334],[132.7430464,34.4572268],[132.7432449,34.4572224],[132.7435077,34.4572445],[132.7437089,34.4572777],[132.7438537,34.4572932],[132.7439744,34.4573993],[132.7441139,34.4574944],[132.7441863,34.4575541],[132.7442266,34.4576625],[132.7442936,34.4578217],[132.7443285,34.4579102],[132.7444653,34.4580053],[132.7445699,34.4580849],[132.7447228,34.4580716],[132.7449695,34.4580473],[132.7451573,34.4579964],[132.7451224,34.4578726],[132.7450795,34.4577731],[132.744991,34.4576935],[132.7449213,34.4575939],[132.744873,34.4574745],[132.7448649,34.4573905],[132.7448757,34.4572755],[132.7448354,34.4572334],[132.7447442,34.457187],[132.7445779,34.4571516],[132.7443795,34.4571229],[132.7442614,34.4570919],[132.7441193,34.4570499],[132.7439074,34.4569548],[132.7437518,34.4568995],[132.7436123,34.4568309],[132.7435641,34.456811],[132.7433763,34.4567933],[132.7431966,34.4567889],[132.7430035,34.4568066],[132.7427674,34.4568199],[132.742459,34.4568265],[132.7422176,34.4568398],[132.7420191,34.4568575],[132.7419789,34.4567535],[132.7419306,34.4565014],[132.7419038,34.456382],[132.7418716,34.4562559],[132.7418179,34.4561409],[132.7417804,34.456006],[132.7417509,34.4558556],[132.7416946,34.4556919],[132.7416946,34.4556145],[132.7417214,34.455515],[132.741775,34.4554221],[132.7418716,34.4552894],[132.7420432,34.455097],[132.7421532,34.4549599],[132.7422525,34.4548139],[132.7423705,34.4546348],[132.7424134,34.4545043],[132.7424456,34.4543517],[132.7424536,34.4543008],[132.742628,34.4541106],[132.7427889,34.4539337],[132.7429123,34.453801],[132.742974,34.4536882],[132.7430598,34.4535156],[132.7431725,34.4533586],[132.7433334,34.4531153],[132.7434836,34.4529915],[132.7436097,34.4528809],[132.743784,34.4527814],[132.7439396,34.4527305],[132.7442427,34.4526575],[132.7445618,34.4525757],[132.7448462,34.4524673],[132.7450607,34.452381],[132.7451466,34.452297],[132.7450607,34.4521399],[132.7449159,34.4518524],[132.7448301,34.4517131],[132.744696,34.4516357],[132.7445189,34.4515649],[132.7443044,34.4515008],[132.7441085,34.4514565],[132.7438967,34.4513946],[132.7436365,34.4513238],[132.743446,34.451242],[132.7433307,34.4511933],[132.7432368,34.4510827],[132.7431617,34.4508792],[132.7431134,34.4507399],[132.7430652,34.4505165],[132.7430357,34.4503573],[132.7430249,34.4502445],[132.7429391,34.4500012],[132.7428586,34.4498176],[132.7427138,34.4496185],[132.7425851,34.4494571],[132.7425287,34.4493597],[132.7424831,34.4491585],[132.7424456,34.4489771],[132.7424192,34.4488781],[132.7423919,34.4487758],[132.742349,34.4485989],[132.7423222,34.4484064],[132.7422981,34.4482516],[132.7423222,34.4480636],[132.7423732,34.447953],[132.7425126,34.4477761],[132.7426628,34.4475659],[132.7427969,34.4473868],[132.7429203,34.4471722],[132.7429418,34.4470417],[132.7430035,34.4469134],[132.7431081,34.4467497],[132.743159,34.4466568],[132.7431537,34.4464954],[132.7431537,34.4464268],[132.7431081,34.4463649],[132.7430571,34.4463118],[132.7430196,34.4461968],[132.7429525,34.4460176],[132.7429016,34.4458937],[132.7428667,34.4458296],[132.7428345,34.4457168],[132.7427567,34.4455996],[132.7426789,34.4454469],[132.7425931,34.4452899],[132.7425046,34.4451793],[132.7424697,34.4451439]]]}}
