{"type":"Feature","id":"attraction-large-large-port-W1361581694","properties":{"id":"attraction-large-large-port-W1361581694","kind":"attraction","name":"福島港","shortName":"福島港","context":"日本","subtype":"large-port","subtypeLabel":"港湾・埠頭","statusLabel":"","aliases":[],"osmType":"way","osmId":1361581694,"osmDate":null,"officialAreaKm2":null,"areaSourceLabel":"","areaSourceUrl":"","boundarySourceLabel":"© OpenStreetMap contributors","boundarySourceUrl":"https://www.openstreetmap.org/copyright","geometryFile":"attractions/large-large-port-W1361581694.geojson"},"geometry":{"type":"Polygon","coordinates":[[[131.206564,31.452473],[131.2064193,31.4519918],[131.2062931,31.4520109],[131.2052478,31.4479748],[131.2071029,31.4476226],[131.2076562,31.4497712],[131.208294,31.450116],[131.209326,31.4487796],[131.2097607,31.4490368],[131.2089137,31.4501209],[131.2084194,31.4507271],[131.2083482,31.4508196],[131.2086379,31.4509973],[131.2083585,31.4512783],[131.2081414,31.4514684],[131.207381,31.4519459],[131.2072562,31.4519887],[131.2070244,31.452354],[131.206611,31.4524658],[131.206564,31.452473]]]}}
