{"type":"Feature","id":"attraction-large-industrial-complex-W184439878","properties":{"id":"attraction-large-industrial-complex-W184439878","kind":"attraction","name":"日立建機 土浦工場","shortName":"日立建機 土浦工場","context":"日本","subtype":"industrial-complex","subtypeLabel":"工業地帯・大規模工場","statusLabel":"","aliases":[],"osmType":"way","osmId":184439878,"osmDate":null,"officialAreaKm2":null,"areaSourceLabel":"","areaSourceUrl":"","boundarySourceLabel":"© OpenStreetMap contributors","boundarySourceUrl":"https://www.openstreetmap.org/copyright","geometryFile":"attractions/large-industrial-complex-W184439878.geojson"},"geometry":{"type":"Polygon","coordinates":[[[140.2474878,36.1078041],[140.2474276,36.1076929],[140.2474192,36.1076029],[140.247443,36.107482],[140.2475093,36.10738],[140.2475763,36.1073242],[140.2476992,36.1072607],[140.247755,36.1071932],[140.247769,36.1071368],[140.2477351,36.1070828],[140.2476777,36.1070103],[140.247211,36.1065119],[140.2471681,36.1064686],[140.2471064,36.1064317],[140.2470313,36.1064317],[140.2469347,36.1064382],[140.2449606,36.1067416],[140.2444295,36.1068218],[140.2442953,36.1068341],[140.2442041,36.1068385],[140.244129,36.1067865],[140.2440539,36.1066824],[140.2439546,36.1065351],[140.2439251,36.1064007],[140.2438366,36.10608],[140.2438178,36.1059977],[140.2438046,36.1059268],[140.2437804,36.105877],[140.2437482,36.105838],[140.2436784,36.105833],[140.2435469,36.1058546],[140.243091,36.1059153],[140.2427289,36.1059847],[140.2413906,36.1062963],[140.2412028,36.1063411],[140.2408327,36.1071962],[140.240543,36.1075516],[140.2400066,36.1078377],[140.2393843,36.108115],[140.2388747,36.1082579],[140.2386923,36.1082925],[140.2384884,36.1083099],[140.2383382,36.1082188],[140.2380271,36.1083452],[140.2374746,36.1084919],[140.2370025,36.1086566],[140.236171,36.1089296],[140.2362676,36.1090986],[140.2363534,36.1093203],[140.2363695,36.1095927],[140.2364768,36.1098967],[140.2365975,36.1099856],[140.236863,36.1102153],[140.2370964,36.1103923],[140.2377442,36.1109304],[140.2384053,36.1114757],[140.2385018,36.1115761],[140.2385448,36.1116469],[140.2392126,36.112232],[140.2399234,36.1128047],[140.2399556,36.1128647],[140.2399663,36.1129232],[140.2400361,36.1129882],[140.2408836,36.1137488],[140.2418063,36.1145591],[140.2430724,36.1156605],[140.243386,36.1159177],[140.2437722,36.1157335],[140.2457867,36.1147136],[140.2459341,36.1146458],[140.2461086,36.1145403],[140.2463178,36.1144016],[140.2471949,36.1137321],[140.242399,36.109623],[140.2433592,36.1088732],[140.2437159,36.1081191],[140.2444589,36.1075904],[140.2450222,36.1077248],[140.2474878,36.1078041]]]}}
