{"type":"Feature","id":"attraction-large-park-W439375302","properties":{"id":"attraction-large-park-W439375302","kind":"attraction","name":"太田市運動公園","shortName":"太田市運動公園","context":"日本","subtype":"large-park","subtypeLabel":"大型都市公園・広域公園","statusLabel":"著名な公園","aliases":["Ota City Sport Park"],"osmType":"way","osmId":439375302,"osmDate":null,"officialAreaKm2":null,"areaSourceLabel":"","areaSourceUrl":"","boundarySourceLabel":"© OpenStreetMap contributors","boundarySourceUrl":"https://www.openstreetmap.org/copyright","geometryFile":"attractions/large-park-W439375302.geojson"},"geometry":{"type":"Polygon","coordinates":[[[139.396875,36.2772275],[139.396601,36.2771467],[139.3957787,36.277049],[139.3954714,36.2768052],[139.3950873,36.2767471],[139.3949963,36.2765846],[139.394855,36.2765152],[139.3941918,36.2766542],[139.3941089,36.2763292],[139.3936997,36.2763097],[139.3934884,36.2758104],[139.3933036,36.2756188],[139.3931596,36.2755162],[139.3930131,36.2751408],[139.3929891,36.2749318],[139.3929555,36.2745969],[139.392797,36.2743397],[139.3927379,36.2742438],[139.392593,36.2740086],[139.3930899,36.2737376],[139.3938554,36.2732025],[139.3942417,36.2729325],[139.3949672,36.2724254],[139.3985076,36.2757535],[139.3985121,36.2757657],[139.3985394,36.2758392],[139.3985237,36.2758919],[139.3981783,36.2761314],[139.3975125,36.2765931],[139.3971301,36.2769736],[139.3969637,36.2771392],[139.396875,36.2772275]]]}}
