{"type":"Feature","id":"attraction-large-park-W607698211","properties":{"id":"attraction-large-park-W607698211","kind":"attraction","name":"木場潟公園","shortName":"木場潟公園","context":"日本","subtype":"large-park","subtypeLabel":"大型都市公園・広域公園","statusLabel":"著名な公園","aliases":[],"osmType":"way","osmId":607698211,"osmDate":null,"officialAreaKm2":null,"areaSourceLabel":"","areaSourceUrl":"","boundarySourceLabel":"© OpenStreetMap contributors","boundarySourceUrl":"https://www.openstreetmap.org/copyright","geometryFile":"attractions/large-park-W607698211.geojson"},"geometry":{"type":"Polygon","coordinates":[[[136.4490507,36.3660326],[136.4489126,36.3650606],[136.4501196,36.3644499],[136.4519655,36.3634279],[136.4525657,36.3643476],[136.4536949,36.3661815],[136.4523169,36.3669778],[136.451966,36.3666541],[136.4506072,36.3674606],[136.4499629,36.366798],[136.4489613,36.3674452],[136.448821,36.3671473],[136.4490507,36.3660326]]]}}
