{"type":"Feature","id":"attraction-large-park-W1304804268","properties":{"id":"attraction-large-park-W1304804268","kind":"attraction","name":"鬼岩公園","shortName":"鬼岩公園","context":"日本","subtype":"large-park","subtypeLabel":"大型都市公園・広域公園","statusLabel":"著名な公園","aliases":[],"osmType":"way","osmId":1304804268,"osmDate":null,"officialAreaKm2":null,"areaSourceLabel":"","areaSourceUrl":"","boundarySourceLabel":"© OpenStreetMap contributors","boundarySourceUrl":"https://www.openstreetmap.org/copyright","geometryFile":"attractions/large-park-W1304804268.geojson"},"geometry":{"type":"Polygon","coordinates":[[[137.1960749,35.410301],[137.19602,35.4102245],[137.195934,35.4101009],[137.1959176,35.4100499],[137.1958359,35.4100228],[137.195689,35.4100191],[137.1955971,35.4099662],[137.1954898,35.4099334],[137.1953353,35.4099849],[137.1949238,35.4101414],[137.1944793,35.4101644],[137.1947304,35.4099268],[137.1946489,35.4097188],[137.194151,35.4094232],[137.1946495,35.4087171],[137.194998,35.4085801],[137.1951398,35.4084765],[137.195128,35.4082815],[137.1954323,35.4082646],[137.1956066,35.4083224],[137.1955623,35.4084669],[137.195453,35.4085367],[137.1953969,35.408674],[137.1955889,35.4090015],[137.1958016,35.4090472],[137.1959848,35.4089052],[137.1960941,35.4088835],[137.1963275,35.4090039],[137.1964575,35.4090039],[137.1965757,35.4089461],[137.1967648,35.4087992],[137.1970484,35.4086644],[137.1973645,35.4086596],[137.1976984,35.4085175],[137.1980146,35.4085241],[137.1986149,35.408119],[137.1989366,35.4082429],[137.1989444,35.408629],[137.1989522,35.4087863],[137.1990672,35.4089404],[137.1992621,35.4089864],[137.1994707,35.4089674],[137.1995876,35.4089991],[137.1996227,35.4090675],[137.1995818,35.4092708],[137.199626,35.409366],[137.1999008,35.4096177],[137.199988,35.4098645],[137.2001032,35.4099391],[137.2002317,35.4099427],[137.2004877,35.409924],[137.2005409,35.4099433],[137.200467,35.410166],[137.2004611,35.4102395],[137.2005453,35.410408],[137.2007551,35.4106392],[137.2010426,35.4108235],[137.2011783,35.4111084],[137.2012835,35.4111554],[137.201253,35.4112771],[137.201253,35.4113573],[137.2013786,35.411526],[137.2014397,35.4115675],[137.2015924,35.4116477],[137.2015958,35.4117362],[137.2012666,35.4122922],[137.20127,35.4124692],[137.2014363,35.4125301],[137.2017179,35.4125356],[137.2018876,35.4125937],[137.2022372,35.4125273],[137.2022847,35.4125356],[137.2023085,35.4125799],[137.2022474,35.4126407],[137.2021082,35.412743],[137.2017417,35.4128647],[137.2016467,35.4129533],[137.2016093,35.413086],[137.2016704,35.4132354],[137.2018876,35.4134622],[137.2020098,35.4135313],[137.2026037,35.4135645],[137.2027157,35.4136115],[137.2026721,35.413763],[137.2014817,35.4135157],[137.2010906,35.413791],[137.2011549,35.4141527],[137.2009182,35.4144092],[137.1998558,35.4151835],[137.1984129,35.4148693],[137.1967739,35.4137233],[137.1951528,35.4123437],[137.1937557,35.4119445],[137.193998,35.411739],[137.1943034,35.4114382],[137.1944456,35.4111753],[137.1961788,35.4105222],[137.1960749,35.410301]]]}}
