{"type":"Feature","id":"attraction-large-park-R15635177","properties":{"id":"attraction-large-park-R15635177","kind":"attraction","name":"東扇島東公園","shortName":"東扇島東公園","context":"日本","subtype":"large-park","subtypeLabel":"大型都市公園・広域公園","statusLabel":"著名な公園","aliases":["Higahi Ohgishima East Park"],"osmType":"relation","osmId":15635177,"osmDate":null,"officialAreaKm2":null,"areaSourceLabel":"","areaSourceUrl":"","boundarySourceLabel":"© OpenStreetMap contributors","boundarySourceUrl":"https://www.openstreetmap.org/copyright","geometryFile":"attractions/large-park-R15635177.geojson"},"geometry":{"type":"Polygon","coordinates":[[[139.7780749,35.5046444],[139.7750482,35.503312],[139.7746557,35.5038998],[139.7745375,35.5038747],[139.7744049,35.5038467],[139.7700599,35.5029261],[139.7699452,35.5029018],[139.7698654,35.50291],[139.7697972,35.5029359],[139.7697415,35.5029778],[139.7697247,35.5030045],[139.7692926,35.5036911],[139.7692504,35.5038414],[139.7691717,35.5050573],[139.7692614,35.5051373],[139.7707854,35.5052132],[139.7708958,35.5052187],[139.7710318,35.5052254],[139.7712881,35.5052382],[139.7712178,35.5060069],[139.7744261,35.5054668],[139.7753806,35.5052996],[139.775907,35.5052177],[139.7757874,35.5051865],[139.7757953,35.5051594],[139.7758056,35.5050998],[139.7757917,35.5050511],[139.7757697,35.5050033],[139.7757373,35.5049722],[139.7756935,35.5049455],[139.7756286,35.5049239],[139.7756191,35.5047481],[139.7756216,35.5046289],[139.7756246,35.5044748],[139.7756638,35.5042617],[139.7757242,35.5041106],[139.7758293,35.5039799],[139.7759042,35.5038879],[139.7759871,35.5038116],[139.7763754,35.5039849],[139.7764338,35.5040845],[139.7774353,35.5045264],[139.7774038,35.5048442],[139.7772997,35.504883],[139.7773385,35.5049437],[139.7778953,35.5047181],[139.7780749,35.5046444]]]}}
