{"type":"Feature","id":"attraction-large-park-W478539161","properties":{"id":"attraction-large-park-W478539161","kind":"attraction","name":"せんなん里海公園","shortName":"せんなん里海公園","context":"日本","subtype":"large-park","subtypeLabel":"大型都市公園・広域公園","statusLabel":"著名な公園","aliases":[],"osmType":"way","osmId":478539161,"osmDate":null,"officialAreaKm2":null,"areaSourceLabel":"","areaSourceUrl":"","boundarySourceLabel":"© OpenStreetMap contributors","boundarySourceUrl":"https://www.openstreetmap.org/copyright","geometryFile":"attractions/large-park-W478539161.geojson"},"geometry":{"type":"Polygon","coordinates":[[[135.1826504,34.3359768],[135.1825766,34.3355007],[135.1822132,34.3354719],[135.1822802,34.3353169],[135.182291,34.335184],[135.1823687,34.3350821],[135.182527,34.3350024],[135.1825765,34.3349737],[135.1826664,34.3349447],[135.1827483,34.3348506],[135.1835597,34.3349802],[135.1843391,34.3350234],[135.1852253,34.3350134],[135.1852334,34.3348706],[135.18546,34.3349005],[135.1855432,34.3348329],[135.1856732,34.3348684],[135.1858649,34.3353629],[135.1867299,34.3353943],[135.1869097,34.3352028],[135.1869888,34.3351529],[135.187638,34.3349603],[135.18857,34.3351009],[135.1888785,34.3351718],[135.1896308,34.3348495],[135.1897301,34.3348418],[135.1903215,34.3350478],[135.1913676,34.3355107],[135.1913907,34.335502],[135.1913702,34.3354597],[135.1911959,34.335267],[135.1911289,34.3351452],[135.1911476,34.3350212],[135.1911879,34.3349082],[135.1912844,34.3348041],[135.1913703,34.3348861],[135.1915848,34.3350721],[135.1919308,34.3353335],[135.1921454,34.3354752],[135.1924833,34.3356413],[135.1928938,34.3358096],[135.1934651,34.3359824],[135.1938728,34.3360799],[135.1944682,34.336215],[135.194833,34.3363257],[135.1950556,34.3364143],[135.1954231,34.3365716],[135.1958844,34.3368019],[135.1968393,34.3373135],[135.1972443,34.3374996],[135.1973462,34.3375815],[135.1977673,34.3377365],[135.1985371,34.3381352],[135.1988965,34.3383212],[135.199838,34.3387753],[135.2005219,34.3391141],[135.201517,34.3396014],[135.2017665,34.3397165],[135.2019677,34.3398051],[135.2021661,34.3398738],[135.2023619,34.339938],[135.2025899,34.3399867],[135.2028689,34.3400354],[135.2033114,34.3400908],[135.2037352,34.3401196],[135.2042663,34.3401196],[135.2047454,34.3400908],[135.2049232,34.3404435],[135.2049986,34.3407231],[135.2051094,34.3410027],[135.2049181,34.3410542],[135.2048779,34.3411073],[135.2048135,34.3411317],[135.2047464,34.3411804],[135.2046552,34.3411893],[135.2045989,34.3412557],[135.2045479,34.3412336],[135.2044889,34.3411959],[135.2044112,34.3411406],[135.2043441,34.3410896],[135.2043119,34.3410365],[135.2042475,34.341001],[135.2041885,34.3409612],[135.2041188,34.340939],[135.2040705,34.340897],[135.2040115,34.3408305],[135.2039686,34.340784],[135.2039096,34.3407574],[135.2037996,34.3407331],[135.2036778,34.341058],[135.2034956,34.3413859],[135.2030986,34.3420815],[135.2030597,34.3421743],[135.2028566,34.3425486],[135.2027875,34.3425292],[135.2025602,34.3424224],[135.2022698,34.3422208],[135.2019936,34.342047],[135.2017307,34.3419506],[135.2013338,34.3418687],[135.201138,34.34182],[135.2008979,34.3417148],[135.200698,34.3415642],[135.2004701,34.341366],[135.2002179,34.3411799],[135.2000369,34.3410914],[135.1997217,34.3409795],[135.1995983,34.3409197],[135.1995179,34.34084],[135.1993757,34.3406695],[135.1991464,34.3405089],[135.1988983,34.3404059],[135.1986368,34.3402929],[135.1985684,34.340247],[135.1985429,34.3402215],[135.1987213,34.34001],[135.198677,34.339994],[135.1986683,34.3399801],[135.1986281,34.339974],[135.1986113,34.3399868],[135.1985389,34.3399397],[135.198567,34.3399126],[135.1985362,34.3398899],[135.1985045,34.3398617],[135.1983002,34.3400543],[135.1982646,34.3400582],[135.1981975,34.340113],[135.198158,34.3400997],[135.198048,34.3399801],[135.1979032,34.3398893],[135.1973839,34.3396773],[135.196779,34.339492],[135.1965383,34.33946],[135.196431,34.3395951],[135.1963747,34.339615],[135.1963398,34.3395774],[135.1964783,34.3394024],[135.196696,34.339118],[135.1964524,34.3389967],[135.1962948,34.3392129],[135.195985,34.3390669],[135.1959003,34.3391695],[135.195799,34.3391135],[135.1954161,34.3392284],[135.1953114,34.3393288],[135.195332,34.339408],[135.1951006,34.3395796],[135.1950041,34.3395087],[135.1945105,34.339367],[135.1944086,34.3392784],[135.194406,34.3389111],[135.194768,34.338906],[135.195012,34.339041],[135.195087,34.338996],[135.195209,34.338821],[135.195332,34.338754],[135.195393,34.338658],[135.1954,34.338607],[135.195338,34.338562],[135.1948408,34.3384],[135.1946393,34.3384327],[135.1943199,34.3383156],[135.1942187,34.3384745],[135.193946,34.3383493],[135.1938549,34.3382238],[135.1936329,34.3381686],[135.1934825,34.3382687],[135.1933762,34.3382458],[135.1933307,34.3381865],[135.193117,34.3381413],[135.192601,34.3379986],[135.1924692,34.3379401],[135.1923908,34.3378838],[135.1924136,34.3377089],[135.1925236,34.3377044],[135.1925303,34.3375815],[135.1923184,34.3375228],[135.1921454,34.3375261],[135.1920784,34.33769],[135.1921347,34.3377775],[135.1922299,34.3377808],[135.1922218,34.3378819],[135.1921073,34.3379185],[135.1919925,34.3381729],[135.192227,34.338382],[135.1923162,34.3383849],[135.192471,34.338251],[135.1926283,34.3383544],[135.1923296,34.3386137],[135.1914963,34.3383916],[135.1912,34.3381522],[135.1912686,34.3379159],[135.1914416,34.3379631],[135.1914856,34.3378327],[135.1914429,34.337725],[135.1913502,34.3375913],[135.1911198,34.3374557],[135.1908871,34.3373722],[135.1905221,34.3373227],[135.1902056,34.3372231],[135.1900258,34.3371533],[135.1898408,34.3371002],[135.18962,34.3370819],[135.1893546,34.3371301],[135.1893003,34.3371034],[135.1891693,34.3370659],[135.1889849,34.337003],[135.1886715,34.3369743],[135.1881966,34.3369584],[135.1879675,34.336939],[135.1877761,34.3368747],[135.1875491,34.3368201],[135.1872753,34.336781],[135.1870023,34.3367513],[135.1869568,34.3367447],[135.1867624,34.3367205],[135.1865053,34.336694],[135.1861383,34.3366607],[135.1857872,34.3366245],[135.1854233,34.3365566],[135.1850209,34.336479],[135.1844984,34.3364575],[135.1837686,34.3364745],[135.1830283,34.3364401],[135.1829977,34.33643],[135.1826825,34.3361659],[135.1826504,34.3359768]]]}}
