{"type":"Feature","id":"attraction-large-park-W460772771","properties":{"id":"attraction-large-park-W460772771","kind":"attraction","name":"岩槻文化公園","shortName":"岩槻文化公園","context":"日本","subtype":"large-park","subtypeLabel":"大型都市公園・広域公園","statusLabel":"著名な公園","aliases":[],"osmType":"way","osmId":460772771,"osmDate":null,"officialAreaKm2":null,"areaSourceLabel":"","areaSourceUrl":"","boundarySourceLabel":"© OpenStreetMap contributors","boundarySourceUrl":"https://www.openstreetmap.org/copyright","geometryFile":"attractions/large-park-W460772771.geojson"},"geometry":{"type":"Polygon","coordinates":[[[139.7178343,35.9470501],[139.7204386,35.9462153],[139.7211764,35.9460406],[139.7213966,35.9459885],[139.7216158,35.9459366],[139.7224151,35.9457474],[139.7230659,35.9452814],[139.7240587,35.9445704],[139.7261198,35.9420667],[139.7245984,35.9418079],[139.7242611,35.9428021],[139.7241903,35.9430107],[139.7241329,35.94318],[139.7241186,35.9432223],[139.7241155,35.9432314],[139.7240835,35.9433256],[139.7220216,35.9433337],[139.7200943,35.9434859],[139.7199632,35.9437264],[139.718907,35.944257],[139.7192235,35.9449119],[139.7185761,35.9453509],[139.7178343,35.9470501]]]}}
