{"type":"Feature","id":"attraction-large-park-W28848058","properties":{"id":"attraction-large-park-W28848058","kind":"attraction","name":"多摩中央公園","shortName":"多摩中央公園","context":"日本","subtype":"large-park","subtypeLabel":"大型都市公園・広域公園","statusLabel":"著名な公園","aliases":["Tama Central Park"],"osmType":"way","osmId":28848058,"osmDate":null,"officialAreaKm2":null,"areaSourceLabel":"","areaSourceUrl":"","boundarySourceLabel":"© OpenStreetMap contributors","boundarySourceUrl":"https://www.openstreetmap.org/copyright","geometryFile":"attractions/large-park-W28848058.geojson"},"geometry":{"type":"Polygon","coordinates":[[[139.4283223,35.622356],[139.428368,35.6222894],[139.4286013,35.6222054],[139.4282746,35.6218459],[139.4281828,35.6218789],[139.4281246,35.6217378],[139.4281179,35.6215083],[139.4280885,35.6214497],[139.4279281,35.6215754],[139.4277826,35.6216757],[139.4276399,35.6217398],[139.4275747,35.6216266],[139.4275975,35.6215274],[139.4275127,35.6212271],[139.4275714,35.6211676],[139.4276744,35.6211088],[139.4277782,35.6210941],[139.4281059,35.6210958],[139.4276681,35.6206357],[139.4275499,35.6204765],[139.427469,35.6203746],[139.4274561,35.6204487],[139.4273591,35.620493],[139.4270947,35.6204673],[139.4268364,35.6203557],[139.426943,35.6200585],[139.4270001,35.620005],[139.426868,35.6199625],[139.4267607,35.6198938],[139.4266224,35.6199163],[139.4265528,35.6196261],[139.4265749,35.619588],[139.4265246,35.6195569],[139.4265474,35.6194877],[139.4266178,35.6194697],[139.4265803,35.6193182],[139.4265718,35.6192085],[139.4262894,35.6190999],[139.4261384,35.6193018],[139.4260102,35.6192335],[139.4243117,35.6191417],[139.4243037,35.6192446],[139.424136,35.6192386],[139.4239398,35.6214085],[139.4242032,35.6214707],[139.4249032,35.6217225],[139.4274189,35.6226023],[139.4278048,35.6227189],[139.4279535,35.6227466],[139.4281353,35.6227549],[139.4284056,35.6227352],[139.4282768,35.6224349],[139.4283298,35.6224115],[139.4283223,35.622356]]]}}
