{"type":"Feature","id":"attraction-large-park-R2658286","properties":{"id":"attraction-large-park-R2658286","kind":"attraction","name":"石神井公園","shortName":"石神井公園","context":"日本","subtype":"large-park","subtypeLabel":"大型都市公園・広域公園","statusLabel":"著名な公園","aliases":["Shakujii Park"],"osmType":"relation","osmId":2658286,"osmDate":null,"officialAreaKm2":null,"areaSourceLabel":"","areaSourceUrl":"","boundarySourceLabel":"© OpenStreetMap contributors","boundarySourceUrl":"https://www.openstreetmap.org/copyright","geometryFile":"attractions/large-park-R2658286.geojson"},"geometry":{"type":"MultiPolygon","coordinates":[[[[139.5974065,35.7400235],[139.5974471,35.740015],[139.597672,35.739499],[139.5978007,35.7392702],[139.5978507,35.7392117],[139.5978832,35.7391737],[139.5978963,35.7391583],[139.5980103,35.7390353],[139.5981082,35.7389286],[139.5981954,35.7388089],[139.5984492,35.7384413],[139.5982159,35.7383793],[139.5982648,35.7382597],[139.598526,35.7383301],[139.5985573,35.738291],[139.598894,35.7377241],[139.5989009,35.7377125],[139.598691,35.7376225],[139.5986604,35.7376094],[139.5986054,35.7375836],[139.5985832,35.7375701],[139.5984122,35.7374768],[139.5984244,35.7374454],[139.5982043,35.7373647],[139.5981656,35.737354],[139.5981456,35.7373483],[139.5980162,35.7373192],[139.5979317,35.737278],[139.5978754,35.7372323],[139.5977881,35.7371854],[139.5977472,35.7371637],[139.5976867,35.7371797],[139.5976402,35.7371797],[139.5975881,35.7371591],[139.5976036,35.7370334],[139.5977501,35.7368853],[139.5977872,35.7368313],[139.5978179,35.7367868],[139.5977978,35.7367651],[139.5976804,35.7367576],[139.5975493,35.736748],[139.5974877,35.7367271],[139.597296,35.7366735],[139.5968096,35.7365332],[139.5967296,35.7364783],[139.5962951,35.7363465],[139.5962473,35.7363504],[139.5962203,35.7370183],[139.5952488,35.7369918],[139.5948374,35.7369435],[139.5947915,35.7370623],[139.5947698,35.7370647],[139.5945841,35.7370338],[139.5944419,35.7369492],[139.5943405,35.7369321],[139.5941672,35.7368281],[139.594157,35.7368463],[139.5941222,35.7368887],[139.5940616,35.7369127],[139.5939743,35.7369435],[139.5939306,35.7369767],[139.5938954,35.7370178],[139.5938687,35.7370876],[139.5938446,35.7371765],[139.5938455,35.7372604],[139.5938509,35.7373557],[139.5938479,35.7375411],[139.5938183,35.7377826],[139.5937979,35.737974],[139.5937699,35.7380873],[139.5937374,35.7381848],[139.5937,35.7382403],[139.5937096,35.7382557],[139.5937301,35.7382877],[139.5937591,35.7383465],[139.5937804,35.7383822],[139.5938104,35.7384265],[139.5938922,35.7385352],[139.5939168,35.7385697],[139.5939671,35.7386436],[139.5940184,35.7387234],[139.5940592,35.7387836],[139.5940832,35.7388136],[139.5941129,35.7388509],[139.5941538,35.7388939],[139.5941802,35.7389269],[139.5942219,35.7389707],[139.5943306,35.7390325],[139.5944412,35.7391],[139.5945035,35.7391376],[139.594593,35.7392038],[139.5946438,35.7392378],[139.5949566,35.7392975],[139.5953705,35.739376],[139.5956298,35.7394972],[139.5960096,35.7396198],[139.5974065,35.7400235]]],[[[139.599119,35.7375774],[139.6000434,35.738072],[139.5999316,35.7382957],[139.6001936,35.7383881],[139.6001748,35.7384728],[139.600368,35.7385259],[139.6008146,35.7386908],[139.6010613,35.7387779],[139.6012538,35.7388522],[139.6014965,35.7389363],[139.601735,35.7390258],[139.6017929,35.7390429],[139.6018707,35.7390566],[139.6019854,35.7390712],[139.6021905,35.7390852],[139.6021614,35.7393883],[139.6024442,35.7393562],[139.6024614,35.7393542],[139.6024722,35.7393194],[139.6025117,35.7393184],[139.6030891,35.7393041],[139.6032071,35.7393107],[139.6035826,35.7394174],[139.603647,35.7393085],[139.603847,35.7393403],[139.6038937,35.7392713],[139.6039264,35.7392598],[139.6040999,35.7393027],[139.6041783,35.7388717],[139.604215,35.738839],[139.6044201,35.7388432],[139.6044382,35.7381663],[139.604543,35.7381582],[139.6045897,35.7379823],[139.6045996,35.7378327],[139.6043724,35.7377254],[139.6047035,35.7377414],[139.6049031,35.7377563],[139.6050381,35.7380329],[139.6053534,35.7379514],[139.6055092,35.7379042],[139.6055448,35.7379573],[139.6057007,35.7382321],[139.6057056,35.7382746],[139.6056975,35.738459],[139.6056467,35.7386331],[139.6055708,35.7388035],[139.6054694,35.7390059],[139.6055061,35.7390452],[139.6055081,35.7390834],[139.6059671,35.7389852],[139.6059747,35.739008],[139.6055065,35.7391241],[139.6055461,35.7392923],[139.6056372,35.7394125],[139.6057042,35.7394898],[139.6057941,35.7395469],[139.6059141,35.7396123],[139.6060308,35.739658],[139.6061911,35.7397135],[139.6062751,35.7399698],[139.6063146,35.7400766],[139.6063189,35.7401136],[139.6063186,35.7401708],[139.6063134,35.7402103],[139.6063042,35.7402567],[139.6062655,35.7403634],[139.6062062,35.7404703],[139.606128,35.7405696],[139.6061106,35.7405685],[139.6060979,35.7405832],[139.6060699,35.7405861],[139.6059605,35.7405094],[139.6057128,35.7403423],[139.6056983,35.74033],[139.6056712,35.740312],[139.6056289,35.7402848],[139.6055812,35.7402586],[139.6054826,35.7402357],[139.6052822,35.7402202],[139.605085,35.7402395],[139.6047699,35.7402758],[139.6043556,35.7403459],[139.6041401,35.7403722],[139.6040581,35.7403768],[139.6039611,35.7403651],[139.6037184,35.740344],[139.6035842,35.7403379],[139.6034545,35.7403304],[139.6033748,35.740291],[139.6032382,35.7401952],[139.6030291,35.7400747],[139.6029456,35.7400406],[139.6025899,35.7399854],[139.6023797,35.7399622],[139.6021536,35.7399466],[139.6017967,35.7399498],[139.6015787,35.7399177],[139.6014506,35.7398935],[139.6012053,35.7398267],[139.6011051,35.7398001],[139.6010593,35.7397879],[139.6010023,35.7397837],[139.6008606,35.7397441],[139.6007488,35.7397157],[139.6006408,35.7396844],[139.6005523,35.7396243],[139.5999211,35.7392024],[139.5995739,35.7389679],[139.5993527,35.7388093],[139.5991801,35.7386591],[139.5990233,35.7385453],[139.59869,35.7383079],[139.599119,35.7375774]]]]}}
