{"type":"Feature","id":"attraction-large-park-W673554433","properties":{"id":"attraction-large-park-W673554433","kind":"attraction","name":"近江富士花緑公園","shortName":"近江富士花緑公園","context":"日本","subtype":"large-park","subtypeLabel":"大型都市公園・広域公園","statusLabel":"","aliases":[],"osmType":"way","osmId":673554433,"osmDate":null,"officialAreaKm2":null,"areaSourceLabel":"","areaSourceUrl":"","boundarySourceLabel":"© OpenStreetMap contributors","boundarySourceUrl":"https://www.openstreetmap.org/copyright","geometryFile":"attractions/large-park-W673554433.geojson"},"geometry":{"type":"Polygon","coordinates":[[[136.0469574,35.0495853],[136.0466811,35.0495304],[136.0466515,35.0498356],[136.0469413,35.0505954],[136.0464907,35.0506481],[136.0457933,35.0506129],[136.0456431,35.0492252],[136.0457718,35.0486521],[136.0457129,35.0484128],[136.0445998,35.0481416],[136.0439989,35.0479362],[136.0434973,35.0475289],[136.0426699,35.0488849],[136.04258,35.049537],[136.042226,35.0500991],[136.0414856,35.0505119],[136.041153,35.0508413],[136.0406595,35.051904],[136.0399675,35.0527823],[136.0404074,35.0536474],[136.0402411,35.053889],[136.0402197,35.0541349],[136.0409599,35.0545828],[136.0408312,35.0550395],[136.0409599,35.0554698],[136.041491,35.0558299],[136.0417592,35.05601],[136.0415715,35.0561724],[136.0415769,35.0563701],[136.0413623,35.056616],[136.0414535,35.0568092],[136.0417539,35.0569365],[136.0418343,35.0572088],[136.0423118,35.0573098],[136.0423547,35.0574635],[136.042918,35.0577138],[136.0432666,35.0577269],[136.0434222,35.0576216],[136.0435617,35.0577752],[136.043964,35.0577094],[136.0442376,35.0573537],[136.0446453,35.0573405],[136.0452729,35.0571605],[136.0453319,35.05702],[136.0456753,35.0567433],[136.0465819,35.0567169],[136.0466945,35.0569453],[136.0467079,35.0573537],[136.0471853,35.057907],[136.0473597,35.0584295],[136.0477245,35.0583834],[136.0499749,35.058693],[136.0501143,35.0585151],[136.049999,35.0582649],[136.0491917,35.0580343],[136.0490227,35.0577994],[136.0489905,35.0573559],[136.0491863,35.0571342],[136.0489556,35.0567499],[136.0490012,35.0562164],[136.0493445,35.0559573],[136.0473061,35.0548068],[136.0475984,35.0545433],[136.0480464,35.0544071],[136.0474777,35.0529668],[136.0479954,35.0523937],[136.0480223,35.0523124],[136.0480598,35.0505668],[136.0476735,35.0503231],[136.0475984,35.0502001],[136.0472873,35.0500201],[136.0470512,35.0497763],[136.0469574,35.0495853]]]}}
