{"type":"Feature","id":"attraction-large-park-W627590269","properties":{"id":"attraction-large-park-W627590269","kind":"attraction","name":"安平町鹿公園","shortName":"安平町鹿公園","context":"日本","subtype":"large-park","subtypeLabel":"大型都市公園・広域公園","statusLabel":"著名な公園","aliases":[],"osmType":"way","osmId":627590269,"osmDate":null,"officialAreaKm2":null,"areaSourceLabel":"","areaSourceUrl":"","boundarySourceLabel":"© OpenStreetMap contributors","boundarySourceUrl":"https://www.openstreetmap.org/copyright","geometryFile":"attractions/large-park-W627590269.geojson"},"geometry":{"type":"Polygon","coordinates":[[[141.8035469,42.8756759],[141.8026239,42.8749656],[141.8030262,42.8737233],[141.8035304,42.8736329],[141.8042546,42.8733341],[141.8045711,42.8729606],[141.80448,42.8728702],[141.8043029,42.8728505],[141.8046462,42.8722529],[141.805983,42.872522],[141.8063307,42.8707],[141.8069905,42.8706804],[141.8081921,42.8708022],[141.8086106,42.8709241],[141.8087125,42.8710244],[141.8079561,42.8731611],[141.807645,42.873794],[141.8068081,42.8747906],[141.8066204,42.8751051],[141.8065162,42.875336],[141.8056655,42.8770177],[141.8043861,42.876827],[141.8038362,42.876825],[141.8031174,42.8767582],[141.8035469,42.8756759]]]}}
