{"type":"Feature","id":"attraction-large-industrial-complex-W222363461","properties":{"id":"attraction-large-industrial-complex-W222363461","kind":"attraction","name":"コスモ石油 坂出物流基地","shortName":"コスモ石油 坂出物流基地","context":"日本","subtype":"industrial-complex","subtypeLabel":"工業地帯・大規模工場","statusLabel":"","aliases":["Cosmo Oil oil terminal","cosmo oil"],"osmType":"way","osmId":222363461,"osmDate":null,"officialAreaKm2":null,"areaSourceLabel":"","areaSourceUrl":"","boundarySourceLabel":"© OpenStreetMap contributors","boundarySourceUrl":"https://www.openstreetmap.org/copyright","geometryFile":"attractions/large-industrial-complex-W222363461.geojson"},"geometry":{"type":"Polygon","coordinates":[[[133.8285526,34.354695],[133.8286802,34.3540988],[133.8287802,34.3534168],[133.8288321,34.3521433],[133.828801,34.3515206],[133.8287297,34.3509045],[133.8286235,34.3502441],[133.8285066,34.3495837],[133.8281611,34.3477654],[133.8293933,34.3476486],[133.8310494,34.3484787],[133.8311558,34.3483326],[133.8306233,34.3480683],[133.8306876,34.34798],[133.8318207,34.348542],[133.8317567,34.34863],[133.8312317,34.3483697],[133.8311308,34.3485084],[133.8326921,34.3492903],[133.8327987,34.3491384],[133.8327846,34.3491043],[133.8325147,34.3489754],[133.832553,34.3489208],[133.8330208,34.3491444],[133.8329797,34.349203],[133.8329052,34.3491674],[133.8328572,34.3491751],[133.8327552,34.3493205],[133.8329068,34.3494427],[133.8338927,34.3502688],[133.8340379,34.3501515],[133.8336105,34.3497907],[133.8336926,34.3497244],[133.834606,34.3504951],[133.8345253,34.3505603],[133.8340996,34.3502009],[133.8339528,34.3503195],[133.8346305,34.3509087],[133.8347407,34.3509954],[133.8354799,34.3516282],[133.835633,34.3515036],[133.8352086,34.3511485],[133.8352857,34.3510858],[133.8361995,34.3518502],[133.8361282,34.3519082],[133.8357049,34.3515539],[133.8355459,34.3516834],[133.8371599,34.3530413],[133.8373129,34.3529165],[133.8368914,34.3525644],[133.8369675,34.3525024],[133.8378851,34.3532689],[133.8378041,34.353335],[133.8373679,34.3529708],[133.83722,34.3530915],[133.8393149,34.3548702],[133.8394323,34.354776],[133.8391014,34.3544948],[133.8392042,34.3544124],[133.8399528,34.3550484],[133.8398534,34.3551282],[133.8394993,34.3548271],[133.8393783,34.3549241],[133.840708,34.3560532],[133.840697,34.3567976],[133.84084,34.3567945],[133.8408376,34.3570671],[133.8407035,34.3570769],[133.8406923,34.3605724],[133.8405414,34.3606693],[133.8385327,34.3596644],[133.8383978,34.359599],[133.8292595,34.355043],[133.828648,34.3547392],[133.8285526,34.354695]]]}}
