{"type":"Feature","id":"attraction-large-park-R17810229","properties":{"id":"attraction-large-park-R17810229","kind":"attraction","name":"柳町公園","shortName":"柳町公園","context":"日本","subtype":"large-park","subtypeLabel":"大型都市公園・広域公園","statusLabel":"著名な公園","aliases":["Yanagimachi Park"],"osmType":"relation","osmId":17810229,"osmDate":null,"officialAreaKm2":null,"areaSourceLabel":"","areaSourceUrl":"","boundarySourceLabel":"© OpenStreetMap contributors","boundarySourceUrl":"https://www.openstreetmap.org/copyright","geometryFile":"attractions/large-park-R17810229.geojson"},"geometry":{"type":"MultiPolygon","coordinates":[[[[144.3744824,43.0088324],[144.3731313,43.0095501],[144.3731779,43.0095899],[144.3731216,43.0096252],[144.3736191,43.0101312],[144.3736781,43.0100998],[144.3737172,43.0101392],[144.3750844,43.0094102],[144.3750943,43.0093742],[144.3745646,43.0088367],[144.3744824,43.0088324]]],[[[144.3753647,43.009265],[144.381144,43.0061928],[144.3811642,43.0061329],[144.380668,43.0056043],[144.380566,43.0055818],[144.3748203,43.0086755],[144.374806,43.0088054],[144.3752083,43.0092271],[144.3753647,43.009265]]],[[[144.3814699,43.0060172],[144.3889439,43.0020353],[144.3889543,43.0019742],[144.388417,43.0014888],[144.3882707,43.0014832],[144.3808611,43.0054415],[144.3808503,43.0055033],[144.3813841,43.0060104],[144.3814699,43.0060172]]],[[[144.3892869,43.0018526],[144.3951178,42.9987513],[144.395113,42.9987172],[144.394547,42.9981954],[144.3944822,42.9981757],[144.3886678,43.001272],[144.3886408,43.0013517],[144.3891987,43.0018598],[144.3892869,43.0018526]]],[[[144.3953914,42.9986002],[144.3979966,42.9972123],[144.3980044,42.9971695],[144.3974841,42.9966437],[144.3974077,42.9966135],[144.3948349,42.9980021],[144.3947992,42.9980758],[144.3953034,42.998578],[144.3953914,42.9986002]]],[[[144.3982862,42.9970515],[144.3994474,42.9964416],[144.3991363,42.9960591],[144.3989781,42.9957913],[144.3989277,42.9957831],[144.3977161,42.9964448],[144.3977067,42.9965123],[144.3982163,42.997038],[144.3982862,42.9970515]]]]}}
