{"type":"Feature","id":"attraction-large-park-W550458524","properties":{"id":"attraction-large-park-W550458524","kind":"attraction","name":"舞鶴公園","shortName":"舞鶴公園","context":"日本","subtype":"large-park","subtypeLabel":"大型都市公園・広域公園","statusLabel":"著名な公園","aliases":["Maizuru Park"],"osmType":"way","osmId":550458524,"osmDate":null,"officialAreaKm2":null,"areaSourceLabel":"","areaSourceUrl":"","boundarySourceLabel":"© OpenStreetMap contributors","boundarySourceUrl":"https://www.openstreetmap.org/copyright","geometryFile":"attractions/large-park-W550458524.geojson"},"geometry":{"type":"Polygon","coordinates":[[[135.3300253,35.4466845],[135.3321652,35.4464872],[135.3321225,35.4463865],[135.332051,35.446318],[135.3319716,35.4461748],[135.3316215,35.4457416],[135.3314181,35.4453767],[135.3312309,35.4453991],[135.3312123,35.4454427],[135.3301176,35.4454905],[135.3301237,35.4457762],[135.3299077,35.4457926],[135.3299654,35.4462435],[135.3300253,35.4466845]]]}}
