{"type":"Feature","id":"attraction-large-park-W566491521","properties":{"id":"attraction-large-park-W566491521","kind":"attraction","name":"京都府立丹波自然運動公園","shortName":"京都府立丹波自然運動公園","context":"日本","subtype":"large-park","subtypeLabel":"大型都市公園・広域公園","statusLabel":"","aliases":[],"osmType":"way","osmId":566491521,"osmDate":null,"officialAreaKm2":null,"areaSourceLabel":"","areaSourceUrl":"","boundarySourceLabel":"© OpenStreetMap contributors","boundarySourceUrl":"https://www.openstreetmap.org/copyright","geometryFile":"attractions/large-park-W566491521.geojson"},"geometry":{"type":"Polygon","coordinates":[[[135.4173015,35.1704917],[135.4163652,35.169674],[135.4158535,35.1696027],[135.415115,35.169617],[135.414423,35.1695742],[135.4137426,35.1694887],[135.4135565,35.1693841],[135.4124284,35.1685237],[135.4122772,35.1685094],[135.411905,35.1685284],[135.4119341,35.1668456],[135.4120736,35.1661991],[135.4124807,35.1655335],[135.4127191,35.1651342],[135.4125854,35.1647824],[135.4125098,35.164326],[135.4128798,35.1637943],[135.4132112,35.1635384],[135.413384,35.1632132],[135.4139972,35.1628081],[135.414728,35.162372],[135.4151102,35.16196],[135.4151522,35.1616407],[135.4153328,35.1611737],[135.4154756,35.1609334],[135.4158104,35.1606975],[135.4162104,35.1604873],[135.4167246,35.1603004],[135.417896,35.1606157],[135.4192387,35.1609777],[135.4201101,35.1612931],[135.4202958,35.1616901],[135.4201243,35.1625426],[135.4197244,35.16329],[135.418953,35.1636637],[135.4186673,35.1642709],[135.4186388,35.1653452],[135.4187387,35.1658474],[135.4194101,35.1658474],[135.4197529,35.1663028],[135.4199101,35.1668633],[135.4199815,35.1674355],[135.4200529,35.1684514],[135.419653,35.1688134],[135.4190314,35.1693873],[135.4173015,35.1704917]]]}}
