{"type":"Feature","id":"attraction-large-park-W46155675","properties":{"id":"attraction-large-park-W46155675","kind":"attraction","name":"住之江公園","shortName":"住之江公園","context":"日本","subtype":"large-park","subtypeLabel":"大型都市公園・広域公園","statusLabel":"著名な公園","aliases":["Suminoe Park"],"osmType":"way","osmId":46155675,"osmDate":null,"officialAreaKm2":null,"areaSourceLabel":"","areaSourceUrl":"","boundarySourceLabel":"© OpenStreetMap contributors","boundarySourceUrl":"https://www.openstreetmap.org/copyright","geometryFile":"attractions/large-park-W46155675.geojson"},"geometry":{"type":"Polygon","coordinates":[[[135.4736719,34.6139797],[135.4765586,34.6136785],[135.4765385,34.6135731],[135.4772211,34.6135021],[135.4772244,34.6134359],[135.4774603,34.6134201],[135.4763782,34.6089545],[135.4757277,34.6089396],[135.4734352,34.6092073],[135.4733663,34.6092769],[135.4736719,34.6139797]]]}}
