{"type":"Feature","id":"attraction-large-park-W905450754","properties":{"id":"attraction-large-park-W905450754","kind":"attraction","name":"南楽園","shortName":"南楽園","context":"日本","subtype":"large-park","subtypeLabel":"大型都市公園・広域公園","statusLabel":"著名な公園","aliases":[],"osmType":"way","osmId":905450754,"osmDate":null,"officialAreaKm2":null,"areaSourceLabel":"","areaSourceUrl":"","boundarySourceLabel":"© OpenStreetMap contributors","boundarySourceUrl":"https://www.openstreetmap.org/copyright","geometryFile":"attractions/large-park-W905450754.geojson"},"geometry":{"type":"Polygon","coordinates":[[[132.5018266,33.1326422],[132.5018789,33.1327147],[132.5019737,33.1328076],[132.5022452,33.1330227],[132.5023308,33.1329578],[132.5024779,33.1329441],[132.5025531,33.1329803],[132.5026328,33.1330338],[132.5030295,33.1334626],[132.5029465,33.1335817],[132.5031397,33.1336588],[132.5034981,33.1337316],[132.5053861,33.1340123],[132.5071715,33.1350081],[132.5072497,33.135035],[132.5074537,33.1348737],[132.5078961,33.1345094],[132.507962,33.1344121],[132.508574,33.1331827],[132.5088553,33.13284],[132.5088474,33.1327931],[132.5077224,33.1324816],[132.507421,33.1323807],[132.5065146,33.1317775],[132.5064095,33.1317551],[132.5063682,33.1317845],[132.5063149,33.1317731],[132.5062924,33.1317315],[132.5056994,33.1315998],[132.5055636,33.1316205],[132.5054732,33.1315952],[132.5053661,33.1315133],[132.5052045,33.1314419],[132.5047583,33.1312043],[132.5041741,33.1306577],[132.5038012,33.1304172],[132.5035123,33.1301782],[132.503283,33.1304331],[132.5032303,33.130443],[132.5030034,33.1302788],[132.502257,33.1311227],[132.5020066,33.1315454],[132.501948,33.1316983],[132.5018802,33.1319611],[132.5018255,33.132268],[132.5017943,33.1324496],[132.5017971,33.1325681],[132.5018266,33.1326422]]]}}
