{"type":"Feature","id":"attraction-large-park-W426778267","properties":{"id":"attraction-large-park-W426778267","kind":"attraction","name":"平城宮跡歴史公園","shortName":"平城宮跡歴史公園","context":"日本","subtype":"large-park","subtypeLabel":"大型都市公園・広域公園","statusLabel":"","aliases":["Nara Palace Historical Park"],"osmType":"way","osmId":426778267,"osmDate":null,"officialAreaKm2":null,"areaSourceLabel":"","areaSourceUrl":"","boundarySourceLabel":"© OpenStreetMap contributors","boundarySourceUrl":"https://www.openstreetmap.org/copyright","geometryFile":"attractions/large-park-W426778267.geojson"},"geometry":{"type":"Polygon","coordinates":[[[135.7886469,34.686651],[135.7887009,34.6866318],[135.789193,34.6866662],[135.7892574,34.6865391],[135.7897805,34.6865413],[135.7900996,34.6864887],[135.7901969,34.6865121],[135.7903826,34.6865138],[135.7904698,34.686484],[135.7908896,34.6864818],[135.7910384,34.6864501],[135.7911055,34.6862824],[135.7915507,34.6864125],[135.791609,34.6863348],[135.7920812,34.6863381],[135.7921031,34.685475],[135.7921172,34.6854226],[135.7921593,34.68454],[135.7934403,34.6845299],[135.793783,34.6845169],[135.794829,34.6844763],[135.7948179,34.6853701],[135.7953903,34.6853841],[135.795786,34.6853768],[135.7965349,34.6853714],[135.7965718,34.6854044],[135.7965665,34.6859106],[135.7964695,34.6864242],[135.7968521,34.6864305],[135.7970211,34.6864505],[135.7993824,34.6864531],[135.7993755,34.6862016],[135.80028,34.6861962],[135.800288,34.6862767],[135.8003667,34.6862764],[135.8005938,34.6865998],[135.800866,34.6869048],[135.8002191,34.6870205],[135.8002339,34.6871578],[135.8001936,34.6889343],[135.800176,34.6889916],[135.8001029,34.6890892],[135.8001983,34.6891617],[135.8009535,34.6891645],[135.8011313,34.6890734],[135.8015057,34.6890765],[135.8017056,34.6890424],[135.8020583,34.6890765],[135.8021998,34.689071],[135.8026443,34.6890832],[135.8028093,34.6891003],[135.8028451,34.6891342],[135.8028482,34.689779],[135.8028455,34.6898231],[135.802814,34.6898694],[135.802814,34.6899289],[135.8028482,34.6899742],[135.8028531,34.6903708],[135.8028261,34.6903849],[135.8024486,34.6903836],[135.8022152,34.6905288],[135.8022276,34.6906469],[135.8017412,34.6906331],[135.8017525,34.6907837],[135.8013737,34.6907762],[135.8013743,34.6912731],[135.8012201,34.6913029],[135.8012322,34.6916888],[135.8019003,34.6916894],[135.8017619,34.69256],[135.801938,34.6925618],[135.8019161,34.6928731],[135.8020905,34.6928731],[135.8020529,34.6937398],[135.801672,34.6937156],[135.8016562,34.6940524],[135.8018077,34.694045],[135.801813,34.6942947],[135.8023932,34.6942999],[135.8024107,34.6946197],[135.802747,34.6946155],[135.8027355,34.6947752],[135.8027047,34.6948127],[135.8027028,34.6949117],[135.8029112,34.6949065],[135.8028871,34.6958669],[135.8030587,34.6959021],[135.8030078,34.696051],[135.8026956,34.6960489],[135.7991843,34.6960426],[135.7988879,34.6960554],[135.7988309,34.6961458],[135.7987329,34.6961451],[135.7984695,34.6960085],[135.7984695,34.6954302],[135.7986264,34.6954181],[135.7985969,34.6948204],[135.79833,34.6948105],[135.7983126,34.6944742],[135.7979384,34.694461],[135.7979331,34.6950885],[135.7973195,34.6950925],[135.7972615,34.6949821],[135.7970881,34.6949611],[135.7970924,34.695067],[135.7970651,34.6950995],[135.7966167,34.6951067],[135.7966134,34.6949528],[135.7963056,34.6949467],[135.7961594,34.6949892],[135.796036,34.6950586],[135.795739,34.6950592],[135.7957102,34.6950448],[135.7957102,34.6949302],[135.7954056,34.6949296],[135.7954052,34.6950997],[135.7944676,34.6950745],[135.7941997,34.6950897],[135.7933758,34.6951086],[135.7930643,34.6950887],[135.7930495,34.694901],[135.7929959,34.6948196],[135.79298,34.6947594],[135.793013,34.6942635],[135.7930156,34.6941812],[135.7925019,34.6941016],[135.7911505,34.6940762],[135.7911504,34.6941255],[135.7911497,34.694472],[135.791072,34.6945095],[135.7908829,34.6946936],[135.7908051,34.6948392],[135.790565,34.6948282],[135.7905409,34.6947113],[135.7903638,34.6946992],[135.7903866,34.6945668],[135.7897558,34.6945716],[135.7897376,34.6943452],[135.7899213,34.6943441],[135.7899354,34.6940105],[135.7898251,34.6940105],[135.7891263,34.6939554],[135.788766,34.6938913],[135.7887244,34.6938686],[135.7887252,34.6916025],[135.7887253,34.6913485],[135.788726,34.6891437],[135.7887261,34.6890033],[135.7887261,34.6889551],[135.7887261,34.6889315],[135.7887511,34.688931],[135.7887552,34.6887964],[135.7887579,34.6886123],[135.7887357,34.6886112],[135.7887669,34.6879357],[135.7887907,34.6874721],[135.7887867,34.6870574],[135.7887642,34.686914],[135.7886469,34.686651]]]}}
