{"type":"Feature","id":"attraction-large-park-W1105815895","properties":{"id":"attraction-large-park-W1105815895","kind":"attraction","name":"兵庫県立丹波並木道中央公園","shortName":"兵庫県立丹波並木道中央公園","context":"日本","subtype":"large-park","subtypeLabel":"大型都市公園・広域公園","statusLabel":"著名な公園","aliases":[],"osmType":"way","osmId":1105815895,"osmDate":null,"officialAreaKm2":null,"areaSourceLabel":"","areaSourceUrl":"","boundarySourceLabel":"© OpenStreetMap contributors","boundarySourceUrl":"https://www.openstreetmap.org/copyright","geometryFile":"attractions/large-park-W1105815895.geojson"},"geometry":{"type":"Polygon","coordinates":[[[135.1524229,35.0799583],[135.1521687,35.0797967],[135.1520525,35.079596],[135.1521881,35.0793372],[135.1524462,35.0788777],[135.1524796,35.0783226],[135.1530365,35.0782274],[135.1538983,35.0782598],[135.1541822,35.0782387],[135.1548082,35.0780908],[135.1556448,35.0776592],[135.1562711,35.0771046],[135.156347,35.076848],[135.1568905,35.0766157],[135.1576243,35.076206],[135.158432,35.0758337],[135.1587699,35.0755798],[135.1590466,35.0752189],[135.1591954,35.074939],[135.1593192,35.0748585],[135.1602372,35.0748192],[135.1607592,35.074567],[135.1609649,35.0744096],[135.1617963,35.0740128],[135.1621459,35.0739765],[135.1624363,35.0736649],[135.1625589,35.0737969],[135.1628622,35.0736174],[135.1632559,35.0736702],[135.163728,35.0734337],[135.164495,35.0730733],[135.1655017,35.0728885],[135.1663471,35.0729413],[135.1662955,35.0731314],[135.1657986,35.0730364],[135.1649983,35.0730945],[135.1641787,35.0733586],[135.1636366,35.0736755],[135.1630558,35.074098],[135.1631913,35.0743462],[135.1629138,35.0744835],[135.162404,35.0745416],[135.1620297,35.0747688],[135.1617458,35.0752283],[135.1616296,35.0755768],[135.1617845,35.0757247],[135.1606874,35.0768127],[135.1605002,35.0768074],[135.1597645,35.0767757],[135.1589383,35.0773883],[135.1590869,35.0778162],[135.1592244,35.0785385],[135.1591966,35.0791735],[135.1586364,35.0794156],[135.1578414,35.0797755],[135.1573961,35.079728],[135.1571186,35.0795326],[135.1567673,35.0795593],[135.1557387,35.0797501],[135.1551053,35.0805625],[135.1544533,35.0803935],[135.1543242,35.0805941],[135.1535175,35.0803565],[135.1529431,35.0801611],[135.1524229,35.0799583]]]}}
