{"type":"Feature","id":"attraction-large-industrial-complex-W621189002","properties":{"id":"attraction-large-industrial-complex-W621189002","kind":"attraction","name":"クラレ中条事業所","shortName":"クラレ中条事業所","context":"日本","subtype":"industrial-complex","subtypeLabel":"工業地帯・大規模工場","statusLabel":"","aliases":[],"osmType":"way","osmId":621189002,"osmDate":null,"officialAreaKm2":null,"areaSourceLabel":"","areaSourceUrl":"","boundarySourceLabel":"© OpenStreetMap contributors","boundarySourceUrl":"https://www.openstreetmap.org/copyright","geometryFile":"attractions/large-industrial-complex-W621189002.geojson"},"geometry":{"type":"Polygon","coordinates":[[[139.4038144,38.0728041],[139.4044366,38.0724283],[139.4062793,38.0718645],[139.4082668,38.0713788],[139.4116934,38.0707823],[139.4107586,38.0695291],[139.410249,38.0687774],[139.409683,38.0674344],[139.4072315,38.0640556],[139.4036615,38.0645667],[139.403919,38.0656162],[139.4015519,38.0659952],[139.4025832,38.0702872],[139.4034576,38.0723269],[139.4038144,38.0728041]]]}}
