{"type":"Feature","id":"attraction-large-park-R14211594","properties":{"id":"attraction-large-park-R14211594","kind":"attraction","name":"県立行田公園","shortName":"県立行田公園","context":"日本","subtype":"large-park","subtypeLabel":"大型都市公園・広域公園","statusLabel":"著名な公園","aliases":["Gyōda Prefectural Park"],"osmType":"relation","osmId":14211594,"osmDate":null,"officialAreaKm2":null,"areaSourceLabel":"","areaSourceUrl":"","boundarySourceLabel":"© OpenStreetMap contributors","boundarySourceUrl":"https://www.openstreetmap.org/copyright","geometryFile":"attractions/large-park-R14211594.geojson"},"geometry":{"type":"MultiPolygon","coordinates":[[[[139.9713075,35.7196415],[139.9714078,35.7201956],[139.9718455,35.7201386],[139.972048,35.7201437],[139.9722304,35.7201791],[139.975586,35.721181],[139.9757779,35.7206597],[139.9758335,35.7204251],[139.9758641,35.7201734],[139.9758621,35.7199825],[139.9757129,35.719736],[139.9756877,35.7195822],[139.9756994,35.7194294],[139.9757922,35.7191253],[139.9757295,35.7188785],[139.9755453,35.7184545],[139.9753245,35.7180858],[139.9751037,35.7177972],[139.9749256,35.7176122],[139.9747046,35.7174237],[139.9742681,35.7177605],[139.9722229,35.7193382],[139.9718066,35.7195887],[139.9713075,35.7196415]]],[[[139.9710534,35.7196778],[139.9703998,35.7197713],[139.9701629,35.7197621],[139.9700681,35.7197559],[139.9694104,35.7196596],[139.9686619,35.7195782],[139.968245,35.7195294],[139.9682418,35.7197895],[139.9682529,35.7200339],[139.9682829,35.7203207],[139.9683368,35.7205546],[139.9684603,35.7208951],[139.968541,35.7210541],[139.9700432,35.7204377],[139.9705234,35.7203011],[139.9711573,35.7202255],[139.9710534,35.7196778]]]]}}
