{"type":"Feature","id":"attraction-large-park-W150593386","properties":{"id":"attraction-large-park-W150593386","kind":"attraction","name":"彩湖・道満グリーンパーク","shortName":"彩湖・道満グリーンパーク","context":"日本","subtype":"large-park","subtypeLabel":"大型都市公園・広域公園","statusLabel":"","aliases":["Saiko Douman Green Park"],"osmType":"way","osmId":150593386,"osmDate":null,"officialAreaKm2":null,"areaSourceLabel":"","areaSourceUrl":"","boundarySourceLabel":"© OpenStreetMap contributors","boundarySourceUrl":"https://www.openstreetmap.org/copyright","geometryFile":"attractions/large-park-W150593386.geojson"},"geometry":{"type":"Polygon","coordinates":[[[139.6241899,35.834476],[139.624004,35.8343276],[139.6230422,35.8334431],[139.6228587,35.8332096],[139.6231775,35.8328954],[139.6236859,35.8323957],[139.6244779,35.8316158],[139.625304,35.8307943],[139.6257025,35.8303736],[139.62592,35.8301176],[139.6261319,35.8298202],[139.6266246,35.8290588],[139.6272892,35.8278527],[139.6276539,35.8268942],[139.6279601,35.8260618],[139.6281129,35.8253695],[139.6282806,35.8243619],[139.6283522,35.8237831],[139.628254,35.8232702],[139.6281485,35.8226834],[139.6280662,35.8223408],[139.6280235,35.8220278],[139.6279897,35.8214176],[139.6279666,35.8211818],[139.6279939,35.8207416],[139.6280807,35.8197283],[139.6281384,35.819441],[139.6282784,35.8193877],[139.6283552,35.8192769],[139.6286947,35.8190564],[139.6290569,35.8189348],[139.6301841,35.8185288],[139.6315087,35.8175478],[139.6318161,35.817245],[139.6322976,35.816704],[139.6329148,35.815955],[139.6333622,35.8163895],[139.6337575,35.8167866],[139.6342515,35.8173035],[139.6345434,35.817563],[139.6347928,35.8178414],[139.6353448,35.818372],[139.6367686,35.8196224],[139.6364987,35.8198358],[139.635914,35.8206406],[139.6355116,35.8216888],[139.6352327,35.8226849],[139.6350449,35.8231764],[139.6347606,35.8236244],[139.6342295,35.824229],[139.6337628,35.8246596],[139.6328616,35.8255905],[139.632573,35.8259506],[139.6321401,35.826556],[139.6318006,35.8274046],[139.6314212,35.828007],[139.6309149,35.8286206],[139.6299702,35.8294644],[139.6288067,35.8301342],[139.6278191,35.8307818],[139.6272547,35.8313333],[139.6263899,35.8324019],[139.6252259,35.833614],[139.6246862,35.8340421],[139.6244579,35.8342596],[139.6241899,35.834476]]]}}
