{"type":"Feature","id":"attraction-large-park-W563042956","properties":{"id":"attraction-large-park-W563042956","kind":"attraction","name":"青葉山ろく公園","shortName":"青葉山ろく公園","context":"日本","subtype":"large-park","subtypeLabel":"大型都市公園・広域公園","statusLabel":"著名な公園","aliases":[],"osmType":"way","osmId":563042956,"osmDate":null,"officialAreaKm2":null,"areaSourceLabel":"","areaSourceUrl":"","boundarySourceLabel":"© OpenStreetMap contributors","boundarySourceUrl":"https://www.openstreetmap.org/copyright","geometryFile":"attractions/large-park-W563042956.geojson"},"geometry":{"type":"Polygon","coordinates":[[[135.4369714,35.498832],[135.4381203,35.4985538],[135.4381172,35.4984973],[135.4381765,35.498397],[135.4384884,35.4984817],[135.439375,35.4984246],[135.43949,35.4987725],[135.4406525,35.4987326],[135.4410277,35.4990265],[135.4419231,35.4990928],[135.442868,35.4994875],[135.442868,35.4998506],[135.4419478,35.4996345],[135.4412577,35.4998851],[135.4411267,35.5003721],[135.4418607,35.5005552],[135.4419949,35.500906],[135.4426819,35.5008994],[135.4426372,35.5013561],[135.442061,35.5017363],[135.4406245,35.501566],[135.440834,35.5021958],[135.4415319,35.5021303],[135.442222,35.5022167],[135.4423293,35.5025399],[135.4411866,35.5025923],[135.4413449,35.5031731],[135.4419243,35.5034591],[135.4419323,35.5035727],[135.4407199,35.5035705],[135.440508,35.5031491],[135.4401138,35.5031294],[135.4397776,35.5024462],[135.4388194,35.5028525],[135.4379135,35.5017664],[135.4389118,35.5013225],[135.4384096,35.5009638],[135.4385451,35.5006527],[135.4376578,35.4997949],[135.4374483,35.499386],[135.4369714,35.498832]]]}}
