{"type":"Feature","id":"attraction-large-park-W261520592","properties":{"id":"attraction-large-park-W261520592","kind":"attraction","name":"刈谷市総合運動公園","shortName":"刈谷市総合運動公園","context":"愛知県・刈谷市","subtype":"large-park","subtypeLabel":"大型都市公園・広域公園","statusLabel":"著名な公園","aliases":[],"osmType":"way","osmId":261520592,"osmDate":null,"officialAreaKm2":null,"areaSourceLabel":"","areaSourceUrl":"","boundarySourceLabel":"© OpenStreetMap contributors","boundarySourceUrl":"https://www.openstreetmap.org/copyright","geometryFile":"attractions/large-park-W261520592.geojson"},"geometry":{"type":"Polygon","coordinates":[[[137.006882,35.0193652],[137.0105081,35.0198286],[137.0121692,35.0202859],[137.012948,35.0202985],[137.0130741,35.0202385],[137.013261,35.0199644],[137.0137677,35.0193499],[137.0141803,35.0189126],[137.0136852,35.0185498],[137.0117341,35.0171202],[137.0113721,35.0169972],[137.0102938,35.0167468],[137.0102784,35.0168162],[137.0101993,35.0171729],[137.0100543,35.0173957],[137.0100363,35.0174234],[137.0096715,35.0174497],[137.0083304,35.0168259],[137.0080938,35.0167199],[137.007702,35.0165444],[137.0076437,35.0165183],[137.0073433,35.0165535],[137.0070107,35.0169664],[137.0065655,35.0175222],[137.0065735,35.0179308],[137.006882,35.0193652]]]}}
