{"type":"Feature","id":"attraction-large-park-W458968838","properties":{"id":"attraction-large-park-W458968838","kind":"attraction","name":"奥日立きららの里","shortName":"奥日立きららの里","context":"日本","subtype":"large-park","subtypeLabel":"大型都市公園・広域公園","statusLabel":"","aliases":[],"osmType":"way","osmId":458968838,"osmDate":null,"officialAreaKm2":null,"areaSourceLabel":"","areaSourceUrl":"","boundarySourceLabel":"© OpenStreetMap contributors","boundarySourceUrl":"https://www.openstreetmap.org/copyright","geometryFile":"attractions/large-park-W458968838.geojson"},"geometry":{"type":"Polygon","coordinates":[[[140.5893992,36.641229],[140.5878633,36.6412966],[140.5869948,36.6415622],[140.5874003,36.6429613],[140.5879275,36.6430264],[140.587941,36.6432433],[140.5874003,36.6431674],[140.5869813,36.6436555],[140.5866974,36.6435362],[140.5866433,36.6453257],[140.5887385,36.6464971],[140.5890494,36.6463452],[140.5896307,36.6462585],[140.5907391,36.6473213],[140.5903471,36.6479829],[140.5905228,36.6480913],[140.5916989,36.6477877],[140.5921179,36.6481022],[140.5915096,36.6493819],[140.5924153,36.6500652],[140.5935237,36.6484275],[140.5947944,36.647625],[140.5954838,36.6456836],[140.5972005,36.6449895],[140.5982143,36.6439266],[140.5984306,36.642495],[140.5979845,36.6418984],[140.5973492,36.6415947],[140.5962543,36.6416056],[140.5956054,36.6423648],[140.5949431,36.6424733],[140.5939968,36.6424407],[140.5934967,36.6421913],[140.5920774,36.6422021],[140.5914285,36.6425383],[140.591032,36.642594],[140.5908067,36.6423323],[140.591442,36.6415296],[140.5915502,36.6409006],[140.5908942,36.640465],[140.590224,36.6409185],[140.5898068,36.6410826],[140.5893992,36.641229]]]}}
