{"type":"Feature","id":"attraction-large-airport-W57007960","properties":{"id":"attraction-large-airport-W57007960","kind":"attraction","name":"とかち帯広空港","shortName":"とかち帯広空港","context":"日本","subtype":"airport","subtypeLabel":"空港・飛行場","statusLabel":"","aliases":["Tokachi-Obihiro Airport"],"osmType":"way","osmId":57007960,"osmDate":null,"officialAreaKm2":null,"areaSourceLabel":"","areaSourceUrl":"","boundarySourceLabel":"© OpenStreetMap contributors","boundarySourceUrl":"https://www.openstreetmap.org/copyright","geometryFile":"attractions/large-airport-W57007960.geojson"},"geometry":{"type":"Polygon","coordinates":[[[143.2088398,42.7418769],[143.2090174,42.7413418],[143.209165,42.7403141],[143.2092347,42.73998],[143.209346,42.739512],[143.2101492,42.7346936],[143.2102455,42.7339797],[143.2097022,42.7339725],[143.20943,42.7331298],[143.2097092,42.7330691],[143.2100007,42.73308],[143.2106079,42.7332182],[143.212366,42.7297958],[143.2141292,42.7278919],[143.218167,42.723541],[143.2202854,42.721216],[143.2231485,42.7220383],[143.2237838,42.7208406],[143.2237758,42.7204721],[143.2240999,42.7201774],[143.225898,42.716775],[143.226586,42.715422],[143.226572,42.71524],[143.226704,42.714991],[143.226828,42.715032],[143.226914,42.714897],[143.227119,42.714958],[143.227039,42.715102],[143.22723,42.715157],[143.227086,42.715407],[143.226908,42.715528],[143.226227,42.716856],[143.2233898,42.7220754],[143.2253567,42.7225915],[143.2248589,42.7236907],[143.2249008,42.7238154],[143.225688,42.7240379],[143.223408,42.7265753],[143.22342,42.726707],[143.2242905,42.7270779],[143.2235549,42.7283598],[143.2214464,42.7310275],[143.2157107,42.7413261],[143.2135074,42.7457376],[143.2130982,42.7456275],[143.2122573,42.74633],[143.212039,42.7467697],[143.2110878,42.7465017],[143.210938,42.7467762],[143.2107469,42.7467155],[143.210255,42.7476995],[143.21005,42.7476393],[143.2101735,42.7474234],[143.2086363,42.7469491],[143.2088398,42.7418769]]]}}
