{"type":"Feature","id":"attraction-large-park-W476016289","properties":{"id":"attraction-large-park-W476016289","kind":"attraction","name":"偕楽園公園","shortName":"偕楽園公園","context":"日本","subtype":"large-park","subtypeLabel":"大型都市公園・広域公園","statusLabel":"","aliases":["Kairaku Park"],"osmType":"way","osmId":476016289,"osmDate":null,"officialAreaKm2":null,"areaSourceLabel":"","areaSourceUrl":"","boundarySourceLabel":"© OpenStreetMap contributors","boundarySourceUrl":"https://www.openstreetmap.org/copyright","geometryFile":"attractions/large-park-W476016289.geojson"},"geometry":{"type":"Polygon","coordinates":[[[140.4552026,36.3728461],[140.455211,36.3728063],[140.4552046,36.3727783],[140.4547707,36.3726855],[140.4545778,36.3727146],[140.4542395,36.3726342],[140.4540321,36.3725275],[140.4539113,36.3724676],[140.4537297,36.3723759],[140.4535586,36.3722804],[140.4533521,36.3721175],[140.4532499,36.372013],[140.4529734,36.371693],[140.4528235,36.3715688],[140.4524672,36.3711214],[140.4524024,36.3710887],[140.4522575,36.3709186],[140.4521566,36.3707685],[140.4519499,36.3704877],[140.4518285,36.3703157],[140.4517588,36.3701809],[140.4517091,36.3700652],[140.4515548,36.3696517],[140.451432,36.369347],[140.4513183,36.369097],[140.4512548,36.3689408],[140.4509418,36.3690028],[140.4509011,36.3685194],[140.4510545,36.3684729],[140.4509699,36.3682598],[140.4509534,36.3682211],[140.4509066,36.3681134],[140.4507744,36.3683256],[140.4506296,36.368399],[140.4503683,36.3684811],[140.4502447,36.3684465],[140.4500235,36.3682514],[140.449947,36.3681258],[140.4495709,36.3674563],[140.4486762,36.367699],[140.4483633,36.3677889],[140.4479943,36.3678946],[140.4471477,36.3668939],[140.445548,36.3674353],[140.4452071,36.3675381],[140.4446864,36.3686698],[140.4443717,36.3688328],[140.4440194,36.3689517],[140.4446066,36.3696639],[140.4447765,36.3697836],[140.4449251,36.3696411],[140.4460364,36.3702111],[140.4454864,36.3708497],[140.4450485,36.3713411],[140.4449472,36.3716172],[140.4449084,36.371912],[140.4446703,36.3719779],[140.4452578,36.3727815],[140.4449393,36.372924],[140.4450171,36.3730266],[140.4440353,36.37378],[140.4442275,36.3740072],[140.4451021,36.3734084],[140.445272,36.373568],[140.4445508,36.3743632],[140.4448752,36.3749242],[140.445653,36.3746985],[140.4467164,36.3747399],[140.446631,36.3754431],[140.4467301,36.3754374],[140.446746,36.3764482],[140.4468824,36.3764469],[140.4475277,36.3763826],[140.4477025,36.3763686],[140.447861,36.3763358],[140.4479469,36.3763736],[140.448079,36.3763943],[140.4481898,36.3763911],[140.448285,36.3763762],[140.4484972,36.3763315],[140.4488607,36.3762808],[140.4508851,36.3743374],[140.4511687,36.3741449],[140.4516106,36.3738798],[140.4519044,36.3737276],[140.4528388,36.3733629],[140.4537556,36.3730429],[140.4545807,36.3729315],[140.4552026,36.3728461]]]}}
