{"type":"Feature","id":"attraction-large-park-W160374558","properties":{"id":"attraction-large-park-W160374558","kind":"attraction","name":"厚別公園","shortName":"厚別公園","context":"日本","subtype":"large-park","subtypeLabel":"大型都市公園・広域公園","statusLabel":"著名な公園","aliases":["Sapporo Atsubetsu Park"],"osmType":"way","osmId":160374558,"osmDate":null,"officialAreaKm2":null,"areaSourceLabel":"","areaSourceUrl":"","boundarySourceLabel":"© OpenStreetMap contributors","boundarySourceUrl":"https://www.openstreetmap.org/copyright","geometryFile":"attractions/large-park-W160374558.geojson"},"geometry":{"type":"Polygon","coordinates":[[[141.4609801,43.0209566],[141.4633424,43.0219287],[141.4649246,43.0198965],[141.4662973,43.0176428],[141.4662604,43.0175961],[141.4651202,43.0172151],[141.4641621,43.0169112],[141.4639869,43.0170484],[141.4636436,43.0176446],[141.4634505,43.017976],[141.4631793,43.0183086],[141.4628872,43.0186447],[141.4626592,43.0190799],[141.4625815,43.0192526],[141.4625171,43.0192526],[141.46223,43.0194701],[141.4614321,43.0200242],[141.4612025,43.0203148],[141.461063,43.0205814],[141.4609801,43.0209566]]]}}
