{"type":"Feature","id":"attraction-large-park-W547820068","properties":{"id":"attraction-large-park-W547820068","kind":"attraction","name":"朝倉運動公園","shortName":"朝倉運動公園","context":"日本","subtype":"large-park","subtypeLabel":"大型都市公園・広域公園","statusLabel":"著名な公園","aliases":[],"osmType":"way","osmId":547820068,"osmDate":null,"officialAreaKm2":null,"areaSourceLabel":"","areaSourceUrl":"","boundarySourceLabel":"© OpenStreetMap contributors","boundarySourceUrl":"https://www.openstreetmap.org/copyright","geometryFile":"attractions/large-park-W547820068.geojson"},"geometry":{"type":"Polygon","coordinates":[[[136.5168303,35.367824],[136.5157359,35.3674587],[136.5157225,35.3674062],[136.5146389,35.3671],[136.514435,35.366971],[136.5133944,35.366796],[136.5135446,35.3662842],[136.5134185,35.3661748],[136.5135151,35.3659605],[136.5138959,35.3660326],[136.5146684,35.3657549],[136.515001,35.3651862],[136.5151378,35.3648996],[136.5152255,35.3646397],[136.5155968,35.3643794],[136.5153155,35.3637351],[136.5157983,35.3635602],[136.5162423,35.3635594],[136.5169839,35.3631708],[136.5174425,35.3633086],[136.5175498,35.3631533],[136.5173218,35.3630483],[136.517869,35.3627399],[136.5176651,35.3625365],[136.518215,35.3622324],[136.51873,35.3628471],[136.5189204,35.3632802],[136.5183384,35.3636214],[136.5189767,35.3638926],[136.5190518,35.3639933],[136.51873,35.3646144],[136.5172195,35.366906],[136.5168303,35.367824]]]}}
