{"type":"Feature","id":"attraction-large-park-W30950884","properties":{"id":"attraction-large-park-W30950884","kind":"attraction","name":"北総花の丘公園 Bゾーン","shortName":"北総花の丘公園 Bゾーン","context":"日本","subtype":"large-park","subtypeLabel":"大型都市公園・広域公園","statusLabel":"著名な公園","aliases":["Hokuso Hananooka Park"],"osmType":"way","osmId":30950884,"osmDate":null,"officialAreaKm2":null,"areaSourceLabel":"","areaSourceUrl":"","boundarySourceLabel":"© OpenStreetMap contributors","boundarySourceUrl":"https://www.openstreetmap.org/copyright","geometryFile":"attractions/large-park-W30950884.geojson"},"geometry":{"type":"Polygon","coordinates":[[[140.122399,35.7987129],[140.1223429,35.8000722],[140.1223627,35.8002658],[140.1224594,35.8004327],[140.1226567,35.8006005],[140.1231036,35.8008647],[140.1233342,35.80115],[140.1234507,35.8014662],[140.1236833,35.801867],[140.1238525,35.80201],[140.1241758,35.8022009],[140.1252521,35.802527],[140.1252456,35.8023416],[140.1253906,35.8020813],[140.1261459,35.801348],[140.1263295,35.8012324],[140.1267421,35.8009725],[140.1270427,35.8007831],[140.1271475,35.8006757],[140.1272968,35.8005834],[140.1270239,35.8003595],[140.1258552,35.7993385],[140.1258298,35.7992928],[140.1258168,35.7992695],[140.1257899,35.7987822],[140.1257745,35.7987481],[140.1251688,35.7987399],[140.122399,35.7987129]]]}}
