{"type":"Feature","id":"attraction-large-park-W470150010","properties":{"id":"attraction-large-park-W470150010","kind":"attraction","name":"赤塚山公園","shortName":"赤塚山公園","context":"愛知県・豊川市","subtype":"large-park","subtypeLabel":"大型都市公園・広域公園","statusLabel":"著名な公園","aliases":[],"osmType":"way","osmId":470150010,"osmDate":null,"officialAreaKm2":null,"areaSourceLabel":"","areaSourceUrl":"","boundarySourceLabel":"© OpenStreetMap contributors","boundarySourceUrl":"https://www.openstreetmap.org/copyright","geometryFile":"attractions/large-park-W470150010.geojson"},"geometry":{"type":"Polygon","coordinates":[[[137.3624947,34.8503096],[137.3618511,34.8500634],[137.3609716,34.8497386],[137.3601079,34.8493599],[137.3590404,34.8488008],[137.358689,34.8486844],[137.3585972,34.8486399],[137.3581445,34.8484203],[137.3576296,34.8482068],[137.3570381,34.8480482],[137.3563781,34.8479069],[137.3560413,34.847849],[137.35587,34.8478114],[137.3556434,34.8477553],[137.3554207,34.8477201],[137.3550562,34.8476851],[137.3546011,34.8476682],[137.3541179,34.8477014],[137.3536752,34.8477646],[137.3533692,34.8478132],[137.3532455,34.8478389],[137.3533572,34.847726],[137.3534356,34.8476432],[137.3534599,34.8475849],[137.3534821,34.8475382],[137.3534847,34.8474746],[137.3534654,34.847274],[137.3534694,34.8472331],[137.3534802,34.8472039],[137.3534992,34.8471797],[137.3535354,34.8471519],[137.3542143,34.8468988],[137.3542706,34.8468625],[137.3543832,34.8468206],[137.3545227,34.8466665],[137.3546059,34.8465763],[137.3546528,34.8465218],[137.3547856,34.8463672],[137.3548178,34.8463143],[137.3548695,34.8462189],[137.3549205,34.8461221],[137.3549572,34.8460282],[137.3550224,34.8458336],[137.3550858,34.845873],[137.3550969,34.8459142],[137.3550638,34.8460773],[137.3550224,34.8462253],[137.3549507,34.8463241],[137.3549111,34.846374],[137.3548965,34.8464168],[137.3549131,34.8464373],[137.3549678,34.8464454],[137.3550158,34.8464454],[137.3550588,34.8464441],[137.3551234,34.8464631],[137.3551548,34.8464903],[137.3551995,34.8465297],[137.3552475,34.8465514],[137.3552972,34.8465527],[137.355327,34.8465527],[137.3553833,34.8465378],[137.355423,34.8465147],[137.3554677,34.8464672],[137.3556796,34.8461778],[137.3558291,34.8457967],[137.3559948,34.8457568],[137.3562671,34.8458248],[137.3563107,34.8456936],[137.3564814,34.8456903],[137.3565056,34.845568],[137.3576203,34.8456317],[137.3576288,34.8452967],[137.3576698,34.8453098],[137.3577917,34.8454212],[137.3579433,34.8455233],[137.3580935,34.8456158],[137.3583993,34.8458645],[137.3584583,34.8459372],[137.3585023,34.8460129],[137.3585397,34.8461007],[137.3596492,34.8463004],[137.3601803,34.8453956],[137.360883,34.845684],[137.3609179,34.8457126],[137.3607623,34.8463576],[137.360765,34.8464016],[137.3607838,34.8464346],[137.3608018,34.8464706],[137.3608393,34.8465059],[137.3608884,34.8465227],[137.3613685,34.8466019],[137.3625747,34.8468338],[137.3629886,34.8469585],[137.3630825,34.8470004],[137.3635545,34.8474076],[137.363576,34.8474428],[137.3635867,34.8474736],[137.363584,34.8475067],[137.3635626,34.8475331],[137.3635277,34.8475573],[137.3631602,34.847784],[137.3629752,34.8478897],[137.3629188,34.8479359],[137.3628724,34.8479785],[137.3628102,34.848091],[137.3628486,34.8481635],[137.3628062,34.8483703],[137.3627056,34.8487255],[137.3626728,34.8489708],[137.3626787,34.848995],[137.3626971,34.8490144],[137.3627231,34.8490385],[137.3627558,34.8490528],[137.3628203,34.849081],[137.3628511,34.8490913],[137.362878,34.8491316],[137.3629283,34.8492674],[137.3629213,34.849303],[137.3628149,34.8496127],[137.3626889,34.8499755],[137.3626152,34.8501099],[137.3625376,34.8502182],[137.3624947,34.8503096]]]}}
