{"type":"Feature","id":"attraction-large-park-W314798968","properties":{"id":"attraction-large-park-W314798968","kind":"attraction","name":"徳島県立神山森林公園","shortName":"徳島県立神山森林公園","context":"名西郡神山町","subtype":"large-park","subtypeLabel":"大型都市公園・広域公園","statusLabel":"","aliases":[],"osmType":"way","osmId":314798968,"osmDate":null,"officialAreaKm2":null,"areaSourceLabel":"","areaSourceUrl":"","boundarySourceLabel":"© OpenStreetMap contributors","boundarySourceUrl":"https://www.openstreetmap.org/copyright","geometryFile":"attractions/large-park-W314798968.geojson"},"geometry":{"type":"Polygon","coordinates":[[[134.4247405,34.0281501],[134.425121,34.0280949],[134.4267521,34.0272205],[134.4271043,34.0267638],[134.4272573,34.0261903],[134.4272622,34.0256795],[134.4275368,34.0252693],[134.4280425,34.0249053],[134.428708,34.0245027],[134.4290168,34.0241616],[134.4285853,34.0233138],[134.4285749,34.0231625],[134.4287146,34.0227764],[134.4280691,34.0222139],[134.4272906,34.0212156],[134.4272839,34.0210778],[134.4273971,34.0207799],[134.4270495,34.0203592],[134.4269379,34.0201732],[134.4269512,34.0199802],[134.4270377,34.0197375],[134.4273372,34.0194948],[134.4277098,34.0190426],[134.4277364,34.0186896],[134.4274836,34.0183807],[134.4273233,34.0182627],[134.4264859,34.017009],[134.4262192,34.016693],[134.4257801,34.0166764],[134.4257135,34.0169191],[134.4255821,34.0172028],[134.4242429,34.0185683],[134.4239302,34.0185793],[134.423664,34.0185131],[134.4234511,34.018662],[134.4231915,34.0193073],[134.4230201,34.0194427],[134.4225993,34.0194066],[134.4221535,34.0195114],[134.4218008,34.0190591],[134.4217409,34.0187944],[134.4216211,34.0186344],[134.4210954,34.0187117],[134.4209956,34.019015],[134.4208093,34.0191308],[134.4205498,34.0189929],[134.4202903,34.0189433],[134.4198511,34.0192025],[134.4193254,34.0193239],[134.4189328,34.0195279],[134.4184004,34.0201898],[134.4185504,34.0209001],[134.418793,34.0210116],[134.419175,34.0210321],[134.4199575,34.0209288],[134.4201405,34.0209931],[134.4203946,34.0212037],[134.4208934,34.0219369],[134.4214956,34.0225765],[134.4215427,34.02345],[134.4222892,34.0245741],[134.4226657,34.0257794],[134.4230976,34.0274436],[134.4234948,34.027731],[134.4247405,34.0281501]]]}}
