{"type":"Feature","id":"attraction-large-park-W68303990","properties":{"id":"attraction-large-park-W68303990","kind":"attraction","name":"ひたちなか市総合運動公園","shortName":"ひたちなか市総合運動公園","context":"日本","subtype":"large-park","subtypeLabel":"大型都市公園・広域公園","statusLabel":"著名な公園","aliases":["General Athletic Park"],"osmType":"way","osmId":68303990,"osmDate":null,"officialAreaKm2":null,"areaSourceLabel":"","areaSourceUrl":"","boundarySourceLabel":"© OpenStreetMap contributors","boundarySourceUrl":"https://www.openstreetmap.org/copyright","geometryFile":"attractions/large-park-W68303990.geojson"},"geometry":{"type":"Polygon","coordinates":[[[140.5856829,36.3889404],[140.5833832,36.3900254],[140.5840952,36.3905408],[140.5830926,36.3915903],[140.5812842,36.3934835],[140.5838116,36.3950112],[140.584922,36.393811],[140.5851082,36.3936379],[140.5852042,36.3935572],[140.585296,36.3935005],[140.5854155,36.3934318],[140.5860387,36.3931231],[140.5877273,36.3923279],[140.5878448,36.3922644],[140.5878808,36.3922422],[140.5879029,36.3922255],[140.5879223,36.3922054],[140.5879444,36.3921531],[140.5879527,36.3921264],[140.5879527,36.3920919],[140.5879402,36.3920485],[140.5879181,36.3920084],[140.5856829,36.3889404]]]}}
