{"type":"Feature","id":"attraction-large-park-W240379599","properties":{"id":"attraction-large-park-W240379599","kind":"attraction","name":"大室公園","shortName":"大室公園","context":"日本","subtype":"large-park","subtypeLabel":"大型都市公園・広域公園","statusLabel":"著名な公園","aliases":[],"osmType":"way","osmId":240379599,"osmDate":null,"officialAreaKm2":null,"areaSourceLabel":"","areaSourceUrl":"","boundarySourceLabel":"© OpenStreetMap contributors","boundarySourceUrl":"https://www.openstreetmap.org/copyright","geometryFile":"attractions/large-park-W240379599.geojson"},"geometry":{"type":"Polygon","coordinates":[[[139.1950714,36.3919961],[139.1953822,36.3920093],[139.1954347,36.3920058],[139.1957404,36.3919422],[139.196186,36.3918842],[139.1962617,36.3918774],[139.1967764,36.3916989],[139.1968889,36.3915759],[139.1970354,36.3914674],[139.1970872,36.3914485],[139.1971832,36.3914136],[139.1973893,36.3914247],[139.1975116,36.3913584],[139.197646,36.3913445],[139.1978771,36.3912418],[139.198208,36.3912245],[139.1985086,36.3911135],[139.1985011,36.391092],[139.1984926,36.3910649],[139.1986099,36.3910436],[139.1987865,36.391003],[139.1988481,36.3909826],[139.1989703,36.3908852],[139.1989973,36.3908792],[139.1990391,36.3908798],[139.199079,36.3908894],[139.1993585,36.3907511],[139.1992808,36.3907453],[139.1992044,36.3907317],[139.1991094,36.3907033],[139.1990763,36.3906103],[139.1988422,36.3908675],[139.1987769,36.3906187],[139.1986751,36.3902307],[139.1986912,36.390139],[139.1987124,36.3900702],[139.1987302,36.3900503],[139.1987539,36.390032],[139.1987974,36.3900157],[139.1988828,36.3900062],[139.1989216,36.3900037],[139.1990477,36.390005],[139.1992262,36.3900068],[139.1992326,36.3899481],[139.1992484,36.3898987],[139.1992612,36.3898753],[139.1992806,36.3898545],[139.1993027,36.3898331],[139.1993303,36.3898143],[139.19937,36.3897946],[139.1993996,36.3897835],[139.1994271,36.389775],[139.1994745,36.389761],[139.1995263,36.3897426],[139.1995774,36.3897156],[139.1996118,36.3896891],[139.1996479,36.3896507],[139.1996753,36.3896108],[139.199714,36.3895425],[139.1997569,36.3894667],[139.1996832,36.3886459],[139.1999249,36.3886441],[139.1999731,36.3886499],[139.2000165,36.3886568],[139.2000597,36.3886738],[139.2006409,36.388919],[139.2006618,36.388924],[139.2006864,36.3889186],[139.2007031,36.3889107],[139.2010995,36.3884471],[139.2014542,36.3880479],[139.2014667,36.3880241],[139.2014855,36.3880054],[139.2015215,36.3879895],[139.2017527,36.3877281],[139.2022647,36.3871049],[139.2022687,36.3870885],[139.2022605,36.3870683],[139.2013592,36.3870236],[139.2013329,36.3870215],[139.2013041,36.3870193],[139.1995904,36.3869305],[139.1995677,36.3869319],[139.1995508,36.3869325],[139.1995447,36.3869433],[139.1995016,36.3869531],[139.1994558,36.3869478],[139.1994557,36.3869337],[139.1986691,36.3870392],[139.198576,36.386658],[139.1979947,36.3867284],[139.1978966,36.3867373],[139.1977578,36.3867428],[139.1975881,36.3867542],[139.197124,36.386794],[139.1969161,36.3868148],[139.1968057,36.3868285],[139.1967064,36.3868503],[139.1965453,36.3868879],[139.1964608,36.3869024],[139.1963693,36.3869085],[139.1963014,36.3869102],[139.1962391,36.386911],[139.1961322,36.3869078],[139.1960273,36.3869003],[139.1960369,36.3868698],[139.196226,36.3868789],[139.1963322,36.3868755],[139.1964224,36.3868687],[139.1965079,36.3868544],[139.1966343,36.3868242],[139.196724,36.3868018],[139.1968736,36.3865239],[139.1968957,36.3864569],[139.1968997,36.386412],[139.1968958,36.3863566],[139.1968639,36.3862803],[139.1967523,36.3861974],[139.1967459,36.386167],[139.196692,36.3859105],[139.1957688,36.3858213],[139.1956421,36.386252],[139.1955847,36.3863395],[139.1955673,36.386394],[139.1955674,36.3864962],[139.1955819,36.3865914],[139.1955668,36.3866238],[139.1955782,36.3867994],[139.1959707,36.3868601],[139.1959527,36.3869046],[139.1957263,36.3868692],[139.1955117,36.3868319],[139.1951382,36.3868187],[139.1951075,36.3868213],[139.1950778,36.3868296],[139.1949279,36.3868822],[139.1948802,36.3868958],[139.1947997,36.3869112],[139.19469,36.3869323],[139.1945301,36.3869532],[139.1944848,36.3869566],[139.1944311,36.3869613],[139.1938924,36.386994],[139.1938749,36.3869949],[139.1937219,36.3870022],[139.1937523,36.387179],[139.1938741,36.3878699],[139.1939168,36.3881373],[139.1935797,36.3881797],[139.1935092,36.3879302],[139.1934782,36.3879355],[139.1934372,36.3879387],[139.1933087,36.3879636],[139.1931925,36.3876849],[139.1933218,36.3876511],[139.1932399,36.3874332],[139.1925191,36.3875995],[139.1922895,36.3875969],[139.1922904,36.3874769],[139.1920328,36.3874875],[139.192091,36.3882661],[139.1922159,36.3885524],[139.1924167,36.3885489],[139.1924077,36.3889946],[139.1922099,36.3889985],[139.192229,36.3892293],[139.1924676,36.3892494],[139.1924871,36.3893345],[139.1924623,36.3895536],[139.1924499,36.3896343],[139.1922884,36.3896892],[139.1923197,36.3899728],[139.1919047,36.3900957],[139.1922771,36.3906403],[139.1924057,36.3907819],[139.192632,36.3909509],[139.192805,36.3910299],[139.1928222,36.3910383],[139.1929064,36.3910724],[139.1932381,36.3911979],[139.1934113,36.3912587],[139.1935242,36.3912979],[139.1936117,36.3913248],[139.1938812,36.391422],[139.1941391,36.3915132],[139.1945212,36.391644],[139.1945389,36.3916542],[139.1945626,36.3916683],[139.1945975,36.3916892],[139.1946425,36.3917176],[139.1946875,36.3917481],[139.1947293,36.3917859],[139.1947734,36.3918384],[139.1948216,36.39192],[139.194839,36.3919519],[139.1948897,36.3919717],[139.1950714,36.3919961]]]}}
