{"type":"Feature","id":"attraction-large-park-W492584090","properties":{"id":"attraction-large-park-W492584090","kind":"attraction","name":"聚楽園公園","shortName":"聚楽園公園","context":"愛知県・東海市","subtype":"large-park","subtypeLabel":"大型都市公園・広域公園","statusLabel":"著名な公園","aliases":[],"osmType":"way","osmId":492584090,"osmDate":null,"officialAreaKm2":null,"areaSourceLabel":"","areaSourceUrl":"","boundarySourceLabel":"© OpenStreetMap contributors","boundarySourceUrl":"https://www.openstreetmap.org/copyright","geometryFile":"attractions/large-park-W492584090.geojson"},"geometry":{"type":"Polygon","coordinates":[[[136.905614,35.0474337],[136.9057479,35.0474187],[136.9059849,35.0470546],[136.9061091,35.0469525],[136.9065555,35.0469003],[136.906647,35.0469164],[136.9069764,35.0468851],[136.906904,35.046021],[136.9069561,35.0457834],[136.9072793,35.045742],[136.9072191,35.0455833],[136.9073298,35.0454887],[136.9073389,35.0452655],[136.9073834,35.0452258],[136.9074501,35.0447884],[136.9073739,35.0446657],[136.9071958,35.0446288],[136.9073265,35.044366],[136.9078291,35.0443807],[136.9079093,35.0435088],[136.9078635,35.0431874],[136.9074514,35.0417431],[136.907383,35.0417028],[136.9066571,35.0417228],[136.9045529,35.0413058],[136.9043703,35.0412933],[136.9041602,35.0417169],[136.9038159,35.0420296],[136.9039015,35.0433216],[136.9036023,35.0435804],[136.9047224,35.0467758],[136.905614,35.0474337]]]}}
