{"type":"Feature","id":"attraction-large-park-W1261392229","properties":{"id":"attraction-large-park-W1261392229","kind":"attraction","name":"平成記念郡山こどものもり公園","shortName":"平成記念郡山こどものもり公園","context":"日本","subtype":"large-park","subtypeLabel":"大型都市公園・広域公園","statusLabel":"著名な公園","aliases":[],"osmType":"way","osmId":1261392229,"osmDate":null,"officialAreaKm2":null,"areaSourceLabel":"","areaSourceUrl":"","boundarySourceLabel":"© OpenStreetMap contributors","boundarySourceUrl":"https://www.openstreetmap.org/copyright","geometryFile":"attractions/large-park-W1261392229.geojson"},"geometry":{"type":"Polygon","coordinates":[[[140.3948499,37.433609],[140.3942067,37.4309475],[140.3953597,37.4305414],[140.3957371,37.430075],[140.3959439,37.4298451],[140.3964302,37.429926],[140.3964929,37.4305405],[140.3968107,37.4310834],[140.3972366,37.4310997],[140.3976644,37.4307012],[140.3976275,37.4302079],[140.3977617,37.430081],[140.3982655,37.4301485],[140.3994953,37.4340278],[140.3994395,37.434386],[140.3995117,37.4346789],[140.3993404,37.4349287],[140.3991243,37.4351131],[140.3989267,37.4356758],[140.398657,37.4359057],[140.3982185,37.4360576],[140.3976174,37.4360858],[140.3972415,37.4360152],[140.396806,37.43605],[140.3964934,37.4358867],[140.3961772,37.4357907],[140.3958607,37.435538],[140.3950859,37.4351019],[140.3948126,37.434966],[140.3947666,37.4347797],[140.3948891,37.4344256],[140.395124,37.4341152],[140.3950851,37.4337712],[140.394991,37.4338119],[140.3948499,37.433609]]]}}
