{"type":"Feature","id":"attraction-large-park-W468989364","properties":{"id":"attraction-large-park-W468989364","kind":"attraction","name":"新井田公園","shortName":"新井田公園","context":"日本","subtype":"large-park","subtypeLabel":"大型都市公園・広域公園","statusLabel":"著名な公園","aliases":[],"osmType":"way","osmId":468989364,"osmDate":null,"officialAreaKm2":null,"areaSourceLabel":"","areaSourceUrl":"","boundarySourceLabel":"© OpenStreetMap contributors","boundarySourceUrl":"https://www.openstreetmap.org/copyright","geometryFile":"attractions/large-park-W468989364.geojson"},"geometry":{"type":"Polygon","coordinates":[[[141.5144285,40.5020078],[141.5145482,40.5019554],[141.5148698,40.501836],[141.5158886,40.5014663],[141.5171077,40.5010348],[141.5172514,40.5009853],[141.5176442,40.5008368],[141.517739,40.5007847],[141.5178256,40.5007372],[141.5175895,40.5003935],[141.5175872,40.5003674],[141.5177102,40.5002599],[141.5179583,40.4999937],[141.5179504,40.4999589],[141.5175405,40.4996609],[141.5167728,40.4991045],[141.5162729,40.4987355],[141.5162027,40.4986795],[141.5156519,40.4982808],[141.5155886,40.4982651],[141.5154075,40.4982616],[141.5151267,40.4982518],[141.514852,40.4982164],[141.5147371,40.4981857],[141.5146133,40.498141],[141.5145016,40.4980847],[141.5143205,40.4979681],[141.5142763,40.4979397],[141.5141885,40.4978792],[141.5140401,40.4980045],[141.5139783,40.4980635],[141.5138324,40.4982046],[141.5136493,40.4984389],[141.5134967,40.4986631],[141.5133876,40.4988647],[141.5133452,40.4989651],[141.5132621,40.4992163],[141.5132315,40.4993859],[141.5132097,40.4995927],[141.5132165,40.4999585],[141.5132481,40.5001518],[141.5132738,40.5002686],[141.5133509,40.5005268],[141.5134737,40.5008187],[141.5135904,40.501038],[141.5137835,40.5013521],[141.5139081,40.5015157],[141.5142006,40.5018283],[141.5143819,40.5019856],[141.5144285,40.5020078]]]}}
