{"type":"Feature","id":"attraction-large-industrial-complex-W618353115","properties":{"id":"attraction-large-industrial-complex-W618353115","kind":"attraction","name":"古河電工 三重事業所","shortName":"古河電工 三重事業所","context":"日本","subtype":"industrial-complex","subtypeLabel":"工業地帯・大規模工場","statusLabel":"","aliases":["Furukawa Electric"],"osmType":"way","osmId":618353115,"osmDate":null,"officialAreaKm2":null,"areaSourceLabel":"","areaSourceUrl":"","boundarySourceLabel":"© OpenStreetMap contributors","boundarySourceUrl":"https://www.openstreetmap.org/copyright","geometryFile":"attractions/large-industrial-complex-W618353115.geojson"},"geometry":{"type":"Polygon","coordinates":[[[136.4885489,34.8893109],[136.4904114,34.8956502],[136.490398,34.8956689],[136.4829795,34.8971498],[136.482925,34.8971133],[136.4814042,34.8919027],[136.481455,34.8918452],[136.481439,34.8917327],[136.4813411,34.8916997],[136.4812767,34.8913047],[136.4813465,34.8912497],[136.4813492,34.8911661],[136.4812674,34.8911199],[136.4812955,34.8907602],[136.4885489,34.8893109]]]}}
