{"type":"Feature","id":"attraction-large-park-W471883697","properties":{"id":"attraction-large-park-W471883697","kind":"attraction","name":"十日町市総合公園","shortName":"十日町市総合公園","context":"日本","subtype":"large-park","subtypeLabel":"大型都市公園・広域公園","statusLabel":"","aliases":[],"osmType":"way","osmId":471883697,"osmDate":null,"officialAreaKm2":null,"areaSourceLabel":"","areaSourceUrl":"","boundarySourceLabel":"© OpenStreetMap contributors","boundarySourceUrl":"https://www.openstreetmap.org/copyright","geometryFile":"attractions/large-park-W471883697.geojson"},"geometry":{"type":"Polygon","coordinates":[[[138.7689598,37.1125343],[138.7733801,37.1131766],[138.7726096,37.1147396],[138.770974,37.1165829],[138.7723663,37.1180272],[138.7668377,37.1264989],[138.7654024,37.1267878],[138.7649658,37.127611],[138.7644946,37.1284399],[138.7643189,37.128848],[138.7642328,37.1289631],[138.7638366,37.1294928],[138.7636999,37.1295923],[138.7635121,37.129681],[138.7633118,37.1298046],[138.7630992,37.1299463],[138.7629273,37.1300959],[138.7628227,37.1302627],[138.7627611,37.1303803],[138.762645,37.1305313],[138.7623261,37.1305444],[138.7627879,37.1301814],[138.7624455,37.1291843],[138.7630555,37.1281951],[138.7635318,37.1279046],[138.7638731,37.1270239],[138.7640455,37.1265791],[138.7650185,37.1242363],[138.7648791,37.1230728],[138.7647066,37.1228548],[138.7638009,37.1225562],[138.763494,37.1229771],[138.7626778,37.1226042],[138.7612436,37.1225639],[138.7604848,37.121253],[138.7611101,37.1210013],[138.761608,37.120817],[138.7647834,37.1195348],[138.7651382,37.119416],[138.7641384,37.1179488],[138.7641382,37.1175876],[138.7645128,37.1172194],[138.7668594,37.116167],[138.7674988,37.1156421],[138.7683692,37.1148878],[138.7684401,37.1134866],[138.7685153,37.1132452],[138.7689598,37.1125343]]]}}
