{"type":"Feature","id":"attraction-large-park-W459329608","properties":{"id":"attraction-large-park-W459329608","kind":"attraction","name":"城山公園","shortName":"城山公園","context":"日本","subtype":"large-park","subtypeLabel":"大型都市公園・広域公園","statusLabel":"著名な公園","aliases":[],"osmType":"way","osmId":459329608,"osmDate":null,"officialAreaKm2":null,"areaSourceLabel":"","areaSourceUrl":"","boundarySourceLabel":"© OpenStreetMap contributors","boundarySourceUrl":"https://www.openstreetmap.org/copyright","geometryFile":"attractions/large-park-W459329608.geojson"},"geometry":{"type":"Polygon","coordinates":[[[139.5250529,35.9887258],[139.5249752,35.9888582],[139.525061,35.9889711],[139.5245353,35.9903188],[139.5243314,35.9902776],[139.5242054,35.9904902],[139.5236877,35.9904165],[139.5236072,35.9905141],[139.5227543,35.9905879],[139.5227006,35.9909243],[139.521322,35.9910805],[139.5210068,35.991188],[139.5211731,35.9915743],[139.5221334,35.9921276],[139.5225022,35.9921993],[139.5226255,35.9921233],[139.5229903,35.9921515],[139.5228562,35.9925443],[139.5231539,35.9926073],[139.5232156,35.9929198],[139.5235697,35.9929263],[139.5236797,35.9926528],[139.5236984,35.9925725],[139.524377,35.9924901],[139.5244092,35.9927331],[139.5246774,35.9926376],[139.5249832,35.9929827],[139.5253829,35.9930218],[139.5265865,35.9917918],[139.5260869,35.9913551],[139.5260092,35.991189],[139.5260024,35.9903286],[139.5260185,35.9902135],[139.5265027,35.9892575],[139.5265174,35.9892293],[139.525745,35.9889841],[139.5250529,35.9887258]]]}}
