{"type":"Feature","id":"attraction-large-park-W469677411","properties":{"id":"attraction-large-park-W469677411","kind":"attraction","name":"朝日ヶ丘総合公園","shortName":"朝日ヶ丘総合公園","context":"日本","subtype":"large-park","subtypeLabel":"大型都市公園・広域公園","statusLabel":"著名な公園","aliases":[],"osmType":"way","osmId":469677411,"osmDate":null,"officialAreaKm2":null,"areaSourceLabel":"","areaSourceUrl":"","boundarySourceLabel":"© OpenStreetMap contributors","boundarySourceUrl":"https://www.openstreetmap.org/copyright","geometryFile":"attractions/large-park-W469677411.geojson"},"geometry":{"type":"Polygon","coordinates":[[[142.3697112,43.3385558],[142.368747,43.3384836],[142.3683366,43.3384446],[142.3677801,43.3383549],[142.3675923,43.3383032],[142.3675172,43.3382973],[142.3675293,43.3385451],[142.3674904,43.3400676],[142.3675105,43.3411766],[142.3675252,43.341558],[142.3689736,43.3415492],[142.3689803,43.341873],[142.3703295,43.3418721],[142.3705092,43.341874],[142.3705307,43.3437271],[142.3709276,43.3438539],[142.3708311,43.3440568],[142.3709357,43.3440822],[142.3709035,43.3441699],[142.371794,43.3445893],[142.3720139,43.3446283],[142.3722687,43.344564],[142.3725075,43.3444411],[142.3727649,43.344248],[142.3729876,43.3440646],[142.3727059,43.3440353],[142.372317,43.3439047],[142.3720166,43.3437135],[142.3717993,43.3433799],[142.3715928,43.3429781],[142.371389,43.342545],[142.3711449,43.3420905],[142.3708364,43.3415112],[142.3706245,43.3409201],[142.3703966,43.3400384],[142.3702195,43.3396365],[142.3699513,43.3392522],[142.369726,43.3387996],[142.3697112,43.3385558]]]}}
