{"type":"Feature","id":"attraction-large-airport-W454205459","properties":{"id":"attraction-large-airport-W454205459","kind":"attraction","name":"小値賀空港","shortName":"小値賀空港","context":"日本","subtype":"airport","subtypeLabel":"空港・飛行場","statusLabel":"","aliases":["Ojika Airport"],"osmType":"way","osmId":454205459,"osmDate":null,"officialAreaKm2":null,"areaSourceLabel":"","areaSourceUrl":"","boundarySourceLabel":"© OpenStreetMap contributors","boundarySourceUrl":"https://www.openstreetmap.org/copyright","geometryFile":"attractions/large-airport-W454205459.geojson"},"geometry":{"type":"Polygon","coordinates":[[[129.0894017,33.1912068],[129.0900176,33.1910276],[129.0918296,33.1953209],[129.0927077,33.195045],[129.0915338,33.1924874],[129.0889433,33.1862345],[129.0878517,33.1865697],[129.0885246,33.1879901],[129.0888701,33.1899686],[129.0894017,33.1912068]]]}}
