{"type":"Feature","id":"attraction-large-industrial-complex-W502055066","properties":{"id":"attraction-large-industrial-complex-W502055066","kind":"attraction","name":"むつ小川原国家石油備蓄基地","shortName":"むつ小川原国家石油備蓄基地","context":"日本","subtype":"industrial-complex","subtypeLabel":"工業地帯・大規模工場","statusLabel":"","aliases":[],"osmType":"way","osmId":502055066,"osmDate":null,"officialAreaKm2":null,"areaSourceLabel":"","areaSourceUrl":"","boundarySourceLabel":"© OpenStreetMap contributors","boundarySourceUrl":"https://www.openstreetmap.org/copyright","geometryFile":"attractions/large-industrial-complex-W502055066.geojson"},"geometry":{"type":"Polygon","coordinates":[[[141.2720498,40.9769349],[141.2705887,40.970547],[141.2756127,40.969469],[141.2776405,40.9690437],[141.279518,40.9684807],[141.2812453,40.9676584],[141.2849008,40.9676854],[141.2889243,40.9677179],[141.3095099,40.9678475],[141.3090378,40.9739717],[141.2825911,40.9734736],[141.2826716,40.9747128],[141.2793732,40.9759656],[141.2720498,40.9769349]]]}}
