{"type":"Feature","id":"attraction-large-park-W477128076","properties":{"id":"attraction-large-park-W477128076","kind":"attraction","name":"上荒川公園","shortName":"上荒川公園","context":"日本","subtype":"large-park","subtypeLabel":"大型都市公園・広域公園","statusLabel":"著名な公園","aliases":[],"osmType":"way","osmId":477128076,"osmDate":null,"officialAreaKm2":null,"areaSourceLabel":"","areaSourceUrl":"","boundarySourceLabel":"© OpenStreetMap contributors","boundarySourceUrl":"https://www.openstreetmap.org/copyright","geometryFile":"attractions/large-park-W477128076.geojson"},"geometry":{"type":"Polygon","coordinates":[[[140.8947041,37.036529],[140.8950264,37.0366138],[140.8951517,37.0366406],[140.8961185,37.0367468],[140.896757,37.0368131],[140.8968389,37.0363555],[140.8963329,37.0362991],[140.8963918,37.0359421],[140.8962376,37.0357011],[140.896344,37.0355954],[140.8964875,37.0353837],[140.8966853,37.0350918],[140.8967422,37.0349616],[140.8982275,37.0347679],[140.8994849,37.0343555],[140.899353,37.0342298],[140.8992455,37.0340856],[140.8991561,37.0339244],[140.8990895,37.0337038],[140.8989694,37.033189],[140.8988235,37.0326212],[140.8986752,37.0320136],[140.8993219,37.0319122],[140.8990983,37.0311043],[140.8993807,37.0304467],[140.8981922,37.0297421],[140.8974273,37.0296763],[140.8969095,37.0297421],[140.8964035,37.0291315],[140.895568,37.0292724],[140.8954386,37.0297797],[140.8956739,37.0305218],[140.8953327,37.0309164],[140.8938264,37.031264],[140.8937911,37.0320249],[140.8956269,37.0333682],[140.8957092,37.0341104],[140.8950267,37.0338943],[140.8944148,37.0339694],[140.8939441,37.0342419],[140.8937911,37.0345143],[140.8943913,37.0354631],[140.8947561,37.0356979],[140.8949593,37.0358868],[140.8948695,37.0360613],[140.8947822,37.036223],[140.8947189,37.0363906],[140.8947041,37.036529]]]}}
