{"type":"Feature","id":"attraction-large-industrial-complex-W325346282","properties":{"id":"attraction-large-industrial-complex-W325346282","kind":"attraction","name":"三井化学株式会社 岩国大竹工場","shortName":"三井化学株式会社 岩国大竹工場","context":"日本","subtype":"industrial-complex","subtypeLabel":"工業地帯・大規模工場","statusLabel":"","aliases":[],"osmType":"way","osmId":325346282,"osmDate":null,"officialAreaKm2":null,"areaSourceLabel":"","areaSourceUrl":"","boundarySourceLabel":"© OpenStreetMap contributors","boundarySourceUrl":"https://www.openstreetmap.org/copyright","geometryFile":"attractions/large-industrial-complex-W325346282.geojson"},"geometry":{"type":"Polygon","coordinates":[[[132.232891,34.2082047],[132.2319576,34.2081112],[132.2311502,34.2080762],[132.2318162,34.204517],[132.2311906,34.2044367],[132.2313179,34.2041594],[132.2314402,34.2037988],[132.2318315,34.2016693],[132.2319362,34.2011591],[132.2325105,34.2012497],[132.2326053,34.2007121],[132.23275,34.1999579],[132.2327894,34.1997097],[132.2326975,34.1996164],[132.2328656,34.199356],[132.2330898,34.1987759],[132.2331793,34.19836],[132.2332988,34.1976295],[132.2334162,34.1970964],[132.2335039,34.1964505],[132.2341602,34.1965578],[132.2357154,34.1968232],[132.235721,34.19678],[132.2358146,34.196218],[132.2358658,34.1958982],[132.2360156,34.1951149],[132.2359392,34.1948379],[132.2357522,34.1945927],[132.2356127,34.1946967],[132.2355494,34.1946412],[132.2356903,34.1945182],[132.2351298,34.1942248],[132.2350049,34.1944038],[132.2349235,34.1943552],[132.2350524,34.1941964],[132.2346534,34.193984],[132.2346306,34.1940242],[132.2345628,34.1939901],[132.2346273,34.1938707],[132.2357939,34.1945088],[132.2360316,34.1947751],[132.2361244,34.1950664],[132.2361131,34.1953424],[132.235983,34.1959023],[132.2359663,34.1959441],[132.2360451,34.1959576],[132.2384144,34.1963102],[132.2376586,34.2001419],[132.2396296,34.2004183],[132.2383202,34.2070663],[132.2331136,34.207144],[132.2330064,34.2072283],[132.232891,34.2082047]]]}}
