{"type":"Feature","id":"attraction-large-park-R17981647","properties":{"id":"attraction-large-park-R17981647","kind":"attraction","name":"城北中央公園","shortName":"城北中央公園","context":"日本","subtype":"large-park","subtypeLabel":"大型都市公園・広域公園","statusLabel":"著名な公園","aliases":["Jōhoku-Chūō Park"],"osmType":"relation","osmId":17981647,"osmDate":null,"officialAreaKm2":null,"areaSourceLabel":"","areaSourceUrl":"","boundarySourceLabel":"© OpenStreetMap contributors","boundarySourceUrl":"https://www.openstreetmap.org/copyright","geometryFile":"attractions/large-park-R17981647.geojson"},"geometry":{"type":"MultiPolygon","coordinates":[[[[139.6748899,35.7583657],[139.6738255,35.7586927],[139.6732345,35.7584285],[139.6728836,35.7580174],[139.6712788,35.7563962],[139.6709748,35.7560891],[139.6707808,35.7558931],[139.6706907,35.7558038],[139.6700512,35.7551704],[139.670611,35.7533932],[139.671527,35.7534581],[139.6710791,35.7529469],[139.6721312,35.7523975],[139.6725412,35.753367],[139.6725775,35.7534548],[139.672797,35.7539851],[139.6728236,35.7541398],[139.6730887,35.7546372],[139.6733149,35.7549342],[139.673511,35.755122],[139.6737058,35.7552144],[139.6738346,35.7552524],[139.6738562,35.7552989],[139.6746578,35.755136],[139.6747245,35.7553212],[139.6747946,35.7553158],[139.6749435,35.755293],[139.6748869,35.7550806],[139.6749061,35.7550778],[139.6749323,35.7550904],[139.6749599,35.7551714],[139.6750063,35.7551618],[139.6750043,35.7551498],[139.6750541,35.7551464],[139.6751094,35.7552683],[139.6753415,35.7553035],[139.6754219,35.7549748],[139.6756814,35.7548995],[139.6760723,35.7546738],[139.6767367,35.7542017],[139.6767945,35.7541584],[139.6770658,35.7539711],[139.6773631,35.7537679],[139.6774833,35.753681],[139.6775451,35.7536336],[139.6778994,35.753383],[139.677901,35.754185],[139.6779252,35.7553255],[139.6771997,35.7553977],[139.6766726,35.7554361],[139.6766069,35.7567957],[139.6766029,35.7569187],[139.6767543,35.7570501],[139.6759872,35.7576073],[139.6751718,35.7582124],[139.6748899,35.7583657]]],[[[139.6727165,35.7520001],[139.6723191,35.7521962],[139.6718936,35.7511747],[139.6722879,35.7509674],[139.6727165,35.7520001]]],[[[139.6723408,35.7509384],[139.6728714,35.7506686],[139.6729073,35.7506784],[139.6735742,35.7515336],[139.6735626,35.7515562],[139.6727768,35.7519607],[139.6723408,35.7509384]]],[[[139.6729502,35.7523262],[139.6728362,35.7520443],[139.6728445,35.7520285],[139.6735921,35.7516337],[139.6736246,35.7516435],[139.6738014,35.7520932],[139.6737824,35.752119],[139.6729818,35.7523405],[139.6729502,35.7523262]]],[[[139.6725628,35.7521919],[139.6723785,35.752278],[139.6723632,35.752315],[139.6724548,35.7525243],[139.6725993,35.752484],[139.6725848,35.7524421],[139.6727429,35.7524059],[139.6726976,35.7522993],[139.6726185,35.7523241],[139.6725628,35.7521919]]],[[[139.6762613,35.7505571],[139.6755576,35.7505103],[139.6755529,35.7505732],[139.6750899,35.7505557],[139.6751722,35.7500408],[139.6757822,35.7501411],[139.6758386,35.7502586],[139.6761148,35.7502935],[139.6761068,35.7503414],[139.67633,35.7503717],[139.6762613,35.7505571]]],[[[139.6759694,35.7499602],[139.6764107,35.7500222],[139.6764548,35.7500031],[139.6765073,35.7497956],[139.6763988,35.7497812],[139.676418,35.7496127],[139.6760042,35.7496646],[139.6759694,35.7499602]]],[[[139.6769999,35.7522017],[139.6770488,35.7522435],[139.6778817,35.7522017],[139.6778882,35.751624],[139.6770102,35.751648],[139.676978,35.752092],[139.6770102,35.7520983],[139.6769999,35.7522017]]],[[[139.676795,35.7516457],[139.6767806,35.751848],[139.6767656,35.7520594],[139.6769115,35.7520832],[139.6769435,35.7516426],[139.676795,35.7516457]]],[[[139.6760934,35.7514123],[139.6759996,35.7515868],[139.6769529,35.7515818],[139.6769758,35.7512883],[139.6763375,35.7514406],[139.6760934,35.7514123]]],[[[139.6778757,35.7508917],[139.6776511,35.751021],[139.6776492,35.7511599],[139.6778767,35.7511594],[139.6778757,35.7508917]]]]}}
