{"type":"Feature","id":"attraction-large-industrial-complex-W428676812","properties":{"id":"attraction-large-industrial-complex-W428676812","kind":"attraction","name":"日産自動車 北海道陸別試験場","shortName":"日産自動車 北海道陸別試験場","context":"日本","subtype":"industrial-complex","subtypeLabel":"工業地帯・大規模工場","statusLabel":"","aliases":[],"osmType":"way","osmId":428676812,"osmDate":null,"officialAreaKm2":null,"areaSourceLabel":"","areaSourceUrl":"","boundarySourceLabel":"© OpenStreetMap contributors","boundarySourceUrl":"https://www.openstreetmap.org/copyright","geometryFile":"attractions/large-industrial-complex-W428676812.geojson"},"geometry":{"type":"Polygon","coordinates":[[[143.6442234,43.6090261],[143.6469839,43.6081241],[143.6481873,43.6074475],[143.6489942,43.6068632],[143.6476776,43.6061047],[143.65098,43.6033076],[143.6522269,43.604104],[143.6534223,43.6033672],[143.6551477,43.602738],[143.6616056,43.6007746],[143.6624621,43.6005604],[143.6632817,43.6004667],[143.6698172,43.602277],[143.667817,43.6059529],[143.6723001,43.6106548],[143.6726831,43.6104858],[143.6739166,43.6118317],[143.6746669,43.6111142],[143.6760543,43.6114474],[143.675425,43.6158538],[143.6754786,43.6186811],[143.6756932,43.6186811],[143.6756718,43.6190773],[143.6767983,43.6217879],[143.680135,43.6217801],[143.6820426,43.6242136],[143.6834937,43.6245774],[143.6822975,43.6266628],[143.6800536,43.6255202],[143.6786804,43.6255611],[143.6779655,43.6261811],[143.6739025,43.6280513],[143.6731947,43.6286917],[143.6709862,43.6288505],[143.6685158,43.6277029],[143.6653589,43.6273237],[143.6634902,43.6275389],[143.6623647,43.627462],[143.6607508,43.6269855],[143.6591582,43.6266884],[143.6581177,43.6267345],[143.6578558,43.6274877],[143.6538282,43.6274723],[143.6501049,43.6270931],[143.6444847,43.6255458],[143.6429982,43.6244237],[143.6417737,43.621918],[143.6406624,43.6205857],[143.6402943,43.6188179],[143.6410234,43.6142109],[143.6416604,43.612945],[143.6430336,43.6109617],[143.6440175,43.6105568],[143.6459287,43.6102493],[143.6462543,43.6100494],[143.6458862,43.6098034],[143.645596,43.6095164],[143.645051,43.60946],[143.6442234,43.6090261]]]}}
