{"type":"Feature","id":"attraction-large-park-W683632750","properties":{"id":"attraction-large-park-W683632750","kind":"attraction","name":"八幡原公園","shortName":"八幡原公園","context":"日本","subtype":"large-park","subtypeLabel":"大型都市公園・広域公園","statusLabel":"","aliases":[],"osmType":"way","osmId":683632750,"osmDate":null,"officialAreaKm2":null,"areaSourceLabel":"","areaSourceUrl":"","boundarySourceLabel":"© OpenStreetMap contributors","boundarySourceUrl":"https://www.openstreetmap.org/copyright","geometryFile":"attractions/large-park-W683632750.geojson"},"geometry":{"type":"Polygon","coordinates":[[[132.1789929,34.70244],[132.1791663,34.7021491],[132.1789398,34.702117],[132.1793822,34.7015758],[132.1797467,34.7012703],[132.1799803,34.7011016],[132.1803272,34.7009677],[132.1810456,34.7006622],[132.1819163,34.7002898],[132.1829002,34.6999173],[132.1829957,34.7000133],[132.1831338,34.7002956],[132.1831514,34.7004934],[132.183109,34.7006447],[132.1827869,34.7010725],[132.1827232,34.7012412],[132.1828825,34.7015031],[132.1832399,34.7022072],[132.1839655,34.7028328],[132.1844185,34.7033071],[132.184645,34.7034264],[132.1849529,34.7034933],[132.1855156,34.7034671],[132.1858837,34.7035719],[132.1860394,34.7036912],[132.1861952,34.7039065],[132.186404,34.7045058],[132.1868853,34.7046135],[132.1875967,34.704628],[132.18817,34.7047415],[132.1887292,34.7049365],[132.1894937,34.7052158],[132.1896848,34.7053263],[132.1898405,34.705562],[132.1899679,34.7058879],[132.1900033,34.7061992],[132.1898547,34.7067811],[132.189653,34.7069877],[132.1896317,34.7070837],[132.19006,34.7070342],[132.1901378,34.7069964],[132.1902051,34.7069382],[132.1902688,34.7068015],[132.1904387,34.705981],[132.1912137,34.7060683],[132.1910014,34.7075521],[132.1914226,34.7077005],[132.1917021,34.7078983],[132.1918933,34.708134],[132.1920561,34.7081922],[132.1925834,34.708198],[132.1928595,34.7083813],[132.1935107,34.7085588],[132.1935107,34.7085937],[132.1934894,34.7086257],[132.1932559,34.7087886],[132.1932629,34.7088672],[132.1933656,34.7089661],[132.1942504,34.7091727],[132.1954289,34.7096614],[132.1960978,34.7100077],[132.196388,34.7101909],[132.1964801,34.7103015],[132.1965898,34.7105546],[132.1966499,34.7108455],[132.1965721,34.7111889],[132.1963562,34.7119511],[132.1961651,34.7124719],[132.1959386,34.7129664],[132.195981,34.7130275],[132.1964553,34.713237],[132.1965969,34.7133359],[132.1966004,34.7135716],[132.1965615,34.7138014],[132.1965862,34.7140545],[132.1967561,34.7142523],[132.1969791,34.7144531],[132.1979259,34.7142361],[132.1980173,34.7142478],[132.1981779,34.7141826],[132.1983121,34.7143949],[132.1981454,34.7145369],[132.1977775,34.7147708],[132.1975518,34.714861],[132.1976616,34.7156681],[132.1976677,34.7158552],[132.1973038,34.7159354],[132.1972185,34.7160875],[132.1972896,34.7164901],[132.1974014,34.7166004],[132.1977063,34.7167508],[132.1977714,34.7167374],[132.1980417,34.716562],[132.1982186,34.716562],[132.1982938,34.7165921],[132.1983243,34.7166288],[132.1988756,34.7166344],[132.1990097,34.7165903],[132.1992833,34.7165572],[132.1995596,34.7164337],[132.1998063,34.7164271],[132.2000772,34.7164911],[132.2001979,34.7165793],[132.2002945,34.7169188],[132.2002757,34.717007],[132.2001148,34.7171415],[132.1999163,34.7173531],[132.1998868,34.7174479],[132.1998493,34.7175692],[132.1997822,34.7176728],[132.19964,34.7177566],[132.1994147,34.7176265],[132.1990004,34.7175377],[132.1977116,34.7173974],[132.197549,34.7175277],[132.1961098,34.7177015],[132.1955285,34.7178919],[132.1938291,34.7181058],[132.1925525,34.718196],[132.1925403,34.7181459],[132.1937234,34.7173439],[132.1941259,34.7173071],[132.1947113,34.717374],[132.1951057,34.7173506],[132.195439,34.7171735],[132.1956667,34.7168059],[132.1956789,34.7165653],[132.1955773,34.7160473],[132.195374,34.7158267],[132.1948861,34.7154424],[132.1949918,34.7150916],[132.1949837,34.7148276],[132.1949634,34.7147106],[132.194817,34.7145268],[132.1945934,34.7138217],[132.1943088,34.7130063],[132.194256,34.7128091],[132.1942478,34.7125518],[132.1941909,34.7123178],[132.1941096,34.712251],[132.1938657,34.7120505],[132.1936909,34.7114723],[132.1936949,34.7112183],[132.1937519,34.7110078],[132.1937478,34.7108273],[132.1936624,34.7106602],[132.1934754,34.7104564],[132.1931054,34.7102024],[132.1925566,34.7099484],[132.1918817,34.7097078],[132.1906987,34.70928],[132.190223,34.7091296],[132.1900238,34.7089725],[132.1899181,34.7090059],[132.1895604,34.7092198],[132.189349,34.70929],[132.1882513,34.7093669],[132.1878122,34.7094738],[132.1873691,34.7096844],[132.1870723,34.7098782],[132.1869056,34.7099818],[132.1866088,34.7100152],[132.1864869,34.7099651],[132.1862348,34.7096677],[132.1861454,34.70929],[132.1861332,34.7087753],[132.1861332,34.7083208],[132.1861128,34.7079933],[132.1862104,34.7078797],[132.1862633,34.7078663],[132.1865763,34.7077928],[132.1867064,34.7075622],[132.186865,34.7073115],[132.1870316,34.7070308],[132.1871943,34.7069171],[132.1862234,34.7065677],[132.1849468,34.7060396],[132.1841012,34.7069754],[132.1839467,34.7070891],[132.1837597,34.7071292],[132.1834426,34.7071158],[132.1820116,34.7060597],[132.1820603,34.7056653],[132.1820359,34.7049969],[132.181727,34.7043017],[132.1812229,34.7037068],[132.1809301,34.7034193],[132.1805236,34.7031988],[132.1802797,34.7031386],[132.1796211,34.7030851],[132.1791007,34.7031319],[132.1789137,34.7030517],[132.1787267,34.7029046],[132.1785559,34.7026172],[132.1787104,34.7023899],[132.1789929,34.70244]]]}}
