{"type":"Feature","id":"attraction-large-park-W474336823","properties":{"id":"attraction-large-park-W474336823","kind":"attraction","name":"山城総合運動公園","shortName":"山城総合運動公園","context":"日本","subtype":"large-park","subtypeLabel":"大型都市公園・広域公園","statusLabel":"","aliases":[],"osmType":"way","osmId":474336823,"osmDate":null,"officialAreaKm2":null,"areaSourceLabel":"","areaSourceUrl":"","boundarySourceLabel":"© OpenStreetMap contributors","boundarySourceUrl":"https://www.openstreetmap.org/copyright","geometryFile":"attractions/large-park-W474336823.geojson"},"geometry":{"type":"Polygon","coordinates":[[[135.8047065,34.8758799],[135.8050719,34.8755768],[135.805426,34.8752082],[135.8054568,34.875162],[135.8058812,34.8753084],[135.8061649,34.8754062],[135.8061784,34.8755999],[135.8061763,34.8760031],[135.8063587,34.8762738],[135.8069166,34.8764828],[135.8074584,34.8765092],[135.8076596,34.876353],[135.8075899,34.8761242],[135.8079064,34.8759437],[135.8078903,34.8756445],[135.8079332,34.8751471],[135.8074558,34.8749271],[135.8068067,34.874619],[135.8070069,34.8743483],[135.8074154,34.87403],[135.8076053,34.8738917],[135.8080995,34.8732855],[135.8080351,34.8724669],[135.8080351,34.8718287],[135.8081639,34.871371],[135.808196,34.8707549],[135.8077186,34.8706008],[135.8068818,34.8703059],[135.8066216,34.8701541],[135.8064768,34.8699626],[135.8061938,34.8688656],[135.8073351,34.8686621],[135.8073565,34.868354],[135.8070883,34.8676498],[135.806981,34.8666418],[135.8071312,34.8657703],[135.8067307,34.8639474],[135.8066379,34.8636531],[135.8064483,34.8635868],[135.8059187,34.8635828],[135.8057458,34.8637357],[135.805593,34.8641891],[135.8054495,34.8647426],[135.8051517,34.8649517],[135.8048272,34.865218],[135.8045348,34.8656251],[135.8040038,34.8658738],[135.8030918,34.866008],[135.80255,34.8659596],[135.8020457,34.866052],[135.8017131,34.8663909],[135.801343,34.8666902],[135.8008978,34.8669103],[135.7999912,34.8668839],[135.7991415,34.8674016],[135.7988841,34.8678462],[135.7989431,34.8680839],[135.7989055,34.8683171],[135.7987124,34.868678],[135.7982993,34.8687485],[135.7982779,34.8690874],[135.7979024,34.8693162],[135.7977636,34.8700763],[135.7977515,34.8703359],[135.7976858,34.8703546],[135.7976657,34.8704548],[135.7976777,34.8704955],[135.7977756,34.8705252],[135.797844,34.8705725],[135.7979647,34.8706138],[135.7980948,34.870682],[135.798127,34.8707744],[135.798304,34.8709296],[135.7983389,34.8710528],[135.7984086,34.8711837],[135.7983724,34.8714368],[135.7981833,34.871604],[135.7978574,34.8715831],[135.7975745,34.8715886],[135.7975865,34.8716833],[135.7977998,34.8720249],[135.7979714,34.8722526],[135.7981686,34.8725805],[135.7982826,34.8727225],[135.7982765,34.8730209],[135.798463,34.8733136],[135.7985072,34.8733939],[135.7986078,34.8735964],[135.7987285,34.8738307],[135.7988009,34.8741003],[135.7988747,34.8743819],[135.7988975,34.8745393],[135.7991563,34.8742246],[135.7995157,34.873889],[135.7998201,34.8736866],[135.8002667,34.8733356],[135.8005832,34.8730979],[135.8007173,34.8731155],[135.8012578,34.872726],[135.8016695,34.8725951],[135.8020638,34.8726061],[135.8020585,34.8726952],[135.8020088,34.8727954],[135.8017487,34.8729692],[135.8012524,34.8733059],[135.8010835,34.8735721],[135.8009976,34.8736492],[135.8006516,34.8738428],[135.8005604,34.8739946],[135.800429,34.8740849],[135.8003405,34.8741861],[135.8001527,34.8743907],[135.7999006,34.874514],[135.7996673,34.8748044],[135.7995466,34.8750201],[135.7992636,34.8751906],[135.7991898,34.875359],[135.7990866,34.8755086],[135.7987727,34.8754646],[135.7986789,34.8757286],[135.7987955,34.8760048],[135.7987446,34.8761698],[135.798636,34.8763943],[135.7985032,34.8766066],[135.7984562,34.8767893],[135.7983342,34.8769884],[135.7982417,34.8770973],[135.7981156,34.8773229],[135.7982645,34.8774483],[135.798357,34.87772],[135.7983704,34.8778356],[135.7983302,34.8780396],[135.7983275,34.8781915],[135.7984013,34.8783818],[135.7985448,34.8784181],[135.7991563,34.8790111],[135.7991483,34.879153],[135.7990892,34.8791817],[135.7992824,34.8794655],[135.7996901,34.879603],[135.7997236,34.8796723],[135.7995694,34.8797923],[135.7997397,34.8800574],[135.799796,34.8800508],[135.79991,34.8802235],[135.7998631,34.8803159],[135.8001004,34.8803148],[135.8000978,34.880229],[135.8001313,34.8802125],[135.8001675,34.88013],[135.8002842,34.880097],[135.8002641,34.8800222],[135.8002439,34.8798935],[135.8002332,34.8797631],[135.8002493,34.8796784],[135.8005604,34.8795926],[135.8012176,34.8795244],[135.8018479,34.8794165],[135.8023361,34.8792691],[135.8024963,34.8793104],[135.8024534,34.8794523],[135.8025862,34.8795436],[135.802609,34.8796041],[135.8026733,34.8796129],[135.8027619,34.8793302],[135.8028973,34.8789099],[135.8031092,34.8782531],[135.8033721,34.8774257],[135.8035008,34.8771353],[135.8036161,34.8769306],[135.8037824,34.8767007],[135.8039635,34.8765081],[135.8041539,34.8763442],[135.8045335,34.876034],[135.8047065,34.8758799]]]}}
