{"type":"Feature","id":"attraction-large-park-W627900022","properties":{"id":"attraction-large-park-W627900022","kind":"attraction","name":"萩の里自然公園","shortName":"萩の里自然公園","context":"日本","subtype":"large-park","subtypeLabel":"大型都市公園・広域公園","statusLabel":"","aliases":[],"osmType":"way","osmId":627900022,"osmDate":null,"officialAreaKm2":null,"areaSourceLabel":"","areaSourceUrl":"","boundarySourceLabel":"© OpenStreetMap contributors","boundarySourceUrl":"https://www.openstreetmap.org/copyright","geometryFile":"attractions/large-park-W627900022.geojson"},"geometry":{"type":"Polygon","coordinates":[[[141.3065426,42.5258797],[141.3076168,42.5263744],[141.3078864,42.5264965],[141.3081499,42.5266225],[141.3084195,42.526745],[141.308687,42.5268725],[141.3088486,42.5269521],[141.3089626,42.5270005],[141.3090719,42.5270519],[141.3091826,42.5271013],[141.3092932,42.5271542],[141.3096097,42.5273064],[141.3099249,42.5274621],[141.3101891,42.5275935],[141.3104506,42.5277274],[141.3109682,42.5280145],[141.3112217,42.5281569],[141.3114705,42.5283026],[141.3117233,42.5284454],[141.3119741,42.5285952],[141.3122222,42.5287444],[141.3124656,42.5288991],[141.3129982,42.5292126],[141.3127774,42.5293255],[141.3126554,42.529458],[141.3123764,42.5296413],[141.3120418,42.5298014],[141.311781,42.5299324],[141.3113397,42.5301928],[141.3109414,42.5303711],[141.310572,42.5305293],[141.3103963,42.5306059],[141.3102011,42.5307106],[141.3098927,42.5309266],[141.309597,42.5311277],[141.3093201,42.5313244],[141.3090954,42.5314701],[141.308909,42.5315522],[141.3086233,42.5316583],[141.3083531,42.5317246],[141.3080741,42.5317794],[141.3077536,42.5318397],[141.307187,42.5320704],[141.3059379,42.5327459],[141.3047041,42.5331601],[141.3045532,42.5323352],[141.3039707,42.5324116],[141.3034961,42.5325243],[141.3032933,42.5327686],[141.3032706,42.5330464],[141.3039664,42.5333927],[141.3026591,42.5337985],[141.3017865,42.5342138],[141.3016065,42.5340183],[141.3012358,42.5342095],[141.3012756,42.534506],[141.2995762,42.5354819],[141.2991296,42.5357161],[141.299019,42.5355797],[141.2975411,42.5362675],[141.29745,42.5363199],[141.2973064,42.5363554],[141.296424,42.5367912],[141.2962899,42.5370817],[141.2959009,42.5375047],[141.2952572,42.5381964],[141.294635,42.5388703],[141.2936801,42.5404612],[141.2938598,42.5408328],[141.2944713,42.540983],[141.2941616,42.5417487],[141.2940743,42.5418633],[141.2939691,42.5419908],[141.2938946,42.5420995],[141.2938088,42.5422482],[141.2937598,42.5422966],[141.2937156,42.5423179],[141.2931249,42.5423861],[141.2930296,42.5423954],[141.2929579,42.5424231],[141.292927,42.5424241],[141.2928539,42.5423574],[141.2927648,42.5423273],[141.2926756,42.542305],[141.2925951,42.5422734],[141.2925147,42.5422324],[141.2924516,42.5421968],[141.2923973,42.5421563],[141.2922424,42.5420061],[141.2922028,42.5419785],[141.2920848,42.5419266],[141.2919588,42.5418782],[141.2917019,42.5417858],[141.2916443,42.54177],[141.2914532,42.5417384],[141.2912238,42.5417196],[141.2911038,42.5417201],[141.2910113,42.5417438],[141.2909516,42.5417725],[141.2908926,42.5418278],[141.2908322,42.54189],[141.2866393,42.5374968],[141.2869316,42.5372873],[141.2867921,42.5356588],[141.2908745,42.5333473],[141.2916416,42.5329233],[141.2932992,42.5317374],[141.2939483,42.5309547],[141.2944418,42.5303262],[141.2960189,42.5282508],[141.2966922,42.5276538],[141.2974083,42.5271102],[141.2975854,42.5271829],[141.2978771,42.5272763],[141.2981345,42.527337],[141.2984068,42.5273855],[141.2986475,42.5274077],[141.2988876,42.5274215],[141.2990398,42.527422],[141.2993952,42.5273988],[141.2995809,42.5273731],[141.2997881,42.5273375],[141.3000114,42.5272817],[141.3000684,42.5272659],[141.3003561,42.5271735],[141.3006404,42.5270727],[141.302752,42.5262973],[141.3035472,42.5260156],[141.3043392,42.5257315],[141.3045551,42.5256756],[141.3047462,42.5256435],[141.3049286,42.5256163],[141.3051753,42.5256035],[141.3053054,42.5256025],[141.3055576,42.5256084],[141.3057648,42.5256391],[141.3059498,42.5256702],[141.3061778,42.5257315],[141.3063374,42.5257942],[141.3064896,42.525858],[141.3065426,42.5258797]]]}}
