{"type":"Feature","id":"attraction-large-park-W971123796","properties":{"id":"attraction-large-park-W971123796","kind":"attraction","name":"平塚川添遺跡公園","shortName":"平塚川添遺跡公園","context":"日本","subtype":"large-park","subtypeLabel":"大型都市公園・広域公園","statusLabel":"著名な公園","aliases":[],"osmType":"way","osmId":971123796,"osmDate":null,"officialAreaKm2":null,"areaSourceLabel":"","areaSourceUrl":"","boundarySourceLabel":"© OpenStreetMap contributors","boundarySourceUrl":"https://www.openstreetmap.org/copyright","geometryFile":"attractions/large-park-W971123796.geojson"},"geometry":{"type":"Polygon","coordinates":[[[130.6470638,33.3963789],[130.6469539,33.3962343],[130.6465068,33.3956304],[130.6464346,33.3955357],[130.6499292,33.3938358],[130.6500002,33.3938951],[130.6506068,33.3946063],[130.6513425,33.395304],[130.652317,33.3962604],[130.6527171,33.3966941],[130.6527074,33.3967561],[130.6509973,33.3975724],[130.6507617,33.3976316],[130.6504971,33.3976693],[130.6496291,33.3976613],[130.6494,33.397179],[130.6483416,33.3956435],[130.6476414,33.3960422],[130.6475156,33.3963466],[130.6472607,33.3962981],[130.6470638,33.3963789]]]}}
