{"type":"Feature","id":"attraction-large-park-R17337960","properties":{"id":"attraction-large-park-R17337960","kind":"attraction","name":"大宮公園","shortName":"大宮公園","context":"日本","subtype":"large-park","subtypeLabel":"大型都市公園・広域公園","statusLabel":"著名な公園","aliases":["Ōmiya Park","氷川公園"],"osmType":"relation","osmId":17337960,"osmDate":null,"officialAreaKm2":null,"areaSourceLabel":"","areaSourceUrl":"","boundarySourceLabel":"© OpenStreetMap contributors","boundarySourceUrl":"https://www.openstreetmap.org/copyright","geometryFile":"attractions/large-park-R17337960.geojson"},"geometry":{"type":"Polygon","coordinates":[[[139.6328994,35.9157069],[139.6332722,35.9155836],[139.633646,35.9155777],[139.6342297,35.915599],[139.6345971,35.9156972],[139.6349425,35.9157057],[139.6350327,35.9157566],[139.6353978,35.9168291],[139.6354067,35.9173115],[139.6354013,35.9178012],[139.6354014,35.9187531],[139.6354223,35.9191344],[139.6354027,35.9191907],[139.6349289,35.919563],[139.6332436,35.9204711],[139.6328631,35.9206847],[139.6327747,35.920702],[139.6326656,35.9206889],[139.6322259,35.9202795],[139.6321593,35.9202539],[139.6321103,35.9202849],[139.631974,35.9204696],[139.6318502,35.9206634],[139.6316077,35.9210422],[139.6308164,35.9214227],[139.6300676,35.9217566],[139.6293379,35.9220762],[139.6289489,35.9222459],[139.6286072,35.9223913],[139.6282081,35.922148],[139.6280014,35.9219766],[139.6278309,35.9217894],[139.6276678,35.9215538],[139.6276658,35.9214901],[139.6276984,35.9214236],[139.6280396,35.921152],[139.6281058,35.9210877],[139.6282078,35.9207376],[139.6283099,35.9203916],[139.6283438,35.9202845],[139.6283558,35.9201734],[139.6283681,35.9200721],[139.6283704,35.9199736],[139.6282853,35.9195015],[139.6281935,35.9189327],[139.6281917,35.9187785],[139.6281826,35.918491],[139.6281868,35.9183654],[139.628205,35.9182295],[139.6282579,35.918156],[139.6285057,35.9178196],[139.6285682,35.9176995],[139.6284336,35.9173384],[139.6290233,35.9176863],[139.6293774,35.9176959],[139.6299943,35.9176547],[139.6304074,35.9174896],[139.6305737,35.9172484],[139.630707,35.9170839],[139.6307117,35.9170502],[139.6307185,35.9169052],[139.6307333,35.9168591],[139.6307527,35.916814],[139.6307424,35.9167378],[139.6307259,35.9166885],[139.6306889,35.9166336],[139.6305903,35.9165209],[139.6304076,35.9163485],[139.6305797,35.9162191],[139.6306874,35.9161645],[139.6308386,35.9161539],[139.6309601,35.9161947],[139.6310435,35.9162027],[139.6311302,35.9162099],[139.6311688,35.9162226],[139.6312225,35.9162462],[139.6312826,35.9162874],[139.6313227,35.9162996],[139.6313604,35.9163228],[139.6313894,35.9163306],[139.6314194,35.9163294],[139.6314455,35.9163228],[139.631492,35.9163001],[139.6316725,35.9161888],[139.6318234,35.9160857],[139.6322537,35.9159143],[139.6328994,35.9157069]]]}}
