{"type":"Feature","id":"attraction-large-park-W157048327","properties":{"id":"attraction-large-park-W157048327","kind":"attraction","name":"庄内緑地公園","shortName":"庄内緑地公園","context":"日本","subtype":"large-park","subtypeLabel":"大型都市公園・広域公園","statusLabel":"著名な公園","aliases":[],"osmType":"way","osmId":157048327,"osmDate":null,"officialAreaKm2":null,"areaSourceLabel":"","areaSourceUrl":"","boundarySourceLabel":"© OpenStreetMap contributors","boundarySourceUrl":"https://www.openstreetmap.org/copyright","geometryFile":"attractions/large-park-W157048327.geojson"},"geometry":{"type":"Polygon","coordinates":[[[136.8879895,35.2149122],[136.8878682,35.2145637],[136.8877523,35.2143066],[136.887566,35.2138635],[136.8877233,35.2135726],[136.8878351,35.2134678],[136.8880255,35.21339],[136.8881538,35.2132818],[136.8882201,35.2132107],[136.8882491,35.2131465],[136.8880959,35.212957],[136.8885761,35.2124023],[136.8871188,35.2118645],[136.8847425,35.2109546],[136.8825607,35.2101699],[136.8825359,35.2102071],[136.8813228,35.2097538],[136.8803499,35.2093073],[136.8800519,35.2091213],[136.8791535,35.2086274],[136.8786691,35.2083399],[136.8781019,35.2079813],[136.8776631,35.2076532],[136.8775596,35.2077006],[136.8776507,35.2087323],[136.8777703,35.2096841],[136.8779026,35.2104718],[136.8780331,35.2111782],[136.8780868,35.2113237],[136.8781302,35.2113949],[136.8782081,35.2114901],[136.8782974,35.211578],[136.878645,35.2118769],[136.8789506,35.2121348],[136.8795137,35.2126323],[136.8798515,35.2128703],[136.8800638,35.2130057],[136.8802322,35.2130945],[136.8807669,35.2133692],[136.881077,35.2135679],[136.8814923,35.2139042],[136.8817672,35.214198],[136.8825705,35.2151165],[136.8826927,35.2152381],[136.8827958,35.2153178],[136.8830044,35.215425],[136.8831227,35.2154625],[136.8837227,35.2156308],[136.8841713,35.2157196],[136.8844778,35.215759],[136.8848355,35.2157696],[136.8850712,35.2157641],[136.8854544,35.2157169],[136.8857734,35.2156595],[136.886523,35.2154537],[136.8874499,35.2151565],[136.8876704,35.2150788],[136.8879895,35.2149122]]]}}
