{"type":"Feature","id":"attraction-large-park-W583185738","properties":{"id":"attraction-large-park-W583185738","kind":"attraction","name":"須磨浦公園","shortName":"須磨浦公園","context":"日本","subtype":"large-park","subtypeLabel":"大型都市公園・広域公園","statusLabel":"","aliases":["Sumaura Park"],"osmType":"way","osmId":583185738,"osmDate":null,"officialAreaKm2":null,"areaSourceLabel":"","areaSourceUrl":"","boundarySourceLabel":"© OpenStreetMap contributors","boundarySourceUrl":"https://www.openstreetmap.org/copyright","geometryFile":"attractions/large-park-W583185738.geojson"},"geometry":{"type":"Polygon","coordinates":[[[135.09307,34.6353574],[135.0930512,34.6355914],[135.0938183,34.6361961],[135.093888,34.636889],[135.0936896,34.6378556],[135.0932336,34.6388266],[135.0929975,34.6396343],[135.0930244,34.6402654],[135.0936842,34.6409848],[135.0958192,34.6452128],[135.0991344,34.6467751],[135.1023209,34.6464662],[135.103662,34.6447362],[135.0998747,34.6424766],[135.1003039,34.6408259],[135.0985578,34.6392371],[135.0999861,34.6380134],[135.0999391,34.6378876],[135.0975573,34.6365094],[135.0965649,34.6361431],[135.0956073,34.6359268],[135.09307,34.6353574]]]}}
