{"type":"Feature","id":"attraction-large-park-W522497446","properties":{"id":"attraction-large-park-W522497446","kind":"attraction","name":"白谷海浜公園","shortName":"白谷海浜公園","context":"愛知県・田原市","subtype":"large-park","subtypeLabel":"大型都市公園・広域公園","statusLabel":"著名な公園","aliases":[],"osmType":"way","osmId":522497446,"osmDate":null,"officialAreaKm2":null,"areaSourceLabel":"","areaSourceUrl":"","boundarySourceLabel":"© OpenStreetMap contributors","boundarySourceUrl":"https://www.openstreetmap.org/copyright","geometryFile":"attractions/large-park-W522497446.geojson"},"geometry":{"type":"Polygon","coordinates":[[[137.2355273,34.6873651],[137.2356199,34.6872769],[137.2355126,34.6871611],[137.234901,34.6861488],[137.234787,34.68613],[137.234773,34.6861129],[137.2347012,34.6860065],[137.2347227,34.6859933],[137.2347347,34.6859045],[137.2338349,34.6846501],[137.2337195,34.6846203],[137.2336236,34.6844869],[137.2336498,34.6843887],[137.2329739,34.6833797],[137.2329739,34.6832451],[137.2329631,34.6832187],[137.2328264,34.6832914],[137.2328009,34.6832848],[137.2322819,34.6825459],[137.2299144,34.6837933],[137.2300464,34.6838589],[137.230175,34.6839619],[137.2303078,34.6841119],[137.2304633,34.6843645],[137.2306548,34.6846993],[137.2312188,34.6856211],[137.2313633,34.6858834],[137.2314228,34.6859809],[137.2314575,34.6861013],[137.2314705,34.6861598],[137.2314696,34.6862154],[137.2315161,34.6862645],[137.231741,34.6861372],[137.2317897,34.6861609],[137.2319587,34.6862634],[137.2320987,34.6864019],[137.2322416,34.6866031],[137.2323687,34.6867907],[137.2326091,34.687267],[137.2329334,34.6879175],[137.2330222,34.6880859],[137.2330706,34.6882216],[137.2331268,34.6884954],[137.2331509,34.6886035],[137.2331355,34.6886612],[137.2339529,34.688266],[137.233981,34.6882065],[137.2340494,34.6882263],[137.2352537,34.6876066],[137.2354576,34.6874346],[137.2355273,34.6873651]]]}}
