{"type":"Feature","id":"attraction-large-airport-W57014922","properties":{"id":"attraction-large-airport-W57014922","kind":"attraction","name":"五島福江空港","shortName":"五島福江空港","context":"日本","subtype":"airport","subtypeLabel":"空港・飛行場","statusLabel":"","aliases":["Goto-Fukue Airport","Gotō, Nagasaki"],"osmType":"way","osmId":57014922,"osmDate":null,"officialAreaKm2":null,"areaSourceLabel":"","areaSourceUrl":"","boundarySourceLabel":"© OpenStreetMap contributors","boundarySourceUrl":"https://www.openstreetmap.org/copyright","geometryFile":"attractions/large-airport-W57014922.geojson"},"geometry":{"type":"Polygon","coordinates":[[[128.8278908,32.6568773],[128.8283604,32.6567331],[128.8284422,32.656732],[128.8284986,32.6567444],[128.8285522,32.6567692],[128.8285978,32.6568076],[128.828634,32.6568607],[128.8286743,32.6569273],[128.8287909,32.6571825],[128.8292788,32.6581123],[128.8300888,32.6595896],[128.8301776,32.6597319],[128.831166,32.66161],[128.831834,32.662816],[128.8347391,32.6679717],[128.835613,32.6676208],[128.8370509,32.6670496],[128.837574,32.6669787],[128.8377326,32.6670038],[128.8378374,32.6670658],[128.838516,32.668299],[128.838182,32.668641],[128.837936,32.66879],[128.837138,32.6694447],[128.8371132,32.6694852],[128.837091,32.6695339],[128.8370764,32.6695898],[128.8370776,32.669644],[128.8370126,32.6696954],[128.8370736,32.6698122],[128.8373204,32.6702265],[128.8374451,32.6704896],[128.8375363,32.6704664],[128.8378058,32.6710642],[128.8378025,32.6710902],[128.8377944,32.6711082],[128.8377797,32.6711274],[128.8377093,32.6711641],[128.8377467,32.6712295],[128.8377462,32.6712606],[128.837638,32.6714745],[128.836903,32.671748],[128.8376499,32.6730595],[128.8393219,32.6761237],[128.8393733,32.6762235],[128.8393544,32.6762514],[128.8391358,32.676366],[128.8380811,32.6768237],[128.8380023,32.6768728],[128.8379183,32.6768692],[128.837813,32.676804],[128.836998,32.675326],[128.836558,32.674471],[128.836311,32.673935],[128.836029,32.673377],[128.835572,32.6725],[128.834276,32.670129],[128.833151,32.668178],[128.832588,32.667209],[128.83178,32.665809],[128.830479,32.663605],[128.830145,32.663128],[128.829424,32.662205],[128.828686,32.661207],[128.8281445,32.6603562],[128.8280529,32.6602121],[128.8268228,32.6580897],[128.8265435,32.6575863],[128.8265308,32.6575372],[128.8265323,32.657495],[128.8265499,32.6574331],[128.8265888,32.6573722],[128.8266425,32.6573214],[128.8267055,32.6572864],[128.8270225,32.6571762],[128.8273493,32.6570591],[128.8278908,32.6568773]]]}}
