{"type":"Feature","id":"attraction-large-industrial-complex-W1135381908","properties":{"id":"attraction-large-industrial-complex-W1135381908","kind":"attraction","name":"ジャパンマリンユナイテッド","shortName":"ジャパンマリンユナイテッド","context":"日本","subtype":"industrial-complex","subtypeLabel":"工業地帯・大規模工場","statusLabel":"","aliases":[],"osmType":"way","osmId":1135381908,"osmDate":null,"officialAreaKm2":null,"areaSourceLabel":"","areaSourceUrl":"","boundarySourceLabel":"© OpenStreetMap contributors","boundarySourceUrl":"https://www.openstreetmap.org/copyright","geometryFile":"attractions/large-industrial-complex-W1135381908.geojson"},"geometry":{"type":"Polygon","coordinates":[[[135.3707162,35.4772741],[135.3710675,35.4773069],[135.3711158,35.4768438],[135.3718463,35.4768707],[135.3716694,35.4770648],[135.3727257,35.4813463],[135.3763812,35.4810982],[135.3764826,35.4809627],[135.3777485,35.4808967],[135.3778122,35.4813999],[135.377274,35.4814385],[135.3772986,35.4817415],[135.3774936,35.4817325],[135.3774764,35.4818162],[135.3775425,35.4824397],[135.3777424,35.4827619],[135.3779811,35.4830115],[135.3779679,35.4830233],[135.3780445,35.4831041],[135.3780666,35.4830947],[135.3780689,35.4830691],[135.378101,35.4830505],[135.37818,35.4831434],[135.3783716,35.4830972],[135.3788819,35.4827431],[135.3790124,35.4828675],[135.3792794,35.4831493],[135.3793287,35.4831998],[135.3797465,35.4829383],[135.3799101,35.4830951],[135.3791819,35.483639],[135.3794402,35.4838995],[135.3796491,35.4840994],[135.3797751,35.4841013],[135.380485,35.4839],[135.380582,35.483527],[135.380514,35.483434],[135.381045,35.483071],[135.38179,35.483867],[135.382544,35.484719],[135.382644,35.484886],[135.382685,35.485072],[135.382658,35.485194],[135.382348,35.485604],[135.3819225,35.4859982],[135.3799256,35.4872576],[135.3797756,35.4871306],[135.3795246,35.4872886],[135.3786759,35.4878497],[135.3751713,35.4881662],[135.3749031,35.4876639],[135.3735566,35.4880745],[135.3734279,35.4878364],[135.3728163,35.4863623],[135.3731972,35.4861133],[135.3735083,35.4861701],[135.3737497,35.4865632],[135.3739482,35.4867423],[135.3741789,35.4872053],[135.3748441,35.4873669],[135.3750694,35.4869083],[135.3761959,35.4868253],[135.3762388,35.487048],[135.3761584,35.4873582],[135.3764641,35.4876945],[135.3768665,35.4876901],[135.3772527,35.487345],[135.3783631,35.4869563],[135.379377,35.4866505],[135.3806537,35.4858119],[135.3810427,35.4858818],[135.3820592,35.4852135],[135.3818715,35.4850038],[135.3810453,35.4847155],[135.3805035,35.4841389],[135.3794199,35.4844141],[135.3777462,35.4855018],[135.3772259,35.4855105],[135.3768074,35.4852965],[135.3765768,35.4849208],[135.3763032,35.4849951],[135.3758016,35.4844556],[135.3760457,35.484128],[135.3754502,35.4834575],[135.3736532,35.483392],[135.3732777,35.4835405],[135.3723496,35.4837458],[135.3719728,35.4837589],[135.370912,35.4833723],[135.370802,35.4834356],[135.3704667,35.4837916],[135.3699142,35.4838572],[135.3698552,35.4838091],[135.3698471,35.4835667],[135.3704721,35.4832522],[135.3706303,35.4829617],[135.3705123,35.4821536],[135.3703621,35.4821208],[135.37,35.4820881],[135.3698444,35.4821296],[135.3697264,35.4822322],[135.369713,35.4827389],[135.3696379,35.4829289],[135.3692088,35.4829835],[135.3689808,35.4828219],[135.3685704,35.4829224],[135.3681251,35.4830469],[135.367696,35.4819614],[135.367763,35.4817714],[135.3681788,35.4815049],[135.3685194,35.4814306],[135.3692061,35.481162],[135.369418,35.4809152],[135.3694823,35.4807383],[135.3696728,35.4797969],[135.3696942,35.4795479],[135.369646,35.4794015],[135.3693181,35.4790226],[135.369131,35.4788118],[135.3690827,35.4786677],[135.3690585,35.4785781],[135.3692436,35.4768897],[135.3693777,35.4768132],[135.370051,35.476881],[135.3703701,35.4768744],[135.3707215,35.4768635],[135.3707162,35.4772741]]]}}
