{"type":"Feature","id":"attraction-large-park-W38869780","properties":{"id":"attraction-large-park-W38869780","kind":"attraction","name":"千秋公園","shortName":"千秋公園","context":"日本","subtype":"large-park","subtypeLabel":"大型都市公園・広域公園","statusLabel":"著名な公園","aliases":["Senshū Park"],"osmType":"way","osmId":38869780,"osmDate":null,"officialAreaKm2":null,"areaSourceLabel":"","areaSourceUrl":"","boundarySourceLabel":"© OpenStreetMap contributors","boundarySourceUrl":"https://www.openstreetmap.org/copyright","geometryFile":"attractions/large-park-W38869780.geojson"},"geometry":{"type":"Polygon","coordinates":[[[140.1257225,39.7218698],[140.1256728,39.7217184],[140.1256283,39.7217032],[140.1253635,39.7216629],[140.1252873,39.7215771],[140.1252794,39.7215191],[140.1252785,39.7214601],[140.1253083,39.7214073],[140.1253475,39.7213852],[140.1253999,39.7213729],[140.1254974,39.7213549],[140.1257582,39.7213261],[140.1257252,39.7211564],[140.1257102,39.7210781],[140.1256775,39.7209179],[140.125655,39.7207739],[140.1255966,39.7204229],[140.1255586,39.720165],[140.1255593,39.7200586],[140.1255577,39.7200474],[140.1254572,39.7193419],[140.1251537,39.7193719],[140.1251268,39.7192852],[140.1251143,39.7192451],[140.1251028,39.7192081],[140.1250369,39.7192115],[140.1249685,39.7191214],[140.1246497,39.7192944],[140.1244451,39.7197418],[140.1241835,39.7200618],[140.1240653,39.7201062],[140.1239964,39.7201293],[140.1236837,39.7201962],[140.1234095,39.7202928],[140.123251,39.7204012],[140.1231919,39.7204152],[140.123153,39.7204062],[140.1230332,39.7202699],[140.1229119,39.7202533],[140.1227474,39.720212],[140.1219837,39.7202367],[140.1214468,39.7205005],[140.1218931,39.7218193],[140.1220701,39.7227559],[140.1221828,39.7230396],[140.1222364,39.7232304],[140.1222212,39.7233286],[140.1221962,39.7235162],[140.1222084,39.7236837],[140.1222523,39.7237876],[140.1223483,39.7239043],[140.1224109,39.7240009],[140.1225727,39.7240136],[140.1229731,39.7239441],[140.1234084,39.7239035],[140.1240897,39.7236606],[140.1242541,39.7238893],[140.1254175,39.7236843],[140.1256789,39.7236023],[140.1258218,39.7234814],[140.1259113,39.7233985],[140.1256233,39.7232114],[140.1258078,39.7230643],[140.1258254,39.7226104],[140.1257225,39.7218698]]]}}
