{"type":"Feature","id":"attraction-large-military-base-W1389357461","properties":{"id":"attraction-large-military-base-W1389357461","kind":"attraction","name":"Kyogamisaki Communications Site","shortName":"Kyogamisaki Communications Site","context":"日本","subtype":"military-base","subtypeLabel":"基地・駐屯地・演習場","statusLabel":"","aliases":["経ヶ岬通信所","United States Forces Japan"],"osmType":"way","osmId":1389357461,"osmDate":null,"officialAreaKm2":null,"areaSourceLabel":"","areaSourceUrl":"","boundarySourceLabel":"© OpenStreetMap contributors","boundarySourceUrl":"https://www.openstreetmap.org/copyright","geometryFile":"attractions/large-military-base-W1389357461.geojson"},"geometry":{"type":"Polygon","coordinates":[[[135.1943996,35.7670667],[135.1945469,35.767161],[135.194645,35.7671678],[135.1947525,35.7670401],[135.1947507,35.7669884],[135.1948311,35.7668922],[135.194975,35.7668974],[135.1950589,35.7669731],[135.1950796,35.7670768],[135.1950626,35.7670799],[135.195062,35.7671043],[135.1950988,35.767285],[135.1951561,35.7673608],[135.1955661,35.7672591],[135.1956767,35.7671359],[135.1956748,35.7670373],[135.19563,35.7669013],[135.1955019,35.766746],[135.1953892,35.766693],[135.1954489,35.7664854],[135.195432,35.7664001],[135.1955535,35.7664804],[135.1956844,35.7663392],[135.1961217,35.7662627],[135.1961322,35.7660841],[135.1962861,35.7658942],[135.1961761,35.7656941],[135.1962408,35.7655165],[135.1963645,35.7654541],[135.1965581,35.7654093],[135.1966475,35.7653222],[135.1966566,35.7651976],[135.1963911,35.7648736],[135.1963652,35.7647629],[135.1964289,35.7646318],[135.1963116,35.7642603],[135.1950147,35.7645319],[135.1947441,35.7646036],[135.1947906,35.7649196],[135.1951185,35.7658647],[135.1952418,35.7664118],[135.1952462,35.7665005],[135.1951866,35.7667223],[135.19458,35.7667761],[135.1943996,35.7670667]]]}}
