{"type":"Feature","id":"attraction-large-industrial-complex-W416694272","properties":{"id":"attraction-large-industrial-complex-W416694272","kind":"attraction","name":"小松製作所","shortName":"小松製作所","context":"日本","subtype":"industrial-complex","subtypeLabel":"工業地帯・大規模工場","statusLabel":"","aliases":["Komatsu Limited"],"osmType":"way","osmId":416694272,"osmDate":null,"officialAreaKm2":null,"areaSourceLabel":"","areaSourceUrl":"","boundarySourceLabel":"© OpenStreetMap contributors","boundarySourceUrl":"https://www.openstreetmap.org/copyright","geometryFile":"attractions/large-industrial-complex-W416694272.geojson"},"geometry":{"type":"Polygon","coordinates":[[[139.8249821,36.2822896],[139.8233821,36.2824453],[139.8232866,36.2825532],[139.8241648,36.2974961],[139.824261,36.2975674],[139.8288498,36.2972622],[139.8292605,36.2971936],[139.8298459,36.2971606],[139.829964,36.2970494],[139.8290659,36.2836273],[139.8271315,36.2837035],[139.8250747,36.2837845],[139.8249821,36.2822896]]]}}
