{"type":"Feature","id":"attraction-large-large-port-R15983151","properties":{"id":"attraction-large-large-port-R15983151","kind":"attraction","name":"秋田港産業団地","shortName":"秋田港産業団地","context":"日本","subtype":"large-port","subtypeLabel":"港湾・埠頭","statusLabel":"","aliases":[],"osmType":"relation","osmId":15983151,"osmDate":null,"officialAreaKm2":null,"areaSourceLabel":"","areaSourceUrl":"","boundarySourceLabel":"© OpenStreetMap contributors","boundarySourceUrl":"https://www.openstreetmap.org/copyright","geometryFile":"attractions/large-large-port-R15983151.geojson"},"geometry":{"type":"MultiPolygon","coordinates":[[[[140.0527703,39.7707758],[140.05378,39.7715546],[140.0544931,39.7721212],[140.0550209,39.7725621],[140.0550793,39.7725839],[140.055131,39.7725774],[140.0594805,39.7678558],[140.0594922,39.7678186],[140.0594805,39.7677827],[140.0567227,39.7655],[140.056666,39.7654885],[140.0566209,39.7655026],[140.0549942,39.7666632],[140.0549625,39.7667017],[140.0549625,39.7667337],[140.0562372,39.7683649],[140.0564591,39.7686188],[140.0566926,39.7688292],[140.0567895,39.7690039],[140.0567895,39.7690266],[140.0565508,39.7692781],[140.0551554,39.7707942],[140.0550005,39.77096],[140.0548813,39.771011],[140.0548149,39.7710152],[140.0546536,39.7710017],[140.0544937,39.7709569],[140.0537768,39.770585],[140.0533025,39.7703403],[140.0532307,39.7703559],[140.0528756,39.7707163],[140.0527781,39.7707579],[140.0527703,39.7707758]]],[[[140.0568968,39.7749655],[140.0560733,39.7742365],[140.0552853,39.7735981],[140.0544453,39.7730215],[140.0538767,39.7726134],[140.0533576,39.7721637],[140.0527536,39.7718482],[140.0514063,39.7712697],[140.0513662,39.7712007],[140.0513945,39.7708453],[140.051378,39.7705279],[140.0513756,39.7704155],[140.0516446,39.7701997],[140.0519556,39.7704677],[140.0532889,39.7715586],[140.0536101,39.7716179],[140.0540749,39.7719533],[140.0554764,39.773181],[140.0571186,39.7748494],[140.0571186,39.7748875],[140.0569817,39.7749691],[140.0568968,39.7749655]]],[[[140.0582614,39.7693284],[140.0588759,39.7687022],[140.0595791,39.7679301],[140.0596551,39.7679412],[140.0601856,39.768402],[140.0615078,39.7694959],[140.0620661,39.7699106],[140.0632543,39.7706075],[140.0632781,39.7706513],[140.0612308,39.7727346],[140.058306,39.7757332],[140.0582293,39.7757347],[140.0559601,39.7734251],[140.0551974,39.7727004],[140.055206,39.77266],[140.0560918,39.771755],[140.0568278,39.7709723],[140.0577209,39.7699331],[140.0582614,39.7693284]]],[[[140.0597509,39.767774],[140.0597197,39.7678032],[140.0597197,39.7678303],[140.059736,39.7678647],[140.0620045,39.7697354],[140.0621211,39.7698083],[140.0621523,39.7698135],[140.0622051,39.7698041],[140.062735,39.7692396],[140.0627445,39.7691771],[140.0626848,39.7676803],[140.0626618,39.7676292],[140.0623433,39.7673886],[140.0622905,39.767374],[140.0622498,39.7673855],[140.06193,39.7676542],[140.0609909,39.7668595],[140.0597509,39.767774]]],[[[140.0634135,39.7705127],[140.0633685,39.7705267],[140.063312,39.7705281],[140.0632554,39.7705097],[140.0622502,39.7699286],[140.062232,39.7698962],[140.0622426,39.7698586],[140.0627964,39.7692753],[140.0628098,39.7692245],[140.0627619,39.76813],[140.0627753,39.7681013],[140.0628175,39.7680733],[140.0632717,39.7680689],[140.0634068,39.7680807],[140.0635237,39.7680983],[140.0636761,39.7681477],[140.0637949,39.7682051],[140.0649525,39.7688923],[140.064962,39.7689144],[140.064962,39.7689409],[140.0649573,39.7689593],[140.0643219,39.7695935],[140.0634614,39.7704707],[140.0634135,39.7705127]]],[[[140.062829,39.7680223],[140.0627767,39.7679876],[140.0627582,39.7675905],[140.063853,39.7671335],[140.0640625,39.7674216],[140.0635459,39.7680279],[140.0635069,39.7680373],[140.0634483,39.7680239],[140.0632532,39.7680129],[140.062829,39.7680223]]],[[[140.0657718,39.7679916],[140.0657913,39.7680122],[140.0657913,39.7680437],[140.0657748,39.7681045],[140.065628,39.7682727],[140.0652983,39.7680485],[140.0647191,39.7686532],[140.0641809,39.7683374],[140.0646441,39.7678551],[140.0641254,39.7674675],[140.0644366,39.7671217],[140.0645517,39.767102],[140.0657718,39.7679916]]],[[[140.0619531,39.7675694],[140.0623761,39.767227],[140.0625379,39.7671462],[140.062623,39.7670706],[140.0633888,39.7662691],[140.0621225,39.7653201],[140.060364,39.7640581],[140.059413,39.7647135],[140.0594114,39.7647635],[140.0614435,39.7663947],[140.0614735,39.7664371],[140.0614668,39.766523],[140.0613651,39.7666025],[140.0610564,39.7668179],[140.0619531,39.7675694]]],[[[140.0599013,39.7675113],[140.0596646,39.7676906],[140.0596239,39.7677025],[140.0595832,39.7676991],[140.0595425,39.7676864],[140.0572661,39.765792],[140.0568259,39.7654231],[140.0568237,39.7653893],[140.0568347,39.7653605],[140.056882,39.7653157],[140.0594588,39.7634559],[140.059505,39.7634449],[140.059548,39.7634559],[140.0603163,39.7640203],[140.059319,39.764709],[140.0593124,39.7647454],[140.0593487,39.7648088],[140.0608578,39.7660052],[140.061362,39.7664147],[140.0613686,39.7664308],[140.0613521,39.766463],[140.0613278,39.7664977],[140.0609294,39.7667887],[140.0599013,39.7675113]]]]}}
