{"type":"Feature","id":"attraction-large-park-W667465162","properties":{"id":"attraction-large-park-W667465162","kind":"attraction","name":"かさおか古代の丘スポーツ公園","shortName":"かさおか古代の丘スポーツ公園","context":"日本","subtype":"large-park","subtypeLabel":"大型都市公園・広域公園","statusLabel":"著名な公園","aliases":[],"osmType":"way","osmId":667465162,"osmDate":null,"officialAreaKm2":null,"areaSourceLabel":"","areaSourceUrl":"","boundarySourceLabel":"© OpenStreetMap contributors","boundarySourceUrl":"https://www.openstreetmap.org/copyright","geometryFile":"attractions/large-park-W667465162.geojson"},"geometry":{"type":"Polygon","coordinates":[[[133.5243972,34.5809038],[133.5242027,34.5809221],[133.5241262,34.580905],[133.5239953,34.580863],[133.5238591,34.5807989],[133.5236885,34.5806795],[133.5233918,34.5805009],[133.5217458,34.579588],[133.5216791,34.5795269],[133.5214246,34.5791938],[133.5216637,34.5790154],[133.5214084,34.578948],[133.5209547,34.5787658],[133.5206669,34.5785516],[133.5204437,34.578296],[133.5203745,34.5781596],[133.5202485,34.5779729],[133.5201977,34.5778612],[133.5202302,34.5777683],[133.5200877,34.5777073],[133.5200043,34.5776464],[133.5199071,34.5775333],[133.5198254,34.5773116],[133.5197639,34.5770889],[133.5196731,34.5769705],[133.5194165,34.5767426],[133.5192099,34.5765382],[133.5191016,34.5763279],[133.5189956,34.5761466],[133.5190022,34.5761287],[133.5186864,34.5757121],[133.5185208,34.575417],[133.5183541,34.5749679],[133.5182801,34.5747688],[133.5182193,34.5745979],[133.5182155,34.5745627],[133.5182255,34.5745282],[133.518242,34.5745043],[133.5182653,34.5744845],[133.5182937,34.57447],[133.5183335,34.5744608],[133.5183749,34.5744619],[133.5184093,34.5744714],[133.5184393,34.5744881],[133.5184628,34.5745108],[133.5184781,34.5745379],[133.5185468,34.5746734],[133.5187123,34.5749813],[133.5192694,34.5752627],[133.520023,34.5760889],[133.5203395,34.576394],[133.5205023,34.5766778],[133.520847,34.5769371],[133.521323,34.5770756],[133.5219997,34.5774571],[133.5223568,34.5774394],[133.5228495,34.5778639],[133.5229399,34.577913],[133.5230249,34.5781054],[133.5232535,34.5781433],[133.5234123,34.5781945],[133.5237357,34.5783798],[133.5238427,34.5786633],[133.5239002,34.5787179],[133.5240543,34.5789711],[133.5241828,34.5793319],[133.5242443,34.5795322],[133.524263,34.5796751],[133.5244018,34.5798149],[133.5244628,34.5804626],[133.524484,34.5805881],[133.5245267,34.5807489],[133.5245249,34.5808021],[133.524489,34.580849],[133.5244601,34.5808754],[133.5243972,34.5809038]]]}}
