{"type":"Feature","id":"attraction-large-park-W343116892","properties":{"id":"attraction-large-park-W343116892","kind":"attraction","name":"石岡運動公園","shortName":"石岡運動公園","context":"日本","subtype":"large-park","subtypeLabel":"大型都市公園・広域公園","statusLabel":"著名な公園","aliases":[],"osmType":"way","osmId":343116892,"osmDate":null,"officialAreaKm2":null,"areaSourceLabel":"","areaSourceUrl":"","boundarySourceLabel":"© OpenStreetMap contributors","boundarySourceUrl":"https://www.openstreetmap.org/copyright","geometryFile":"attractions/large-park-W343116892.geojson"},"geometry":{"type":"Polygon","coordinates":[[[140.3033343,36.1814676],[140.3033548,36.1808229],[140.3033627,36.1805165],[140.3033639,36.1803218],[140.3033513,36.1801327],[140.3033297,36.1799983],[140.3032443,36.1797432],[140.303498,36.1793995],[140.3035252,36.1792322],[140.3040836,36.1787854],[140.3038193,36.1785545],[140.303615,36.1786237],[140.3032764,36.1786554],[140.3033013,36.1777931],[140.304019,36.1779467],[140.3045753,36.1779029],[140.3045336,36.1775512],[140.3051814,36.1776285],[140.3055169,36.178205],[140.3059194,36.1783409],[140.3063808,36.1777738],[140.3065936,36.1777926],[140.3066379,36.1778366],[140.3066325,36.1781375],[140.3066823,36.1784455],[140.3068256,36.178839],[140.3070405,36.1793354],[140.3073353,36.1800514],[140.3074538,36.1803918],[140.3074654,36.1804539],[140.3074621,36.1805128],[140.3069677,36.1810917],[140.3053924,36.181389],[140.3037887,36.1816624],[140.303327,36.1817579],[140.3033343,36.1814676]]]}}
