{"type":"Feature","id":"attraction-large-park-W88813876","properties":{"id":"attraction-large-park-W88813876","kind":"attraction","name":"宮崎県立総合運動公園","shortName":"宮崎県立総合運動公園","context":"日本","subtype":"large-park","subtypeLabel":"大型都市公園・広域公園","statusLabel":"","aliases":[],"osmType":"way","osmId":88813876,"osmDate":null,"officialAreaKm2":null,"areaSourceLabel":"","areaSourceUrl":"","boundarySourceLabel":"© OpenStreetMap contributors","boundarySourceUrl":"https://www.openstreetmap.org/copyright","geometryFile":"attractions/large-park-W88813876.geojson"},"geometry":{"type":"Polygon","coordinates":[[[131.4441565,31.8319867],[131.4469302,31.8328037],[131.4473059,31.8329147],[131.4471845,31.8332751],[131.4471846,31.8334633],[131.4472028,31.8336206],[131.4472766,31.8339224],[131.4474005,31.8341796],[131.4476414,31.834489],[131.4477362,31.8345599],[131.4478089,31.8345927],[131.4478472,31.834645],[131.4478423,31.8347244],[131.4478136,31.8347856],[131.4479429,31.8349049],[131.4481652,31.8350054],[131.4496533,31.83424],[131.4499063,31.8340335],[131.4497904,31.8324996],[131.449698,31.8312839],[131.4495579,31.8304867],[131.4494842,31.8291186],[131.4494609,31.8282626],[131.4494002,31.8274541],[131.4494103,31.8268692],[131.4494266,31.8260966],[131.4493043,31.8252527],[131.4493135,31.8243921],[131.449302,31.8238099],[131.4493787,31.8232024],[131.4494569,31.822581],[131.4496705,31.8218809],[131.4500723,31.8211894],[131.4503518,31.8207754],[131.4505549,31.8203779],[131.4506241,31.8201131],[131.4509647,31.8200865],[131.4511369,31.819876],[131.4514532,31.8198103],[131.4516219,31.8197635],[131.4518051,31.8193029],[131.4517525,31.8192399],[131.4495804,31.8183133],[131.449419,31.8183111],[131.4493218,31.8183142],[131.4490284,31.8184532],[131.4486808,31.8184686],[131.4471071,31.8178279],[131.4467838,31.8177027],[131.4464789,31.8175465],[131.4461532,31.8175733],[131.4459008,31.8179722],[131.4455306,31.8181505],[131.4450026,31.8182729],[131.4443214,31.818301],[131.4441781,31.8177373],[131.4440372,31.8176917],[131.4438193,31.8176832],[131.4435964,31.8179393],[131.443406,31.8180244],[131.4434386,31.8181216],[131.4432908,31.818175],[131.4434454,31.8189425],[131.4435042,31.8193615],[131.4438767,31.8193741],[131.4438383,31.8198582],[131.4438683,31.8201158],[131.4438928,31.8202909],[131.4439645,31.8204369],[131.4440503,31.8205683],[131.4441241,31.8206703],[131.4441334,31.820885],[131.4440192,31.8210268],[131.4439761,31.8213978],[131.4440502,31.8226755],[131.4444834,31.8226505],[131.4446327,31.8229476],[131.4447824,31.8231093],[131.4447517,31.8238085],[131.4447077,31.8242983],[131.4446688,31.8245982],[131.4446422,31.8249857],[131.4443297,31.825625],[131.4442826,31.8258943],[131.4443531,31.8263059],[131.4443006,31.8269257],[131.4430531,31.8272993],[131.4429054,31.8273507],[131.4428364,31.8274036],[131.442748,31.8275351],[131.4427465,31.8276061],[131.4429924,31.8276914],[131.4433956,31.8278229],[131.4437517,31.827898],[131.4448571,31.8281306],[131.4448793,31.8281536],[131.4448834,31.8281969],[131.4442982,31.8303956],[131.444197,31.8307482],[131.4435491,31.830903],[131.4437921,31.83172],[131.4441565,31.8319867]]]}}
