{"type":"Feature","id":"attraction-large-large-port-W533375086","properties":{"id":"attraction-large-large-port-W533375086","kind":"attraction","name":"葛西トラックターミナル","shortName":"葛西トラックターミナル","context":"東京都・江戸川区","subtype":"large-port","subtypeLabel":"港湾・埠頭","statusLabel":"","aliases":["Kasai Truck Terminal"],"osmType":"way","osmId":533375086,"osmDate":null,"officialAreaKm2":null,"areaSourceLabel":"","areaSourceUrl":"","boundarySourceLabel":"© OpenStreetMap contributors","boundarySourceUrl":"https://www.openstreetmap.org/copyright","geometryFile":"attractions/large-large-port-W533375086.geojson"},"geometry":{"type":"Polygon","coordinates":[[[139.862503,35.6481436],[139.8611967,35.6457711],[139.8670332,35.6436371],[139.8673286,35.6436669],[139.8681152,35.6443939],[139.8678013,35.644509],[139.8680651,35.6449882],[139.8684661,35.6448428],[139.8685715,35.6448032],[139.8686058,35.6448347],[139.8687471,35.6449646],[139.8693453,35.6455193],[139.8693117,35.645649],[139.862503,35.6481436]]]}}
