{"type":"Feature","id":"attraction-large-industrial-complex-W641965680","properties":{"id":"attraction-large-industrial-complex-W641965680","kind":"attraction","name":"ブリジストン 彦根工場","shortName":"ブリジストン 彦根工場","context":"日本","subtype":"industrial-complex","subtypeLabel":"工業地帯・大規模工場","statusLabel":"","aliases":["Bridgestone"],"osmType":"way","osmId":641965680,"osmDate":null,"officialAreaKm2":null,"areaSourceLabel":"","areaSourceUrl":"","boundarySourceLabel":"© OpenStreetMap contributors","boundarySourceUrl":"https://www.openstreetmap.org/copyright","geometryFile":"attractions/large-industrial-complex-W641965680.geojson"},"geometry":{"type":"Polygon","coordinates":[[[136.2716863,35.2429839],[136.2729335,35.2420528],[136.2737006,35.2413102],[136.2746045,35.2404077],[136.2748969,35.2400572],[136.2750846,35.2394745],[136.2751222,35.2393014],[136.2749854,35.239021],[136.2722737,35.2356078],[136.2712356,35.2342539],[136.2706348,35.2345409],[136.2700421,35.2344686],[136.2697604,35.2346],[136.2691462,35.2337828],[136.2661985,35.2352923],[136.2657452,35.2354172],[136.2651014,35.2357546],[136.2651175,35.2358334],[136.2677747,35.240855],[136.2685561,35.2408918],[136.269401,35.2404778],[136.2700206,35.2409137],[136.2716863,35.2429839]]]}}
