{"type":"Feature","id":"attraction-large-park-R8245025","properties":{"id":"attraction-large-park-R8245025","kind":"attraction","name":"向山緑地","shortName":"向山緑地","context":"日本","subtype":"large-park","subtypeLabel":"大型都市公園・広域公園","statusLabel":"著名な公園","aliases":[],"osmType":"relation","osmId":8245025,"osmDate":null,"officialAreaKm2":null,"areaSourceLabel":"","areaSourceUrl":"","boundarySourceLabel":"© OpenStreetMap contributors","boundarySourceUrl":"https://www.openstreetmap.org/copyright","geometryFile":"attractions/large-park-R8245025.geojson"},"geometry":{"type":"MultiPolygon","coordinates":[[[[137.4018792,34.7533924],[137.4019517,34.7534838],[137.4021931,34.753789],[137.4023572,34.7539995],[137.4024747,34.7541746],[137.402595,34.7543889],[137.4026428,34.7543991],[137.4033494,34.7535195],[137.4032404,34.7534271],[137.4025352,34.7528612],[137.4023803,34.7527171],[137.4023112,34.7526166],[137.4022885,34.7524833],[137.4023438,34.7523485],[137.4022791,34.7522061],[137.4020736,34.7518713],[137.4017745,34.7516763],[137.401551,34.7516802],[137.4013281,34.7520282],[137.4010648,34.7524109],[137.4015559,34.7530273],[137.4018792,34.7533924]]],[[[137.4027947,34.7547246],[137.402994,34.7549497],[137.403016,34.7549712],[137.403033,34.7549881],[137.4032246,34.7552093],[137.4032418,34.7552324],[137.4032602,34.755257],[137.403316,34.7553248],[137.4033312,34.7553432],[137.4033465,34.7553617],[137.4033611,34.7553873],[137.4034102,34.7553959],[137.4034662,34.7553642],[137.4035325,34.7553392],[137.4036442,34.7553091],[137.4037382,34.7553028],[137.4038738,34.7553104],[137.4040047,34.7553332],[137.4040753,34.7553635],[137.4041541,34.7554056],[137.4042358,34.7554623],[137.4043281,34.7555427],[137.404383,34.7556022],[137.4043983,34.7556188],[137.4044173,34.7556393],[137.4058191,34.7571434],[137.4061889,34.7569383],[137.4062126,34.756958],[137.4063309,34.7570495],[137.4070077,34.7575709],[137.4070301,34.7575733],[137.4070536,34.7575641],[137.4070966,34.7575062],[137.4071915,34.7573782],[137.4072181,34.7573423],[137.4072378,34.7573158],[137.4072558,34.7572915],[137.4077407,34.7566335],[137.4077635,34.7566056],[137.4077746,34.756592],[137.4078093,34.7565452],[137.4076818,34.7564071],[137.4077013,34.7563794],[137.4076571,34.7562878],[137.4074677,34.7560799],[137.407565,34.7560203],[137.4075073,34.755959],[137.4074304,34.7560152],[137.4073267,34.7559095],[137.4072333,34.7559771],[137.4071005,34.7558518],[137.4071028,34.7557255],[137.4070129,34.7556365],[137.4070218,34.7555914],[137.4069728,34.7554858],[137.4069429,34.7553918],[137.4069167,34.7553635],[137.406895,34.7553425],[137.4066962,34.7552107],[137.4063215,34.75486],[137.4062974,34.7548406],[137.4062797,34.754826],[137.4060821,34.7546958],[137.4060361,34.754597],[137.4060007,34.754549],[137.4059689,34.7545199],[137.4058928,34.7544647],[137.4057601,34.7544065],[137.4057017,34.7543934],[137.4054327,34.7543149],[137.4052911,34.754232],[137.4052504,34.7541942],[137.405158,34.75415],[137.4051142,34.7541128],[137.4050841,34.7540954],[137.4050434,34.7540561],[137.4049855,34.7540051],[137.4048989,34.7539403],[137.4049122,34.7538524],[137.4048133,34.7537348],[137.4047797,34.7536854],[137.4047272,34.7536456],[137.4047238,34.7536259],[137.4048044,34.7535122],[137.4047559,34.7534904],[137.4046784,34.7534649],[137.4046688,34.7534876],[137.4045857,34.7534709],[137.4045476,34.7534622],[137.4045164,34.7534555],[137.404192,34.7533873],[137.4040505,34.7533899],[137.4040289,34.7533896],[137.4039991,34.7533892],[137.4039433,34.7533851],[137.4038916,34.7533712],[137.4038091,34.7533392],[137.4037639,34.7533399],[137.4035595,34.7535565],[137.4035429,34.7535744],[137.4035221,34.7535968],[137.4033742,34.7537679],[137.4033363,34.753812],[137.4032999,34.7538542],[137.4030773,34.7541107],[137.4030613,34.7541344],[137.4030475,34.7541561],[137.4028192,34.7544548],[137.4028011,34.7544755],[137.4027862,34.754495],[137.4027605,34.7545293],[137.4027947,34.7547246]]],[[[137.4000987,34.7528066],[137.4001613,34.7528612],[137.4002713,34.7529295],[137.4004859,34.7530309],[137.4007004,34.7531124],[137.4008614,34.7531521],[137.4011457,34.7532028],[137.4012235,34.7532204],[137.4013039,34.7532513],[137.4014461,34.7533438],[137.4015051,34.7534166],[137.4001197,34.753908],[137.4001721,34.7539973],[137.3999065,34.7540953],[137.3995149,34.754417],[137.3993969,34.7545625],[137.3994277,34.7546275],[137.3993567,34.754654],[137.3992091,34.7546925],[137.3991125,34.7547846],[137.3991,34.7547956],[137.398717,34.7551256],[137.3981148,34.7556335],[137.3980637,34.7556337],[137.3976534,34.7554903],[137.3973142,34.7557856],[137.3968086,34.7552655],[137.3962252,34.7556434],[137.3961058,34.7555115],[137.3958725,34.7552545],[137.3962855,34.754882],[137.3960012,34.7545074],[137.3958403,34.7542936],[137.3957786,34.7541284],[137.3958725,34.7538882],[137.3958778,34.753551],[137.396062,34.7535137],[137.396354,34.7533475],[137.3965361,34.7533175],[137.3966577,34.7532265],[137.3965485,34.7531312],[137.3968275,34.7529243],[137.3967817,34.7528777],[137.3967565,34.7528384],[137.3969749,34.7526464],[137.3970866,34.7525282],[137.3971483,34.7524243],[137.396982,34.7522926],[137.3971232,34.7521634],[137.3973519,34.7523215],[137.3975408,34.7523075],[137.3977259,34.7522287],[137.3983277,34.7517978],[137.3983354,34.751853],[137.3982114,34.751994],[137.3980548,34.7521173],[137.397917,34.7522195],[137.3978211,34.7522904],[137.3979063,34.752368],[137.3986069,34.7527092],[137.3991206,34.7523984],[137.3994425,34.7521781],[137.399605,34.7520842],[137.3998902,34.7523278],[137.4000058,34.7525769],[137.4000987,34.7528066]]]]}}
