{"type":"Feature","id":"attraction-large-industrial-complex-R17464706","properties":{"id":"attraction-large-industrial-complex-R17464706","kind":"attraction","name":"新東海製紙株式会社","shortName":"新東海製紙株式会社","context":"日本","subtype":"industrial-complex","subtypeLabel":"工業地帯・大規模工場","statusLabel":"","aliases":[],"osmType":"relation","osmId":17464706,"osmDate":null,"officialAreaKm2":null,"areaSourceLabel":"","areaSourceUrl":"","boundarySourceLabel":"© OpenStreetMap contributors","boundarySourceUrl":"https://www.openstreetmap.org/copyright","geometryFile":"attractions/large-industrial-complex-R17464706.geojson"},"geometry":{"type":"MultiPolygon","coordinates":[[[[138.1589086,34.8270051],[138.1581737,34.827757],[138.1585398,34.828204],[138.1590897,34.8287522],[138.159712,34.8292278],[138.1602511,34.829558],[138.1615305,34.8301635],[138.1623378,34.8303462],[138.1632364,34.830442],[138.1638144,34.8304431],[138.1672007,34.8303286],[138.1654921,34.8270403],[138.1591943,34.82744],[138.1589086,34.8270051]]],[[[138.1589934,34.832941],[138.1604334,34.8331649],[138.1608351,34.8332372],[138.1613285,34.8332686],[138.1618769,34.8333059],[138.1624306,34.8332272],[138.1628714,34.8325315],[138.1631723,34.8322495],[138.1638214,34.8325268],[138.1638359,34.8326403],[138.1638761,34.8326745],[138.1641269,34.8327284],[138.1642798,34.8330113],[138.1645493,34.8329882],[138.1646338,34.8327031],[138.164324,34.8323552],[138.1641101,34.8324175],[138.1639216,34.8320831],[138.1647359,34.8318198],[138.1651042,34.8322501],[138.1659882,34.8316774],[138.1666249,34.8312076],[138.167299,34.8308628],[138.1673224,34.8305302],[138.165035,34.8305743],[138.1633099,34.8306529],[138.1622389,34.8304991],[138.1611946,34.8302354],[138.1597974,34.8297205],[138.1589314,34.8291603],[138.1581136,34.828446],[138.1574496,34.8277759],[138.156027,34.8289781],[138.1557987,34.8292705],[138.1550726,34.8298907],[138.1568807,34.8311173],[138.1587229,34.832364],[138.1591367,34.832489],[138.1590828,34.8326889],[138.1589934,34.832941]]]]}}
