{"type":"Feature","id":"attraction-large-park-W170681812","properties":{"id":"attraction-large-park-W170681812","kind":"attraction","name":"青葉公園","shortName":"青葉公園","context":"日本","subtype":"large-park","subtypeLabel":"大型都市公園・広域公園","statusLabel":"著名な公園","aliases":["Aoba Park"],"osmType":"way","osmId":170681812,"osmDate":null,"officialAreaKm2":null,"areaSourceLabel":"","areaSourceUrl":"","boundarySourceLabel":"© OpenStreetMap contributors","boundarySourceUrl":"https://www.openstreetmap.org/copyright","geometryFile":"attractions/large-park-W170681812.geojson"},"geometry":{"type":"Polygon","coordinates":[[[141.3195768,43.1954857],[141.3135043,43.1967626],[141.3134292,43.1968643],[141.3142506,43.1989176],[141.3168704,43.1983875],[141.3180694,43.1980766],[141.3182283,43.1979438],[141.3204485,43.1974919],[141.3196767,43.1955172],[141.3195768,43.1954857]]]}}
