{"type":"Feature","id":"attraction-large-military-base-R5810229","properties":{"id":"attraction-large-military-base-R5810229","kind":"attraction","name":"海上自衛隊幹部候補生学校・第1術科学校","shortName":"海上自衛隊幹部候補生学校・第1術科学校","context":"広島県・江田島市","subtype":"military-base","subtypeLabel":"基地・駐屯地・演習場","statusLabel":"","aliases":["MSDF Officer Candidate School","MSDF 1st Service School"],"osmType":"relation","osmId":5810229,"osmDate":null,"officialAreaKm2":null,"areaSourceLabel":"","areaSourceUrl":"","boundarySourceLabel":"© OpenStreetMap contributors","boundarySourceUrl":"https://www.openstreetmap.org/copyright","geometryFile":"attractions/large-military-base-R5810229.geojson"},"geometry":{"type":"Polygon","coordinates":[[[132.4652277,34.2478736],[132.4654233,34.2478991],[132.4657841,34.2479301],[132.4659464,34.2479451],[132.4659578,34.2479047],[132.4660135,34.2479096],[132.4660805,34.2478792],[132.4662186,34.2477805],[132.4665244,34.2476076],[132.466733,34.2474779],[132.4668771,34.2474357],[132.4672131,34.2474213],[132.4676027,34.2474335],[132.4681834,34.2473897],[132.4687386,34.2473071],[132.4689364,34.2473276],[132.4690471,34.2472999],[132.4692174,34.2473032],[132.4695037,34.2473648],[132.4697203,34.2474673],[132.4698303,34.2475427],[132.4699215,34.2475577],[132.4701387,34.2474906],[132.4706329,34.2476619],[132.4708253,34.2477672],[132.4710721,34.2478071],[132.471498,34.2477473],[132.4716273,34.2478249],[132.4720162,34.2481264],[132.4722362,34.2482306],[132.4732527,34.2484612],[132.4733348,34.2485877],[132.4734622,34.2487944],[132.4735849,34.2491109],[132.4736171,34.249148],[132.4736594,34.2491758],[132.4737076,34.2491885],[132.4741375,34.2491985],[132.4746451,34.2491685],[132.4746639,34.2491575],[132.4748141,34.2489856],[132.4749495,34.2489191],[132.4758936,34.2488975],[132.4759728,34.2488365],[132.4761441,34.2485831],[132.4762967,34.2485029],[132.4763054,34.2484363],[132.4761585,34.2481126],[132.4761176,34.2480694],[132.4760499,34.2480384],[132.4759755,34.2480483],[132.4759466,34.2479807],[132.4760073,34.2479313],[132.4760744,34.2478116],[132.4760988,34.247601],[132.4761733,34.2474885],[132.4762128,34.2474869],[132.476239,34.2474697],[132.476234,34.2473914],[132.4761455,34.2472484],[132.4761109,34.2470991],[132.4761632,34.2469893],[132.4761619,34.2467998],[132.4761176,34.2466183],[132.476179,34.2463793],[132.4762648,34.2463028],[132.476412,34.2460551],[132.4765689,34.2460607],[132.4766071,34.2460518],[132.4767285,34.2459304],[132.4768975,34.245727],[132.477104,34.2453872],[132.4771637,34.2453234],[132.4776489,34.2446975],[132.4776422,34.2446321],[132.4775939,34.244529],[132.4775362,34.2444736],[132.4770538,34.2441352],[132.4766736,34.2438725],[132.4765451,34.243763],[132.4764419,34.2436277],[132.4763922,34.243539],[132.4763547,34.2434437],[132.4763265,34.2432995],[132.4763413,34.2421843],[132.4762125,34.240621],[132.4761643,34.2404126],[132.4758652,34.2395423],[132.475782,34.2394015],[132.4756855,34.2392685],[132.4755272,34.2391177],[132.4744531,34.2382661],[132.4726198,34.2411698],[132.4729082,34.2420855],[132.471207,34.244218],[132.47096,34.244529],[132.4702193,34.2448205],[132.469102,34.246253],[132.4688393,34.2465666],[132.4681432,34.2466852],[132.4680882,34.2466708],[132.4678844,34.2465566],[132.4680078,34.246418],[132.4676926,34.2462306],[132.467635,34.2462927],[132.4674968,34.2462085],[132.4675826,34.2460411],[132.4675531,34.2460322],[132.4674204,34.2462883],[132.4666613,34.2461375],[132.4665929,34.2461397],[132.4665473,34.2461575],[132.4663797,34.2463182],[132.4665339,34.2464679],[132.4663207,34.2466697],[132.466149,34.2465743],[132.4661141,34.2465843],[132.4660162,34.2466774],[132.466035,34.246714],[132.4660954,34.246775],[132.4661731,34.2468215],[132.4660296,34.2469568],[132.4658553,34.2468359],[132.4657306,34.2469546],[132.4658969,34.247082],[132.465752,34.247143],[132.465681,34.2471829],[132.4655536,34.2472938],[132.4655026,34.2473669],[132.4654731,34.247449],[132.4654771,34.2475621],[132.4652907,34.2475621],[132.4651955,34.2478614],[132.4652277,34.2478736]]]}}
