{"type":"Feature","id":"attraction-large-industrial-complex-W217270516","properties":{"id":"attraction-large-industrial-complex-W217270516","kind":"attraction","name":"日新製鋼","shortName":"日新製鋼","context":"日本","subtype":"industrial-complex","subtypeLabel":"工業地帯・大規模工場","statusLabel":"","aliases":["NISSHIN STEEL Kure Works"],"osmType":"way","osmId":217270516,"osmDate":null,"officialAreaKm2":null,"areaSourceLabel":"","areaSourceUrl":"","boundarySourceLabel":"© OpenStreetMap contributors","boundarySourceUrl":"https://www.openstreetmap.org/copyright","geometryFile":"attractions/large-industrial-complex-W217270516.geojson"},"geometry":{"type":"Polygon","coordinates":[[[132.5409906,34.2266243],[132.540777,34.2267654],[132.5407737,34.2268358],[132.5404745,34.2270588],[132.5403873,34.2270503],[132.5381236,34.2286279],[132.5315856,34.2221708],[132.532018,34.2217668],[132.5319681,34.2217329],[132.5319787,34.2213871],[132.5319307,34.2213515],[132.533109,34.220208],[132.5342828,34.2190924],[132.5345761,34.2193091],[132.5408884,34.2132551],[132.5421452,34.2117463],[132.5427254,34.2120919],[132.5426578,34.212171],[132.5427415,34.2122217],[132.5420692,34.2130112],[132.5432098,34.214177],[132.5442698,34.2141931],[132.5442668,34.2144116],[132.5450047,34.2144271],[132.5452297,34.2151463],[132.5452584,34.2152693],[132.5452447,34.2155194],[132.5452334,34.2162996],[132.5452184,34.2163585],[132.5451635,34.2164702],[132.5447573,34.2172173],[132.5447136,34.2173403],[132.5445623,34.2182982],[132.5445636,34.2184925],[132.5446073,34.2187478],[132.5447161,34.2190278],[132.544871,34.2192872],[132.5450097,34.2194649],[132.5467019,34.2211349],[132.5467643,34.2212454],[132.5467906,34.2213715],[132.5467793,34.2214862],[132.5467206,34.2216009],[132.5466419,34.221697],[132.5439632,34.2236893],[132.5446002,34.224317],[132.5441255,34.2246396],[132.5442234,34.2247306],[132.5422934,34.226093],[132.5419804,34.2263139],[132.541473,34.2263005],[132.5409906,34.2266243]]]}}
