{"type":"Feature","id":"attraction-large-park-W738486715","properties":{"id":"attraction-large-park-W738486715","kind":"attraction","name":"上山公園","shortName":"上山公園","context":"日本","subtype":"large-park","subtypeLabel":"大型都市公園・広域公園","statusLabel":"","aliases":[],"osmType":"way","osmId":738486715,"osmDate":null,"officialAreaKm2":null,"areaSourceLabel":"","areaSourceUrl":"","boundarySourceLabel":"© OpenStreetMap contributors","boundarySourceUrl":"https://www.openstreetmap.org/copyright","geometryFile":"attractions/large-park-W738486715.geojson"},"geometry":{"type":"Polygon","coordinates":[[[130.0430658,32.8456125],[130.0427788,32.8454481],[130.0424141,32.8452475],[130.0420868,32.8450266],[130.0418043,32.8449884],[130.0415984,32.8449939],[130.041543,32.8449658],[130.04152,32.8449157],[130.0415771,32.8448234],[130.0415853,32.8447832],[130.0415644,32.8447388],[130.0414944,32.8446918],[130.0414245,32.8446733],[130.0413634,32.844594],[130.0411998,32.8443988],[130.041115,32.844315],[130.0410883,32.8442413],[130.0412056,32.8439818],[130.0412064,32.8438387],[130.0412137,32.8437326],[130.0412814,32.843681],[130.0413894,32.8436971],[130.0415831,32.8437278],[130.0417319,32.8436814],[130.0417699,32.8435652],[130.041681,32.8434804],[130.0415817,32.8433524],[130.0414485,32.843251],[130.0414616,32.8431531],[130.0415341,32.8428595],[130.0415494,32.8426867],[130.0413098,32.8427829],[130.0412174,32.8429361],[130.0409373,32.8430774],[130.0407454,32.8431883],[130.0406087,32.8432218],[130.0405199,32.8432082],[130.0403435,32.8431903],[130.0401864,32.8431384],[130.0400508,32.8430506],[130.040022,32.8429537],[130.0400198,32.8428666],[130.039965,32.8427987],[130.0397902,32.8427159],[130.0395927,32.8426337],[130.0391824,32.8427845],[130.0389963,32.8428424],[130.0388255,32.8429015],[130.0386234,32.8428428],[130.0383396,32.8427758],[130.0382005,32.8426635],[130.038048,32.8422724],[130.03809,32.8420836],[130.0381507,32.8419828],[130.0381151,32.8419045],[130.0380985,32.8418295],[130.0379856,32.841777],[130.0377486,32.8416785],[130.037561,32.8415814],[130.0374815,32.8414775],[130.0377032,32.8414962],[130.0381214,32.8415107],[130.0385729,32.8416086],[130.0389333,32.8416344],[130.039067,32.8415904],[130.0391657,32.8416346],[130.0392747,32.8417053],[130.0393604,32.8417403],[130.0395193,32.8416876],[130.0395647,32.8416193],[130.039616,32.8415475],[130.0396059,32.8413986],[130.0395716,32.8413784],[130.0395065,32.8412523],[130.0394957,32.841117],[130.0394893,32.841017],[130.039595,32.840815],[130.0399144,32.8403576],[130.0402336,32.8398438],[130.0406116,32.8391678],[130.0408463,32.8389018],[130.0410194,32.838735],[130.0411173,32.8386549],[130.0412178,32.8385479],[130.0413628,32.838504],[130.0415532,32.8384578],[130.0416661,32.8384149],[130.0417567,32.8383024],[130.0418188,32.8382032],[130.0418096,32.838066],[130.0417516,32.8377817],[130.0416926,32.8375518],[130.0416909,32.8373788],[130.0416893,32.837208],[130.0417845,32.8370859],[130.0419017,32.8369794],[130.0422291,32.8367405],[130.042465,32.8365512],[130.0427763,32.8363349],[130.0429425,32.8362831],[130.0430388,32.8362624],[130.0431839,32.8363147],[130.0432337,32.8363988],[130.0434521,32.8365266],[130.0436184,32.8365514],[130.0438114,32.8365583],[130.0439817,32.8365485],[130.0441116,32.8365197],[130.0445678,32.8362739],[130.0448361,32.8360575],[130.0450828,32.835751],[130.0452223,32.8354626],[130.0452974,32.8353093],[130.0456193,32.8352102],[130.0458875,32.835111],[130.0467994,32.8348586],[130.0472071,32.8347143],[130.0474432,32.8346603],[130.0478723,32.8346512],[130.0484195,32.8346603],[130.0486662,32.8346512],[130.0491276,32.8345431],[130.0493744,32.8343808],[130.0494709,32.8348315],[130.0494924,32.8350299],[130.0494173,32.8353634],[130.0492456,32.8355978],[130.0490954,32.8359133],[130.0488916,32.8362559],[130.0486555,32.8367607],[130.0485695,32.8373104],[130.0486981,32.8377519],[130.0488356,32.8379749],[130.0489085,32.838061],[130.048903,32.838136],[130.0488039,32.8381696],[130.0487401,32.8381768],[130.0486593,32.838192],[130.0485489,32.8382385],[130.0484586,32.838281],[130.0480654,32.8385275],[130.0480654,32.8389422],[130.0481191,32.8391766],[130.0483444,32.8393568],[130.0481513,32.8397174],[130.0480762,32.84006],[130.0482907,32.8402312],[130.0489023,32.8402492],[130.0490096,32.8405197],[130.0490309,32.8407894],[130.0488887,32.8410221],[130.0488501,32.8411675],[130.0488224,32.8413601],[130.048567,32.8414256],[130.0484436,32.8416599],[130.0486126,32.8421332],[130.048516,32.8424307],[130.0482586,32.84262],[130.0480762,32.8427371],[130.0476685,32.8426831],[130.0470569,32.8428002],[130.0468209,32.8428723],[130.0467565,32.8430436],[130.0468444,32.843157],[130.0469426,32.843205],[130.0469592,32.8432881],[130.0469336,32.8433487],[130.0469662,32.8434275],[130.0470759,32.8434846],[130.0470731,32.843582],[130.047069,32.8436752],[130.0471199,32.8437249],[130.047357,32.8437961],[130.0473732,32.8439022],[130.0471725,32.8439305],[130.0469601,32.8439471],[130.0467011,32.8439764],[130.0465795,32.8440095],[130.0464149,32.8440901],[130.0462386,32.8441576],[130.0460779,32.8442334],[130.0458961,32.8443308],[130.0457346,32.844425],[130.0455733,32.8444689],[130.0453725,32.8444633],[130.0451981,32.8445061],[130.0450747,32.8445421],[130.0449488,32.8446684],[130.0448711,32.8448139],[130.0447463,32.8449496],[130.0445947,32.845083],[130.0444069,32.8452092],[130.0441736,32.8453038],[130.0438651,32.8452903],[130.0435083,32.8454322],[130.0433259,32.8455246],[130.0432042,32.8455891],[130.0430658,32.8456125]]]}}
