{"type":"Feature","id":"attraction-large-industrial-complex-R10686502","properties":{"id":"attraction-large-industrial-complex-R10686502","kind":"attraction","name":"住友大阪セメント","shortName":"住友大阪セメント","context":"日本","subtype":"industrial-complex","subtypeLabel":"工業地帯・大規模工場","statusLabel":"","aliases":[],"osmType":"relation","osmId":10686502,"osmDate":null,"officialAreaKm2":null,"areaSourceLabel":"","areaSourceUrl":"","boundarySourceLabel":"© OpenStreetMap contributors","boundarySourceUrl":"https://www.openstreetmap.org/copyright","geometryFile":"attractions/large-industrial-complex-R10686502.geojson"},"geometry":{"type":"MultiPolygon","coordinates":[[[[134.3607874,34.7512229],[134.3607995,34.7513129],[134.364222,34.7518657],[134.3654515,34.7520628],[134.3684341,34.7525019],[134.3689681,34.7516116],[134.3690441,34.7516448],[134.3691843,34.7514019],[134.3691085,34.7513708],[134.370275,34.7494227],[134.3702266,34.7493972],[134.3701611,34.7493626],[134.3714569,34.7473704],[134.3711231,34.7465974],[134.3703985,34.7463574],[134.3696475,34.7468935],[134.3697385,34.7473049],[134.3689192,34.7474078],[134.3687257,34.7466411],[134.367235,34.7463761],[134.367144,34.7462515],[134.3671553,34.7461268],[134.3673767,34.7458992],[134.3670804,34.7456891],[134.3625977,34.7493831],[134.3626593,34.7494509],[134.3625814,34.7494672],[134.3624976,34.7494533],[134.3625599,34.7493975],[134.3623291,34.7492169],[134.362207,34.7493868],[134.3622338,34.7494153],[134.3621466,34.7494031],[134.3616537,34.7500123],[134.3617235,34.7501661],[134.3607874,34.7512229]]],[[[134.3663134,34.7523492],[134.3626666,34.7517817],[134.3605552,34.7516556],[134.3601194,34.7535861],[134.3606878,34.7542606],[134.3606878,34.7561655],[134.3608592,34.7563583],[134.3615719,34.7564398],[134.36408,34.7585374],[134.3648153,34.7585522],[134.3650228,34.756614],[134.3651626,34.7565843],[134.3656221,34.7525232],[134.366292,34.752497],[134.3663134,34.7523492]]]]}}
