{"type":"Feature","id":"attraction-large-park-W507226455","properties":{"id":"attraction-large-park-W507226455","kind":"attraction","name":"二ツ池公園","shortName":"二ツ池公園","context":"愛知県・大府市","subtype":"large-park","subtypeLabel":"大型都市公園・広域公園","statusLabel":"著名な公園","aliases":[],"osmType":"way","osmId":507226455,"osmDate":null,"officialAreaKm2":null,"areaSourceLabel":"","areaSourceUrl":"","boundarySourceLabel":"© OpenStreetMap contributors","boundarySourceUrl":"https://www.openstreetmap.org/copyright","geometryFile":"attractions/large-park-W507226455.geojson"},"geometry":{"type":"Polygon","coordinates":[[[136.9713739,35.0290139],[136.9716929,35.0292241],[136.9716274,35.0293616],[136.9717638,35.0294579],[136.9718683,35.0295643],[136.9720931,35.0294801],[136.972992,35.0294425],[136.9736786,35.0294818],[136.9739784,35.0297519],[136.9739858,35.0299218],[136.9740855,35.0300673],[136.9743295,35.0301828],[136.9745088,35.030408],[136.9745452,35.0305455],[136.9747014,35.03066],[136.9748741,35.0305433],[136.9753825,35.0300501],[136.9755649,35.029755],[136.9755813,35.0295525],[136.9756531,35.0293623],[136.9757931,35.029127],[136.9757598,35.0290058],[136.9747629,35.0286055],[136.9752126,35.027757],[136.9751463,35.0277092],[136.9752029,35.0276199],[136.9755413,35.0267903],[136.9756119,35.0266436],[136.9757353,35.0264964],[136.9753812,35.0263669],[136.9751881,35.0265118],[136.9746192,35.0260751],[136.9744781,35.0261202],[136.9736949,35.0264537],[136.9733959,35.0261694],[136.9729725,35.0262973],[136.9725874,35.0264269],[136.9724333,35.0267658],[136.9717207,35.0281442],[136.9713627,35.0288912],[136.9713739,35.0290139]]]}}
