{"type":"Feature","id":"attraction-large-park-W1118551398","properties":{"id":"attraction-large-park-W1118551398","kind":"attraction","name":"都立大戸緑地(段木入地区)","shortName":"都立大戸緑地(段木入地区)","context":"日本","subtype":"large-park","subtypeLabel":"大型都市公園・広域公園","statusLabel":"著名な公園","aliases":[],"osmType":"way","osmId":1118551398,"osmDate":null,"officialAreaKm2":null,"areaSourceLabel":"","areaSourceUrl":"","boundarySourceLabel":"© OpenStreetMap contributors","boundarySourceUrl":"https://www.openstreetmap.org/copyright","geometryFile":"attractions/large-park-W1118551398.geojson"},"geometry":{"type":"Polygon","coordinates":[[[139.2759083,35.6156234],[139.2758902,35.6157097],[139.2758873,35.6158037],[139.2759571,35.6159402],[139.2760029,35.6160703],[139.2761199,35.6162184],[139.2761927,35.6162973],[139.2762216,35.6164291],[139.2762871,35.6164698],[139.2764175,35.6164966],[139.2765181,35.6165291],[139.2766669,35.6166978],[139.2767216,35.6169039],[139.2767284,35.6170556],[139.2768491,35.6172519],[139.2768309,35.6174292],[139.2767922,35.6176172],[139.2768533,35.6176968],[139.2769718,35.6181259],[139.2770593,35.6184683],[139.2770848,35.6186941],[139.2771057,35.6187368],[139.2771536,35.6187753],[139.2772588,35.6187799],[139.27742,35.6188588],[139.2775393,35.6189991],[139.277664,35.6190756],[139.2778095,35.6192162],[139.277922,35.6193029],[139.2779929,35.6193626],[139.278128,35.6194242],[139.2782646,35.6194113],[139.2783432,35.6193476],[139.2786088,35.6192421],[139.2787347,35.6191005],[139.2788836,35.6190105],[139.2790065,35.6189918],[139.2791316,35.6190122],[139.2792215,35.6190836],[139.2792668,35.619135],[139.2792694,35.6190667],[139.2794077,35.6188033],[139.2793432,35.6186527],[139.2793419,35.6181922],[139.2794847,35.6177645],[139.2795668,35.6175898],[139.279685,35.6174168],[139.2798312,35.6172849],[139.2799715,35.6172139],[139.2804345,35.6171442],[139.2806042,35.6170603],[139.2808402,35.6169873],[139.2809325,35.6169465],[139.2810017,35.6169459],[139.2811043,35.6168926],[139.2811734,35.6168762],[139.2812887,35.6168154],[139.2813042,35.6167709],[139.2813573,35.6167086],[139.2815209,35.6163783],[139.2815268,35.6162876],[139.2814491,35.6162793],[139.2813782,35.616335],[139.2813223,35.6164194],[139.2812586,35.6164746],[139.2811787,35.6164718],[139.2811548,35.6164248],[139.2811521,35.6163288],[139.2810913,35.6162164],[139.2809675,35.6158817],[139.2808987,35.615597],[139.2808237,35.6154943],[139.2807395,35.6154137],[139.2806323,35.61536],[139.2805556,35.6153464],[139.2803993,35.6153656],[139.2802695,35.6154083],[139.2799013,35.6154864],[139.2798683,35.6154209],[139.2796983,35.6154147],[139.2795519,35.6154449],[139.2794638,35.6152719],[139.27987,35.6151886],[139.2802145,35.6150878],[139.2804173,35.6150684],[139.2806371,35.6150249],[139.2808294,35.6148818],[139.280926,35.6147683],[139.2807532,35.6147431],[139.2806368,35.6147929],[139.280552,35.6148112],[139.2804705,35.6147876],[139.2799627,35.6149083],[139.2795748,35.6150269],[139.2791064,35.6152755],[139.2786061,35.6154775],[139.278158,35.6156165],[139.2778534,35.6155925],[139.2777246,35.615615],[139.2775923,35.6156844],[139.2774646,35.6157121],[139.2773075,35.615721],[139.2771232,35.6157053],[139.27677,35.6156447],[139.2759083,35.6156234]]]}}
