{"type":"Feature","id":"attraction-large-park-W1254078950","properties":{"id":"attraction-large-park-W1254078950","kind":"attraction","name":"東山森林公園","shortName":"東山森林公園","context":"日本","subtype":"large-park","subtypeLabel":"大型都市公園・広域公園","statusLabel":"","aliases":["Higashiyama Forest Park"],"osmType":"way","osmId":1254078950,"osmDate":null,"officialAreaKm2":null,"areaSourceLabel":"","areaSourceUrl":"","boundarySourceLabel":"© OpenStreetMap contributors","boundarySourceUrl":"https://www.openstreetmap.org/copyright","geometryFile":"attractions/large-park-W1254078950.geojson"},"geometry":{"type":"Polygon","coordinates":[[[133.952584,33.4938106],[133.952356,33.4936003],[133.9522326,33.4933744],[133.9520127,33.4930031],[133.9515138,33.4928375],[133.9509559,33.4930299],[133.9495504,33.4932894],[133.9490569,33.4931641],[133.9485365,33.4933654],[133.9481234,33.4933878],[133.9477855,33.4931999],[133.947646,33.4929807],[133.9475226,33.4929583],[133.9466134,33.4932245],[133.9460689,33.49322],[133.9455083,33.4933699],[133.9451918,33.4933822],[133.9447144,33.4934426],[133.9446232,33.4933945],[133.944194,33.49339],[133.9440653,33.4935656],[133.9440036,33.4935679],[133.943738,33.4933923],[133.9434323,33.4933173],[133.9428663,33.4933352],[133.942633,33.4933363],[133.9425096,33.4933498],[133.9424023,33.4934124],[133.9422829,33.4934281],[133.942185,33.4934046],[133.9418162,33.4932167],[133.9412731,33.4924886],[133.9412329,33.4923544],[133.9411215,33.4922571],[133.9410418,33.4921581],[133.9410639,33.4920692],[133.9410813,33.492053],[133.9410766,33.4920306],[133.9406347,33.4910033],[133.9406455,33.4905939],[133.941139,33.4901331],[133.9417934,33.4899139],[133.9418256,33.4897216],[133.9414796,33.4895896],[133.9413321,33.4892585],[133.9412704,33.4888245],[133.9416647,33.4884957],[133.9418605,33.4883861],[133.9418685,33.488196],[133.9408359,33.4876949],[133.9407501,33.4873906],[133.940734,33.4871535],[133.9408922,33.4866793],[133.9410746,33.4865451],[133.9413066,33.486205],[133.9414488,33.4858315],[133.9416768,33.4855742],[133.9420925,33.4853785],[133.9425766,33.4853505],[133.942692,33.4852476],[133.942759,33.4849064],[133.9428234,33.4847946],[133.9429428,33.4847342],[133.9430413,33.4846615],[133.9430682,33.4846106],[133.9431895,33.4846056],[133.9434162,33.484761],[133.9435905,33.4846827],[133.9437273,33.4844109],[133.9438695,33.4841705],[133.944257,33.4840396],[133.9445749,33.484034],[133.9449289,33.4840083],[133.9451838,33.4839837],[133.9454547,33.4840396],[133.9459643,33.484449],[133.9461601,33.4847219],[133.9463907,33.4848628],[133.9470452,33.4856838],[133.9473161,33.486299],[133.9477292,33.4869925],[133.9479732,33.4870618],[133.9482924,33.4867576],[133.9489067,33.4866949],[133.9493465,33.4867598],[133.9496362,33.4869231],[133.9502531,33.4869007],[133.9504302,33.4870372],[133.9507064,33.4873884],[133.9515969,33.4886724],[133.9516184,33.4890505],[133.951849,33.489433],[133.9520931,33.4902003],[133.9519858,33.4907528],[133.9522836,33.4912695],[133.9528254,33.4919249],[133.9533296,33.492332],[133.9537239,33.4931149],[133.9535898,33.4935578],[133.9533216,33.4937591],[133.9531767,33.4937546],[133.9528441,33.4938038],[133.952584,33.4938106]]]}}
