{"type":"Feature","id":"attraction-large-industrial-complex-W938350281","properties":{"id":"attraction-large-industrial-complex-W938350281","kind":"attraction","name":"TBK十勝試験場","shortName":"TBK十勝試験場","context":"北海道・帯広市","subtype":"industrial-complex","subtypeLabel":"工業地帯・大規模工場","statusLabel":"","aliases":["TBK Tokachi Proving Ground","TBK"],"osmType":"way","osmId":938350281,"osmDate":null,"officialAreaKm2":null,"areaSourceLabel":"","areaSourceUrl":"","boundarySourceLabel":"© OpenStreetMap contributors","boundarySourceUrl":"https://www.openstreetmap.org/copyright","geometryFile":"attractions/large-industrial-complex-W938350281.geojson"},"geometry":{"type":"Polygon","coordinates":[[[143.001979,42.6558426],[143.0029929,42.6561622],[143.0041087,42.6560754],[143.0051333,42.6565685],[143.0054444,42.6569906],[143.004806,42.6574996],[143.0046612,42.6583044],[143.0039638,42.6584267],[143.0030358,42.6589474],[143.0026039,42.6590579],[143.0020219,42.6590519],[143.0014372,42.6589573],[143.0002248,42.6583162],[142.9909176,42.6531342],[142.9816639,42.6478846],[142.9811329,42.647494],[142.9809451,42.6470797],[142.9810256,42.6467167],[142.9813206,42.6464326],[142.9821306,42.6461919],[142.9827851,42.6462077],[142.9838151,42.6465865],[142.9844481,42.6469219],[142.9849684,42.6468666],[142.9863256,42.6473599],[142.9884982,42.648366],[142.9898608,42.6486856],[142.9914325,42.6492341],[142.9922533,42.6499995],[142.9946834,42.651341],[142.9961318,42.650978],[142.9976231,42.6517237],[142.9988515,42.6530217],[142.9994416,42.6534084],[142.9997903,42.6538779],[142.9991519,42.6544933],[143.001979,42.6558426]]]}}
