{"type":"Feature","id":"attraction-large-industrial-complex-W528287675","properties":{"id":"attraction-large-industrial-complex-W528287675","kind":"attraction","name":"YKK AP　東北製造所","shortName":"YKK AP　東北製造所","context":"宮城県・大崎市","subtype":"industrial-complex","subtypeLabel":"工業地帯・大規模工場","statusLabel":"","aliases":[],"osmType":"way","osmId":528287675,"osmDate":null,"officialAreaKm2":null,"areaSourceLabel":"","areaSourceUrl":"","boundarySourceLabel":"© OpenStreetMap contributors","boundarySourceUrl":"https://www.openstreetmap.org/copyright","geometryFile":"attractions/large-industrial-complex-W528287675.geojson"},"geometry":{"type":"Polygon","coordinates":[[[140.9482017,38.5387522],[140.9473635,38.5374366],[140.9458986,38.5348907],[140.9460515,38.5348073],[140.9606138,38.5354686],[140.9602894,38.5399249],[140.9611203,38.5399468],[140.9611619,38.5417012],[140.960135,38.5419675],[140.9511068,38.5409045],[140.9511584,38.5393882],[140.9498606,38.5391776],[140.9482017,38.5387522]]]}}
