{"type":"Feature","id":"attraction-large-park-W99809552","properties":{"id":"attraction-large-park-W99809552","kind":"attraction","name":"寝屋川公園","shortName":"寝屋川公園","context":"日本","subtype":"large-park","subtypeLabel":"大型都市公園・広域公園","statusLabel":"著名な公園","aliases":["Neyagawa Park"],"osmType":"way","osmId":99809552,"osmDate":null,"officialAreaKm2":null,"areaSourceLabel":"","areaSourceUrl":"","boundarySourceLabel":"© OpenStreetMap contributors","boundarySourceUrl":"https://www.openstreetmap.org/copyright","geometryFile":"attractions/large-park-W99809552.geojson"},"geometry":{"type":"Polygon","coordinates":[[[135.6543077,34.7637778],[135.6534599,34.7628392],[135.6531928,34.762557],[135.653508,34.7624565],[135.6540943,34.7623331],[135.6542558,34.7621989],[135.6551253,34.7610747],[135.6545156,34.7604726],[135.6542484,34.7602071],[135.6539708,34.7598942],[135.6537588,34.7595823],[135.6535551,34.7592728],[135.6533277,34.7588347],[135.6532198,34.7585379],[135.6531425,34.7582664],[135.6530911,34.7579914],[135.6530613,34.757645],[135.653045,34.7563676],[135.6528977,34.7564148],[135.652909,34.7567917],[135.6526645,34.7568572],[135.6526244,34.7572862],[135.6524795,34.7573314],[135.6522986,34.757985],[135.6521127,34.7591022],[135.6512708,34.7590719],[135.6506513,34.759128],[135.6502735,34.7592335],[135.6497848,34.7594587],[135.6491966,34.7599814],[135.6489741,34.7603086],[135.6490163,34.7604309],[135.6501426,34.7617628],[135.6513374,34.7631214],[135.6515564,34.7633775],[135.6532718,34.7652275],[135.6541723,34.7659433],[135.6548059,34.7654999],[135.6565289,34.7639911],[135.6558978,34.7636741],[135.6551935,34.7638243],[135.654509,34.7639683],[135.6543077,34.7637778]]]}}
