{"type":"Feature","id":"attraction-large-airport-W57015147","properties":{"id":"attraction-large-airport-W57015147","kind":"attraction","name":"長崎空港","shortName":"長崎空港","context":"長崎県・大村市","subtype":"airport","subtypeLabel":"空港・飛行場","statusLabel":"","aliases":["Nagasaki Airport","長崎空港ビルディング"],"osmType":"way","osmId":57015147,"osmDate":null,"officialAreaKm2":null,"areaSourceLabel":"","areaSourceUrl":"","boundarySourceLabel":"© OpenStreetMap contributors","boundarySourceUrl":"https://www.openstreetmap.org/copyright","geometryFile":"attractions/large-airport-W57015147.geojson"},"geometry":{"type":"Polygon","coordinates":[[[129.9211588,32.9068417],[129.921832,32.9057631],[129.9218629,32.905722],[129.9218997,32.9056854],[129.9219406,32.9056572],[129.9219815,32.9056381],[129.9233783,32.9050881],[129.9234252,32.9050745],[129.9234749,32.9050684],[129.9235547,32.9050684],[129.9236244,32.9050836],[129.9236881,32.9051083],[129.9237283,32.9051308],[129.9250643,32.9061437],[129.9267831,32.9074521],[129.9268121,32.907491],[129.9268382,32.9075321],[129.9268598,32.9075921],[129.9268638,32.9076293],[129.9268605,32.907685],[129.9268531,32.9077329],[129.9268404,32.9077723],[129.9268015,32.9078275],[129.9267753,32.9078584],[129.9236156,32.9108179],[129.9236381,32.9112647],[129.9258966,32.9129804],[129.9258557,32.9130628],[129.9257859,32.9131215],[129.9211688,32.9174428],[129.9201777,32.9183743],[129.9189456,32.91953],[129.9173868,32.9209927],[129.9149759,32.9191537],[129.9145811,32.9191706],[129.9039926,32.9290822],[129.9036969,32.9290946],[129.9031068,32.9286517],[129.9027876,32.9286201],[129.9018574,32.9290202],[129.9015638,32.9293003],[129.9001303,32.9282126],[129.9004189,32.9279453],[129.9008814,32.9269607],[129.9006533,32.926786],[129.9071574,32.9207011],[129.907271,32.92059],[129.9084548,32.9195003],[129.9119087,32.9162683],[129.9153893,32.9130048],[129.9171,32.9114067],[129.9203151,32.9083294],[129.9211588,32.9068417]]]}}
