{"type":"Feature","id":"attraction-large-park-W663060115","properties":{"id":"attraction-large-park-W663060115","kind":"attraction","name":"とらまる公園","shortName":"とらまる公園","context":"日本","subtype":"large-park","subtypeLabel":"大型都市公園・広域公園","statusLabel":"著名な公園","aliases":[],"osmType":"way","osmId":663060115,"osmDate":null,"officialAreaKm2":null,"areaSourceLabel":"","areaSourceUrl":"","boundarySourceLabel":"© OpenStreetMap contributors","boundarySourceUrl":"https://www.openstreetmap.org/copyright","geometryFile":"attractions/large-park-W663060115.geojson"},"geometry":{"type":"Polygon","coordinates":[[[134.3161424,34.2426225],[134.3166279,34.2427023],[134.31677,34.2428398],[134.3171375,34.2426602],[134.3177571,34.2427289],[134.3177705,34.2426336],[134.3180655,34.2426668],[134.3182318,34.2425914],[134.3183847,34.2425316],[134.318543,34.2425161],[134.3183659,34.2421879],[134.318138,34.2418376],[134.3182372,34.2415759],[134.3183713,34.2415005],[134.3184276,34.2413963],[134.3184249,34.2410837],[134.3183338,34.2410792],[134.3182452,34.240944],[134.3182667,34.2407001],[134.3181406,34.2406247],[134.3178966,34.2405759],[134.3178241,34.240454],[134.3180387,34.2403276],[134.3181433,34.2402433],[134.3181648,34.2400947],[134.3187146,34.2398109],[134.3186395,34.239465],[134.3182479,34.2396069],[134.3179609,34.2395626],[134.3175881,34.2393874],[134.317344,34.239312],[134.3169336,34.2393054],[134.3156514,34.2393373],[134.3156419,34.2388269],[134.3155887,34.2385929],[134.3155694,34.2385375],[134.3154477,34.2384694],[134.3151714,34.2385093],[134.3140878,34.2388419],[134.3138706,34.2389838],[134.3137204,34.2392521],[134.3138491,34.2394938],[134.3135246,34.2398952],[134.3133878,34.2400127],[134.3135031,34.2403387],[134.3134065,34.2405582],[134.3136184,34.240669],[134.313774,34.2405737],[134.3137794,34.2404983],[134.314002,34.2405116],[134.31412,34.2409706],[134.3143829,34.241332],[134.3147745,34.2415338],[134.3149381,34.2413852],[134.3149569,34.2412189],[134.3150829,34.2412211],[134.3151231,34.2413121],[134.3150776,34.2413564],[134.3152009,34.2416092],[134.3154665,34.2416602],[134.315614,34.242077],[134.3156167,34.2422256],[134.3157669,34.2423808],[134.3158876,34.2423719],[134.3158849,34.2425604],[134.3159493,34.2427023],[134.3161022,34.2426779],[134.3161424,34.2426225]]]}}
