{"type":"Feature","id":"attraction-large-park-W670138186","properties":{"id":"attraction-large-park-W670138186","kind":"attraction","name":"和賀川グリーンバーク","shortName":"和賀川グリーンバーク","context":"日本","subtype":"large-park","subtypeLabel":"大型都市公園・広域公園","statusLabel":"","aliases":[],"osmType":"way","osmId":670138186,"osmDate":null,"officialAreaKm2":null,"areaSourceLabel":"","areaSourceUrl":"","boundarySourceLabel":"© OpenStreetMap contributors","boundarySourceUrl":"https://www.openstreetmap.org/copyright","geometryFile":"attractions/large-park-W670138186.geojson"},"geometry":{"type":"Polygon","coordinates":[[[141.0690932,39.2918679],[141.0690158,39.291389],[141.070091,39.2911556],[141.0707484,39.290952],[141.0712198,39.2905376],[141.0722954,39.2902217],[141.0729837,39.2898446],[141.0737882,39.2895393],[141.0745539,39.2892519],[141.0755053,39.2885635],[141.0770986,39.2879648],[141.0782898,39.2876116],[141.0802776,39.2874081],[141.0815384,39.2872345],[141.0819174,39.2871926],[141.0832246,39.2871447],[141.0852975,39.2865341],[141.0870378,39.2860551],[141.0882135,39.2858396],[141.0886621,39.2857199],[141.0903715,39.2850913],[141.0919928,39.2846197],[141.093388,39.2847141],[141.0942853,39.2849236],[141.0958632,39.2843908],[141.0989648,39.2829899],[141.1009758,39.2823313],[141.1018112,39.2821697],[141.1022446,39.2821343],[141.1025048,39.2822227],[141.1027033,39.2831889],[141.1004421,39.2836185],[141.0982919,39.2849057],[141.0966676,39.2858456],[141.0959946,39.286127],[141.0942466,39.2863006],[141.0935041,39.2863784],[141.0927383,39.2864622],[141.0910289,39.2869052],[141.0886873,39.2875409],[141.0877339,39.2877912],[141.0836067,39.2887879],[141.0826384,39.2892922],[141.0810666,39.2896051],[141.0789937,39.2898925],[141.0771141,39.2901618],[141.0762401,39.2902636],[141.0735793,39.2908084],[141.0713302,39.2913021],[141.0706865,39.2914609],[141.0698589,39.2917302],[141.069186,39.2919398],[141.0690932,39.2918679]]]}}
