{"type":"Feature","id":"attraction-large-park-R10968815","properties":{"id":"attraction-large-park-R10968815","kind":"attraction","name":"所沢航空記念公園","shortName":"所沢航空記念公園","context":"日本","subtype":"large-park","subtypeLabel":"大型都市公園・広域公園","statusLabel":"","aliases":["Tokorozawa Aviation Memorial Park"],"osmType":"relation","osmId":10968815,"osmDate":null,"officialAreaKm2":null,"areaSourceLabel":"","areaSourceUrl":"","boundarySourceLabel":"© OpenStreetMap contributors","boundarySourceUrl":"https://www.openstreetmap.org/copyright","geometryFile":"attractions/large-park-R10968815.geojson"},"geometry":{"type":"Polygon","coordinates":[[[139.4687926,35.7975713],[139.4679316,35.798336],[139.467144,35.7990241],[139.4670052,35.7990266],[139.4668394,35.7989029],[139.4668265,35.7988713],[139.4668228,35.7988428],[139.4668179,35.7987579],[139.4668138,35.7986992],[139.4668217,35.7986375],[139.466865,35.7985977],[139.4667868,35.798535],[139.466325,35.7981753],[139.4663554,35.7981481],[139.4661594,35.7979943],[139.466159,35.7979471],[139.4679979,35.7963346],[139.4690083,35.7954653],[139.469953,35.7945871],[139.4710476,35.7948645],[139.4711054,35.794936],[139.4709816,35.7953274],[139.4709733,35.7953797],[139.4709009,35.7955292],[139.4708002,35.795695],[139.4706987,35.7958363],[139.4705871,35.7959721],[139.4703831,35.7961725],[139.4688777,35.7974914],[139.4692872,35.7975664],[139.4699862,35.7969503],[139.4704118,35.7965725],[139.4707557,35.79626],[139.4709212,35.7960865],[139.4709853,35.7960002],[139.4710958,35.7958475],[139.4711838,35.7957093],[139.4712615,35.7955571],[139.4713191,35.7954151],[139.471443,35.7950266],[139.4715613,35.7949759],[139.472209,35.7951279],[139.4729845,35.7952966],[139.473797,35.7954508],[139.4740029,35.7954899],[139.4764313,35.7959326],[139.4775671,35.7959257],[139.4780794,35.7959714],[139.478361,35.7959975],[139.4785085,35.7960215],[139.4786829,35.7960761],[139.4788599,35.7961716],[139.4789405,35.7962619],[139.4796571,35.7975595],[139.4797115,35.7976955],[139.4797517,35.7977826],[139.4797854,35.7978877],[139.4798161,35.7980175],[139.4798282,35.798061],[139.4798335,35.7981285],[139.4798389,35.7982688],[139.4798282,35.7984439],[139.479802,35.7986526],[139.4797705,35.7989356],[139.4797786,35.7991651],[139.4798134,35.7997067],[139.4781329,35.7995023],[139.4769024,35.8001403],[139.4766124,35.8002693],[139.4765175,35.8003246],[139.476478,35.8003518],[139.4762067,35.8014425],[139.4744574,35.8011305],[139.4748116,35.8000199],[139.4736455,35.799805],[139.4724043,35.7995803],[139.4723666,35.7995834],[139.4720163,35.7995232],[139.4715822,35.7994461],[139.4707176,35.7992967],[139.4699808,35.7991693],[139.4698767,35.7991487],[139.4697266,35.7991178],[139.469545,35.7990732],[139.4693222,35.7989992],[139.4690763,35.7989008],[139.4688652,35.7987995],[139.4688162,35.7987692],[139.4686533,35.7986751],[139.4685419,35.798602],[139.4683606,35.7984681],[139.4683523,35.7983758],[139.4691976,35.7976433],[139.4687926,35.7975713]]]}}
