{"type":"Feature","id":"attraction-large-park-R15426497","properties":{"id":"attraction-large-park-R15426497","kind":"attraction","name":"舞鶴公園","shortName":"舞鶴公園","context":"福岡県・福岡市","subtype":"large-park","subtypeLabel":"大型都市公園・広域公園","statusLabel":"著名な公園","aliases":["Maizuru Park"],"osmType":"relation","osmId":15426497,"osmDate":null,"officialAreaKm2":null,"areaSourceLabel":"","areaSourceUrl":"","boundarySourceLabel":"© OpenStreetMap contributors","boundarySourceUrl":"https://www.openstreetmap.org/copyright","geometryFile":"attractions/large-park-R15426497.geojson"},"geometry":{"type":"MultiPolygon","coordinates":[[[[130.3891141,33.5886557],[130.3893898,33.5866892],[130.386558,33.5862733],[130.3866062,33.5853815],[130.3852105,33.5851745],[130.3850934,33.5840245],[130.3842149,33.5836126],[130.3842136,33.583519],[130.3832155,33.5831062],[130.382907,33.5828721],[130.3828506,33.5828065],[130.3824743,33.582742],[130.3824625,33.582725],[130.3823048,33.5826978],[130.382289,33.5827698],[130.3819933,33.582757],[130.3819917,33.5826233],[130.3816835,33.5825885],[130.381083,33.5825226],[130.3810333,33.5825693],[130.3809961,33.5828473],[130.3809996,33.5829178],[130.3810215,33.5829988],[130.3813016,33.5836391],[130.3813789,33.583877],[130.3814906,33.5842935],[130.3816522,33.5855815],[130.3818771,33.5861055],[130.3817893,33.5866898],[130.3816236,33.5876236],[130.3816186,33.5878805],[130.381663,33.588349],[130.3817442,33.5889122],[130.3817606,33.5889643],[130.3818278,33.5890434],[130.3835441,33.5887376],[130.3856702,33.5884797],[130.3858459,33.5884607],[130.3869391,33.5884026],[130.3870493,33.5884018],[130.387165,33.5884056],[130.3879688,33.5885052],[130.3891141,33.5886557]]],[[[130.3815733,33.5891114],[130.3815968,33.5889761],[130.3814825,33.5882402],[130.3814797,33.5878805],[130.381472,33.5877455],[130.3814713,33.5876673],[130.381515,33.5873949],[130.3816894,33.5861339],[130.3816914,33.5860742],[130.3816565,33.5859792],[130.3815338,33.5857457],[130.3814962,33.5856535],[130.3814352,33.5851536],[130.3813306,33.5842899],[130.3812803,33.5840637],[130.381169,33.5837246],[130.3810627,33.583491],[130.3808851,33.5830982],[130.3802295,33.5830455],[130.380205,33.5832565],[130.3804097,33.583493],[130.3798876,33.5853007],[130.3792661,33.585774],[130.3788071,33.5867834],[130.3783926,33.5872491],[130.3782726,33.5879566],[130.3782785,33.5880734],[130.3786773,33.589862],[130.3795098,33.5897218],[130.3800587,33.5896149],[130.3815354,33.5891283],[130.3815733,33.5891114]]]]}}
