{"type":"Feature","id":"attraction-large-industrial-complex-W619500792","properties":{"id":"attraction-large-industrial-complex-W619500792","kind":"attraction","name":"JXTGエネルギー株式会社","shortName":"JXTGエネルギー株式会社","context":"日本","subtype":"industrial-complex","subtypeLabel":"工業地帯・大規模工場","statusLabel":"","aliases":[],"osmType":"way","osmId":619500792,"osmDate":null,"officialAreaKm2":null,"areaSourceLabel":"","areaSourceUrl":"","boundarySourceLabel":"© OpenStreetMap contributors","boundarySourceUrl":"https://www.openstreetmap.org/copyright","geometryFile":"attractions/large-industrial-complex-W619500792.geojson"},"geometry":{"type":"Polygon","coordinates":[[[135.4367938,34.5454016],[135.4384948,34.5480335],[135.4391192,34.548972],[135.4396489,34.5492742],[135.4403239,34.5503111],[135.4403946,34.5543408],[135.4403987,34.5546545],[135.4387283,34.5550825],[135.4386542,34.5551015],[135.4374659,34.5554059],[135.4370047,34.5555241],[135.4370168,34.5555472],[135.4367918,34.5556067],[135.4367293,34.555587],[135.4366231,34.555413],[135.4366459,34.5554049],[135.43548,34.5536353],[135.4354682,34.5536176],[135.4348867,34.5527349],[135.4321341,34.5534648],[135.4320534,34.5534862],[135.4306266,34.5538646],[135.4302796,34.5533324],[135.4302539,34.553293],[135.4298954,34.552743],[135.4298699,34.552704],[135.4294908,34.5521224],[135.4294619,34.552078],[135.4291888,34.5516592],[135.429169,34.5516289],[135.428904,34.5512223],[135.4288736,34.5511757],[135.4281222,34.5500231],[135.4280784,34.5499559],[135.4277651,34.5494753],[135.4367938,34.5454016]]]}}
