{"type":"Feature","id":"attraction-large-industrial-complex-W591685686","properties":{"id":"attraction-large-industrial-complex-W591685686","kind":"attraction","name":"株式会社中山製鋼所","shortName":"株式会社中山製鋼所","context":"日本","subtype":"industrial-complex","subtypeLabel":"工業地帯・大規模工場","statusLabel":"","aliases":[],"osmType":"way","osmId":591685686,"osmDate":null,"officialAreaKm2":null,"areaSourceLabel":"","areaSourceUrl":"","boundarySourceLabel":"© OpenStreetMap contributors","boundarySourceUrl":"https://www.openstreetmap.org/copyright","geometryFile":"attractions/large-industrial-complex-W591685686.geojson"},"geometry":{"type":"Polygon","coordinates":[[[135.4633757,34.6283134],[135.4633373,34.6283744],[135.4633093,34.6284391],[135.4632923,34.6285064],[135.4632866,34.6285749],[135.4632923,34.6286434],[135.4633092,34.6287106],[135.4633372,34.6287753],[135.4633756,34.6288363],[135.4634237,34.6288924],[135.4634806,34.6289426],[135.4635454,34.628986],[135.4636167,34.6290217],[135.4637124,34.629056],[135.4636571,34.6291497],[135.4632669,34.6292135],[135.4632357,34.6291991],[135.4632047,34.6290993],[135.462951,34.6282839],[135.4626398,34.6272834],[135.4629172,34.6272249],[135.4629294,34.6272223],[135.4629396,34.6269254],[135.4627262,34.6268903],[135.4626631,34.626902],[135.462533,34.6268894],[135.4625005,34.6270517],[135.4625707,34.6273001],[135.463153,34.6292036],[135.4631246,34.6292387],[135.4620218,34.6294093],[135.4619344,34.6294235],[135.4615008,34.6294925],[135.4592954,34.6298364],[135.458047,34.6300257],[135.4574512,34.6301277],[135.457261,34.6302346],[135.4571396,34.6301557],[135.4534087,34.6307553],[135.4536742,34.6292282],[135.4535743,34.6292226],[135.4517578,34.6300271],[135.4517323,34.6299852],[135.4503556,34.6305844],[135.4483786,34.6310024],[135.4483335,34.631001],[135.4481514,34.630703],[135.4485847,34.6284827],[135.4489743,34.6283023],[135.4499325,34.6278813],[135.4514547,34.6272225],[135.4540276,34.6261189],[135.4543944,34.6261493],[135.454442,34.6261117],[135.4548845,34.6260395],[135.4550656,34.626008],[135.4557174,34.6259451],[135.4567098,34.625875],[135.4577867,34.6259495],[135.4578048,34.625891],[135.4587288,34.6260428],[135.459215,34.6261288],[135.46043,34.6263496],[135.4609678,34.6264441],[135.4618917,34.6266247],[135.4618769,34.6266837],[135.4625579,34.6267971],[135.4626225,34.6268079],[135.4626371,34.6267532],[135.4630371,34.6268175],[135.4637573,34.6269411],[135.4645687,34.6270685],[135.465781,34.6272484],[135.4657928,34.6272095],[135.4662863,34.6272583],[135.466357,34.627276],[135.4666641,34.6273444],[135.46682,34.6274012],[135.4670058,34.627447],[135.467211,34.6274697],[135.4682148,34.6277381],[135.4682131,34.6277569],[135.4692243,34.6280145],[135.4692136,34.6280548],[135.4694915,34.6282013],[135.4699019,34.6284195],[135.4707525,34.6289029],[135.4716551,34.6294116],[135.4719719,34.6295824],[135.4719749,34.6299482],[135.4719903,34.6299485],[135.4719826,34.630143],[135.4719662,34.630188],[135.471933,34.6302591],[135.4719008,34.6303033],[135.4718711,34.630346],[135.471832,34.6303893],[135.4717812,34.6304296],[135.4716802,34.630469],[135.4682577,34.6309998],[135.4682594,34.6310209],[135.4680679,34.6310444],[135.4680691,34.6310512],[135.4679629,34.631067],[135.467961,34.6310318],[135.467672,34.6297744],[135.467393,34.6285688],[135.4659869,34.6287923],[135.4641982,34.6290681],[135.4641144,34.6290361],[135.4641774,34.6290135],[135.4642284,34.6289887],[135.4642455,34.6290105],[135.464276,34.6289909],[135.4642589,34.6289719],[135.4642843,34.6289567],[135.4643165,34.6289341],[135.4643668,34.628893],[135.4644161,34.6288353],[135.4644513,34.6287832],[135.4644758,34.6287363],[135.4644956,34.6286825],[135.4645097,34.6286339],[135.464516,34.6285834],[135.4645157,34.6285379],[135.4645425,34.6285371],[135.4645402,34.628507],[135.4645113,34.6285075],[135.4645073,34.6284824],[135.4644889,34.6284193],[135.4644627,34.6283649],[135.4644272,34.6283045],[135.4643936,34.6282612],[135.4643474,34.6282162],[135.4642823,34.6281677],[135.4642314,34.6281346],[135.4641851,34.6281103],[135.4641965,34.6280896],[135.4641687,34.628078],[135.4641569,34.6281001],[135.4641207,34.628086],[135.4640607,34.6280703],[135.4639943,34.6280601],[135.4639343,34.6280556],[135.4638656,34.6280556],[135.4637831,34.6280648],[135.4637124,34.6280805],[135.4636386,34.6281056],[135.4635722,34.6281359],[135.4635514,34.6281119],[135.4635239,34.6281293],[135.4635434,34.6281514],[135.4635166,34.628169],[135.4634673,34.6282071],[135.463422,34.628249],[135.4633808,34.6282995],[135.4633757,34.6283134]]]}}
