{"type":"Feature","id":"attraction-large-airport-R8310416","properties":{"id":"attraction-large-airport-R8310416","kind":"attraction","name":"Аэродром Буревестник","shortName":"Аэродром Буревестник","context":"日本","subtype":"airport","subtypeLabel":"空港・飛行場","statusLabel":"","aliases":["ブレヴェスニク空港","Burevestnik Airport","Russian Air Force"],"osmType":"relation","osmId":8310416,"osmDate":null,"officialAreaKm2":null,"areaSourceLabel":"","areaSourceUrl":"","boundarySourceLabel":"© OpenStreetMap contributors","boundarySourceUrl":"https://www.openstreetmap.org/copyright","geometryFile":"attractions/large-airport-R8310416.geojson"},"geometry":{"type":"Polygon","coordinates":[[[147.634276,44.9126728],[147.633934,44.9128618],[147.6328987,44.9136282],[147.6306939,44.9152295],[147.6309916,44.9154716],[147.6304834,44.915823],[147.6304042,44.9161402],[147.6289773,44.9170909],[147.6267095,44.9184973],[147.626794,44.9185923],[147.6266384,44.9189503],[147.6264963,44.919126],[147.626397,44.9191896],[147.6262175,44.9192239],[147.6256755,44.9193273],[147.6244269,44.9203282],[147.6237068,44.9206084],[147.6202078,44.923139],[147.6198672,44.92314],[147.619717,44.9234182],[147.6195151,44.9236366],[147.6190665,44.9240554],[147.6197948,44.9243364],[147.61978,44.9248549],[147.6191688,44.9253553],[147.6188944,44.9255798],[147.6191141,44.9256926],[147.6190237,44.925781],[147.6188372,44.9258016],[147.6185873,44.9259554],[147.6184778,44.9260228],[147.6179655,44.9260883],[147.6171608,44.926227],[147.6163079,44.9266286],[147.6162033,44.9266362],[147.6157379,44.9268499],[147.6154348,44.9270559],[147.6152967,44.9271983],[147.6153316,44.9275183],[147.6152726,44.927636],[147.6149413,44.9278079],[147.6145336,44.9281478],[147.6140809,44.9284521],[147.614252,44.928577],[147.6130047,44.9294752],[147.6128411,44.9293954],[147.6122859,44.9293052],[147.6120083,44.9294648],[147.610745,44.9294989],[147.6096117,44.9295084],[147.6086974,44.9294898],[147.6082626,44.9294809],[147.6079032,44.9294486],[147.6075679,44.929367],[147.606955,44.9290318],[147.6064387,44.9284042],[147.6047453,44.9261368],[147.6047362,44.9259969],[147.6047307,44.9259323],[147.6047201,44.9257833],[147.6047065,44.9257838],[147.6047038,44.9257464],[147.6047174,44.9257459],[147.6047093,44.9256319],[147.604697,44.9254605],[147.6047355,44.9251844],[147.6048005,44.9248845],[147.6048837,44.9245006],[147.6051551,44.9232482],[147.6064387,44.920897],[147.606499,44.9207707],[147.6066533,44.9206568],[147.6068839,44.9206919],[147.6071012,44.9206131],[147.6074472,44.9206027],[147.6079662,44.9207204],[147.6087025,44.9209445],[147.6100704,44.9213111],[147.6109917,44.920917],[147.6151532,44.9229824],[147.6154563,44.9227478],[147.6155046,44.9227829],[147.6155595,44.9227497],[147.6155582,44.9227089],[147.6154885,44.9226291],[147.6154751,44.9225702],[147.6155153,44.9225379],[147.6156199,44.9225266],[147.6157996,44.9225626],[147.6159123,44.9225493],[147.6160517,44.9224848],[147.6161349,44.9223423],[147.6162261,44.9220745],[147.616218,44.9218258],[147.6174159,44.9209913],[147.6217466,44.9179745],[147.6305182,44.9118636],[147.630545,44.9117202],[147.6301822,44.9114719],[147.6305008,44.9112349],[147.6308092,44.9114429],[147.6310084,44.9115217],[147.6310936,44.9114861],[147.6320464,44.910882],[147.6325715,44.9105491],[147.6330489,44.9103212],[147.6338965,44.9099242],[147.6350981,44.9108455],[147.6360798,44.9117345],[147.634276,44.9126728]]]}}
