{"type":"Feature","id":"attraction-large-park-W593069611","properties":{"id":"attraction-large-park-W593069611","kind":"attraction","name":"相模三川公園","shortName":"相模三川公園","context":"日本","subtype":"large-park","subtypeLabel":"大型都市公園・広域公園","statusLabel":"著名な公園","aliases":["神奈川県立相模三川公園"],"osmType":"way","osmId":593069611,"osmDate":null,"officialAreaKm2":null,"areaSourceLabel":"","areaSourceUrl":"","boundarySourceLabel":"© OpenStreetMap contributors","boundarySourceUrl":"https://www.openstreetmap.org/copyright","geometryFile":"attractions/large-park-W593069611.geojson"},"geometry":{"type":"Polygon","coordinates":[[[139.3811495,35.4559978],[139.381538,35.4566788],[139.3813287,35.4567957],[139.3810999,35.4570148],[139.3816057,35.4572755],[139.3817891,35.4573872],[139.3820042,35.4575169],[139.3821377,35.4576226],[139.3826437,35.4579923],[139.3823469,35.4581928],[139.3819269,35.4577896],[139.3816619,35.4579784],[139.3811732,35.4583194],[139.3808882,35.4585099],[139.3808155,35.458562],[139.3808585,35.4586301],[139.3811321,35.4589978],[139.3811394,35.4590657],[139.3812015,35.4591428],[139.381298,35.4592839],[139.3814267,35.4594739],[139.3814882,35.4595496],[139.3817294,35.4602791],[139.3820995,35.4610303],[139.3824514,35.4622921],[139.3825612,35.4628149],[139.3825609,35.4633978],[139.3825643,35.4638132],[139.3825607,35.4642182],[139.3813089,35.464307],[139.3812392,35.4636122],[139.3807027,35.4614276],[139.3805954,35.4610824],[139.3804238,35.4608508],[139.380407,35.4607751],[139.380354,35.4605362],[139.3800265,35.4598211],[139.3797318,35.4591774],[139.3796942,35.4590157],[139.3792114,35.4577747],[139.3799785,35.457565],[139.3798873,35.4570712],[139.3798927,35.4569489],[139.3799249,35.4568528],[139.3800858,35.4567479],[139.3802253,35.4566212],[139.3802906,35.4565229],[139.3805061,35.4563894],[139.3800882,35.4557229],[139.380981,35.4553228],[139.3811234,35.4555251],[139.3805281,35.4557966],[139.3806741,35.4560861],[139.3808812,35.4560896],[139.3809674,35.4560601],[139.3811495,35.4559978]]]}}
