{"type":"Feature","id":"attraction-large-park-W693883229","properties":{"id":"attraction-large-park-W693883229","kind":"attraction","name":"酒々井総合公園","shortName":"酒々井総合公園","context":"日本","subtype":"large-park","subtypeLabel":"大型都市公園・広域公園","statusLabel":"著名な公園","aliases":[],"osmType":"way","osmId":693883229,"osmDate":null,"officialAreaKm2":null,"areaSourceLabel":"","areaSourceUrl":"","boundarySourceLabel":"© OpenStreetMap contributors","boundarySourceUrl":"https://www.openstreetmap.org/copyright","geometryFile":"attractions/large-park-W693883229.geojson"},"geometry":{"type":"Polygon","coordinates":[[[140.281127,35.7237889],[140.2819507,35.7235742],[140.2821553,35.7235755],[140.282373,35.723601],[140.282378,35.7234641],[140.2825604,35.7233113],[140.2826918,35.7231519],[140.2825172,35.7229458],[140.2824469,35.7228364],[140.282467,35.722739],[140.2822652,35.7224519],[140.282093,35.722177],[140.281888,35.7220709],[140.2816027,35.7219941],[140.2813717,35.7219484],[140.2812414,35.721803],[140.281141,35.7216151],[140.2810624,35.7214529],[140.2810902,35.7213826],[140.2810757,35.7212671],[140.2810623,35.7211735],[140.2809503,35.7210001],[140.2810714,35.7207623],[140.2813085,35.7204376],[140.2814426,35.7201024],[140.2808833,35.7199781],[140.2800328,35.7198555],[140.2798826,35.7196551],[140.2785952,35.7195593],[140.2784396,35.7196812],[140.2784309,35.7200668],[140.2784157,35.7204288],[140.2782173,35.7209079],[140.2782708,35.7211886],[140.2780778,35.7212694],[140.2780536,35.7212888],[140.2784345,35.7217156],[140.2785981,35.7217505],[140.2785847,35.7221272],[140.2788958,35.7223188],[140.2796093,35.7229133],[140.2802557,35.7236319],[140.2804676,35.7235273],[140.2806473,35.7237255],[140.2808189,35.723756],[140.2810255,35.7238104],[140.281127,35.7237889]]]}}
