{"type":"Feature","id":"attraction-large-park-R16255664","properties":{"id":"attraction-large-park-R16255664","kind":"attraction","name":"七北田公園","shortName":"七北田公園","context":"日本","subtype":"large-park","subtypeLabel":"大型都市公園・広域公園","statusLabel":"著名な公園","aliases":["Nanakita Park"],"osmType":"relation","osmId":16255664,"osmDate":null,"officialAreaKm2":null,"areaSourceLabel":"","areaSourceUrl":"","boundarySourceLabel":"© OpenStreetMap contributors","boundarySourceUrl":"https://www.openstreetmap.org/copyright","geometryFile":"attractions/large-park-R16255664.geojson"},"geometry":{"type":"MultiPolygon","coordinates":[[[[140.8747055,38.3209788],[140.8744943,38.3208893],[140.8741363,38.3206483],[140.8743745,38.3204305],[140.8749382,38.319985],[140.8754858,38.3194589],[140.8755276,38.3194175],[140.8755731,38.3193725],[140.8758415,38.3191066],[140.8765698,38.3183854],[140.8770367,38.3180604],[140.8774533,38.3178465],[140.8778526,38.3177106],[140.8780487,38.3176645],[140.878134,38.3176492],[140.8782155,38.3176391],[140.8782704,38.3176359],[140.878392,38.3176352],[140.8787429,38.3176331],[140.8793201,38.317653],[140.8800702,38.3177708],[140.8804934,38.3178608],[140.8806741,38.3178993],[140.8807552,38.317915],[140.8809301,38.3179443],[140.882192,38.3181015],[140.882496,38.3181759],[140.8826963,38.3182383],[140.8828933,38.3182591],[140.8828675,38.3197931],[140.8828616,38.3203132],[140.8827488,38.3202435],[140.882647,38.320311],[140.8825808,38.3203557],[140.8823676,38.3203557],[140.8823684,38.3204568],[140.8818635,38.3204464],[140.8818572,38.3207018],[140.8818073,38.320702],[140.8816161,38.3207021],[140.8815736,38.3207021],[140.8815156,38.3207036],[140.8815173,38.320469],[140.8806709,38.3204572],[140.8806741,38.3204156],[140.8804606,38.3204313],[140.8804542,38.3207299],[140.8804456,38.3208647],[140.8803388,38.3207882],[140.880134,38.3206348],[140.8797012,38.3208512],[140.8795968,38.3207351],[140.8795754,38.3207095],[140.8795563,38.3206866],[140.8794398,38.3206807],[140.8793051,38.3206916],[140.8790432,38.3207275],[140.8789229,38.3207378],[140.8788026,38.3207397],[140.8786721,38.3207335],[140.8780619,38.3206284],[140.8778523,38.3206191],[140.8776195,38.3206336],[140.8772908,38.3206914],[140.8770214,38.3207418],[140.8769831,38.320749],[140.876566,38.3208302],[140.8765115,38.3208385],[140.876479,38.3208434],[140.876334,38.3208849],[140.8761441,38.3209458],[140.8760613,38.3209734],[140.8760698,38.3210468],[140.8756394,38.3210526],[140.87523,38.3210624],[140.8749535,38.3210397],[140.8747055,38.3209788]]],[[[140.883231,38.3185187],[140.8832354,38.318292],[140.8834514,38.3183051],[140.883612,38.3182285],[140.883767,38.318193],[140.883894,38.3181795],[140.8845842,38.3181144],[140.8853223,38.31804],[140.8858224,38.3179306],[140.8861361,38.3178072],[140.8862022,38.3178282],[140.8861856,38.3181424],[140.8853951,38.3190846],[140.8852253,38.3192681],[140.8849838,38.3194245],[140.8847661,38.3195329],[140.8843072,38.3196876],[140.8833945,38.3199638],[140.8833982,38.3200231],[140.883411,38.3205353],[140.8833907,38.3205679],[140.8831672,38.3204569],[140.8831861,38.3200905],[140.883231,38.3185187]]]]}}
