{"type":"Feature","id":"attraction-large-park-W1373771031","properties":{"id":"attraction-large-park-W1373771031","kind":"attraction","name":"長船美しい森","shortName":"長船美しい森","context":"日本","subtype":"large-park","subtypeLabel":"大型都市公園・広域公園","statusLabel":"","aliases":[],"osmType":"way","osmId":1373771031,"osmDate":null,"officialAreaKm2":null,"areaSourceLabel":"","areaSourceUrl":"","boundarySourceLabel":"© OpenStreetMap contributors","boundarySourceUrl":"https://www.openstreetmap.org/copyright","geometryFile":"attractions/large-park-W1373771031.geojson"},"geometry":{"type":"Polygon","coordinates":[[[134.1459095,34.7091933],[134.1459042,34.707597],[134.1449279,34.7066709],[134.1444397,34.7066136],[134.1438013,34.7066091],[134.1436189,34.7063578],[134.1437155,34.7056037],[134.1453087,34.7039763],[134.1457969,34.7038088],[134.1474062,34.7042057],[134.1486776,34.7039719],[134.1496056,34.7040954],[134.1515207,34.7057492],[134.1536772,34.7069928],[134.155072,34.7078307],[134.1548788,34.7082629],[134.1522181,34.7085892],[134.1509735,34.709136],[134.1503405,34.7096917],[134.1504908,34.7102032],[134.1510701,34.7108029],[134.1510916,34.7113233],[134.1505605,34.7114556],[134.1504854,34.711632],[134.151113,34.7126418],[134.1519982,34.7132768],[134.1525721,34.7132944],[134.1529423,34.7135237],[134.153012,34.7141895],[134.1532588,34.7147672],[134.1535699,34.7150229],[134.1536289,34.7152611],[134.1529423,34.7156491],[134.1525936,34.7156491],[134.1521805,34.7150362],[134.1518748,34.7145291],[134.1513276,34.7142645],[134.1509896,34.7140132],[134.1505068,34.7139999],[134.1497236,34.714216],[134.1494501,34.7147099],[134.149155,34.7148113],[134.1487259,34.714313],[134.1483986,34.714238],[134.148007,34.7143924],[134.1464192,34.7146525],[134.1460919,34.7145776],[134.1458291,34.7140705],[134.1459149,34.7131356],[134.1462207,34.7127696],[134.1467357,34.7124389],[134.1471058,34.7123022],[134.1471434,34.7121214],[134.1447535,34.7104501],[134.1447763,34.7103035],[134.1448326,34.710223],[134.1450834,34.7103487],[134.1455743,34.7104204],[134.1456011,34.7102771],[134.1455099,34.7101238],[134.1455072,34.709383],[134.1459095,34.7091933]]]}}
