{"type":"Feature","id":"attraction-large-park-W315901507","properties":{"id":"attraction-large-park-W315901507","kind":"attraction","name":"波志江沼環境ふれあい公園","shortName":"波志江沼環境ふれあい公園","context":"日本","subtype":"large-park","subtypeLabel":"大型都市公園・広域公園","statusLabel":"著名な公園","aliases":[],"osmType":"way","osmId":315901507,"osmDate":null,"officialAreaKm2":null,"areaSourceLabel":"","areaSourceUrl":"","boundarySourceLabel":"© OpenStreetMap contributors","boundarySourceUrl":"https://www.openstreetmap.org/copyright","geometryFile":"attractions/large-park-W315901507.geojson"},"geometry":{"type":"Polygon","coordinates":[[[139.1946346,36.3585234],[139.1945834,36.3584105],[139.1940283,36.3573469],[139.1938998,36.3571045],[139.1939407,36.3570775],[139.1948813,36.3565881],[139.1952231,36.3564093],[139.1954393,36.3563046],[139.1954656,36.3562494],[139.1950697,36.3556212],[139.1950741,36.3555788],[139.1947153,36.3554865],[139.1946896,36.3554371],[139.1942616,36.3553391],[139.194257,36.3553496],[139.1943783,36.3556383],[139.1943386,36.3556519],[139.1941152,36.3556883],[139.1937815,36.3557251],[139.1935857,36.3557306],[139.1933169,36.3556945],[139.1931196,36.3556373],[139.1930581,36.3555936],[139.1928603,36.3553762],[139.1926816,36.3553212],[139.1926071,36.3553695],[139.1924231,36.3554627],[139.1921806,36.3555459],[139.1917628,36.3556753],[139.1917047,36.3548755],[139.1916409,36.3548739],[139.1915572,36.354874],[139.1913855,36.354883],[139.1912337,36.3549404],[139.1911046,36.3550103],[139.1910178,36.3550793],[139.1908068,36.3552825],[139.190753,36.3553449],[139.1905283,36.3555734],[139.1908887,36.3557631],[139.1910395,36.3559253],[139.1911356,36.3560459],[139.1911748,36.3561157],[139.1911707,36.356174],[139.1911345,36.3562314],[139.1909879,36.3563353],[139.1908484,36.3564243],[139.1907598,36.356501],[139.1906774,36.3565707],[139.1906777,36.3565979],[139.1906963,36.3566218],[139.1907397,36.3566289],[139.1908076,36.3566161],[139.191003,36.3565605],[139.1911434,36.3565628],[139.1912048,36.3565766],[139.1912533,36.3566348],[139.1912843,36.3567354],[139.1912998,36.3568061],[139.1912895,36.3569101],[139.1912667,36.3570232],[139.1912172,36.357153],[139.1911604,36.3573057],[139.1910943,36.3575286],[139.1910385,36.3577815],[139.1910178,36.3579661],[139.1910302,36.358204],[139.1910757,36.3585234],[139.1911149,36.3589326],[139.1911005,36.3589942],[139.1910963,36.359089],[139.1910736,36.3592271],[139.1911066,36.3593302],[139.19115,36.3594705],[139.1913685,36.3594577],[139.1914649,36.3594763],[139.1917775,36.3594906],[139.1919513,36.3595247],[139.1921777,36.359613],[139.1923486,36.3597553],[139.1924991,36.3599376],[139.1927883,36.3603493],[139.192666,36.3604297],[139.19283,36.3606393],[139.1936281,36.3606398],[139.1938005,36.3606245],[139.1937757,36.3605281],[139.1937581,36.3603963],[139.193726,36.3603269],[139.1937844,36.360314],[139.194357,36.3601176],[139.1942767,36.3599388],[139.1945425,36.3598553],[139.1940371,36.3588578],[139.1937041,36.3590013],[139.1936983,36.3589914],[139.193577,36.3587837],[139.1939758,36.3586402],[139.1940459,36.3587954],[139.1940824,36.3588025],[139.1946535,36.3586178],[139.194671,36.3585919],[139.1946346,36.3585234]]]}}
