{"type":"Feature","id":"attraction-large-park-W379031791","properties":{"id":"attraction-large-park-W379031791","kind":"attraction","name":"牛久運動公園","shortName":"牛久運動公園","context":"日本","subtype":"large-park","subtypeLabel":"大型都市公園・広域公園","statusLabel":"著名な公園","aliases":["Ushiku sports park"],"osmType":"way","osmId":379031791,"osmDate":null,"officialAreaKm2":null,"areaSourceLabel":"","areaSourceUrl":"","boundarySourceLabel":"© OpenStreetMap contributors","boundarySourceUrl":"https://www.openstreetmap.org/copyright","geometryFile":"attractions/large-park-W379031791.geojson"},"geometry":{"type":"Polygon","coordinates":[[[140.1674112,35.9993775],[140.1676095,35.9994478],[140.1678027,35.9994954],[140.1686023,35.9995685],[140.1691919,35.9997215],[140.1704152,35.9999988],[140.1713808,36.0006758],[140.1722176,36.0007279],[140.1733978,36.0007626],[140.173312,35.9995822],[140.173548,35.9993391],[140.1736338,35.9984538],[140.1726682,35.9974122],[140.1719816,35.9966657],[140.1714237,35.9965962],[140.1708658,35.9970129],[140.1706926,35.9969779],[140.1695783,35.9967525],[140.1693978,35.9968002],[140.1693023,35.9969707],[140.1691599,35.9973165],[140.1686813,35.9977209],[140.1683803,35.9975817],[140.1677155,35.9985856],[140.167674,35.998702],[140.1676605,35.9987647],[140.1675527,35.9989072],[140.1677335,35.9989987],[140.1674112,35.9993775]]]}}
