{"type":"Feature","id":"attraction-large-park-W145408909","properties":{"id":"attraction-large-park-W145408909","kind":"attraction","name":"日比谷公園","shortName":"日比谷公園","context":"日本","subtype":"large-park","subtypeLabel":"大型都市公園・広域公園","statusLabel":"著名な公園","aliases":["Hibiya Park"],"osmType":"way","osmId":145408909,"osmDate":null,"officialAreaKm2":null,"areaSourceLabel":"","areaSourceUrl":"","boundarySourceLabel":"© OpenStreetMap contributors","boundarySourceUrl":"https://www.openstreetmap.org/copyright","geometryFile":"attractions/large-park-W145408909.geojson"},"geometry":{"type":"Polygon","coordinates":[[[139.7559161,35.6764119],[139.756022,35.6764367],[139.7591053,35.6751198],[139.7591753,35.6749364],[139.7573477,35.6731456],[139.756044,35.6709856],[139.7560091,35.6709896],[139.7549423,35.6714129],[139.7531783,35.672143],[139.7532167,35.6722307],[139.7532127,35.6722407],[139.7555706,35.6758788],[139.7558953,35.6763799],[139.7559161,35.6764119]]]}}
