{"type":"Feature","id":"attraction-large-park-W155164275","properties":{"id":"attraction-large-park-W155164275","kind":"attraction","name":"都立夢の島公園","shortName":"都立夢の島公園","context":"日本","subtype":"large-park","subtypeLabel":"大型都市公園・広域公園","statusLabel":"著名な公園","aliases":["Yumenoshima Park"],"osmType":"way","osmId":155164275,"osmDate":null,"officialAreaKm2":null,"areaSourceLabel":"","areaSourceUrl":"","boundarySourceLabel":"© OpenStreetMap contributors","boundarySourceUrl":"https://www.openstreetmap.org/copyright","geometryFile":"attractions/large-park-W155164275.geojson"},"geometry":{"type":"Polygon","coordinates":[[[139.8307429,35.6519705],[139.8258813,35.6514908],[139.8254333,35.6545779],[139.8245661,35.6544989],[139.8250205,35.651333],[139.8255116,35.6479108],[139.8255418,35.6477005],[139.8255522,35.6476281],[139.8312349,35.648159],[139.8308749,35.6510315],[139.8308706,35.651062],[139.830862,35.6511234],[139.830857,35.6511586],[139.8308413,35.6512609],[139.8307823,35.6516901],[139.8307473,35.6519397],[139.8307429,35.6519705]]]}}
