{"type":"Feature","id":"attraction-large-park-W469676758","properties":{"id":"attraction-large-park-W469676758","kind":"attraction","name":"利根川ゆうゆう公園","shortName":"利根川ゆうゆう公園","context":"日本","subtype":"large-park","subtypeLabel":"大型都市公園・広域公園","statusLabel":"","aliases":[],"osmType":"way","osmId":469676758,"osmDate":null,"officialAreaKm2":null,"areaSourceLabel":"","areaSourceUrl":"","boundarySourceLabel":"© OpenStreetMap contributors","boundarySourceUrl":"https://www.openstreetmap.org/copyright","geometryFile":"attractions/large-park-W469676758.geojson"},"geometry":{"type":"Polygon","coordinates":[[[140.1252396,35.8689647],[140.1247505,35.8686318],[140.123919,35.8691549],[140.1231267,35.8689171],[140.1226181,35.8685683],[140.1225007,35.8683781],[140.1212877,35.8691391],[140.1194781,35.8700506],[140.1168371,35.8712317],[140.1133156,35.8726901],[140.1105376,35.8737602],[140.1080628,35.8747668],[140.1040328,35.8762569],[140.1012077,35.8773854],[140.0959545,35.8792051],[140.0932182,35.8801777],[140.0910627,35.8807529],[140.0908433,35.8815163],[140.0909982,35.8817464],[140.0915274,35.8820078],[140.0919791,35.8823634],[140.0943024,35.8821438],[140.0962514,35.8819974],[140.0988586,35.8813072],[140.1006139,35.8804287],[140.1016594,35.8798117],[140.1031179,35.8789437],[140.1068739,35.8771972],[140.1098038,35.8757016],[140.1132758,35.874227],[140.1162831,35.8734844],[140.1180385,35.8731079],[140.1212781,35.8717796],[140.1228012,35.8710265],[140.1241564,35.8699806],[140.1252396,35.8689647]]]}}
