{"type":"Feature","id":"attraction-large-park-W436804395","properties":{"id":"attraction-large-park-W436804395","kind":"attraction","name":"太田市北部運動公園","shortName":"太田市北部運動公園","context":"日本","subtype":"large-park","subtypeLabel":"大型都市公園・広域公園","statusLabel":"著名な公園","aliases":[],"osmType":"way","osmId":436804395,"osmDate":null,"officialAreaKm2":null,"areaSourceLabel":"","areaSourceUrl":"","boundarySourceLabel":"© OpenStreetMap contributors","boundarySourceUrl":"https://www.openstreetmap.org/copyright","geometryFile":"attractions/large-park-W436804395.geojson"},"geometry":{"type":"Polygon","coordinates":[[[139.3645731,36.3388196],[139.3645428,36.3391748],[139.3645159,36.3393217],[139.3644764,36.3394093],[139.3643872,36.3395356],[139.3641672,36.339804],[139.3640251,36.3399785],[139.3639406,36.3400563],[139.3638145,36.3401446],[139.3637704,36.3401655],[139.3637085,36.3401951],[139.3636382,36.3402286],[139.3636169,36.3402366],[139.3633199,36.3403485],[139.3631898,36.3403805],[139.3630501,36.3404087],[139.3628234,36.3404457],[139.3621755,36.3405378],[139.3615992,36.3406235],[139.3615869,36.340625],[139.3616144,36.3407351],[139.3621304,36.3406739],[139.3621573,36.3408252],[139.3620943,36.3408786],[139.361636,36.340935],[139.3613657,36.3409682],[139.3613808,36.3410622],[139.361083,36.3411296],[139.3611881,36.341484],[139.3595,36.3422298],[139.3594823,36.3420506],[139.359337,36.3416574],[139.3594587,36.3415187],[139.3594662,36.3414581],[139.3605198,36.3409829],[139.3607517,36.3408971],[139.3608894,36.3408591],[139.3609727,36.340844],[139.3610533,36.3408293],[139.3615758,36.3407411],[139.3615569,36.3406287],[139.3615445,36.3406316],[139.3615125,36.3406364],[139.360933,36.3407198],[139.3606301,36.3408038],[139.3603731,36.3409189],[139.3603599,36.3409252],[139.3600442,36.3410767],[139.3599924,36.3411015],[139.3596556,36.3412398],[139.3593835,36.3413596],[139.3592434,36.3413947],[139.3591133,36.3413964],[139.3589941,36.3413645],[139.3584501,36.3411015],[139.3576285,36.3406637],[139.3572995,36.3404981],[139.3570091,36.3403021],[139.3568124,36.3401158],[139.3567657,36.3400739],[139.356718,36.3400312],[139.356691,36.3400064],[139.3563214,36.3396677],[139.3562108,36.3396086],[139.3561016,36.3395687],[139.3559736,36.3395554],[139.3559973,36.3391851],[139.3561784,36.3392161],[139.3562496,36.339051],[139.3562762,36.3390525],[139.356435,36.3391002],[139.35642,36.339148],[139.3567658,36.3392662],[139.356767,36.3393097],[139.3571721,36.3394803],[139.3571737,36.3395243],[139.3573373,36.3396289],[139.3577025,36.3397165],[139.3577105,36.3397003],[139.3580168,36.3397352],[139.3580324,36.3395858],[139.358078,36.3395545],[139.3580733,36.3393736],[139.358048,36.3393225],[139.3580183,36.3393137],[139.3579193,36.3392933],[139.3578967,36.3391918],[139.357945,36.3391549],[139.3579636,36.3391339],[139.3578819,36.3390257],[139.3579334,36.3390025],[139.3581807,36.3390209],[139.3581722,36.3389764],[139.3585504,36.3389217],[139.3585623,36.3387052],[139.358886,36.3385713],[139.359014,36.3385948],[139.359147,36.33862],[139.3593195,36.3386705],[139.3594543,36.3387147],[139.3595982,36.3387973],[139.3596847,36.3389059],[139.3599995,36.3389535],[139.3599776,36.3390451],[139.3599988,36.3390455],[139.3602499,36.3390904],[139.3605098,36.339061],[139.3608465,36.3390351],[139.3609901,36.339034],[139.3612569,36.3390308],[139.3614288,36.3389747],[139.3614494,36.3389098],[139.3615544,36.3388864],[139.3617262,36.3388706],[139.3617333,36.3388711],[139.3619682,36.3388883],[139.3619988,36.3388932],[139.3620467,36.3389009],[139.3625508,36.3388945],[139.3627462,36.3389084],[139.362778,36.3387586],[139.3629924,36.3387945],[139.3631721,36.3388053],[139.3632285,36.3387535],[139.363327,36.3386064],[139.3634886,36.338693],[139.3635101,36.3386627],[139.363663,36.3383321],[139.3634805,36.3383228],[139.3634645,36.3381636],[139.363773,36.3381377],[139.3639893,36.3380725],[139.3642448,36.3379706],[139.3642906,36.338034],[139.3646151,36.3380179],[139.3645731,36.3388196]]]}}
