{"type":"Feature","id":"attraction-large-industrial-complex-W935847011","properties":{"id":"attraction-large-industrial-complex-W935847011","kind":"attraction","name":"トヨタ自動車士別試験場","shortName":"トヨタ自動車士別試験場","context":"北海道・士別市","subtype":"industrial-complex","subtypeLabel":"工業地帯・大規模工場","statusLabel":"","aliases":["Toyota Shibetsu Test Course","トヨタ自動車"],"osmType":"way","osmId":935847011,"osmDate":null,"officialAreaKm2":null,"areaSourceLabel":"","areaSourceUrl":"","boundarySourceLabel":"© OpenStreetMap contributors","boundarySourceUrl":"https://www.openstreetmap.org/copyright","geometryFile":"attractions/large-industrial-complex-W935847011.geojson"},"geometry":{"type":"Polygon","coordinates":[[[142.2349113,44.1860434],[142.2355854,44.1851068],[142.2361542,44.1845215],[142.2368757,44.1838568],[142.2380343,44.182331],[142.239193,44.1823499],[142.2393036,44.1815115],[142.2396511,44.1810394],[142.2398302,44.1805748],[142.2409994,44.1796306],[142.2442593,44.1762011],[142.2452072,44.1752342],[142.2464238,44.1741841],[142.2484935,44.1729149],[142.2493256,44.1720273],[142.2503789,44.1709243],[142.2513637,44.1695493],[142.2524697,44.1687295],[142.2530859,44.1682271],[142.2533176,44.1679287],[142.2534545,44.1671656],[142.2531912,44.1666216],[142.2535124,44.1664327],[142.2530174,44.1654354],[142.2527067,44.1646458],[142.2524012,44.1643134],[142.2536336,44.1619408],[142.2529384,44.1602558],[142.248799,44.1611361],[142.2478563,44.1588503],[142.245518,44.1593642],[142.2443172,44.157067],[142.2412837,44.1552269],[142.2401251,44.1555103],[142.2390086,44.1555708],[142.2354169,44.1563038],[142.2352168,44.1569234],[142.2345058,44.1569385],[142.2333946,44.1591186],[142.2314881,44.159674],[142.2310247,44.1631271],[142.2241783,44.1655601],[142.2213818,44.1665612],[142.2200283,44.1677814],[142.218954,44.1690393],[142.2181429,44.1717364],[142.2177427,44.1724277],[142.2159626,44.1743541],[142.2158573,44.1749282],[142.2165103,44.176016],[142.216721,44.1766959],[142.2168474,44.1777535],[142.2172055,44.1779499],[142.2187012,44.1777988],[142.2196913,44.1779197],[142.2208604,44.1783238],[142.2222244,44.1785995],[142.217374,44.1835396],[142.2145723,44.1853372],[142.2118337,44.1879807],[142.2093585,44.1889626],[142.2086844,44.1903522],[142.209032,44.1905788],[142.2088634,44.1909337],[142.208874,44.1914851],[142.2090425,44.1935166],[142.2089372,44.1950723],[142.2093374,44.1958274],[142.2099905,44.1970433],[142.2113966,44.1979759],[142.2119233,44.1985007],[142.213856,44.1990444],[142.2158678,44.1998146],[142.2168369,44.1988367],[142.2192278,44.1979154],[142.2257372,44.1988631],[142.2271696,44.1986139],[142.2277595,44.1982062],[142.2345637,44.1889928],[142.232099,44.1876371],[142.2344268,44.1859037],[142.2349113,44.1860434]]]}}
