{"type":"Feature","id":"attraction-large-large-port-W288838492","properties":{"id":"attraction-large-large-port-W288838492","kind":"attraction","name":"香椎パークポート コンテナターミナル","shortName":"香椎パークポート コンテナターミナル","context":"日本","subtype":"large-port","subtypeLabel":"港湾・埠頭","statusLabel":"","aliases":["Kashii Park Port Container Terminal"],"osmType":"way","osmId":288838492,"osmDate":null,"officialAreaKm2":null,"areaSourceLabel":"","areaSourceUrl":"","boundarySourceLabel":"© OpenStreetMap contributors","boundarySourceUrl":"https://www.openstreetmap.org/copyright","geometryFile":"attractions/large-large-port-W288838492.geojson"},"geometry":{"type":"Polygon","coordinates":[[[130.4077813,33.6496492],[130.4075385,33.6497192],[130.4096306,33.6505448],[130.4116769,33.6514148],[130.4123968,33.6517129],[130.4124619,33.6518599],[130.4113519,33.6536573],[130.4113389,33.6536796],[130.4129991,33.6543668],[130.4126307,33.6550097],[130.4110817,33.6543654],[130.4109366,33.6546202],[130.4050127,33.652193],[130.4063607,33.6499098],[130.4077371,33.6495269],[130.4077813,33.6496492]]]}}
