{"type":"Feature","id":"attraction-large-park-W312371742","properties":{"id":"attraction-large-park-W312371742","kind":"attraction","name":"永源山公園","shortName":"永源山公園","context":"日本","subtype":"large-park","subtypeLabel":"大型都市公園・広域公園","statusLabel":"著名な公園","aliases":[],"osmType":"way","osmId":312371742,"osmDate":null,"officialAreaKm2":null,"areaSourceLabel":"","areaSourceUrl":"","boundarySourceLabel":"© OpenStreetMap contributors","boundarySourceUrl":"https://www.openstreetmap.org/copyright","geometryFile":"attractions/large-park-W312371742.geojson"},"geometry":{"type":"Polygon","coordinates":[[[131.7650624,34.0763803],[131.7646867,34.076395],[131.7646375,34.0766927],[131.7648995,34.0769571],[131.7650675,34.0770571],[131.7652472,34.0771639],[131.7653683,34.0773214],[131.7654998,34.0775251],[131.7655938,34.0778182],[131.765684,34.0780657],[131.7656892,34.0782938],[131.7656966,34.0784215],[131.7662222,34.0787048],[131.7678757,34.0796374],[131.7683691,34.0798794],[131.7685769,34.0799081],[131.7688763,34.0798215],[131.7691637,34.0798166],[131.7694463,34.0798525],[131.769498,34.0784873],[131.7694986,34.0783124],[131.7694933,34.0782857],[131.7697822,34.0782537],[131.7699332,34.0782013],[131.7700972,34.0780827],[131.7702391,34.0778597],[131.7703337,34.0776336],[131.7702918,34.0772729],[131.7701583,34.0770807],[131.7698769,34.076932],[131.7697333,34.0768686],[131.7697007,34.0766515],[131.7696656,34.0764241],[131.7696996,34.0763439],[131.7696613,34.0761586],[131.7696138,34.0760566],[131.7695605,34.0759945],[131.7695113,34.0759372],[131.7694138,34.0758109],[131.7693906,34.0758094],[131.7692974,34.0758032],[131.7691841,34.0757958],[131.7691649,34.0758202],[131.7690516,34.0759646],[131.7689054,34.0760939],[131.7686492,34.0761749],[131.7684286,34.0761677],[131.7684187,34.07657],[131.7673435,34.0765727],[131.7670285,34.0765602],[131.7667018,34.0765628],[131.7662056,34.076497],[131.7657318,34.076491],[131.7650624,34.0763803]]]}}
