{"type":"Feature","id":"attraction-large-park-W500198497","properties":{"id":"attraction-large-park-W500198497","kind":"attraction","name":"滝頭公園","shortName":"滝頭公園","context":"愛知県・田原市","subtype":"large-park","subtypeLabel":"大型都市公園・広域公園","statusLabel":"著名な公園","aliases":[],"osmType":"way","osmId":500198497,"osmDate":null,"officialAreaKm2":null,"areaSourceLabel":"","areaSourceUrl":"","boundarySourceLabel":"© OpenStreetMap contributors","boundarySourceUrl":"https://www.openstreetmap.org/copyright","geometryFile":"attractions/large-park-W500198497.geojson"},"geometry":{"type":"Polygon","coordinates":[[[137.2459893,34.6696177],[137.2456768,34.669867],[137.2454032,34.6700898],[137.2449821,34.6704505],[137.24484,34.6705895],[137.24473,34.6707439],[137.2446468,34.6709424],[137.2446227,34.671066],[137.2446334,34.6711873],[137.244612,34.6712027],[137.2445731,34.6712027],[137.2440809,34.6709865],[137.2436866,34.6708829],[137.2434117,34.6708134],[137.2432628,34.670745],[137.2432038,34.6706943],[137.2431529,34.670617],[137.2431019,34.6705266],[137.2430429,34.6703777],[137.2429664,34.6703027],[137.2429048,34.6702685],[137.2428082,34.6702575],[137.242827,34.6699475],[137.2428283,34.6696939],[137.2427948,34.6695163],[137.2426848,34.6691732],[137.2424877,34.6690409],[137.2422624,34.6687475],[137.2419459,34.6684276],[137.2412619,34.6681982],[137.2407201,34.6680945],[137.2404653,34.6681232],[137.2402722,34.6678673],[137.2404063,34.6677349],[137.240527,34.6674636],[137.2402991,34.6673519],[137.2401461,34.6673412],[137.2398886,34.6673621],[137.2396445,34.6673963],[137.2395734,34.6673963],[137.2394997,34.6673422],[137.2394997,34.6672529],[137.2396472,34.6670698],[137.239851,34.6665966],[137.2398685,34.6665018],[137.2398658,34.6664234],[137.2398154,34.6662927],[137.2396955,34.6661146],[137.2396633,34.6660385],[137.2396687,34.6659403],[137.2396995,34.6658421],[137.2397733,34.6656965],[137.2398001,34.6655752],[137.2399139,34.665505],[137.2401103,34.6655401],[137.240818,34.6660263],[137.2412565,34.6665602],[137.2415972,34.6669463],[137.2416951,34.6670102],[137.2418882,34.6671194],[137.2421028,34.6672904],[137.2423992,34.6674515],[137.2426419,34.6675739],[137.2430536,34.6678585],[137.2431998,34.667939],[137.2435015,34.6680361],[137.2438448,34.6680736],[137.244844,34.6683041],[137.2449513,34.6683593],[137.2450372,34.6684905],[137.2450479,34.6685611],[137.2450519,34.6686747],[137.2450612,34.6687894],[137.2451001,34.6689273],[137.2451592,34.6690078],[137.2452557,34.6690828],[137.2455011,34.6692527],[137.2459893,34.6695571],[137.2459893,34.6696177]]]}}
