{"type":"Feature","id":"attraction-large-large-port-W59245872","properties":{"id":"attraction-large-large-port-W59245872","kind":"attraction","name":"昆布森漁港","shortName":"昆布森漁港","context":"日本","subtype":"large-port","subtypeLabel":"港湾・埠頭","statusLabel":"","aliases":["Konbumori Fishing Port"],"osmType":"way","osmId":59245872,"osmDate":null,"officialAreaKm2":null,"areaSourceLabel":"","areaSourceUrl":"","boundarySourceLabel":"© OpenStreetMap contributors","boundarySourceUrl":"https://www.openstreetmap.org/copyright","geometryFile":"attractions/large-large-port-W59245872.geojson"},"geometry":{"type":"Polygon","coordinates":[[[144.5304467,42.9514636],[144.5291973,42.9516585],[144.5283496,42.9516219],[144.5283531,42.9515216],[144.5263679,42.9512115],[144.5248937,42.9505572],[144.5255001,42.9497747],[144.5260425,42.9496422],[144.5273824,42.9493498],[144.5276159,42.9482743],[144.5276547,42.9482322],[144.5276405,42.9482253],[144.5276786,42.9481788],[144.5295218,42.9489444],[144.5313696,42.9493676],[144.5313904,42.9494201],[144.5317574,42.9504495],[144.5320645,42.9513188],[144.5321175,42.9514966],[144.5321755,42.9517047],[144.5321768,42.951782],[144.5321391,42.9518626],[144.5320595,42.9519246],[144.5314669,42.9521413],[144.5310246,42.9522662],[144.5309147,42.9523312],[144.5311656,42.9516398],[144.5307149,42.9517241],[144.5306051,42.951522],[144.5305363,42.9514832],[144.5304467,42.9514636]]]}}
