{"type":"Feature","id":"attraction-large-park-W460553578","properties":{"id":"attraction-large-park-W460553578","kind":"attraction","name":"上谷総合公園","shortName":"上谷総合公園","context":"日本","subtype":"large-park","subtypeLabel":"大型都市公園・広域公園","statusLabel":"著名な公園","aliases":[],"osmType":"way","osmId":460553578,"osmDate":null,"officialAreaKm2":null,"areaSourceLabel":"","areaSourceUrl":"","boundarySourceLabel":"© OpenStreetMap contributors","boundarySourceUrl":"https://www.openstreetmap.org/copyright","geometryFile":"attractions/large-park-W460553578.geojson"},"geometry":{"type":"Polygon","coordinates":[[[139.5554319,36.0552602],[139.5554846,36.0552867],[139.5555696,36.0553369],[139.55598,36.0555796],[139.5560847,36.055773],[139.5565793,36.0561527],[139.5566031,36.0561661],[139.5568201,36.05651],[139.5562609,36.0567643],[139.5547036,36.0572929],[139.5545357,36.0574715],[139.5543148,36.0577286],[139.5542422,36.0579045],[139.5541888,36.058034],[139.5540187,36.0583965],[139.5537559,36.0586644],[139.5535681,36.0588145],[139.5535548,36.0588251],[139.5529541,36.0591089],[139.5526453,36.0593016],[139.5525506,36.0593764],[139.5520247,36.0600168],[139.5519578,36.0600418],[139.5511477,36.0603448],[139.549949,36.060793],[139.549639,36.0613184],[139.5495032,36.0614258],[139.5490615,36.0615525],[139.548527,36.060878],[139.548187,36.060607],[139.5479379,36.0604618],[139.54746,36.060229],[139.5471109,36.0601463],[139.5459669,36.060157],[139.5462078,36.060021],[139.5468554,36.0596726],[139.5483909,36.0587904],[139.5487173,36.0586951],[139.549076,36.0587245],[139.5492134,36.0587143],[139.5504582,36.0586088],[139.5513685,36.058525],[139.5516332,36.0584622],[139.5518161,36.0583747],[139.5523733,36.0580518],[139.5528163,36.0577926],[139.55359,36.0573439],[139.5538229,36.057138],[139.5554319,36.0552602]]]}}
