{"type":"Feature","id":"attraction-large-park-W468614654","properties":{"id":"attraction-large-park-W468614654","kind":"attraction","name":"大仏山公園","shortName":"大仏山公園","context":"日本","subtype":"large-park","subtypeLabel":"大型都市公園・広域公園","statusLabel":"著名な公園","aliases":[],"osmType":"way","osmId":468614654,"osmDate":null,"officialAreaKm2":null,"areaSourceLabel":"","areaSourceUrl":"","boundarySourceLabel":"© OpenStreetMap contributors","boundarySourceUrl":"https://www.openstreetmap.org/copyright","geometryFile":"attractions/large-park-W468614654.geojson"},"geometry":{"type":"Polygon","coordinates":[[[136.6510236,34.5203615],[136.6512582,34.520335],[136.6514575,34.5203117],[136.6516128,34.5202976],[136.6517953,34.5202758],[136.6520778,34.5202483],[136.6521158,34.5203006],[136.6521745,34.5203577],[136.6523436,34.520398],[136.6524447,34.5205188],[136.6524629,34.5205778],[136.6525595,34.5205699],[136.6525455,34.5204647],[136.6526009,34.520442],[136.6526351,34.5203246],[136.6529075,34.5202176],[136.6531878,34.520265],[136.6535337,34.5201999],[136.6540127,34.5202446],[136.6548289,34.5203022],[136.6550411,34.5202936],[136.6564531,34.5201903],[136.6568577,34.5201594],[136.6577107,34.5198853],[136.6578929,34.5198253],[136.6577449,34.5194853],[136.6575481,34.5186757],[136.6572373,34.5185075],[136.6570925,34.5184264],[136.6569391,34.5183431],[136.6568056,34.5182982],[136.6563549,34.5183784],[136.6557956,34.5184576],[136.6553016,34.5187983],[136.6548346,34.518965],[136.6542175,34.5189042],[136.6540398,34.5189048],[136.653634,34.5189444],[136.653521,34.5185109],[136.6536818,34.518246],[136.6539701,34.518118],[136.6539983,34.5180297],[136.6538584,34.5178282],[136.6534114,34.5175604],[136.653516,34.5173299],[136.6532706,34.5170089],[136.6530548,34.5169513],[136.6528256,34.5170929],[136.652435,34.5173946],[136.652177,34.5175628],[136.6518313,34.5177071],[136.6516575,34.5179121],[136.6516128,34.5179758],[136.6514991,34.5181297],[136.6514363,34.5182356],[136.6513383,34.5184002],[136.6512272,34.5186646],[136.6511674,34.5188814],[136.6511302,34.519142],[136.6511095,34.5193492],[136.6511062,34.5194454],[136.651105,34.5195673],[136.6510224,34.5196575],[136.6509232,34.5197624],[136.6507024,34.519776],[136.6504749,34.5198305],[136.6503008,34.5199091],[136.6502329,34.519937],[136.6501073,34.5199374],[136.6501843,34.5200918],[136.6502442,34.5201394],[136.6503523,34.5201866],[136.6503878,34.5202169],[136.6504253,34.5204086],[136.6510236,34.5203615]]]}}
