{"type":"Feature","id":"attraction-large-park-W483435687","properties":{"id":"attraction-large-park-W483435687","kind":"attraction","name":"県立広島緑化植物公園","shortName":"県立広島緑化植物公園","context":"日本","subtype":"botanical-garden","subtypeLabel":"植物園・植物公園","statusLabel":"","aliases":[],"osmType":"way","osmId":483435687,"osmDate":null,"officialAreaKm2":null,"areaSourceLabel":"","areaSourceUrl":"","boundarySourceLabel":"© OpenStreetMap contributors","boundarySourceUrl":"https://www.openstreetmap.org/copyright","geometryFile":"attractions/large-park-W483435687.geojson"},"geometry":{"type":"Polygon","coordinates":[[[132.560047,34.4284634],[132.5599784,34.428648],[132.5599971,34.4289444],[132.5600132,34.4291612],[132.5601554,34.4295506],[132.5602412,34.4297785],[132.5603056,34.4300904],[132.5602734,34.4302829],[132.5602466,34.4305395],[132.5603324,34.4308448],[132.5606301,34.4313758],[132.5608233,34.4316944],[132.5609359,34.4319554],[132.5610378,34.4323005],[132.5610351,34.4324996],[132.5610298,34.4327651],[132.5610244,34.4329421],[132.5610727,34.4330704],[132.5611371,34.4331655],[132.5613302,34.4333646],[132.5614489,34.4334443],[132.5615428,34.4334962],[132.5615803,34.4335383],[132.5615803,34.4336489],[132.5615133,34.4340183],[132.5615347,34.4341842],[132.5617694,34.4346134],[132.5618271,34.4347517],[132.5618365,34.4349275],[132.5618338,34.4351709],[132.5617694,34.435349],[132.5617372,34.4354253],[132.5616795,34.4355647],[132.5616608,34.4356708],[132.5616621,34.4358014],[132.5617801,34.435829],[132.5619813,34.4358843],[132.5621127,34.4358622],[132.5621731,34.4358644],[132.5622495,34.4359518],[132.5623595,34.4360392],[132.5625204,34.4361642],[132.5626358,34.4362571],[132.5627511,34.4363577],[132.5627591,34.436434],[132.562684,34.4365513],[132.5625995,34.4366707],[132.5625566,34.4367725],[132.5625459,34.4368909],[132.5625861,34.4369981],[132.5626666,34.4370955],[132.5627658,34.4371685],[132.5628812,34.4372426],[132.5629134,34.4372935],[132.5629147,34.4373709],[132.5629,34.437424],[132.5628477,34.4375058],[132.5628128,34.4376397],[132.5627752,34.4377879],[132.5627699,34.4379073],[132.562625,34.437987],[132.5625379,34.4381319],[132.562444,34.4383719],[132.5624239,34.4384073],[132.5623595,34.4386329],[132.5623514,34.4388762],[132.5624131,34.4391848],[132.5625244,34.4395388],[132.5626156,34.4398064],[132.5626666,34.4400719],[132.5627471,34.4403196],[132.562849,34.4405386],[132.5629241,34.44072],[132.5630207,34.4408085],[132.5632688,34.4412597],[132.563537,34.4417951],[132.5651785,34.4414632],[132.5656613,34.4413836],[132.5662514,34.4412863],[132.5673618,34.4411934],[132.5682362,34.4411359],[132.5684293,34.4414057],[132.5684776,34.4418658],[132.5686117,34.4423746],[132.5693681,34.4422684],[132.5696041,34.4419853],[132.5694861,34.441388],[132.5693306,34.4409722],[132.5692662,34.4405961],[132.5693949,34.4402776],[132.5696524,34.4400829],[132.5701674,34.4400254],[132.570441,34.4400829],[132.5709184,34.4400608],[132.5713959,34.4399281],[132.5719323,34.4397246],[132.5722273,34.4395786],[132.5728335,34.439468],[132.5731339,34.4392246],[132.5732466,34.438853],[132.573209,34.4385654],[132.5734129,34.4384504],[132.5738206,34.4383487],[132.5737508,34.4379682],[132.5735309,34.4377912],[132.5731286,34.4376054],[132.5729636,34.4375678],[132.5727678,34.4375191],[132.5727168,34.4372603],[132.572682,34.4371364],[132.5725774,34.4370103],[132.5723842,34.436778],[132.5722528,34.4365568],[132.5721053,34.43634],[132.5720651,34.4361277],[132.572057,34.4359396],[132.5719417,34.4357427],[132.5716735,34.4355282],[132.5715447,34.4353578],[132.5714696,34.4351609],[132.5714508,34.4349552],[132.5714455,34.4346366],[132.5714723,34.4344729],[132.5715018,34.4342429],[132.5715018,34.4339774],[132.5714562,34.4338425],[132.5713865,34.4336987],[132.5713382,34.4335305],[132.5713489,34.4333823],[132.5713891,34.4331766],[132.5713543,34.4330261],[132.5712658,34.4328912],[132.571196,34.4328005],[132.5710297,34.4326478],[132.5709627,34.4325594],[132.5709519,34.432431],[132.5709117,34.4322961],[132.5708608,34.4321921],[132.570673,34.4320727],[132.5704906,34.4319775],[132.5701822,34.4318735],[132.5699166,34.431774],[132.5696994,34.4317386],[132.5694928,34.4317165],[132.5693158,34.4316612],[132.5691656,34.4315771],[132.5690664,34.4314643],[132.5689564,34.4313028],[132.5688625,34.4311855],[132.5687928,34.4311147],[132.5686882,34.4310085],[132.568538,34.4309046],[132.5684521,34.4308139],[132.56831,34.4307674],[132.5681329,34.4307652],[132.567964,34.4307762],[132.5677843,34.4307984],[132.5676582,34.4308006],[132.5674597,34.4307519],[132.5673176,34.4306811],[132.5672183,34.4305749],[132.5671673,34.4304333],[132.5671405,34.4302652],[132.5670815,34.4300772],[132.5670011,34.4298935],[132.5668857,34.429836],[132.5667811,34.4297829],[132.5666014,34.4297608],[132.5663573,34.4296878],[132.5660596,34.4296258],[132.5658933,34.4295418],[132.565432,34.4293714],[132.5650725,34.42919],[132.5648338,34.4290617],[132.5646139,34.4289621],[132.564402,34.4288869],[132.5642008,34.4288869],[132.563887,34.4289245],[132.5635759,34.4289865],[132.5631843,34.4290174],[132.5628973,34.4290506],[132.5625539,34.4291281],[132.5623501,34.4291546],[132.5621275,34.4291745],[132.5618727,34.4290772],[132.5615749,34.4289135],[132.5613228,34.4287785],[132.5611458,34.4286856],[132.5607689,34.4284975],[132.5603398,34.4283006],[132.5600242,34.4282251],[132.560047,34.4284634]]]}}
