{"type":"Feature","id":"attraction-large-park-W544053412","properties":{"id":"attraction-large-park-W544053412","kind":"attraction","name":"日岡山公園","shortName":"日岡山公園","context":"日本","subtype":"large-park","subtypeLabel":"大型都市公園・広域公園","statusLabel":"著名な公園","aliases":[],"osmType":"way","osmId":544053412,"osmDate":null,"officialAreaKm2":null,"areaSourceLabel":"","areaSourceUrl":"","boundarySourceLabel":"© OpenStreetMap contributors","boundarySourceUrl":"https://www.openstreetmap.org/copyright","geometryFile":"attractions/large-park-W544053412.geojson"},"geometry":{"type":"Polygon","coordinates":[[[134.8632918,34.7832443],[134.8633495,34.7832156],[134.8634796,34.7831991],[134.8637223,34.783241],[134.8639114,34.7832211],[134.8639905,34.7831705],[134.8640643,34.7830824],[134.8642105,34.7826902],[134.8643741,34.7824809],[134.8645632,34.7823455],[134.8646758,34.7822739],[134.8649333,34.7820613],[134.8650218,34.7821296],[134.8655865,34.7820128],[134.8653156,34.7813872],[134.8654725,34.7813729],[134.8655382,34.781266],[134.8657903,34.7810424],[134.8656683,34.7809267],[134.8655529,34.7808034],[134.8653679,34.7806095],[134.8653585,34.7804917],[134.8655757,34.7797569],[134.8657662,34.7793758],[134.865852,34.779117],[134.8659311,34.778987],[134.8659445,34.7788416],[134.8658493,34.778184],[134.8657018,34.777848],[134.8663509,34.7779747],[134.8666164,34.7769381],[134.8664367,34.7767751],[134.8661658,34.7762485],[134.8660746,34.7760667],[134.866025,34.7759566],[134.8659351,34.7757529],[134.8659392,34.7755325],[134.865915,34.7753122],[134.8658815,34.7750467],[134.8658252,34.7747879],[134.8657272,34.7743946],[134.8654698,34.7738845],[134.8653826,34.773765],[134.8652217,34.7735442],[134.8646316,34.7729823],[134.8645263,34.7728412],[134.8645108,34.7728204],[134.8641863,34.7728556],[134.8640361,34.7731663],[134.863961,34.7737854],[134.8635909,34.7740123],[134.8634192,34.7738713],[134.8627219,34.7743428],[134.8631202,34.7748033],[134.8627567,34.7750093],[134.8623182,34.7752847],[134.8622055,34.7754466],[134.862235,34.7756317],[134.8628238,34.7766726],[134.8627661,34.7768731],[134.8626655,34.7769227],[134.8624845,34.7768819],[134.862109,34.7769073],[134.8618367,34.776915],[134.861303,34.7770505],[134.8610884,34.7772664],[134.8608819,34.7775462],[134.8609623,34.7777709],[134.8606217,34.7780286],[134.8609275,34.7787513],[134.8610347,34.7789627],[134.8606592,34.7800015],[134.8606673,34.7801678],[134.8605037,34.7803683],[134.8604688,34.7804663],[134.8605224,34.780539],[134.860623,34.7805357],[134.8606981,34.7804278],[134.860969,34.7805941],[134.8605975,34.7810931],[134.8606673,34.7811614],[134.8609623,34.7813695],[134.8616275,34.7817815],[134.8619507,34.7820877],[134.862408,34.7826241],[134.8626481,34.7828301],[134.8632918,34.7832443]]]}}
