{"type":"Feature","id":"attraction-large-park-W273284975","properties":{"id":"attraction-large-park-W273284975","kind":"attraction","name":"倉敷運動公園","shortName":"倉敷運動公園","context":"日本","subtype":"large-park","subtypeLabel":"大型都市公園・広域公園","statusLabel":"著名な公園","aliases":[],"osmType":"way","osmId":273284975,"osmDate":null,"officialAreaKm2":null,"areaSourceLabel":"","areaSourceUrl":"","boundarySourceLabel":"© OpenStreetMap contributors","boundarySourceUrl":"https://www.openstreetmap.org/copyright","geometryFile":"attractions/large-park-W273284975.geojson"},"geometry":{"type":"Polygon","coordinates":[[[133.7458415,34.5919719],[133.747918,34.5924062],[133.7479162,34.5922964],[133.7479117,34.5921129],[133.747688,34.5913648],[133.7476798,34.591237],[133.7476817,34.5911131],[133.7477174,34.5906827],[133.7477307,34.5904671],[133.747676,34.5900506],[133.7476621,34.5899448],[133.7476169,34.5897692],[133.7475837,34.5896394],[133.7475212,34.5893903],[133.7474566,34.589193],[133.7472002,34.5886621],[133.7470642,34.5884814],[133.7459448,34.5878528],[133.7456855,34.5877052],[133.7456465,34.587685],[133.7456008,34.5876669],[133.745422,34.5875759],[133.7452585,34.5874672],[133.743968,34.5867571],[133.7437922,34.5866554],[133.7438257,34.5867613],[133.743855,34.5868785],[133.7438891,34.5870589],[133.7438891,34.5874915],[133.7438933,34.587611],[133.7439566,34.5879581],[133.744059,34.5882149],[133.7441752,34.5884597],[133.7442726,34.5886316],[133.7445851,34.5891293],[133.7449235,34.5895629],[133.7452697,34.5899273],[133.7453324,34.5901163],[133.7456345,34.5912378],[133.7458415,34.5919719]]]}}
