{"type":"Feature","id":"attraction-large-park-W170417590","properties":{"id":"attraction-large-park-W170417590","kind":"attraction","name":"栃木県なかがわ水遊園","shortName":"栃木県なかがわ水遊園","context":"日本","subtype":"large-park","subtypeLabel":"大型都市公園・広域公園","statusLabel":"著名な公園","aliases":[],"osmType":"way","osmId":170417590,"osmDate":null,"officialAreaKm2":null,"areaSourceLabel":"","areaSourceUrl":"","boundarySourceLabel":"© OpenStreetMap contributors","boundarySourceUrl":"https://www.openstreetmap.org/copyright","geometryFile":"attractions/large-park-W170417590.geojson"},"geometry":{"type":"Polygon","coordinates":[[[140.1270101,36.7867931],[140.1270155,36.7874934],[140.1270745,36.7879359],[140.1271013,36.7884384],[140.1271818,36.7889238],[140.1272515,36.789551],[140.1272784,36.7899892],[140.1272462,36.7904919],[140.1272354,36.7907281],[140.127571,36.7911549],[140.1278041,36.7915702],[140.1279704,36.7919611],[140.1280777,36.7920212],[140.1286325,36.7920803],[140.1287367,36.7923142],[140.1287972,36.7924718],[140.1290934,36.7924033],[140.1290757,36.7923587],[140.1288552,36.7917873],[140.1290744,36.791562],[140.1306445,36.791533],[140.1306579,36.7908055],[140.1306848,36.7903286],[140.1308833,36.788898],[140.1308242,36.787807],[140.1305721,36.7862905],[140.1302288,36.7847438],[140.1278309,36.7849458],[140.1275627,36.7851477],[140.1271818,36.7862604],[140.1270101,36.7867931]]]}}
