{"type":"Feature","id":"attraction-large-park-W482649066","properties":{"id":"attraction-large-park-W482649066","kind":"attraction","name":"広島県立びんご運動公園","shortName":"広島県立びんご運動公園","context":"広島県・尾道市","subtype":"large-park","subtypeLabel":"大型都市公園・広域公園","statusLabel":"","aliases":[],"osmType":"way","osmId":482649066,"osmDate":null,"officialAreaKm2":null,"areaSourceLabel":"","areaSourceUrl":"","boundarySourceLabel":"© OpenStreetMap contributors","boundarySourceUrl":"https://www.openstreetmap.org/copyright","geometryFile":"attractions/large-park-W482649066.geojson"},"geometry":{"type":"Polygon","coordinates":[[[133.1802312,34.431869],[133.1799844,34.4317849],[133.1796572,34.4316035],[133.17911,34.4313735],[133.1789276,34.4312009],[133.1784984,34.4310372],[133.1783,34.4309575],[133.1781283,34.4308558],[133.177726,34.4306478],[133.1773987,34.4306168],[133.1768945,34.4305372],[133.1764224,34.4304399],[133.1759772,34.4303425],[133.1755695,34.4301523],[133.1753334,34.4299664],[133.1749901,34.4293912],[133.1750706,34.4291213],[133.1753013,34.4288381],[133.1755802,34.4285682],[133.1758913,34.4282895],[133.1759396,34.4280018],[133.175886,34.427785],[133.1757733,34.4275726],[133.1755695,34.4274532],[133.1754515,34.4274001],[133.1749579,34.4271833],[133.1745556,34.4270328],[133.1743571,34.4269841],[133.1741586,34.4268912],[133.1739226,34.4267187],[133.1737831,34.4265948],[133.173531,34.4265638],[133.1732145,34.4266213],[133.1729302,34.4267983],[133.1728068,34.4270195],[133.1727961,34.4272541],[133.1728712,34.4275328],[133.1730911,34.4279443],[133.1731984,34.4282187],[133.1732628,34.4285682],[133.1733111,34.4290903],[133.1733057,34.4294576],[133.1733701,34.4297585],[133.1734559,34.4300505],[133.1736544,34.4303425],[133.1736919,34.4305062],[133.1735793,34.4306478],[133.1733432,34.4308204],[133.1731126,34.4309531],[133.1728068,34.4310195],[133.1724581,34.4310859],[133.1721309,34.4310903],[133.1717554,34.4311478],[133.1715247,34.431192],[133.1712618,34.4312274],[133.1710151,34.4312407],[133.1706825,34.4313381],[133.1705055,34.4313912],[133.1703714,34.4315858],[133.1704035,34.4317186],[133.1705806,34.4318159],[133.1707147,34.4320681],[133.170763,34.4322141],[133.1708005,34.4323955],[133.170822,34.4327097],[133.1708541,34.4330902],[133.1708541,34.4333556],[133.1708863,34.4337671],[133.1708595,34.4341963],[133.1709078,34.434652],[133.1708166,34.4350812],[133.1708381,34.4352626],[133.1709775,34.435528],[133.1713638,34.4360147],[133.1716588,34.4363067],[133.171868,34.4366076],[133.1722221,34.4366916],[133.1726459,34.4365899],[133.1732306,34.4361784],[133.1733862,34.4365191],[133.1735632,34.436789],[133.1737241,34.4370279],[133.1738207,34.4371827],[133.1739065,34.4374305],[133.1741855,34.4376163],[133.1742284,34.4377137],[133.1741855,34.4380234],[133.1742015,34.4382623],[133.1743571,34.4384481],[133.1745824,34.4387666],[133.174974,34.4387533],[133.1754032,34.4386737],[133.1761917,34.4384879],[133.1767496,34.4384879],[133.1769964,34.438802],[133.1773826,34.4390763],[133.1776187,34.4394258],[133.1779727,34.4396293],[133.1784394,34.4397842],[133.1788525,34.4398948],[133.1791154,34.439824],[133.1798342,34.4400452],[133.18014,34.4398859],[133.1805047,34.4395409],[133.1806818,34.4391073],[133.1808105,34.4387533],[133.1809553,34.4385189],[133.1813523,34.4382578],[133.1813094,34.4376384],[133.1811914,34.4373464],[133.1809875,34.4369173],[133.1806925,34.436466],[133.1805637,34.436174],[133.1803384,34.435736],[133.1799629,34.4351475],[133.1796786,34.4346343],[133.1793889,34.4340724],[133.1792119,34.4336477],[133.1793621,34.4333601],[133.179625,34.4330327],[133.1801292,34.4328999],[133.1804672,34.4328468],[133.1806818,34.4326389],[133.1807998,34.4323823],[133.1806979,34.4321035],[133.1806013,34.4320017],[133.1802312,34.431869]]]}}
