{"type":"Feature","id":"attraction-large-park-W654257498","properties":{"id":"attraction-large-park-W654257498","kind":"attraction","name":"青森市スポーツ公園","shortName":"青森市スポーツ公園","context":"日本","subtype":"large-park","subtypeLabel":"大型都市公園・広域公園","statusLabel":"","aliases":[],"osmType":"way","osmId":654257498,"osmDate":null,"officialAreaKm2":null,"areaSourceLabel":"","areaSourceUrl":"","boundarySourceLabel":"© OpenStreetMap contributors","boundarySourceUrl":"https://www.openstreetmap.org/copyright","geometryFile":"attractions/large-park-W654257498.geojson"},"geometry":{"type":"Polygon","coordinates":[[[140.7744138,40.7857823],[140.7744594,40.7856218],[140.7744996,40.7855122],[140.7745358,40.7853954],[140.7745707,40.7852817],[140.7746243,40.7851161],[140.7747048,40.7849009],[140.7747464,40.784779],[140.7747705,40.7847303],[140.7747491,40.7846988],[140.7745372,40.7846094],[140.7744125,40.784579],[140.7741992,40.7845627],[140.774049,40.7845475],[140.7732913,40.7844368],[140.7729855,40.7843931],[140.7727361,40.7843525],[140.772555,40.7843322],[140.7722519,40.7842733],[140.7720602,40.7842418],[140.7719609,40.7842479],[140.7717115,40.7842753],[140.7705528,40.7844693],[140.7702108,40.7845201],[140.7699332,40.7845536],[140.7695912,40.7846064],[140.7693551,40.7846704],[140.7691111,40.7847252],[140.7689193,40.7847496],[140.7686564,40.7848044],[140.7684714,40.784847],[140.7683614,40.7848247],[140.7682621,40.7848511],[140.7676131,40.7859021],[140.7676144,40.7860107],[140.7676412,40.7860889],[140.7679295,40.7869794],[140.7680958,40.7874546],[140.7682085,40.7878811],[140.7683051,40.7884294],[140.7683104,40.7889899],[140.768289,40.7893027],[140.7682353,40.7897129],[140.7681012,40.7901353],[140.7679564,40.7905211],[140.7678008,40.7908704],[140.7676238,40.7912196],[140.7665455,40.7929944],[140.7663551,40.7933336],[140.7657489,40.793892],[140.765419,40.7941905],[140.7653975,40.7942189],[140.7654083,40.7943367],[140.7654512,40.7944179],[140.7656711,40.7944484],[140.7656899,40.7945946],[140.7663336,40.7946595],[140.7672965,40.7947469],[140.7685679,40.7948504],[140.7698446,40.7949743],[140.7709846,40.7951063],[140.7719904,40.7952322],[140.7724276,40.7952687],[140.7725832,40.7952707],[140.772661,40.7952667],[140.7727092,40.7952403],[140.7727548,40.7951976],[140.7728326,40.7948484],[140.7728541,40.7947428],[140.7730553,40.7937356],[140.7732055,40.792767],[140.7733664,40.7918695],[140.7735568,40.790714],[140.7738116,40.789191],[140.7739887,40.7881004],[140.7742408,40.7866179],[140.7744138,40.7857823]]]}}
