{"type":"Feature","id":"attraction-large-industrial-complex-W550286897","properties":{"id":"attraction-large-industrial-complex-W550286897","kind":"attraction","name":"住友化学 大分工場","shortName":"住友化学 大分工場","context":"日本","subtype":"industrial-complex","subtypeLabel":"工業地帯・大規模工場","statusLabel":"","aliases":["Sumitomo Chemical Co., Ltd."],"osmType":"way","osmId":550286897,"osmDate":null,"officialAreaKm2":null,"areaSourceLabel":"","areaSourceUrl":"","boundarySourceLabel":"© OpenStreetMap contributors","boundarySourceUrl":"https://www.openstreetmap.org/copyright","geometryFile":"attractions/large-industrial-complex-W550286897.geojson"},"geometry":{"type":"Polygon","coordinates":[[[131.683359,33.249387],[131.6836463,33.2496296],[131.6849959,33.2507695],[131.6870849,33.2525216],[131.6886808,33.253815],[131.6900076,33.2517882],[131.68997,33.2517739],[131.6901829,33.2514202],[131.6919634,33.2509466],[131.6920355,33.2508862],[131.6921747,33.2507695],[131.6932593,33.2496152],[131.6938867,33.249086],[131.694541,33.2478424],[131.6953236,33.2464871],[131.6948577,33.2450829],[131.6928033,33.2436165],[131.6923756,33.2432865],[131.6909416,33.2428498],[131.6908096,33.2428243],[131.6906343,33.2428094],[131.6904365,33.2428151],[131.689998,33.2429283],[131.6893027,33.2433998],[131.6900242,33.2443638],[131.6896236,33.2446576],[131.6898547,33.2449251],[131.6899441,33.2450286],[131.6888842,33.2455852],[131.6877134,33.2460594],[131.6871916,33.2462567],[131.6871726,33.2463875],[131.684347,33.2461401],[131.6840675,33.2461211],[131.6838517,33.2459707],[131.6836419,33.2459724],[131.6836257,33.2462724],[131.6833848,33.2490861],[131.683359,33.249387]]]}}
