{"type":"Feature","id":"attraction-large-park-W308194254","properties":{"id":"attraction-large-park-W308194254","kind":"attraction","name":"五百淵公園","shortName":"五百淵公園","context":"日本","subtype":"large-park","subtypeLabel":"大型都市公園・広域公園","statusLabel":"著名な公園","aliases":[],"osmType":"way","osmId":308194254,"osmDate":null,"officialAreaKm2":null,"areaSourceLabel":"","areaSourceUrl":"","boundarySourceLabel":"© OpenStreetMap contributors","boundarySourceUrl":"https://www.openstreetmap.org/copyright","geometryFile":"attractions/large-park-W308194254.geojson"},"geometry":{"type":"Polygon","coordinates":[[[140.3591657,37.3801202],[140.3593095,37.3802646],[140.3595972,37.3803728],[140.3604575,37.3806655],[140.3608511,37.3807437],[140.3610252,37.3808219],[140.3614598,37.3814192],[140.3620141,37.3822368],[140.3621212,37.3823728],[140.3622099,37.3823648],[140.3627206,37.3820893],[140.3630596,37.3819334],[140.3631523,37.3818171],[140.3631916,37.381596],[140.3634674,37.3812868],[140.363745,37.3811465],[140.3641285,37.3810262],[140.3645422,37.3809019],[140.3647996,37.3808217],[140.3650216,37.3807455],[140.3654361,37.3804716],[140.3658429,37.3801144],[140.3653791,37.3795133],[140.3651792,37.3794991],[140.3644621,37.3792227],[140.3639608,37.3790526],[140.3638744,37.378982],[140.3638366,37.37891],[140.3638164,37.3786374],[140.3637818,37.3781457],[140.363638,37.3776424],[140.3635219,37.3776304],[140.3631031,37.3777968],[140.3626161,37.3780394],[140.3621494,37.3783101],[140.3613361,37.3787371],[140.3603125,37.3792329],[140.3597479,37.3795115],[140.3593447,37.3798461],[140.3591657,37.3801202]]]}}
