{"type":"Feature","id":"attraction-large-park-R7754613","properties":{"id":"attraction-large-park-R7754613","kind":"attraction","name":"前橋公園","shortName":"前橋公園","context":"日本","subtype":"large-park","subtypeLabel":"大型都市公園・広域公園","statusLabel":"著名な公園","aliases":["Maebashi Park"],"osmType":"relation","osmId":7754613,"osmDate":null,"officialAreaKm2":null,"areaSourceLabel":"","areaSourceUrl":"","boundarySourceLabel":"© OpenStreetMap contributors","boundarySourceUrl":"https://www.openstreetmap.org/copyright","geometryFile":"attractions/large-park-R7754613.geojson"},"geometry":{"type":"MultiPolygon","coordinates":[[[[139.062901,36.3952032],[139.0628916,36.3951643],[139.0628982,36.3951068],[139.0629037,36.3950585],[139.0629278,36.3949884],[139.0629631,36.3949415],[139.0629604,36.3949124],[139.0631209,36.3948683],[139.0631661,36.3948559],[139.0634209,36.3947859],[139.0635233,36.3947578],[139.0635619,36.3947472],[139.063604,36.3947365],[139.0636115,36.3947346],[139.0637011,36.3947118],[139.0638539,36.3946728],[139.0638925,36.394663],[139.0641567,36.3946047],[139.0642975,36.3945885],[139.0643789,36.3945825],[139.0643977,36.3945943],[139.0644406,36.3945933],[139.0644296,36.3948908],[139.0643894,36.3949243],[139.0635264,36.3952988],[139.0632528,36.3955007],[139.0630932,36.3956486],[139.063006,36.3957209],[139.0629725,36.3957285],[139.0629537,36.395681],[139.0629577,36.395545],[139.0629484,36.3954435],[139.0629309,36.3953301],[139.062901,36.3952032]]],[[[139.0626672,36.3952603],[139.0626894,36.3953336],[139.0627145,36.395377],[139.0627316,36.3954143],[139.0627401,36.3954618],[139.0627432,36.3955357],[139.0627414,36.395594],[139.062736,36.3956868],[139.0627173,36.395812],[139.0626958,36.3959135],[139.0626797,36.3959567],[139.0615277,36.3968214],[139.0615047,36.3968311],[139.0614724,36.3968448],[139.0607482,36.3974208],[139.0606543,36.3973911],[139.0605363,36.397363],[139.0604049,36.3973025],[139.0603083,36.3972788],[139.0601715,36.3972335],[139.0600267,36.3971557],[139.0600106,36.3971428],[139.0599539,36.3971794],[139.059914,36.3971989],[139.0598845,36.3971644],[139.0596728,36.3967933],[139.0595985,36.3966632],[139.0595573,36.3964886],[139.0595063,36.3962187],[139.0594822,36.3960093],[139.0594956,36.3958236],[139.0595895,36.3955149],[139.0596033,36.395479],[139.0596621,36.3954683],[139.0596757,36.3954721],[139.0598796,36.3954217],[139.0602533,36.3953288],[139.0603466,36.3953206],[139.0604187,36.3953301],[139.0605551,36.3953541],[139.0606633,36.3953696],[139.0607917,36.3953737],[139.0610852,36.3953807],[139.0611309,36.3953796],[139.061223,36.3953666],[139.0612241,36.3953859],[139.0613668,36.3953688],[139.0613022,36.3951065],[139.0610969,36.3951141],[139.0609384,36.3951196],[139.0607675,36.3951266],[139.0602185,36.3951174],[139.0596858,36.3951068],[139.0597588,36.3948302],[139.0600425,36.3937545],[139.0602072,36.3930643],[139.060252,36.3928226],[139.0602922,36.3926606],[139.0603405,36.3926023],[139.0603727,36.3925829],[139.0606275,36.3925613],[139.0608528,36.3928355],[139.060944,36.3930622],[139.0610137,36.3931205],[139.061113,36.3931205],[139.0612693,36.3934319],[139.0613614,36.3935703],[139.0617016,36.393542],[139.0617031,36.3933125],[139.0617036,36.3932769],[139.0617404,36.3932763],[139.0617594,36.393276],[139.0622098,36.3935227],[139.0624223,36.3936391],[139.0624729,36.3936668],[139.0626097,36.3937661],[139.0626238,36.3937945],[139.0626311,36.3938093],[139.0626132,36.3942896],[139.0621397,36.394433],[139.0621203,36.394385],[139.0620828,36.3943962],[139.0620661,36.3943533],[139.0616003,36.3944853],[139.0616521,36.3946195],[139.061706,36.3947705],[139.0617799,36.3949776],[139.0616227,36.3950172],[139.0613646,36.3950734],[139.0613698,36.3951038],[139.061423,36.3953624],[139.0617359,36.3952958],[139.0619102,36.395258],[139.0625609,36.395073],[139.0626344,36.3950907],[139.0626672,36.3952603]]],[[[139.0595856,36.393672],[139.059503,36.3941261],[139.0594185,36.3944662],[139.0593179,36.3948623],[139.0593471,36.3948675],[139.0592344,36.3953662],[139.0591781,36.3954482],[139.0591325,36.3954795],[139.0590909,36.395499],[139.0590638,36.3955106],[139.0584925,36.3956401],[139.0584281,36.395584],[139.058463,36.3953271],[139.0585166,36.3949967],[139.0583074,36.3949751],[139.0583889,36.3942397],[139.0583634,36.3942386],[139.0584063,36.3941739],[139.0584291,36.3941555],[139.0584666,36.3941426],[139.0584948,36.3941415],[139.058531,36.3941469],[139.0585525,36.3941674],[139.0585739,36.3941901],[139.0585833,36.3942127],[139.0585863,36.3942281],[139.0585327,36.3947959],[139.0586319,36.3947959],[139.0587044,36.3940252],[139.058699,36.3939453],[139.0588867,36.3932436],[139.0588733,36.3932069],[139.0588009,36.3932069],[139.05875,36.3931011],[139.0587446,36.3929953],[139.05875,36.3929046],[139.0586829,36.3929046],[139.0587553,36.392706],[139.0588546,36.3925786],[139.0589002,36.3925354],[139.058876,36.3924685],[139.0588914,36.3923837],[139.0589142,36.3923287],[139.0589686,36.3922922],[139.0590135,36.3922391],[139.0590966,36.3922067],[139.0591597,36.392197],[139.0592415,36.3921959],[139.0593152,36.3922034],[139.0594346,36.3922553],[139.0595177,36.3923049],[139.0595674,36.3923546],[139.059629,36.3924107],[139.0596995,36.3924577],[139.0597323,36.3924852],[139.0597377,36.3926622],[139.0597363,36.3927983],[139.059724,36.3929039],[139.0597176,36.3929591],[139.0596974,36.3931027],[139.0596711,36.3932313],[139.0596679,36.3932571],[139.059627,36.3934465],[139.0595856,36.393672]]]]}}
