{"type":"Feature","id":"attraction-large-industrial-complex-W47994414","properties":{"id":"attraction-large-industrial-complex-W47994414","kind":"attraction","name":"王子製紙春日井工場","shortName":"王子製紙春日井工場","context":"日本","subtype":"industrial-complex","subtypeLabel":"工業地帯・大規模工場","statusLabel":"","aliases":[],"osmType":"way","osmId":47994414,"osmDate":null,"officialAreaKm2":null,"areaSourceLabel":"","areaSourceUrl":"","boundarySourceLabel":"© OpenStreetMap contributors","boundarySourceUrl":"https://www.openstreetmap.org/copyright","geometryFile":"attractions/large-industrial-complex-W47994414.geojson"},"geometry":{"type":"Polygon","coordinates":[[[136.9776495,35.2394336],[136.9732952,35.2377493],[136.9731302,35.2376823],[136.9725906,35.2373578],[136.9724052,35.23718],[136.9700911,35.2353604],[136.969884,35.2352598],[136.9695022,35.2350765],[136.9694781,35.2350097],[136.9685584,35.2316513],[136.9685774,35.2316254],[136.9703259,35.2316758],[136.9717349,35.2316532],[136.9718141,35.2316198],[136.9718733,35.231555],[136.971874,35.2296747],[136.9749769,35.2298465],[136.9751962,35.2298713],[136.9752753,35.2298858],[136.9761356,35.2300289],[136.9769563,35.2306321],[136.9772827,35.2309188],[136.9781466,35.2317344],[136.9784944,35.2318968],[136.9789721,35.2320102],[136.9794088,35.2321582],[136.9797313,35.2324289],[136.9799405,35.2327063],[136.9800571,35.2330979],[136.9801217,35.2342047],[136.980271,35.2344804],[136.9802072,35.234573],[136.9799055,35.2345206],[136.9796991,35.2345551],[136.9770596,35.2350511],[136.9781922,35.2392416],[136.9784299,35.2393571],[136.9779998,35.2393746],[136.9776495,35.2394336]]]}}
