{"type":"Feature","id":"attraction-large-park-W527151918","properties":{"id":"attraction-large-park-W527151918","kind":"attraction","name":"国営 アルプスあづみの公園","shortName":"国営 アルプスあづみの公園","context":"日本","subtype":"large-park","subtypeLabel":"大型都市公園・広域公園","statusLabel":"","aliases":["Alps Azumino National Government Park"],"osmType":"way","osmId":527151918,"osmDate":null,"officialAreaKm2":null,"areaSourceLabel":"","areaSourceUrl":"","boundarySourceLabel":"© OpenStreetMap contributors","boundarySourceUrl":"https://www.openstreetmap.org/copyright","geometryFile":"attractions/large-park-W527151918.geojson"},"geometry":{"type":"Polygon","coordinates":[[[137.831946,36.4510182],[137.8320694,36.4507851],[137.8321177,36.4505996],[137.832225,36.4500861],[137.8322893,36.449948],[137.8323095,36.4498466],[137.8321834,36.4497409],[137.8320613,36.4495165],[137.8319085,36.4492091],[137.8318468,36.4491163],[137.8317247,36.449057],[137.8315383,36.4489977],[137.831195,36.4489599],[137.8308168,36.4490786],[137.8300993,36.449317],[137.8298472,36.4495155],[137.829701,36.4496255],[137.8295468,36.4497409],[137.8293537,36.4498423],[137.8291216,36.4499017],[137.8288373,36.4499114],[137.8285651,36.449838],[137.8284042,36.4497388],[137.8281574,36.4494993],[137.8279281,36.4492123],[137.8278235,36.4488952],[137.827747,36.4487398],[137.8275914,36.4486406],[137.8274386,36.4485802],[137.8271422,36.4485748],[137.8270081,36.4486115],[137.8267868,36.4487549],[137.8263791,36.4489469],[137.8259432,36.4491055],[137.8255717,36.449235],[137.8253411,36.4493213],[137.8252432,36.449413],[137.8251587,36.4495575],[137.8251386,36.449674],[137.8251466,36.4498024],[137.8252874,36.4502803],[137.8254001,36.4505144],[137.8253974,36.4509168],[137.8253183,36.4511314],[137.8251868,36.4513623],[137.8250353,36.451495],[137.8249763,36.4515349],[137.8248221,36.4516168],[137.8246061,36.4517031],[137.8243567,36.4517636],[137.8239597,36.4517657],[137.8236486,36.451701],[137.8231926,36.4514809],[137.8228319,36.4512792],[137.8225797,36.4511185],[137.8222606,36.4510095],[137.8220125,36.4509146],[137.8219454,36.4508898],[137.8218327,36.4508801],[137.8216892,36.4508963],[137.8215437,36.4509378],[137.8213808,36.4510484],[137.8212199,36.4512172],[137.8210616,36.4514798],[137.8209463,36.4517733],[137.8210133,36.4519933],[137.8210482,36.4523385],[137.8209758,36.4525758],[137.8209141,36.4527873],[137.8209838,36.4532382],[137.8210133,36.4534517],[137.8209087,36.4536977],[137.8207263,36.4539307],[137.8205681,36.4540601],[137.8201711,36.454168],[137.8200102,36.4542931],[137.819801,36.4546297],[137.8196454,36.4549231],[137.8192913,36.4550568],[137.8188193,36.4551431],[137.8180093,36.4551949],[137.8170812,36.455333],[137.8165072,36.4553718],[137.8157401,36.4551388],[137.8155577,36.4548713],[137.8153592,36.4544312],[137.8153056,36.454319],[137.8152037,36.4541939],[137.8151554,36.4540472],[137.8151607,36.4539436],[137.8152332,36.4537171],[137.8151286,36.4534884],[137.8150132,36.4533503],[137.815083,36.4526643],[137.8151447,36.4523968],[137.8151393,36.4521314],[137.8151366,36.4519998],[137.8153539,36.4516676],[137.8151017,36.4513051],[137.8146458,36.4511756],[137.8142837,36.4509405],[137.8139672,36.4505974],[137.813487,36.4504011],[137.8131759,36.4501552],[137.8126073,36.4496201],[137.8122961,36.4492059],[137.8121084,36.4489124],[137.8119689,36.4487485],[137.8117329,36.4485413],[137.8113842,36.4482091],[137.8107244,36.4476826],[137.8101343,36.4472986],[137.8096354,36.446962],[137.8092599,36.4467937],[137.8088307,36.4466427],[137.8081119,36.4464485],[137.8068191,36.4475273],[137.8061968,36.44792],[137.8058696,36.4480667],[137.8060842,36.449961],[137.8060842,36.4506514],[137.8061646,36.4511951],[137.8063095,36.4518035],[137.8062451,36.4521487],[137.8058535,36.4525586],[137.8055906,36.4527873],[137.8054941,36.4529944],[137.8054404,36.4533525],[137.8054672,36.4540299],[137.805478,36.4545089],[137.8055155,36.4549403],[137.8055853,36.4551],[137.8061056,36.4552467],[137.8063738,36.4552985],[137.8065348,36.4556005],[137.8066099,36.4557558],[137.8078115,36.4558249],[137.8083801,36.4562822],[137.8086483,36.4565238],[137.8095281,36.4567223],[137.8101075,36.4573264],[137.8103864,36.4574903],[137.8104722,36.4578786],[137.8105259,36.4583101],[137.8104615,36.4585862],[137.810365,36.4589314],[137.8109443,36.4591816],[137.8115988,36.4594319],[137.8120977,36.45979],[137.8123766,36.460161],[137.8125644,36.460765],[137.812382,36.4610282],[137.8119528,36.4614639],[137.8115934,36.4618781],[137.8114003,36.4622621],[137.8112662,36.4626245],[137.8109443,36.4626504],[137.8107566,36.4626547],[137.81066,36.4627539],[137.8106868,36.4631034],[137.8108531,36.463414],[137.8110141,36.4636125],[137.8110677,36.4639058],[137.8110892,36.4641345],[137.8113466,36.4642596],[137.8116095,36.4641216],[137.8118455,36.4638325],[137.8121728,36.4636642],[137.8124249,36.463483],[137.8125858,36.4631508],[137.8127629,36.4631077],[137.8129828,36.4630861],[137.8131759,36.4628575],[137.8133583,36.462659],[137.8136426,36.4625986],[137.8141683,36.462521],[137.8147423,36.462508],[137.8152627,36.4623786],[137.8156596,36.4624908],[137.8157401,36.4627712],[137.8158098,36.4630214],[137.8157133,36.4632328],[137.8160405,36.4634313],[137.8163463,36.463496],[137.8166681,36.4633277],[137.8170651,36.4632328],[137.8174138,36.4632587],[137.8175265,36.4633881],[137.8175694,36.4636513],[137.8176659,36.4637721],[137.8182667,36.4638152],[137.8187281,36.4638498],[137.8191626,36.46388],[137.8194791,36.4639231],[137.8193933,36.4634183],[137.819286,36.4628661],[137.8193343,36.4622923],[137.8195542,36.4617444],[137.8197902,36.4613604],[137.8202677,36.4615502],[137.8206593,36.4617142],[137.8211474,36.461904],[137.822054,36.4620766],[137.8225368,36.4620852],[137.8231162,36.4619903],[137.823599,36.4618307],[137.8244305,36.4612957],[137.8266406,36.4594448],[137.8278851,36.4584611],[137.8283787,36.4581245],[137.8290546,36.4573781],[137.8293818,36.4568604],[137.8295856,36.4564073],[137.8298164,36.4557645],[137.8299504,36.454962],[137.8301972,36.4541033],[137.8303689,36.4537624],[137.8306693,36.4531324],[137.8309268,36.4526233],[137.831313,36.4520494],[137.831946,36.4510182]]]}}
