{"type":"Feature","id":"attraction-large-industrial-complex-W472825767","properties":{"id":"attraction-large-industrial-complex-W472825767","kind":"attraction","name":"トヨタ自動車 九州工場","shortName":"トヨタ自動車 九州工場","context":"日本","subtype":"industrial-complex","subtypeLabel":"工業地帯・大規模工場","statusLabel":"","aliases":[],"osmType":"way","osmId":472825767,"osmDate":null,"officialAreaKm2":null,"areaSourceLabel":"","areaSourceUrl":"","boundarySourceLabel":"© OpenStreetMap contributors","boundarySourceUrl":"https://www.openstreetmap.org/copyright","geometryFile":"attractions/large-industrial-complex-W472825767.geojson"},"geometry":{"type":"Polygon","coordinates":[[[130.6298846,33.7678488],[130.6298592,33.7678877],[130.629856,33.7679341],[130.6298613,33.76796],[130.6298352,33.7679721],[130.629877,33.7680153],[130.6299388,33.7680509],[130.630072,33.7681245],[130.6304508,33.7683195],[130.6305826,33.7683565],[130.6306727,33.7683661],[130.6308368,33.7683603],[130.6319504,33.7681503],[130.6324884,33.7681091],[130.6330533,33.7680648],[130.6333698,33.7680781],[130.6335066,33.7681138],[130.6338065,33.7681683],[130.6339558,33.7681862],[130.6340484,33.7681863],[130.6341604,33.7681618],[130.6347432,33.7679838],[130.634834,33.7679468],[130.6349261,33.7678914],[130.6349999,33.7678239],[130.6350699,33.7677384],[130.6351203,33.7676347],[130.6352423,33.7671729],[130.6353309,33.7668267],[130.6353616,33.7667274],[130.6354123,33.7666327],[130.6354768,33.7665466],[130.635582,33.7664558],[130.6355591,33.7663032],[130.6357254,33.7661951],[130.6359325,33.7661999],[130.6362084,33.7659851],[130.6363297,33.7658687],[130.6364874,33.7656762],[130.636593,33.7654934],[130.6366934,33.7652074],[130.637092,33.7637697],[130.6375271,33.76226],[130.6377757,33.7617044],[130.6385021,33.7601651],[130.6385031,33.7600726],[130.6385725,33.7599089],[130.6386424,33.7598473],[130.639122,33.7588527],[130.6391567,33.7585776],[130.6391349,33.758163],[130.6391641,33.7580009],[130.639234,33.7578384],[130.6394192,33.7575599],[130.6396392,33.7573693],[130.6399739,33.7572056],[130.6402812,33.7570774],[130.6404675,33.7569458],[130.6406529,33.7567042],[130.6407713,33.7564503],[130.6407873,33.7563179],[130.6408428,33.7561739],[130.6409194,33.756095],[130.6414356,33.7554806],[130.6416912,33.7551316],[130.6426208,33.7536991],[130.6426715,33.7536351],[130.6426739,33.7535355],[130.6425919,33.7534177],[130.6420554,33.7529084],[130.64189,33.7526481],[130.641747,33.7523706],[130.6416552,33.7522807],[130.6413789,33.7521954],[130.6412294,33.7521375],[130.6409994,33.7519767],[130.6407571,33.7518648],[130.6400625,33.7516481],[130.6398833,33.7515981],[130.6391034,33.7512737],[130.6385291,33.7510899],[130.6382564,33.7511416],[130.6381173,33.7511466],[130.6379912,33.7511263],[130.6370287,33.7506551],[130.6363539,33.7505636],[130.6361126,33.7505457],[130.6359499,33.7504837],[130.6357603,33.7505219],[130.6353691,33.7517929],[130.6352288,33.7520995],[130.6348806,33.7524199],[130.6345613,33.7526492],[130.6343401,33.7529129],[130.6342084,33.7531509],[130.6341634,33.7534305],[130.6341603,33.7535754],[130.6341988,33.7543905],[130.6341818,33.7545879],[130.6341241,33.7548299],[130.6340544,33.7550216],[130.6339604,33.7551838],[130.6338128,33.7554391],[130.6337057,33.7556171],[130.6336476,33.7557646],[130.6336172,33.755888],[130.6336024,33.7560419],[130.6336236,33.7562471],[130.6338605,33.7577182],[130.6338814,33.7579764],[130.6338808,33.7582936],[130.6338251,33.7585495],[130.6337751,33.7587568],[130.6333892,33.7596422],[130.6331571,33.7601877],[130.6330363,33.7605727],[130.6329426,33.7609868],[130.6328729,33.7612377],[130.6328085,33.7614038],[130.6327434,33.7615332],[130.6326342,33.761736],[130.6324722,33.7619618],[130.6321658,33.7624306],[130.6320181,33.762781],[130.6318015,33.7636519],[130.6313086,33.7652831],[130.6309388,33.7661075],[130.6306392,33.7668761],[130.6304609,33.7671944],[130.6303339,33.7673808],[130.6301539,33.7675909],[130.6299707,33.7677751],[130.6298846,33.7678488]]]}}
