{"type":"Feature","id":"attraction-large-park-W282696989","properties":{"id":"attraction-large-park-W282696989","kind":"attraction","name":"しらこばと水上公園","shortName":"しらこばと水上公園","context":"日本","subtype":"large-park","subtypeLabel":"大型都市公園・広域公園","statusLabel":"著名な公園","aliases":[],"osmType":"way","osmId":282696989,"osmDate":null,"officialAreaKm2":null,"areaSourceLabel":"","areaSourceUrl":"","boundarySourceLabel":"© OpenStreetMap contributors","boundarySourceUrl":"https://www.openstreetmap.org/copyright","geometryFile":"attractions/large-park-W282696989.geojson"},"geometry":{"type":"Polygon","coordinates":[[[139.7485806,35.9149125],[139.7440325,35.9136821],[139.743876,35.9135594],[139.7447225,35.9120387],[139.7475333,35.912476],[139.7476772,35.9124111],[139.7477658,35.912027],[139.7478178,35.9120185],[139.7492294,35.9122702],[139.7497806,35.9127948],[139.7493801,35.9142688],[139.7485806,35.9149125]]]}}
