{"type":"Feature","id":"attraction-large-park-W598222793","properties":{"id":"attraction-large-park-W598222793","kind":"attraction","name":"富士北麓公園","shortName":"富士北麓公園","context":"日本","subtype":"large-park","subtypeLabel":"大型都市公園・広域公園","statusLabel":"著名な公園","aliases":["Fuji Hokuroku Stadium"],"osmType":"way","osmId":598222793,"osmDate":null,"officialAreaKm2":null,"areaSourceLabel":"","areaSourceUrl":"","boundarySourceLabel":"© OpenStreetMap contributors","boundarySourceUrl":"https://www.openstreetmap.org/copyright","geometryFile":"attractions/large-park-W598222793.geojson"},"geometry":{"type":"Polygon","coordinates":[[[138.7686512,35.4579849],[138.7690884,35.4571875],[138.7691635,35.4568903],[138.7693566,35.4566019],[138.7705529,35.4559334],[138.770628,35.4552605],[138.7705851,35.4551425],[138.7701157,35.4542926],[138.7697241,35.4539561],[138.7688684,35.4532548],[138.7687021,35.4530188],[138.7686405,35.4526954],[138.7684956,35.4519001],[138.7676641,35.4514303],[138.7659422,35.4513998],[138.7645903,35.4516292],[138.7644374,35.4517734],[138.7649149,35.4529773],[138.7652045,35.4531892],[138.7654567,35.4534295],[138.7656257,35.4538228],[138.7660119,35.4550638],[138.7661943,35.4553129],[138.7664464,35.4555095],[138.7667575,35.455787],[138.767058,35.4561235],[138.7679645,35.4576638],[138.7686512,35.4579849]]]}}
