{"type":"Feature","id":"attraction-large-military-base-R5810231","properties":{"id":"attraction-large-military-base-R5810231","kind":"attraction","name":"秋月弾薬庫","shortName":"秋月弾薬庫","context":"日本","subtype":"military-base","subtypeLabel":"基地・駐屯地・演習場","statusLabel":"","aliases":[],"osmType":"relation","osmId":5810231,"osmDate":null,"officialAreaKm2":null,"areaSourceLabel":"","areaSourceUrl":"","boundarySourceLabel":"© OpenStreetMap contributors","boundarySourceUrl":"https://www.openstreetmap.org/copyright","geometryFile":"attractions/large-military-base-R5810231.geojson"},"geometry":{"type":"Polygon","coordinates":[[[132.4934048,34.2309333],[132.4933858,34.2309576],[132.4932718,34.2313166],[132.4929958,34.2311352],[132.4922837,34.2316961],[132.4924178,34.2325432],[132.4922086,34.2332218],[132.4921871,34.2335455],[132.4920798,34.2336786],[132.4921013,34.2338072],[132.4922193,34.2338516],[132.4923963,34.233887],[132.4924768,34.2341044],[132.4926699,34.2343483],[132.4923051,34.2351732],[132.4921281,34.2355989],[132.4921817,34.2360158],[132.4923856,34.2363928],[132.4926162,34.2379361],[132.4926431,34.2384727],[132.4922086,34.2391025],[132.4925036,34.2399805],[132.4929918,34.240628],[132.4930454,34.2410316],[132.4928791,34.2413863],[132.4919886,34.2413553],[132.4912698,34.2418165],[132.4910284,34.2417145],[132.4909747,34.2408808],[132.4908567,34.240393],[132.4905027,34.2400825],[132.4899179,34.2393242],[132.4883354,34.2391956],[132.4877668,34.239404],[132.487461,34.2393419],[132.4873162,34.2395681],[132.4873162,34.2399229],[132.4874771,34.2404551],[132.487504,34.2407921],[132.4879868,34.2418653],[132.4877024,34.2426635],[132.4877454,34.2430404],[132.488668,34.2437233],[132.4890972,34.2437233],[132.4904866,34.2448497],[132.4907226,34.244965],[132.4911142,34.2446102],[132.4915058,34.2445304],[132.4916989,34.2444151],[132.491876,34.2444329],[132.4918921,34.2445482],[132.4920905,34.2449118],[132.4930678,34.2450216],[132.4931326,34.2445577],[132.4930253,34.2445488],[132.4929502,34.2444668],[132.4919685,34.2443803],[132.49207,34.244208],[132.492378,34.243534],[132.4926739,34.243367],[132.4929046,34.2434025],[132.4933311,34.243795],[132.4938273,34.243591],[132.4938407,34.243316],[132.4937307,34.2431941],[132.4942911,34.2417588],[132.4945191,34.2416834],[132.4947631,34.2416546],[132.4952352,34.2416945],[132.4955946,34.2417766],[132.4962276,34.2421602],[132.4966058,34.2422799],[132.497102,34.242393],[132.4973059,34.2424839],[132.4974748,34.242495],[132.4975848,34.2425327],[132.4976438,34.2425238],[132.4976492,34.2423885],[132.4976358,34.2422067],[132.4975634,34.2419229],[132.4973837,34.2416347],[132.4968392,34.2411801],[132.4967051,34.2410205],[132.4964315,34.2405925],[132.4963537,34.2404018],[132.4963456,34.2402289],[132.4964409,34.2397688],[132.4966058,34.2395515],[132.4966179,34.2393874],[132.4965602,34.2392244],[132.4962115,34.2387787],[132.4959044,34.2383197],[132.4958132,34.2382554],[132.4957207,34.2381124],[132.4958065,34.2378108],[132.495608,34.2377687],[132.4954914,34.2380558],[132.4954283,34.2380403],[132.495317,34.2383142],[132.4951842,34.238435],[132.4950273,34.2385038],[132.4937519,34.2376656],[132.4936259,34.2374971],[132.4935749,34.2372299],[132.4936406,34.2372232],[132.4936245,34.2370713],[132.4935561,34.2370735],[132.4934609,34.2369194],[132.4934234,34.2365613],[132.4934784,34.2364116],[132.49354,34.2364094],[132.4935293,34.2361821],[132.4934515,34.2361821],[132.4934113,34.2361023],[132.4934958,34.235416],[132.493819,34.2351676],[132.4949214,34.2350257],[132.495077,34.2349936],[132.4952312,34.2348705],[132.4954632,34.2338615],[132.4955128,34.2337695],[132.4955785,34.2337773],[132.4957488,34.2330643],[132.4957193,34.2330577],[132.4956952,34.2329623],[132.4958454,34.2323392],[132.4958011,34.2321052],[132.495726,34.232011],[132.4937533,34.2309831],[132.4936762,34.2309759],[132.4936239,34.231053],[132.4934048,34.2309333]]]}}
