{"type":"Feature","id":"attraction-large-airport-W57015551","properties":{"id":"attraction-large-airport-W57015551","kind":"attraction","name":"南大東空港","shortName":"南大東空港","context":"日本","subtype":"airport","subtypeLabel":"空港・飛行場","statusLabel":"","aliases":["Minamidaito Airport"],"osmType":"way","osmId":57015551,"osmDate":null,"officialAreaKm2":null,"areaSourceLabel":"","areaSourceUrl":"","boundarySourceLabel":"© OpenStreetMap contributors","boundarySourceUrl":"https://www.openstreetmap.org/copyright","geometryFile":"attractions/large-airport-W57015551.geojson"},"geometry":{"type":"Polygon","coordinates":[[[131.2667426,25.8537512],[131.2651561,25.8541752],[131.2603136,25.8392388],[131.261934,25.83883],[131.2640358,25.845663],[131.265956,25.8450831],[131.2663937,25.8465607],[131.265372,25.8468456],[131.2645527,25.847074],[131.2667426,25.8537512]]]}}
