{"type":"Feature","id":"attraction-large-park-W463189830","properties":{"id":"attraction-large-park-W463189830","kind":"attraction","name":"松阪農業公園ベルファーム","shortName":"松阪農業公園ベルファーム","context":"日本","subtype":"large-park","subtypeLabel":"大型都市公園・広域公園","statusLabel":"著名な公園","aliases":[],"osmType":"way","osmId":463189830,"osmDate":null,"officialAreaKm2":null,"areaSourceLabel":"","areaSourceUrl":"","boundarySourceLabel":"© OpenStreetMap contributors","boundarySourceUrl":"https://www.openstreetmap.org/copyright","geometryFile":"attractions/large-park-W463189830.geojson"},"geometry":{"type":"Polygon","coordinates":[[[136.4840542,34.5843208],[136.4840823,34.5842159],[136.4841157,34.583751],[136.484078,34.5835204],[136.4840214,34.5831748],[136.4834949,34.5799594],[136.4807518,34.5792987],[136.4806491,34.5793427],[136.4804694,34.5793037],[136.4803916,34.579214],[136.4789524,34.5789013],[136.4788808,34.5789289],[136.4788362,34.5791417],[136.4788233,34.5792297],[136.4788025,34.5793584],[136.4787221,34.5798097],[136.4786949,34.5800394],[136.4787268,34.5800646],[136.4787031,34.5801663],[136.4786622,34.5801885],[136.4785568,34.581198],[136.4785791,34.5814383],[136.4791645,34.5833845],[136.4840542,34.5843208]]]}}
