{"type":"Feature","id":"attraction-large-park-W385933848","properties":{"id":"attraction-large-park-W385933848","kind":"attraction","name":"徳島中央公園","shortName":"徳島中央公園","context":"徳島県・徳島市","subtype":"large-park","subtypeLabel":"大型都市公園・広域公園","statusLabel":"著名な公園","aliases":["Tokushima Central Park"],"osmType":"way","osmId":385933848,"osmDate":null,"officialAreaKm2":null,"areaSourceLabel":"","areaSourceUrl":"","boundarySourceLabel":"© OpenStreetMap contributors","boundarySourceUrl":"https://www.openstreetmap.org/copyright","geometryFile":"attractions/large-park-W385933848.geojson"},"geometry":{"type":"Polygon","coordinates":[[[134.5500841,34.0778224],[134.5495307,34.0768776],[134.5489484,34.0759231],[134.5496011,34.075642],[134.5497715,34.0756034],[134.5498934,34.0755933],[134.5502087,34.0755875],[134.5504741,34.0755856],[134.5504984,34.0756477],[134.5503363,34.0757078],[134.5503411,34.0757941],[134.5504275,34.07579],[134.5505208,34.07632],[134.5505976,34.0767877],[134.5505276,34.0768045],[134.5505341,34.0768531],[134.5506331,34.0768403],[134.5506848,34.0769667],[134.5507867,34.0770665],[134.5508566,34.0771248],[134.5509777,34.0771835],[134.5510921,34.077198],[134.5511971,34.07718],[134.5513085,34.077104],[134.551263,34.076877],[134.5520027,34.0766603],[134.5519431,34.0763247],[134.5518283,34.0760233],[134.5515254,34.0755632],[134.5515705,34.0754736],[134.5519973,34.0753739],[134.5526978,34.0747861],[134.5531001,34.0744181],[134.5533319,34.0742315],[134.5536084,34.0740867],[134.5538315,34.0739854],[134.553895,34.0740284],[134.5544608,34.073645],[134.5546665,34.0735042],[134.5548911,34.0733521],[134.5550886,34.0730275],[134.5552149,34.0728241],[134.5553334,34.0726163],[134.5554947,34.0722921],[134.5555418,34.0722273],[134.5556283,34.0720584],[134.555696,34.0719385],[134.5557832,34.0718413],[134.5556699,34.0718046],[134.555682,34.0716737],[134.5557152,34.0716737],[134.5561491,34.071677],[134.5566319,34.0717336],[134.5567068,34.0719225],[134.556805,34.0720797],[134.5568837,34.0725873],[134.5569412,34.073009],[134.5569867,34.0733667],[134.557045,34.0737947],[134.5570829,34.0741412],[134.5571457,34.0747096],[134.5572163,34.0753337],[134.5572778,34.0758039],[134.5573001,34.0759612],[134.5573013,34.0760668],[134.5573853,34.0764218],[134.5572803,34.0764153],[134.557109,34.0764405],[134.5570814,34.0764513],[134.5570757,34.0764977],[134.5570191,34.0764977],[134.5570173,34.0765128],[134.5569227,34.0765122],[134.5569203,34.0765341],[134.5566879,34.076514],[134.5563783,34.0764742],[134.5562395,34.0764594],[134.5561238,34.0764742],[134.5560329,34.0764641],[134.5557928,34.0764097],[134.5556525,34.0763761],[134.5555725,34.0763391],[134.5554715,34.0762489],[134.5553705,34.0762576],[134.5552603,34.076287],[134.555026,34.0763359],[134.5548681,34.0763522],[134.55459,34.07635],[134.5542943,34.0764175],[134.5531128,34.0767178],[134.5529351,34.0767829],[134.5527799,34.0768293],[134.5523118,34.0770286],[134.5520014,34.0771769],[134.5518365,34.0772388],[134.5516585,34.0772874],[134.5508704,34.07755],[134.5503657,34.0777371],[134.5503286,34.0776911],[134.5502257,34.0777303],[134.5502508,34.0777806],[134.5501901,34.0778009],[134.5500841,34.0778224]]]}}
