{"type":"Feature","id":"attraction-large-industrial-complex-W558832815","properties":{"id":"attraction-large-industrial-complex-W558832815","kind":"attraction","name":"三菱製紙 八戸工場","shortName":"三菱製紙 八戸工場","context":"日本","subtype":"industrial-complex","subtypeLabel":"工業地帯・大規模工場","statusLabel":"","aliases":["三菱製紙株式会社"],"osmType":"way","osmId":558832815,"osmDate":null,"officialAreaKm2":null,"areaSourceLabel":"","areaSourceUrl":"","boundarySourceLabel":"© OpenStreetMap contributors","boundarySourceUrl":"https://www.openstreetmap.org/copyright","geometryFile":"attractions/large-industrial-complex-W558832815.geojson"},"geometry":{"type":"Polygon","coordinates":[[[141.4919421,40.566291],[141.4908138,40.5658962],[141.4907166,40.5658733],[141.4879325,40.5647147],[141.4877404,40.5646374],[141.4853544,40.5636651],[141.4851183,40.5635614],[141.4834358,40.5628247],[141.4832599,40.5627439],[141.4825077,40.562401],[141.4802444,40.5612828],[141.4801564,40.5613109],[141.4796727,40.5621689],[141.4778375,40.566297],[141.4770205,40.5677246],[141.47684,40.5680445],[141.4750325,40.5711966],[141.4742433,40.5723182],[141.4740559,40.5725941],[141.4715194,40.5760835],[141.4714754,40.5761433],[141.4720656,40.57641],[141.471658,40.5770028],[141.4710393,40.5767494],[141.4709455,40.5768798],[141.4704733,40.5775126],[141.4703322,40.5777921],[141.4697339,40.579541],[141.4733084,40.5806607],[141.4734727,40.5803443],[141.4741924,40.5805869],[141.4740003,40.5809455],[141.475426,40.5813778],[141.4817834,40.569843],[141.4819361,40.5697973],[141.482149,40.5694087],[141.4821074,40.5693085],[141.4823573,40.5688884],[141.482445,40.568912],[141.4889178,40.5712226],[141.4912653,40.5673937],[141.4919421,40.566291]]]}}
