{"type":"Feature","id":"attraction-large-park-W647742280","properties":{"id":"attraction-large-park-W647742280","kind":"attraction","name":"西南大規模公園","shortName":"西南大規模公園","context":"日本","subtype":"large-park","subtypeLabel":"大型都市公園・広域公園","statusLabel":"","aliases":[],"osmType":"way","osmId":647742280,"osmDate":null,"officialAreaKm2":null,"areaSourceLabel":"","areaSourceUrl":"","boundarySourceLabel":"© OpenStreetMap contributors","boundarySourceUrl":"https://www.openstreetmap.org/copyright","geometryFile":"attractions/large-park-W647742280.geojson"},"geometry":{"type":"Polygon","coordinates":[[[133.0101278,33.0203518],[133.0103853,33.019893],[133.0097953,33.0190744],[133.0091086,33.0179948],[133.0083576,33.0170413],[133.0080357,33.0167894],[133.0094841,33.0157188],[133.0103102,33.0150621],[133.0098596,33.0143783],[133.009527,33.0141534],[133.009173,33.0140994],[133.0091086,33.0137126],[133.0097309,33.0134787],[133.0100098,33.0134247],[133.0105892,33.0144953],[133.0109647,33.0150081],[133.0111703,33.0150551],[133.0113187,33.0150891],[133.0128101,33.0168433],[133.0135182,33.0183097],[133.0149558,33.0203878],[133.0182818,33.02404],[133.0207816,33.0266847],[133.0211356,33.0270805],[133.0220798,33.027989],[133.0233136,33.0290504],[133.024011,33.0305615],[133.023496,33.0312811],[133.0232063,33.0312811],[133.0226484,33.0310652],[133.0208781,33.0301478],[133.0194297,33.0294732],[133.0174878,33.029806],[133.0169085,33.0294462],[133.0163398,33.0288525],[133.0152026,33.0271524],[133.0147305,33.0259021],[133.013958,33.0247507],[133.0116943,33.022034],[133.0108038,33.0210355],[133.010321,33.0206127],[133.0101278,33.0203518]]]}}
