{"type":"Feature","id":"attraction-large-industrial-complex-W192581128","properties":{"id":"attraction-large-industrial-complex-W192581128","kind":"attraction","name":"コマツ 粟津工場","shortName":"コマツ 粟津工場","context":"日本","subtype":"industrial-complex","subtypeLabel":"工業地帯・大規模工場","statusLabel":"","aliases":[],"osmType":"way","osmId":192581128,"osmDate":null,"officialAreaKm2":null,"areaSourceLabel":"","areaSourceUrl":"","boundarySourceLabel":"© OpenStreetMap contributors","boundarySourceUrl":"https://www.openstreetmap.org/copyright","geometryFile":"attractions/large-industrial-complex-W192581128.geojson"},"geometry":{"type":"Polygon","coordinates":[[[136.4271936,36.3597037],[136.4265489,36.358606],[136.4263772,36.3584807],[136.4261627,36.3583166],[136.4259433,36.3581881],[136.4257402,36.358039],[136.4255698,36.3577977],[136.4255056,36.3576448],[136.4254135,36.3576903],[136.4251495,36.3578468],[136.4250896,36.3578859],[136.4243829,36.3576043],[136.4243196,36.3575821],[136.4240571,36.357742],[136.423923,36.3578673],[136.4237514,36.3580595],[136.4236333,36.3582388],[136.4234134,36.3587227],[136.4210973,36.3580541],[136.4205354,36.3579321],[136.4203798,36.3579191],[136.4201277,36.3581006],[136.4199466,36.3581729],[136.4198125,36.3581513],[136.4196892,36.3580692],[136.4196181,36.357945],[136.4189491,36.3564132],[136.4181026,36.3549071],[136.414727,36.3571095],[136.4146863,36.3571901],[136.4147262,36.3572675],[136.4153341,36.35776],[136.4159766,36.3583912],[136.4162191,36.3586664],[136.4164399,36.3590683],[136.4165863,36.3595624],[136.416724,36.3600263],[136.4168754,36.3605055],[136.4170115,36.3608],[136.4172626,36.3611442],[136.4176787,36.3616901],[136.4181618,36.362287],[136.4185127,36.3626358],[136.4189314,36.3630306],[136.4194785,36.3635129],[136.4203607,36.3642709],[136.4207218,36.3645834],[136.4208468,36.3647421],[136.4209429,36.3649304],[136.4209714,36.3651268],[136.4209598,36.3653515],[136.4208627,36.3656869],[136.4206029,36.3665078],[136.4205555,36.3668032],[136.4205777,36.3670293],[136.4205826,36.3671749],[136.420699,36.3671723],[136.4207848,36.3674854],[136.4211711,36.3673256],[136.4212232,36.3674252],[136.421269,36.3675168],[136.4217558,36.3676561],[136.4217585,36.3675481],[136.4218389,36.3675222],[136.4219382,36.367304],[136.4219811,36.3671939],[136.422075,36.3671507],[136.422252,36.3672133],[136.42259,36.3671464],[136.4230111,36.3672198],[136.4231159,36.3672304],[136.4232484,36.3667783],[136.4235565,36.3662567],[136.425034,36.3640272],[136.4251723,36.3638119],[136.4252903,36.3635961],[136.4265348,36.3610545],[136.4271936,36.3597037]]]}}
