{"type":"Feature","id":"attraction-large-park-W472034534","properties":{"id":"attraction-large-park-W472034534","kind":"attraction","name":"南部山健康運動公園","shortName":"南部山健康運動公園","context":"日本","subtype":"large-park","subtypeLabel":"大型都市公園・広域公園","statusLabel":"著名な公園","aliases":[],"osmType":"way","osmId":472034534,"osmDate":null,"officialAreaKm2":null,"areaSourceLabel":"","areaSourceUrl":"","boundarySourceLabel":"© OpenStreetMap contributors","boundarySourceUrl":"https://www.openstreetmap.org/copyright","geometryFile":"attractions/large-park-W472034534.geojson"},"geometry":{"type":"Polygon","coordinates":[[[141.4525746,40.5379866],[141.4527324,40.5381279],[141.452801,40.5382796],[141.4531551,40.5380829],[141.453985,40.537549],[141.4542439,40.5373097],[141.454289,40.53725],[141.4543029,40.5371857],[141.45415,40.536665],[141.4538947,40.5360771],[141.4536158,40.5355533],[141.4535469,40.5354253],[141.4534705,40.5352731],[141.453197,40.53475],[141.4529186,40.5341711],[141.4521032,40.5340702],[141.4514704,40.5341086],[141.4508416,40.5341686],[141.4501415,40.5342539],[141.4489564,40.5343588],[141.4481014,40.5345167],[141.4475874,40.5345423],[141.4472975,40.5344933],[141.4469737,40.5345912],[141.4467718,40.5348122],[141.4468975,40.5363548],[141.4469936,40.5363643],[141.4470541,40.5365408],[141.4471722,40.5366154],[141.4471868,40.5367643],[141.4468879,40.5371082],[141.4468744,40.5378955],[141.4472446,40.5380464],[141.4474924,40.5383418],[141.448524,40.5381646],[141.4489692,40.5381687],[141.4492616,40.5379995],[141.4496291,40.5377121],[141.4498789,40.5376926],[141.4504525,40.5378221],[141.4510989,40.5378099],[141.4516219,40.5377589],[141.4517319,40.537869],[141.4518493,40.5380982],[141.4525746,40.5379866]]]}}
