{"type":"Feature","id":"attraction-large-park-W156597519","properties":{"id":"attraction-large-park-W156597519","kind":"attraction","name":"こども自然公園","shortName":"こども自然公園","context":"日本","subtype":"large-park","subtypeLabel":"大型都市公園・広域公園","statusLabel":"","aliases":[],"osmType":"way","osmId":156597519,"osmDate":null,"officialAreaKm2":null,"areaSourceLabel":"","areaSourceUrl":"","boundarySourceLabel":"© OpenStreetMap contributors","boundarySourceUrl":"https://www.openstreetmap.org/copyright","geometryFile":"attractions/large-park-W156597519.geojson"},"geometry":{"type":"Polygon","coordinates":[[[139.5390509,35.4538809],[139.5391292,35.4537925],[139.5391922,35.4536658],[139.5392727,35.4534757],[139.5393491,35.4534613],[139.5394524,35.4533959],[139.5394777,35.4533428],[139.5394942,35.4532797],[139.5395034,35.4531663],[139.5395463,35.4531392],[139.5396013,35.4531565],[139.5396267,35.4533968],[139.5396053,35.4534405],[139.5399942,35.4535609],[139.5400929,35.4533407],[139.5401364,35.4532439],[139.5401655,35.4531678],[139.5402825,35.4528626],[139.5403482,35.4527133],[139.5404076,35.4525645],[139.5404436,35.4525225],[139.5405382,35.4524208],[139.5407797,35.4521627],[139.5409224,35.4519866],[139.5410724,35.4521355],[139.541144,35.4521081],[139.5411735,35.4520717],[139.5411744,35.4520456],[139.5409008,35.4515986],[139.5407801,35.4514315],[139.5407622,35.4513778],[139.5407211,35.4512545],[139.5406621,35.4511278],[139.5404971,35.4511365],[139.540416,35.4510166],[139.5403688,35.4509245],[139.5402854,35.4508753],[139.5402263,35.4506834],[139.5402081,35.4506224],[139.5401467,35.4504169],[139.5400818,35.4502197],[139.5401018,35.4501691],[139.5399702,35.4499616],[139.5399184,35.4499312],[139.5398607,35.4498109],[139.5398267,35.4496384],[139.5397815,35.4495606],[139.5394307,35.4494358],[139.539196,35.4493697],[139.5391372,35.4492589],[139.5390431,35.4491928],[139.5389369,35.4491449],[139.5388512,35.4490556],[139.5388059,35.4490069],[139.5387371,35.4489644],[139.5386214,35.4489324],[139.5384672,35.4489134],[139.5383648,35.4489037],[139.5381908,35.448755],[139.5379257,35.448423],[139.5378173,35.4484279],[139.5372605,35.4485066],[139.5368963,35.4484972],[139.5367447,35.4484317],[139.5365207,35.4483235],[139.5363893,35.4482449],[139.5362448,35.4482145],[139.5360747,35.4481721],[139.5359122,35.4481279],[139.5357448,35.4480804],[139.5355515,35.4480251],[139.5353679,35.4479899],[139.5352238,35.4479705],[139.5350172,35.4479634],[139.5348397,35.4479365],[139.5346254,35.4478722],[139.5344848,35.4477925],[139.5343059,35.4477526],[139.5340718,35.4477169],[139.5338718,35.4476753],[139.5337538,35.4476454],[139.5336013,35.447578],[139.5333835,35.4474917],[139.5332934,35.4474939],[139.5331275,35.4475239],[139.532915,35.4476166],[139.5328655,35.4476394],[139.532823,35.4476589],[139.5327265,35.4476195],[139.5326716,35.4474698],[139.532659,35.4474356],[139.5325915,35.447303],[139.5324816,35.4472641],[139.5323019,35.4472312],[139.5319439,35.4471787],[139.5315359,35.4471252],[139.5314588,35.4470934],[139.5313447,35.447077],[139.5310879,35.4471021],[139.5308893,35.4471795],[139.5307533,35.4472366],[139.5306501,35.4472881],[139.5306174,35.4473903],[139.5305904,35.4474908],[139.5305716,35.4475391],[139.5305126,35.4476077],[139.5303718,35.4476549],[139.5303553,35.4476566],[139.5302549,35.4476669],[139.5302068,35.4476678],[139.5302243,35.4477355],[139.5295819,35.4480316],[139.5294478,35.4480996],[139.5287732,35.4484522],[139.5284419,35.4484828],[139.5284218,35.4485134],[139.5285999,35.4491574],[139.5287128,35.4495655],[139.529087,35.4495426],[139.5291286,35.4495646],[139.5291742,35.449616],[139.5293029,35.449805],[139.5293619,35.4498858],[139.5295457,35.4499085],[139.5296878,35.4499435],[139.529799,35.449991],[139.5299967,35.4501034],[139.530068,35.4501412],[139.530333,35.450301],[139.5304214,35.4503543],[139.5307312,35.4506935],[139.5309079,35.4509025],[139.5313811,35.4510258],[139.5319445,35.4513545],[139.5325604,35.4516283],[139.5329067,35.4518263],[139.5331908,35.4520036],[139.5332766,35.4519646],[139.533585,35.4519493],[139.5337814,35.4519105],[139.5341348,35.4519171],[139.5342304,35.4519187],[139.534239,35.4523086],[139.5345341,35.4525511],[139.5345279,35.4528103],[139.5344182,35.4530513],[139.5346225,35.4530893],[139.5348673,35.4531349],[139.5352295,35.4531754],[139.5352641,35.4531807],[139.5354413,35.4532077],[139.5356842,35.4532476],[139.5358381,35.4532845],[139.5361545,35.4533655],[139.5361707,35.4533697],[139.5363012,35.4534124],[139.5363477,35.4534276],[139.5365223,35.4535359],[139.5366105,35.4535604],[139.5367361,35.4536449],[139.5368254,35.4537154],[139.5368812,35.4537855],[139.5369445,35.4538797],[139.5370022,35.4540402],[139.5370196,35.4540949],[139.5370719,35.4541574],[139.5371591,35.4542194],[139.5372597,35.4542675],[139.5373522,35.4543013],[139.5374027,35.4543188],[139.53743,35.4543297],[139.5374917,35.454236],[139.5375561,35.4541506],[139.5375386,35.4541224],[139.5375185,35.4540883],[139.5375078,35.4540142],[139.5374971,35.4539847],[139.537696,35.4541155],[139.5379434,35.4541884],[139.5381277,35.4542264],[139.5382851,35.4542443],[139.5384821,35.454249],[139.5387141,35.4542433],[139.5389676,35.4542466],[139.5392449,35.4542574],[139.5392995,35.4542046],[139.5393939,35.4541346],[139.5391429,35.4539866],[139.5390509,35.4538809]]]}}
