{"type":"Feature","id":"attraction-large-park-R20254317","properties":{"id":"attraction-large-park-R20254317","kind":"attraction","name":"長浜公園","shortName":"長浜公園","context":"日本","subtype":"large-park","subtypeLabel":"大型都市公園・広域公園","statusLabel":"著名な公園","aliases":[],"osmType":"relation","osmId":20254317,"osmDate":null,"officialAreaKm2":null,"areaSourceLabel":"","areaSourceUrl":"","boundarySourceLabel":"© OpenStreetMap contributors","boundarySourceUrl":"https://www.openstreetmap.org/copyright","geometryFile":"attractions/large-park-R20254317.geojson"},"geometry":{"type":"MultiPolygon","coordinates":[[[[139.6350052,35.3610092],[139.6348893,35.3614324],[139.6345696,35.3620618],[139.6341619,35.3628973],[139.6339508,35.3633615],[139.6338113,35.3639652],[139.6337577,35.3642145],[139.6336826,35.3644683],[139.6336449,35.3649583],[139.6338815,35.3650131],[139.6352925,35.3650105],[139.6353317,35.3631123],[139.6353544,35.3627881],[139.6353689,35.3626392],[139.6354001,35.3625532],[139.6354807,35.3624077],[139.635608,35.3622745],[139.6356894,35.362204],[139.6358447,35.3621304],[139.6376155,35.3621463],[139.6385962,35.3621791],[139.6386653,35.3621152],[139.638696,35.3613777],[139.6372142,35.3613268],[139.6368366,35.3613012],[139.6361145,35.3611824],[139.6355277,35.3610737],[139.6351414,35.3609731],[139.6350052,35.3610092]]],[[[139.6389198,35.356994],[139.6389412,35.3567316],[139.6386707,35.3567244],[139.6384389,35.3567707],[139.6374682,35.3572167],[139.6373687,35.3573004],[139.6373154,35.3573928],[139.637119,35.3575089],[139.6379259,35.3578745],[139.636591,35.3599502],[139.6362233,35.3601094],[139.6356402,35.359849],[139.6351507,35.360039],[139.6350221,35.3601819],[139.6349109,35.3603456],[139.6354847,35.3605137],[139.6359514,35.3606406],[139.6363988,35.3607318],[139.6367475,35.3607799],[139.6371391,35.3608193],[139.6377432,35.3608375],[139.6387161,35.3608627],[139.638735,35.3607931],[139.6387645,35.3602615],[139.6387994,35.359765],[139.6388316,35.3589491],[139.6388638,35.3580938],[139.638904,35.3572078],[139.6389198,35.356994]]]]}}
