{"type":"Feature","id":"attraction-large-park-W405668530","properties":{"id":"attraction-large-park-W405668530","kind":"attraction","name":"丸山公園","shortName":"丸山公園","context":"日本","subtype":"large-park","subtypeLabel":"大型都市公園・広域公園","statusLabel":"著名な公園","aliases":[],"osmType":"way","osmId":405668530,"osmDate":null,"officialAreaKm2":null,"areaSourceLabel":"","areaSourceUrl":"","boundarySourceLabel":"© OpenStreetMap contributors","boundarySourceUrl":"https://www.openstreetmap.org/copyright","geometryFile":"attractions/large-park-W405668530.geojson"},"geometry":{"type":"Polygon","coordinates":[[[130.4137444,31.8051425],[130.4122424,31.8038933],[130.4122853,31.8037383],[130.4120707,31.8035651],[130.4130041,31.8028174],[130.4133367,31.802252],[130.4138195,31.802097],[130.4139053,31.8019511],[130.4137444,31.8017597],[130.4131651,31.8017414],[130.4123497,31.801942],[130.4118132,31.8019967],[130.4113948,31.8019876],[130.4112875,31.8017323],[130.4110837,31.8013676],[130.4110193,31.801167],[130.4112231,31.8009664],[130.4116201,31.8010393],[130.4120922,31.8011579],[130.4126608,31.8013038],[130.4131329,31.8013038],[130.4136264,31.8014496],[130.4141628,31.8016229],[130.4146778,31.8019329],[130.415579,31.80217],[130.4159009,31.8022885],[130.4164695,31.8027171],[130.4163086,31.8030636],[130.4158795,31.8035377],[130.4154074,31.8041486],[130.415107,31.804486],[130.414592,31.804641],[130.4142272,31.8048324],[130.4139697,31.8051242],[130.4137444,31.8051425]]]}}
