{"type":"Feature","id":"attraction-large-military-base-R6819473","properties":{"id":"attraction-large-military-base-R6819473","kind":"attraction","name":"久米島射爆撃場","shortName":"久米島射爆撃場","context":"日本","subtype":"military-base","subtypeLabel":"基地・駐屯地・演習場","statusLabel":"","aliases":[],"osmType":"relation","osmId":6819473,"osmDate":null,"officialAreaKm2":null,"areaSourceLabel":"","areaSourceUrl":"","boundarySourceLabel":"© OpenStreetMap contributors","boundarySourceUrl":"https://www.openstreetmap.org/copyright","geometryFile":"attractions/large-military-base-R6819473.geojson"},"geometry":{"type":"Polygon","coordinates":[[[126.8188072,26.3310359],[126.818844,26.3357147],[126.8189088,26.3370976],[126.8190674,26.3379627],[126.8193225,26.3385497],[126.8196672,26.339044],[126.8199981,26.3393406],[126.8202464,26.3395198],[126.8205359,26.3396804],[126.8209703,26.3395074],[126.8211944,26.3394013],[126.8213357,26.3393344],[126.8215839,26.3390687],[126.821253,26.3387783],[126.8212461,26.3385806],[126.8211358,26.3384694],[126.8211703,26.3383458],[126.8213357,26.3382964],[126.821908,26.3388154],[126.8222596,26.3386238],[126.8222872,26.3385373],[126.8224734,26.3384076],[126.8226044,26.338766],[126.8221286,26.3391182],[126.822203,26.339182],[126.8228957,26.3387053],[126.822871,26.3386596],[126.8227347,26.3386911],[126.8226688,26.3384784],[126.8228226,26.3384213],[126.8226315,26.337939],[126.8224788,26.3378307],[126.822238,26.3378308],[126.8217617,26.338025],[126.8212967,26.3381547],[126.8210706,26.3382435],[126.8208178,26.3384858],[126.8211637,26.3388651],[126.8212746,26.3390783],[126.8212791,26.3391781],[126.821185,26.3392884],[126.8207729,26.3393922],[126.8205281,26.3393834],[126.820187,26.3393264],[126.8200244,26.3392117],[126.8198762,26.3390523],[126.8197301,26.3388876],[126.8200129,26.3389582],[126.8201247,26.3389416],[126.8201908,26.3388655],[126.8201846,26.3385573],[126.8203109,26.3381616],[126.8209496,26.3373349],[126.8215748,26.3367124],[126.8219953,26.33648],[126.822424,26.336243],[126.822482,26.33613],[126.822513,26.336115],[126.822607,26.336121],[126.822642,26.336147],[126.822729,26.336087],[126.822798,26.336096],[126.822845,26.336147],[126.822908,26.336135],[126.822975,26.33615],[126.823024,26.336209],[126.823206,26.33622],[126.823444,26.33621],[126.823832,26.336272],[126.823862,26.336212],[126.8239,26.33619],[126.823875,26.336119],[126.823884,26.336088],[126.823944,26.336057],[126.823994,26.336071],[126.824034,26.336007],[126.824091,26.335992],[126.824134,26.335928],[126.824197,26.335909],[126.824247,26.335943],[126.824441,26.335833],[126.824492,26.335876],[126.824551,26.335873],[126.824598,26.335896],[126.824612,26.335932],[126.824714,26.335907],[126.824821,26.335828],[126.824877,26.335715],[126.824842,26.335674],[126.824839,26.335632],[126.824795,26.335607],[126.824735,26.335503],[126.824604,26.335446],[126.824573,26.335418],[126.824576,26.335395],[126.824648,26.335359],[126.824723,26.335367],[126.824801,26.335268],[126.824864,26.33526],[126.824961,26.335311],[126.825036,26.335299],[126.825167,26.33537],[126.825221,26.335339],[126.825308,26.335333],[126.825324,26.335263],[126.825461,26.335218],[126.825502,26.335153],[126.825552,26.335136],[126.825615,26.335136],[126.82564,26.335192],[126.825619,26.335267],[126.825557,26.335296],[126.825552,26.335382],[126.825496,26.33543],[126.825621,26.335469],[126.825662,26.335525],[126.825712,26.3355],[126.825824,26.335508],[126.825862,26.335559],[126.826037,26.335514],[126.8261,26.335528],[126.826156,26.335581],[126.82615,26.335632],[126.82625,26.335641],[126.82631,26.335675],[126.826317,26.335706],[126.827111,26.335828],[126.827606,26.335963],[126.827949,26.33602],[126.828087,26.336065],[126.828538,26.336138],[126.829132,26.336268],[126.829883,26.336336],[126.830365,26.33642],[126.830656,26.336434],[126.830861,26.336431],[126.831455,26.336313],[126.832043,26.336257],[126.832585,26.336172],[126.832763,26.336164],[126.833376,26.336013],[126.833689,26.335867],[126.833953,26.335777],[126.834146,26.335732],[126.83466,26.335754],[126.834873,26.335794],[126.834998,26.335867],[126.835085,26.335997],[126.835085,26.336149],[126.835054,26.336285],[126.834991,26.336426],[126.834847,26.336651],[126.834672,26.336804],[126.834441,26.336917],[126.834319,26.33708],[126.834268,26.337177],[126.834271,26.337248],[126.834237,26.337304],[126.834152,26.337321],[126.834118,26.337346],[126.834105,26.337403],[126.833974,26.337518],[126.833936,26.337575],[126.833834,26.337611],[126.833771,26.33758],[126.833755,26.337651],[126.833673,26.337724],[126.833539,26.337738],[126.833381,26.337807],[126.833345,26.337803],[126.833126,26.337835],[126.833013,26.337874],[126.832475,26.338365],[126.831962,26.338643],[126.831787,26.338755],[126.8316743,26.3388971],[126.83163,26.338953],[126.831611,26.339015],[126.831586,26.339387],[126.831536,26.339658],[126.831524,26.340035],[126.831674,26.340351],[126.831691,26.340442],[126.831693,26.340842],[126.831755,26.341056],[126.83174,26.341104],[126.831674,26.341192],[126.831499,26.341361],[126.831361,26.34153],[126.831052,26.342049],[126.831007,26.342075],[126.830973,26.342066],[126.830903,26.342111],[126.830914,26.34218],[126.83089,26.342218],[126.83085,26.342234],[126.830736,26.342236],[126.830603,26.342294],[126.830503,26.342232],[126.830425,26.342249],[126.830362,26.342232],[126.830268,26.342316],[126.830184,26.342342],[126.830146,26.342415],[126.830058,26.342424],[126.830008,26.342401],[126.829983,26.342407],[126.829958,26.342463],[126.829921,26.342474],[126.829841,26.342457],[126.829787,26.342501],[126.829676,26.342486],[126.829233,26.342523],[126.828684,26.342692],[126.828638,26.342728],[126.828487,26.3427],[126.828453,26.342779],[126.828415,26.342796],[126.828256,26.342697],[126.828168,26.342751],[126.828106,26.342751],[126.82804,26.342703],[126.828003,26.342649],[126.827915,26.342672],[126.827862,26.342663],[126.827816,26.342623],[126.827726,26.342626],[126.827651,26.34259],[126.827611,26.342538],[126.827535,26.342538],[126.827478,26.342513],[126.827474,26.342472],[126.827374,26.342438],[126.827168,26.342252],[126.827054,26.342218],[126.82701,26.342083],[126.82696,26.342032],[126.826835,26.342004],[126.82676,26.341948],[126.826616,26.341761],[126.826372,26.341542],[126.826203,26.341372],[126.826121,26.341259],[126.82604,26.341192],[126.825896,26.341107],[126.825702,26.341023],[126.825514,26.341],[126.82546,26.340978],[126.825422,26.340947],[126.825422,26.340883],[126.825342,26.340832],[126.82536,26.340738],[126.82521,26.340636],[126.8240491,26.3401568],[126.8237222,26.3398708],[126.8235051,26.3395431],[126.8233542,26.339422],[126.8230808,26.3390042],[126.8228576,26.3389525],[126.8223391,26.3393518],[126.8224228,26.3394057],[126.822682,26.3393191],[126.8228622,26.3392285],[126.8228358,26.339138],[126.8229413,26.3390789],[126.8230291,26.3391144],[126.8230291,26.3392207],[126.8228797,26.3393664],[126.8226029,26.3394569],[126.8225326,26.3395475],[126.8227391,26.3398349],[126.8229149,26.3401814],[126.8229105,26.3402681],[126.8226996,26.3402917],[126.8224052,26.3400476],[126.8221416,26.3397168],[126.8221855,26.3396066],[126.8221179,26.3395336],[126.8217118,26.3398796],[126.8216637,26.3398926],[126.8216086,26.33988],[126.8215023,26.3397944],[126.8214206,26.3397286],[126.8214206,26.3396661],[126.8214478,26.3396117],[126.8217729,26.3393966],[126.821837,26.3394007],[126.8218803,26.3394266],[126.821959,26.3393721],[126.8218208,26.3392325],[126.821689,26.3392167],[126.8211486,26.3396262],[126.8207707,26.3398113],[126.8254237,26.3428747],[126.8259773,26.3433315],[126.8264167,26.3439221],[126.8267594,26.3445836],[126.8269703,26.3453002],[126.827023,26.3461664],[126.8268271,26.3481562],[126.8268824,26.3487493],[126.8273042,26.3491666],[126.8279106,26.3496706],[126.8285345,26.349899],[126.8291848,26.3499068],[126.8295802,26.350088],[126.8299141,26.350521],[126.8303096,26.35071],[126.830872,26.3507809],[126.8318913,26.3506155],[126.8327701,26.3502848],[126.8334116,26.350025],[126.834923,26.3491036],[126.8353097,26.3490879],[126.8356787,26.3492375],[126.8361708,26.3494501],[126.8365663,26.349458],[126.8370496,26.3491666],[126.8384819,26.3489619],[126.842243,26.3481351],[126.8438775,26.3480563],[126.8455119,26.3482768],[126.8474452,26.3488123],[126.8489215,26.3491588],[126.8505911,26.3493477],[126.8519796,26.3492375],[126.8535086,26.3490328],[126.8544928,26.3488123],[126.8551958,26.348765],[126.8562854,26.3490643],[126.8574981,26.3494422],[126.8581308,26.3493792],[126.8596247,26.3496785],[126.8602398,26.349899],[126.8607143,26.3498517],[126.8612943,26.349773],[126.8622434,26.3499305],[126.8629112,26.3498517],[126.8637548,26.3496785],[126.8643699,26.349521],[126.865319,26.349458],[126.8661977,26.3495367],[126.866848,26.3497887],[126.87082,26.3519621],[126.8720151,26.3523873],[126.8726302,26.3525133],[126.8763209,26.3543558],[126.8770239,26.354907],[126.8789748,26.3558834],[126.8795547,26.3559622],[126.8814353,26.3568126],[126.8822437,26.3569385],[126.884546,26.3577889],[126.8870417,26.359159],[126.8876744,26.359285],[126.888764,26.3598991],[126.8897307,26.3601826],[126.8919451,26.3611274],[126.8937026,26.3617888],[126.8953195,26.3622297],[126.8968134,26.36234],[126.8976218,26.3624502],[126.8984479,26.3628439],[126.8993969,26.3635368],[126.9005569,26.3641194],[126.9033689,26.3647178],[126.9062687,26.3649855],[126.9095377,26.3651902],[126.9130175,26.3651902],[126.915478,26.3651902],[126.918747,26.364954],[126.9199597,26.3647178],[126.923211,26.3643399],[126.9251619,26.3639462],[126.9277805,26.3632061],[126.9294677,26.3624974],[126.9304168,26.3617888],[126.9308034,26.3613479],[126.9315064,26.3610802],[126.931981,26.3607337],[126.9331233,26.3600566],[126.9337209,26.3595212],[126.9341954,26.3587495],[126.9346699,26.3573007],[126.9346699,26.3566866],[126.9350566,26.3558519],[126.9351972,26.3551747],[126.935162,26.3543873],[126.9352851,26.3527337],[126.9353202,26.3514581],[126.9352148,26.3503714],[126.9350039,26.349647],[126.9346524,26.3490013],[126.9340197,26.3481981],[126.9333342,26.3475208],[126.9320161,26.3465759],[126.930575,26.3459932],[126.9292041,26.3456467],[126.9286417,26.3455994],[126.9280969,26.3452687],[126.9272884,26.3450797],[126.9260933,26.3446859],[126.9252497,26.3445442],[126.9248104,26.3447174],[126.9245643,26.3450639],[126.924617,26.3456467],[126.9249861,26.3463869],[126.9256364,26.3471429],[126.9256364,26.3473634],[126.9246873,26.3477256],[126.9241249,26.3474893],[126.9236856,26.3466704],[126.9236153,26.3462136],[126.9229826,26.3458042],[126.9228595,26.3453474],[126.923088,26.3448434],[126.922385,26.3443237],[126.9222444,26.3432527],[126.9217699,26.3426857],[126.9209439,26.3423865],[126.9200124,26.342292],[126.9189227,26.3423077],[126.9183252,26.3421817],[126.9178331,26.342292],[126.9174113,26.3428117],[126.9171652,26.3435205],[126.9174113,26.3443394],[126.9179913,26.3451112],[126.9180088,26.3455837],[126.9173937,26.3461664],[126.916884,26.3459144],[126.9161107,26.3444497],[126.9160404,26.3438512],[126.9162865,26.3430952],[126.9163392,26.3424337],[126.9160932,26.3422132],[126.9150738,26.3422132],[126.9140193,26.3418982],[126.9113655,26.3404334],[126.9101001,26.3395514],[126.9076923,26.3380079],[126.9071475,26.3380236],[126.9064972,26.3384174],[126.9059524,26.3395987],[126.905513,26.3398349],[126.9048803,26.3398664],[126.9041773,26.3402917],[126.9038258,26.3408587],[126.9037204,26.3416147],[126.9038258,26.3430795],[126.9035095,26.3433787],[126.9024198,26.3430637],[126.9020507,26.3434102],[126.9021738,26.3439772],[126.9017871,26.3445442],[126.901752,26.3452687],[126.9021386,26.3459144],[126.901998,26.3461979],[126.9014532,26.3463396],[126.9004866,26.3458357],[126.8986763,26.3449064],[126.8976394,26.3448592],[126.8960225,26.3446072],[126.8956534,26.3441504],[126.8957765,26.3437252],[126.8961807,26.3430165],[126.8959698,26.3427015],[126.8955831,26.3427802],[126.8947571,26.3435677],[126.8939487,26.3437725],[126.8932632,26.3436307],[126.8924372,26.3430322],[126.8922087,26.3424495],[126.8922966,26.3418667],[126.8924724,26.3410477],[126.8922087,26.3404019],[126.8923493,26.3397877],[126.8926833,26.3392837],[126.893316,26.3389687],[126.893562,26.3385907],[126.8934741,26.3381181],[126.8931402,26.3378031],[126.8922087,26.3375826],[126.8911894,26.3378189],[126.8899591,26.3382914],[126.8887816,26.3390002],[126.8879732,26.3399767],[126.8875514,26.3409532],[126.8868659,26.3416462],[126.8859872,26.342103],[126.8856005,26.3416935],[126.8849151,26.3415045],[126.8844933,26.3415202],[126.8840012,26.3418982],[126.8838255,26.3422447],[126.8831752,26.342796],[126.882437,26.3429535],[126.8813122,26.342985],[126.8805389,26.3427645],[126.880082,26.3422605],[126.8798359,26.341851],[126.879379,26.3416935],[126.8785354,26.3416462],[126.8780257,26.341914],[126.8776215,26.342607],[126.8774457,26.3431425],[126.8769009,26.3430637],[126.8767252,26.342292],[126.8763209,26.341788],[126.875741,26.3412682],[126.8748271,26.3411265],[126.8740889,26.341095],[126.8736144,26.341473],[126.8730696,26.3424967],[126.8726126,26.3426385],[126.8721732,26.342481],[126.8717916,26.3418119],[126.8713648,26.3410635],[126.8715933,26.3406382],[126.8713121,26.3400397],[126.8704685,26.3392207],[126.8696073,26.3390789],[126.8689219,26.3394097],[126.8684885,26.3397295],[126.8683243,26.3398507],[126.8679377,26.3398349],[126.8674983,26.3394727],[126.8675862,26.3389214],[126.8682013,26.3382914],[126.8685704,26.3374566],[126.8685001,26.3366218],[126.8689746,26.3359918],[126.8689394,26.3354878],[126.8685352,26.3352357],[126.8681837,26.3352988],[126.8676916,26.3357083],[126.8671644,26.335724],[126.866725,26.335913],[126.8664438,26.3363698],[126.8664789,26.3367793],[126.8663559,26.3373306],[126.8657232,26.3379606],[126.8644227,26.3387324],[126.8638427,26.3389057],[126.8633154,26.3387639],[126.8628233,26.3383386],[126.8621906,26.3372991],[126.8620107,26.3371232],[126.861804,26.3369211],[126.8617161,26.3362281],[126.8614349,26.3357083],[126.8610131,26.3355823],[126.8604859,26.3357713],[126.8603277,26.335976],[126.8599586,26.3359288],[126.8597301,26.3354248],[126.8591853,26.335346],[126.8583241,26.3356925],[126.8577617,26.335661],[126.8573224,26.3358343],[126.8561624,26.3359445],[126.8556527,26.335724],[126.8550552,26.3349207],[126.8545631,26.3344482],[126.8538425,26.3342592],[126.8527529,26.3334401],[126.8521377,26.3334086],[126.8516281,26.3334244],[126.8514875,26.3328888],[126.8510129,26.3325108],[126.8498881,26.3322115],[126.8495366,26.3314082],[126.8496069,26.3310144],[126.8494312,26.3302741],[126.8490094,26.3302426],[126.8483943,26.3310144],[126.8481834,26.3306206],[126.8482361,26.3296283],[126.8480428,26.3288564],[126.8485349,26.3280058],[126.8491851,26.3273915],[126.8492906,26.3267142],[126.8490445,26.3260683],[126.849027,26.3253752],[126.8491851,26.3243828],[126.8497475,26.3236897],[126.850679,26.3230281],[126.8516105,26.3226028],[126.8518565,26.3221617],[126.8518565,26.3217836],[126.8510657,26.3210275],[126.8507317,26.3206652],[126.8503627,26.3200036],[126.8499409,26.3188221],[126.8497827,26.3179872],[126.8495366,26.3173255],[126.8491676,26.3168844],[126.8486403,26.3167899],[126.847867,26.3163173],[126.8473222,26.3155611],[126.8467071,26.3148995],[126.8463204,26.3141748],[126.8457756,26.3136234],[126.8446508,26.3128987],[126.8436314,26.3123316],[126.8426472,26.3120008],[126.8416806,26.3118275],[126.8409073,26.3122213],[126.840837,26.3115281],[126.8405382,26.3111658],[126.8400461,26.31115],[126.8395013,26.3115124],[126.8387983,26.3123946],[126.8385522,26.3133556],[126.8388334,26.313907],[126.8399934,26.31397],[126.8405909,26.3147262],[126.8404503,26.3153878],[126.8400988,26.3160495],[126.8392904,26.3172783],[126.8378141,26.3181604],[126.8369002,26.3188536],[126.8362675,26.3203659],[126.8363378,26.3217836],[126.8341936,26.324115],[126.8326822,26.3248081],[126.8310301,26.3259738],[126.8303623,26.3266669],[126.8290969,26.3268244],[126.8279369,26.3276435],[126.8273394,26.3288722],[126.8271444,26.3293819],[126.8269176,26.3299748],[126.8259685,26.3305104],[126.825371,26.3310774],[126.8247734,26.3316445],[126.8236486,26.331928],[126.8224887,26.331865],[126.8215045,26.33155],[126.8209069,26.3304474],[126.8207312,26.3293762],[126.8200633,26.3291557],[126.819044,26.3292187],[126.8187979,26.3298488],[126.8188072,26.3310359]],[[126.83672,26.345797],[126.836708,26.34574],[126.836748,26.345701],[126.836812,26.345678],[126.83688,26.345684],[126.837015,26.34579],[126.836975,26.345847],[126.836892,26.345898],[126.83683,26.345907],[126.836792,26.345896],[126.83672,26.345797]],[[126.836623,26.344266],[126.836748,26.344294],[126.83679,26.344369],[126.836837,26.344379],[126.836897,26.344443],[126.836902,26.344488],[126.836837,26.344505],[126.836773,26.344463],[126.836712,26.344488],[126.836637,26.344466],[126.836602,26.344429],[126.83653,26.344401],[126.83649,26.344322],[126.836452,26.344294],[126.836455,26.344226],[126.83648,26.344206],[126.836552,26.344212],[126.836623,26.344266]],[[126.836357,26.345695],[126.836338,26.345752],[126.836302,26.345771],[126.836295,26.345794],[126.836332,26.34585],[126.836305,26.345916],[126.836263,26.34593],[126.836223,26.346036],[126.83616,26.346072],[126.836013,26.3461],[126.835975,26.346078],[126.83597,26.345841],[126.836005,26.3458],[126.836033,26.345797],[126.83601,26.345758],[126.83603,26.345693],[126.83608,26.345659],[126.83613,26.345656],[126.836138,26.345551],[126.836198,26.345501],[126.83618,26.345473],[126.836182,26.345416],[126.836252,26.34534],[126.836242,26.345247],[126.836302,26.345193],[126.836352,26.345196],[126.836363,26.345173],[126.836465,26.345157],[126.836502,26.345204],[126.836602,26.345255],[126.836545,26.345343],[126.836537,26.345433],[126.836455,26.345486],[126.836482,26.345551],[126.836473,26.345596],[126.83644,26.345633],[126.836342,26.345676],[126.836357,26.345695]],[[126.898706,26.350928],[126.898731,26.350843],[126.898769,26.350798],[126.898819,26.350764],[126.898925,26.350759],[126.899113,26.350838],[126.899557,26.350946],[126.899895,26.351001],[126.900327,26.351001],[126.900778,26.350951],[126.901122,26.350939],[126.901341,26.350946],[126.902036,26.351029],[126.902455,26.351046],[126.902743,26.351108],[126.903117,26.351232],[126.903412,26.351379],[126.903637,26.351576],[126.903668,26.351633],[126.903668,26.351757],[126.903643,26.351791],[126.903537,26.351842],[126.903424,26.351842],[126.903267,26.351808],[126.90303,26.351723],[126.902798,26.351689],[126.902129,26.351684],[126.901954,26.351706],[126.901741,26.351768],[126.901604,26.351779],[126.901159,26.351684],[126.900515,26.351656],[126.899726,26.351469],[126.899626,26.351464],[126.89957,26.351486],[126.899513,26.351543],[126.899138,26.352203],[126.898975,26.352338],[126.898903,26.352338],[126.898818,26.352311],[126.898693,26.352214],[126.898643,26.352129],[126.898618,26.351983],[126.898624,26.351486],[126.898706,26.350928]],[[126.836775,26.337948],[126.83675,26.337886],[126.836725,26.337677],[126.836725,26.337463],[126.836763,26.337182],[126.836775,26.336798],[126.836794,26.336702],[126.836869,26.336573],[126.8369,26.336539],[126.837069,26.336448],[126.837219,26.336448],[126.837564,26.336573],[126.837814,26.336685],[126.838465,26.337063],[126.839271,26.337447],[126.839528,26.337543],[126.84033,26.337677],[126.840562,26.337705],[126.840843,26.337702],[126.8413,26.337673],[126.841582,26.337633],[126.841837,26.337543],[126.84192,26.337486],[126.841988,26.337356],[126.842013,26.337266],[126.842088,26.337187],[126.84217,26.337153],[126.842264,26.337159],[126.842364,26.337227],[126.842398,26.337275],[126.842458,26.337193],[126.842602,26.337108],[126.842815,26.337035],[126.842915,26.337063],[126.842946,26.337108],[126.842953,26.337227],[126.842915,26.337368],[126.842853,26.337458],[126.842757,26.337499],[126.842743,26.337556],[126.842674,26.337604],[126.842721,26.337691],[126.842655,26.337844],[126.842658,26.33791],[126.842583,26.337995],[126.842508,26.338012],[126.842493,26.338037],[126.84249,26.338138],[126.842423,26.338208],[126.84237,26.338405],[126.842408,26.338907],[126.842564,26.33933],[126.842665,26.339685],[126.842796,26.339979],[126.842827,26.340091],[126.842877,26.340622],[126.84284,26.340809],[126.842708,26.341164],[126.842596,26.341384],[126.842301,26.341654],[126.842203,26.341785],[126.842199,26.342],[126.842223,26.342077],[126.842176,26.342136],[126.842136,26.342255],[126.842082,26.342288],[126.842035,26.342291],[126.841973,26.342249],[126.841823,26.342243],[126.841738,26.342351],[126.841635,26.342382],[126.841563,26.342469],[126.841497,26.342489],[126.841359,26.342596],[126.841272,26.342627],[126.841256,26.342712],[126.841225,26.342751],[126.841125,26.342785],[126.841056,26.342898],[126.840968,26.342934],[126.840918,26.343081],[126.840815,26.343129],[126.840787,26.343183],[126.840715,26.343236],[126.84064,26.343239],[126.840599,26.343222],[126.84053,26.343309],[126.840489,26.343318],[126.840418,26.343309],[126.840277,26.343256],[126.840218,26.343159],[126.840132,26.343157],[126.840112,26.343134],[126.840062,26.343122],[126.839954,26.343164],[126.839905,26.34315],[126.839854,26.343205],[126.839848,26.343245],[126.839873,26.343281],[126.839859,26.343323],[126.839804,26.343341],[126.839665,26.343324],[126.83954,26.343341],[126.839228,26.343521],[126.839087,26.343574],[126.839057,26.343633],[126.838977,26.34364],[126.838702,26.343702],[126.838608,26.343758],[126.838468,26.343793],[126.838408,26.343841],[126.838368,26.343847],[126.838283,26.343867],[126.83812,26.34386],[126.837995,26.34382],[126.837907,26.343736],[126.837882,26.343685],[126.837863,26.343499],[126.837895,26.343245],[126.837788,26.342929],[126.83747,26.342636],[126.83743,26.342617],[126.83735,26.342624],[126.837305,26.342605],[126.837292,26.342554],[126.83732,26.342486],[126.837277,26.342442],[126.837206,26.342393],[126.83708,26.34219],[126.83688,26.341649],[126.836793,26.34113],[126.83675,26.340972],[126.83675,26.340464],[126.836881,26.339996],[126.836938,26.339669],[126.836844,26.339386],[126.836839,26.338683],[126.836784,26.338635],[126.836762,26.338582],[126.836775,26.338491],[126.836731,26.338398],[126.83675,26.338243],[126.836703,26.338172],[126.836697,26.338093],[126.836723,26.338018],[126.836775,26.337948]],[[126.833148,26.33955],[126.833091,26.33955],[126.833026,26.339509],[126.832996,26.339526],[126.832938,26.339513],[126.832913,26.339457],[126.832935,26.339389],[126.832875,26.339336],[126.832869,26.33931],[126.832897,26.339265],[126.832844,26.339231],[126.832831,26.3392],[126.832847,26.339152],[126.832872,26.339133],[126.83282,26.339116],[126.832806,26.339056],[126.832841,26.339014],[126.832891,26.339003],[126.83286,26.338886],[126.832878,26.338853],[126.832916,26.338841],[126.833113,26.338895],[126.83327,26.33902],[126.83331,26.33911],[126.833398,26.339166],[126.833417,26.339223],[126.833373,26.339313],[126.833416,26.33935],[126.833435,26.339409],[126.833332,26.339516],[126.83327,26.339533],[126.833182,26.33951],[126.833148,26.33955]],[[126.884186,26.345416],[126.884059,26.345361],[126.883845,26.34531],[126.883573,26.345279],[126.88341,26.345281],[126.882484,26.345386],[126.881771,26.345538],[126.88143,26.345558],[126.88123,26.345493],[126.881186,26.345403],[126.881193,26.345312],[126.881171,26.345245],[126.881146,26.345228],[126.881096,26.345239],[126.881014,26.345386],[126.880851,26.345555],[126.880344,26.345651],[126.880238,26.345651],[126.880125,26.345589],[126.880003,26.345273],[126.879947,26.345242],[126.87974,26.345216],[126.879709,26.34523],[126.879624,26.345354],[126.879534,26.345428],[126.879384,26.345521],[126.879221,26.345591],[126.879071,26.345631],[126.878595,26.345687],[126.878379,26.345637],[126.87831,26.345586],[126.878266,26.345529],[126.878245,26.3454],[126.878163,26.345295],[126.878094,26.345363],[126.878044,26.345532],[126.877988,26.345645],[126.877935,26.345699],[126.877809,26.345758],[126.877359,26.345814],[126.877127,26.345823],[126.876977,26.345797],[126.876896,26.345764],[126.876833,26.345693],[126.876818,26.345614],[126.876839,26.345332],[126.876802,26.345264],[126.876683,26.345199],[126.87647,26.345177],[126.876251,26.345197],[126.876201,26.345219],[126.876166,26.345264],[126.876257,26.345648],[126.87626,26.345733],[126.87623,26.345803],[126.876201,26.345845],[126.876107,26.345907],[126.875919,26.34595],[126.874999,26.345859],[126.873835,26.345673],[126.873509,26.345656],[126.872782,26.345738],[126.872627,26.3458],[126.872352,26.345859],[126.872264,26.345865],[126.871989,26.345831],[126.871812,26.345783],[126.8716,26.345693],[126.871421,26.34558],[126.871362,26.345521],[126.87134,26.345473],[126.871337,26.345383],[126.871369,26.345205],[126.871419,26.345067],[126.871456,26.34481],[126.871481,26.344593],[126.871412,26.344142],[126.87143,26.344119],[126.871481,26.344105],[126.871619,26.344159],[126.871922,26.344438],[126.872014,26.34481],[126.871975,26.34518],[126.872035,26.345284],[126.872122,26.345329],[126.872264,26.345366],[126.872414,26.345374],[126.872727,26.345312],[126.872927,26.345197],[126.87312,26.345036],[126.87328,26.345022],[126.873394,26.345058],[126.873559,26.345081],[126.873797,26.345024],[126.873922,26.345067],[126.874065,26.345194],[126.874175,26.345259],[126.874668,26.345448],[126.875156,26.345515],[126.875719,26.345546],[126.875804,26.345498],[126.875851,26.345442],[126.875873,26.34534],[126.875863,26.345284],[126.875744,26.34512],[126.875741,26.34507],[126.875769,26.34503],[126.876001,26.344974],[126.876408,26.344943],[126.876752,26.344946],[126.876933,26.344971],[126.877065,26.345016],[126.877102,26.345044],[126.877146,26.345123],[126.877165,26.345304],[126.877196,26.34536],[126.877284,26.345431],[126.877365,26.345439],[126.877622,26.345383],[126.877709,26.345307],[126.877841,26.345118],[126.877969,26.345067],[126.878107,26.345061],[126.878304,26.345087],[126.878417,26.345132],[126.878633,26.34534],[126.878745,26.345373],[126.878955,26.34536],[126.879246,26.34527],[126.879308,26.345228],[126.879362,26.345154],[126.879399,26.344991],[126.879446,26.344918],[126.879537,26.344875],[126.87975,26.344875],[126.879972,26.344923],[126.88006,26.344966],[126.880119,26.345025],[126.880307,26.345278],[126.880363,26.345315],[126.880445,26.345335],[126.88057,26.345324],[126.880664,26.345225],[126.880754,26.34496],[126.880798,26.344909],[126.880861,26.344878],[126.881111,26.34487],[126.881312,26.344906],[126.881487,26.345011],[126.88168,26.345044],[126.882343,26.344937],[126.882669,26.344844],[126.882806,26.344824],[126.883658,26.344763],[126.883953,26.344723],[126.884278,26.344658],[126.88444,26.344646],[126.885042,26.344474],[126.885305,26.344424],[126.885474,26.344415],[126.885649,26.344383],[126.886732,26.344],[126.88712,26.343949],[126.887251,26.34398],[126.887323,26.344022],[126.887389,26.344099],[126.887405,26.344259],[126.887389,26.344519],[126.887429,26.345046],[126.887458,26.345355],[126.887536,26.345637],[126.887586,26.345795],[126.887818,26.346336],[126.887978,26.346629],[126.888065,26.346731],[126.888156,26.346898],[126.888403,26.347247],[126.888694,26.347549],[126.888891,26.347718],[126.889696,26.348291],[126.890146,26.348587],[126.890656,26.348824],[126.890897,26.348959],[126.891248,26.349101],[126.89142,26.349224],[126.891558,26.349286],[126.891923,26.349264],[126.892045,26.349281],[126.893135,26.349551],[126.893303,26.349671],[126.893417,26.349709],[126.89408,26.349783],[126.894298,26.349786],[126.894685,26.349751],[126.895318,26.349774],[126.895522,26.349728],[126.895632,26.349684],[126.895788,26.349526],[126.895892,26.349456],[126.895964,26.349426],[126.896043,26.349422],[126.896093,26.349433],[126.896218,26.349504],[126.89633,26.349749],[126.896531,26.349929],[126.89664,26.349983],[126.896756,26.350021],[126.897094,26.350043],[126.897221,26.350086],[126.897494,26.350241],[126.897695,26.350128],[126.897929,26.350046],[126.897995,26.350043],[126.898058,26.350071],[126.898067,26.350124],[126.897861,26.350576],[126.897764,26.350903],[126.897704,26.350951],[126.897654,26.350953],[126.897491,26.350886],[126.897354,26.350791],[126.897113,26.350578],[126.896934,26.350478],[126.896734,26.350398],[126.896387,26.350206],[126.896243,26.350076],[126.896185,26.349998],[126.896124,26.349808],[126.896085,26.349771],[126.896035,26.349754],[126.895974,26.349754],[126.895892,26.349811],[126.895778,26.350083],[126.895717,26.350136],[126.895632,26.350156],[126.895328,26.350146],[126.89489,26.350173],[126.894157,26.350158],[126.893645,26.350194],[126.89352,26.350231],[126.893391,26.350338],[126.893181,26.350438],[126.892693,26.350474],[126.892568,26.350524],[126.892167,26.350796],[126.89197,26.350861],[126.891744,26.350869],[126.89151,26.350833],[126.891201,26.350706],[126.89101,26.350491],[126.890963,26.350333],[126.89091,26.350241],[126.890628,26.349949],[126.890293,26.349729],[126.889924,26.349453],[126.889661,26.349289],[126.888616,26.348691],[126.88845,26.348579],[126.888062,26.348436],[126.887715,26.348184],[126.887464,26.347924],[126.887305,26.347721],[126.886942,26.347157],[126.886892,26.347061],[126.886798,26.346734],[126.886632,26.346418],[126.886409,26.346249],[126.886281,26.346178],[126.885843,26.346043],[126.884754,26.345876],[126.884582,26.345792],[126.88441,26.345603],[126.884186,26.345416]],[[126.836655,26.346171],[126.83668,26.346126],[126.836817,26.346019],[126.836867,26.345999],[126.836915,26.346005],[126.836977,26.346049],[126.836973,26.346253],[126.836942,26.346309],[126.836992,26.346399],[126.836995,26.346467],[126.836942,26.346577],[126.83704,26.346725],[126.837115,26.346756],[126.837162,26.346798],[126.83718,26.346843],[126.837177,26.346911],[126.837208,26.34699],[126.83728,26.347046],[126.837305,26.347094],[126.837312,26.347128],[126.837275,26.347252],[126.83728,26.347385],[126.837215,26.347523],[126.837203,26.347647],[126.837175,26.347689],[126.837025,26.347785],[126.836973,26.347873],[126.836862,26.347892],[126.836702,26.347957],[126.836573,26.347912],[126.836485,26.347912],[126.836427,26.347844],[126.836288,26.347788],[126.836247,26.347746],[126.83623,26.347678],[126.836132,26.347684],[126.835945,26.347557],[126.835892,26.347464],[126.835907,26.347421],[126.835857,26.347365],[126.835828,26.347204],[126.83585,26.347137],[126.835935,26.347072],[126.835928,26.347015],[126.835985,26.346905],[126.835985,26.34679],[126.836052,26.346714],[126.83606,26.346577],[126.836035,26.346512],[126.836042,26.346453],[126.83608,26.346411],[126.836238,26.34632],[126.836327,26.346337],[126.836373,26.346292],[126.836435,26.34627],[126.83663,26.346258],[126.836632,26.346222],[126.836662,26.34621],[126.836655,26.346171]],[[126.852021,26.337083],[126.852547,26.337049],[126.852776,26.337079],[126.853265,26.337299],[126.853615,26.337503],[126.853861,26.3375488],[126.854491,26.337686],[126.854579,26.337719],[126.854679,26.337838],[126.854773,26.338016],[126.854873,26.338078],[126.854973,26.338049],[126.855073,26.337971],[126.855233,26.337903],[126.855324,26.337903],[126.855474,26.337937],[126.855546,26.337976],[126.855621,26.338081],[126.855612,26.338143],[126.855455,26.33832],[126.855368,26.338476],[126.855343,26.338569],[126.855339,26.338859],[126.855377,26.33913],[126.855336,26.339278],[126.855199,26.339431],[126.855061,26.339532],[126.85497,26.339575],[126.854823,26.339597],[126.854557,26.339589],[126.854498,26.339572],[126.854435,26.339521],[126.854429,26.339487],[126.854444,26.339442],[126.854504,26.339372],[126.854839,26.339211],[126.854914,26.33915],[126.854979,26.339065],[126.85502,26.338944],[126.85502,26.338862],[126.85497,26.338673],[126.854917,26.338616],[126.854829,26.338543],[126.854604,26.338422],[126.854206,26.33825],[126.853969,26.338086],[126.853884,26.337999],[126.853799,26.337943],[126.853517,26.337816],[126.853192,26.337562],[126.85293,26.337469],[126.852579,26.33746],[126.852347,26.337432],[126.852071,26.337435],[126.851796,26.337361],[126.851652,26.337288],[126.851586,26.337234],[126.851508,26.337147],[126.85148,26.337083],[126.85148,26.336936],[126.851577,26.336755],[126.851736,26.336589],[126.851815,26.336583],[126.851899,26.336623],[126.851965,26.336673],[126.851994,26.336719],[126.851994,26.336775],[126.851955,26.336885],[126.851882,26.337037],[126.851969,26.337079],[126.852021,26.337083]],[[126.839769,26.346761],[126.839704,26.346821],[126.839581,26.346835],[126.839513,26.346897],[126.83946,26.346914],[126.839279,26.346908],[126.839204,26.346859],[126.839201,26.346814],[126.839159,26.346827],[126.838946,26.346636],[126.838928,26.346605],[126.838931,26.346515],[126.838878,26.346473],[126.838828,26.346349],[126.83879,26.346323],[126.83874,26.346233],[126.838756,26.346199],[126.838793,26.346177],[126.838931,26.346174],[126.839078,26.346247],[126.839169,26.346258],[126.839263,26.346332],[126.839328,26.346332],[126.839431,26.346416],[126.839544,26.346476],[126.839591,26.346546],[126.839669,26.346583],[126.83976,26.346708],[126.839769,26.346761]],[[126.832603,26.339412],[126.832629,26.339377],[126.832697,26.339364],[126.832734,26.339389],[126.832784,26.339491],[126.832783,26.33959],[126.832778,26.339756],[126.832738,26.339801],[126.832669,26.339826],[126.832631,26.3399],[126.832584,26.3399],[126.832534,26.339874],[126.832446,26.339798],[126.832443,26.339742],[126.832481,26.339674],[126.832431,26.339584],[126.832462,26.339522],[126.832465,26.339431],[126.832512,26.339389],[126.832603,26.339412]],[[126.862482,26.340283],[126.862292,26.340207],[126.862076,26.340037],[126.861992,26.339992],[126.861726,26.339897],[126.861141,26.339793],[126.860627,26.339795],[126.860128,26.339862],[126.85984,26.339927],[126.859524,26.33997],[126.859401,26.340012],[126.859148,26.340026],[126.858998,26.339947],[126.858929,26.339882],[126.858882,26.339778],[126.858866,26.33969],[126.858882,26.33962],[126.858926,26.339542],[126.859046,26.339436],[126.859114,26.339387],[126.859184,26.339381],[126.859758,26.339426],[126.860196,26.339437],[126.860646,26.339423],[126.861245,26.339364],[126.86182,26.339237],[126.861998,26.339217],[126.862173,26.339226],[126.862575,26.339339],[126.86306,26.339432],[126.863774,26.339497],[126.8645,26.339502],[126.864625,26.339525],[126.864716,26.339511],[126.864903,26.339536],[126.865079,26.339536],[126.865313,26.339587],[126.865479,26.33968],[126.865532,26.339759],[126.865633,26.340027],[126.86567,26.340199],[126.865667,26.340286],[126.865586,26.340469],[126.865463,26.340613],[126.864891,26.340748],[126.864553,26.340906],[126.864399,26.340943],[126.864253,26.340928],[126.863846,26.340666],[126.863658,26.340587],[126.863441,26.340517],[126.862643,26.340342],[126.862482,26.340283]],[[126.83624,26.334611],[126.836193,26.334696],[126.836065,26.334828],[126.836015,26.334849],[126.835969,26.334828],[126.835948,26.33477],[126.835883,26.334369],[126.835842,26.334279],[126.835851,26.334222],[126.835883,26.334194],[126.835958,26.334203],[126.836043,26.334245],[126.836255,26.334465],[126.836261,26.334521],[126.83624,26.334611]],[[126.930603,26.358309],[126.930603,26.358348],[126.93054,26.358354],[126.930162,26.358032],[126.930103,26.358032],[126.930058,26.358055],[126.92999,26.35814],[126.92977,26.358134],[126.929351,26.358066],[126.929301,26.358044],[126.929276,26.357993],[126.929282,26.357959],[126.929395,26.35788],[126.929533,26.35783],[126.929827,26.357813],[126.92989,26.357773],[126.929808,26.357649],[126.929808,26.357542],[126.929883,26.357491],[126.930059,26.357457],[126.930221,26.357322],[126.93029,26.357305],[126.930315,26.357344],[126.930378,26.357581],[126.93044,26.357672],[126.930515,26.35814],[126.930603,26.358309]]]}}
