{"type":"Feature","id":"attraction-large-park-R6189078","properties":{"id":"attraction-large-park-R6189078","kind":"attraction","name":"西岡公園","shortName":"西岡公園","context":"日本","subtype":"large-park","subtypeLabel":"大型都市公園・広域公園","statusLabel":"著名な公園","aliases":["Nishioka Park"],"osmType":"relation","osmId":6189078,"osmDate":null,"officialAreaKm2":null,"areaSourceLabel":"","areaSourceUrl":"","boundarySourceLabel":"© OpenStreetMap contributors","boundarySourceUrl":"https://www.openstreetmap.org/copyright","geometryFile":"attractions/large-park-R6189078.geojson"},"geometry":{"type":"Polygon","coordinates":[[[141.3774535,42.9857409],[141.3776528,42.9862747],[141.3776624,42.9866084],[141.3776744,42.9869701],[141.3776984,42.9870228],[141.3777164,42.9870208],[141.3780585,42.9871457],[141.3782315,42.9872409],[141.3783586,42.9874127],[141.3788771,42.9881766],[141.3792636,42.9886964],[141.379422,42.9888614],[141.3797422,42.9891476],[141.3798614,42.9890609],[141.3800667,42.9888841],[141.3801541,42.9888165],[141.3802094,42.9887699],[141.3802408,42.9887435],[141.3803873,42.9886201],[141.3809635,42.9881131],[141.3810691,42.9878547],[141.3810878,42.9877943],[141.3810267,42.9876961],[141.3809946,42.9870731],[141.380969,42.9866038],[141.3809474,42.9862937],[141.3808976,42.9857919],[141.3808381,42.9851231],[141.3807654,42.984268],[141.3807047,42.9836709],[141.3806887,42.9835443],[141.3806273,42.9831538],[141.3805816,42.9828116],[141.3803367,42.9826026],[141.3800534,42.982283],[141.379458,42.9818544],[141.3792108,42.9820634],[141.3788987,42.9818896],[141.3790835,42.9815822],[141.3785458,42.9811783],[141.3778712,42.9804881],[141.3777632,42.9803037],[141.3779793,42.9794659],[141.3781545,42.978535],[141.3767861,42.9783138],[141.3756386,42.9779484],[141.3753073,42.9782821],[141.3750193,42.9787546],[141.3746208,42.9794413],[141.3742967,42.9800929],[141.3743016,42.9802515],[141.3743063,42.9804038],[141.3743846,42.9805638],[141.3742698,42.980666],[141.3742509,42.9807416],[141.3741241,42.980908],[141.3740921,42.9810495],[141.3740577,42.9813459],[141.3740273,42.9814303],[141.3739126,42.981605],[141.3736821,42.9818685],[141.3747003,42.9827296],[141.3754514,42.9823832],[141.3768385,42.9839728],[141.3774521,42.9853068],[141.3774535,42.9857409]]]}}
