{"type":"Feature","id":"attraction-large-military-base-W598228287","properties":{"id":"attraction-large-military-base-W598228287","kind":"attraction","name":"陸上自衛隊関山演習場","shortName":"陸上自衛隊関山演習場","context":"日本","subtype":"military-base","subtypeLabel":"基地・駐屯地・演習場","statusLabel":"","aliases":[],"osmType":"way","osmId":598228287,"osmDate":null,"officialAreaKm2":null,"areaSourceLabel":"","areaSourceUrl":"","boundarySourceLabel":"© OpenStreetMap contributors","boundarySourceUrl":"https://www.openstreetmap.org/copyright","geometryFile":"attractions/large-military-base-W598228287.geojson"},"geometry":{"type":"Polygon","coordinates":[[[138.2124549,36.9453474],[138.2126051,36.9457504],[138.2128948,36.9463378],[138.2129216,36.9470237],[138.2117629,36.9479455],[138.21069,36.9487514],[138.2102126,36.9488329],[138.20988,36.94861],[138.2094455,36.9483313],[138.2089037,36.948207],[138.2088071,36.9478683],[138.2086891,36.947431],[138.2081366,36.9473667],[138.2076591,36.9473624],[138.2073802,36.9474953],[138.2072407,36.9477311],[138.2070476,36.9480183],[138.2066345,36.9481684],[138.2058728,36.9489058],[138.204816,36.9498275],[138.2033032,36.9511607],[138.2029653,36.9514651],[138.2025737,36.9519924],[138.2024449,36.9521682],[138.202461,36.9524983],[138.2027346,36.952957],[138.2024932,36.953137],[138.2019782,36.952584],[138.2009858,36.9525497],[138.2004815,36.9526397],[138.1998056,36.9525154],[138.1996983,36.952584],[138.1994623,36.9526955],[138.1985664,36.9529312],[138.1981963,36.952927],[138.19781,36.9528626],[138.1978261,36.953077],[138.1980622,36.9534199],[138.1984377,36.9535743],[138.1987113,36.9537972],[138.1990492,36.9539472],[138.1993979,36.9541187],[138.1998056,36.9541959],[138.200165,36.954333],[138.2001972,36.9544531],[138.2003367,36.9570851],[138.2006156,36.9585425],[138.2007122,36.9586626],[138.200562,36.9590226],[138.200959,36.9593313],[138.2013559,36.9595627],[138.201195,36.9600214],[138.2012325,36.9602829],[138.2013881,36.9606129],[138.2016993,36.9606429],[138.2018602,36.9611744],[138.2021981,36.9614016],[138.2018924,36.9620531],[138.2017314,36.9619331],[138.2011521,36.9624303],[138.2010287,36.9623875],[138.2009321,36.9624818],[138.200224,36.9621303],[138.1996447,36.9627347],[138.1991082,36.9624046],[138.1988722,36.9625804],[138.1974131,36.961946],[138.195852,36.9637634],[138.1956804,36.9640334],[138.1952673,36.9651821],[138.1949186,36.965135],[138.1945807,36.9652121],[138.1941515,36.9654393],[138.1937224,36.9655507],[138.1932932,36.9654864],[138.1930357,36.9653364],[138.192687,36.9654093],[138.1923813,36.9656536],[138.191759,36.9655507],[138.1912333,36.9653364],[138.1910026,36.9651264],[138.1907773,36.9650707],[138.1904072,36.9650707],[138.1899887,36.9650021],[138.1895596,36.9647449],[138.1889749,36.9645863],[138.1885993,36.9644535],[138.1880897,36.9644492],[138.1877518,36.9643334],[138.1874728,36.9642734],[138.1872153,36.9642049],[138.1870705,36.9642049],[138.1868237,36.9641663],[138.1867593,36.964042],[138.186475,36.9638748],[138.1861746,36.9641963],[138.1866306,36.9644749],[138.1865662,36.9647835],[138.186636,36.9648521],[138.1859922,36.965315],[138.1856382,36.9655807],[138.1856006,36.9662751],[138.185901,36.9664894],[138.1861424,36.9666008],[138.1860834,36.9667551],[138.1868559,36.9671194],[138.1867808,36.9673852],[138.1871724,36.9679852],[138.1867111,36.9680409],[138.1865931,36.9688381],[138.185311,36.9690567],[138.1857616,36.9727126],[138.1847477,36.973184],[138.1847262,36.9738826],[138.1846994,36.9740283],[138.1852519,36.9744311],[138.1852519,36.9746968],[138.1854236,36.9749325],[138.1856167,36.9750568],[138.186003,36.9753825],[138.1864107,36.9757254],[138.186636,36.9760254],[138.1862658,36.9759482],[138.1859493,36.9759568],[138.1857562,36.9760382],[138.1860888,36.9763125],[138.1859976,36.9764668],[138.1858206,36.9766039],[138.1856757,36.9766425],[138.1854451,36.9765911],[138.1852037,36.9766511],[138.1850052,36.9767882],[138.1846672,36.9772039],[138.1843668,36.9778596],[138.1843346,36.9780781],[138.1846082,36.9782838],[138.1847745,36.9784124],[138.1848979,36.9786438],[138.1847745,36.9789781],[138.1848657,36.9790509],[138.1849998,36.9792138],[138.1849945,36.9795652],[138.1849515,36.9799337],[138.1848818,36.9800751],[138.1847262,36.980208],[138.184458,36.9802937],[138.1843239,36.9804608],[138.1844687,36.9806836],[138.184517,36.9809408],[138.1843722,36.9812064],[138.1843132,36.981485],[138.1843883,36.981755],[138.1842542,36.9820035],[138.1842595,36.9822992],[138.1844419,36.9824577],[138.1842703,36.9827791],[138.1838465,36.9825263],[138.1837445,36.9828391],[138.1840825,36.9831562],[138.1842649,36.9830962],[138.1849033,36.9836233],[138.184694,36.9838504],[138.1845063,36.9838547],[138.1843829,36.9842918],[138.1841254,36.9844375],[138.1842327,36.9848703],[138.1835461,36.9848531],[138.1832457,36.9846389],[138.1832188,36.9844717],[138.1831008,36.983889],[138.1830901,36.9833319],[138.1831223,36.9829977],[138.1825107,36.9822949],[138.1822962,36.9818107],[138.1820118,36.9814078],[138.1819636,36.9811464],[138.1815559,36.9808936],[138.1812662,36.9805465],[138.1807727,36.9804565],[138.1805527,36.9802294],[138.1803113,36.9797366],[138.1799519,36.9789909],[138.1796569,36.9783524],[138.1793243,36.9777267],[138.1792384,36.9771053],[138.179056,36.9767753],[138.1785518,36.9764925],[138.1778651,36.9760768],[138.177216,36.9756482],[138.1766742,36.975464],[138.1762129,36.9752625],[138.1757033,36.9743197],[138.1756496,36.9739554],[138.1757623,36.9736426],[138.1757086,36.9727211],[138.1755048,36.9722797],[138.1745768,36.9709468],[138.1744695,36.9705611],[138.1744748,36.9701753],[138.1746143,36.9699396],[138.174904,36.9697382],[138.1748825,36.9694253],[138.1746519,36.9690996],[138.1744695,36.969331],[138.1746358,36.9696053],[138.1744909,36.9698025],[138.1742388,36.9699568],[138.1742388,36.9700639],[138.1730854,36.9705911],[138.1727099,36.9697982],[138.1727099,36.9692067],[138.1722915,36.9686581],[138.1716531,36.9669694],[138.1715673,36.966768],[138.1713742,36.9664894],[138.1718087,36.9664551],[138.1719482,36.9666351],[138.1723881,36.9667508],[138.1721467,36.9664808],[138.1725383,36.9664851],[138.1728333,36.9663051],[138.1731605,36.9667166],[138.1733483,36.9667937],[138.1742334,36.9667766],[138.1745714,36.9669351],[138.1751668,36.9672909],[138.1755263,36.9676552],[138.1766903,36.9684481],[138.1793565,36.9705354],[138.1796998,36.9707539],[138.1803381,36.9705332],[138.1807485,36.9704561],[138.1810194,36.9705246],[138.1824142,36.9712468],[138.182956,36.9718383],[138.1829613,36.9722047],[138.1839108,36.9731968],[138.1839859,36.9730383],[138.1841201,36.9729226],[138.1841254,36.9727597],[138.1850964,36.9723097],[138.184576,36.9691639],[138.1837338,36.9693525],[138.1831545,36.9699096],[138.1829935,36.9693353],[138.182956,36.9688767],[138.1822586,36.9679852],[138.1812501,36.9673466],[138.1807351,36.9669694],[138.1805366,36.966438],[138.1807566,36.9659793],[138.1806332,36.9656879],[138.1798768,36.9649464],[138.1797159,36.9640934],[138.1799787,36.9640034],[138.1801665,36.9637462],[138.1804186,36.9633433],[138.1808531,36.9631119],[138.1818992,36.9630604],[138.1821728,36.9621646],[138.182323,36.9620746],[138.182559,36.9621089],[138.1826663,36.9621903],[138.1830418,36.9622289],[138.1832886,36.9623918],[138.1834871,36.9624003],[138.1836641,36.9623103],[138.1839913,36.9623832],[138.1854129,36.962186],[138.1856114,36.9618731],[138.1871509,36.9621474],[138.1869256,36.9617274],[138.1861746,36.9616674],[138.1858474,36.9615945],[138.1854343,36.9613545],[138.1851608,36.961153],[138.1848657,36.9610673],[138.1844848,36.9612259],[138.1843829,36.9614916],[138.1843078,36.9616674],[138.1840235,36.961796],[138.1837285,36.9617574],[138.1833529,36.9612902],[138.1820333,36.9599014],[138.1815559,36.9590526],[138.1813145,36.9584182],[138.1811696,36.9579853],[138.1811643,36.9575481],[138.1807297,36.9569908],[138.1803542,36.9562749],[138.180145,36.9559491],[138.180027,36.9557005],[138.1798071,36.955439],[138.1797266,36.9549889],[138.1797212,36.9547874],[138.1796461,36.9546974],[138.1796461,36.9545345],[138.1805527,36.9539772],[138.1798768,36.9530684],[138.1792438,36.9529012],[138.1791955,36.9521253],[138.1784821,36.9514308],[138.1775111,36.9511179],[138.1776398,36.9491158],[138.1775057,36.9486957],[138.1765509,36.9489444],[138.1739437,36.9492916],[138.1726348,36.9492487],[138.1718302,36.9490515],[138.1708324,36.9485628],[138.1690299,36.9482027],[138.1672275,36.9475939],[138.1661224,36.9474396],[138.1655109,36.9471309],[138.1652641,36.9468394],[138.1648779,36.9467279],[138.1643522,36.9464021],[138.1643093,36.9460419],[138.1637621,36.9457333],[138.1627643,36.9452874],[138.1621957,36.9449272],[138.1618953,36.9447643],[138.1602001,36.9446271],[138.1590521,36.9435982],[138.1574857,36.9430322],[138.1567562,36.9425863],[138.1554901,36.9421061],[138.1551254,36.9417374],[138.154664,36.9416259],[138.1537092,36.941523],[138.1510699,36.943581],[138.151499,36.9438726],[138.1517887,36.9439369],[138.1522179,36.944014],[138.1527919,36.9442413],[138.1529581,36.9447858],[138.1527919,36.9452531],[138.152883,36.945536],[138.1532586,36.9459562],[138.15328,36.9465564],[138.1531137,36.9470752],[138.1533551,36.9477268],[138.1537145,36.9481212],[138.1541383,36.9489058],[138.1543046,36.9493645],[138.1546855,36.9496474],[138.1547069,36.9499261],[138.1547284,36.9502262],[138.1548357,36.9508092],[138.1540632,36.9509507],[138.1538647,36.9510321],[138.153559,36.9510922],[138.153398,36.9508778],[138.1534517,36.9503977],[138.1532156,36.949969],[138.152765,36.9497032],[138.152132,36.9496431],[138.1515312,36.9501147],[138.151027,36.9502348],[138.1505656,36.9500976],[138.1505227,36.9494031],[138.1502974,36.9488029],[138.1495893,36.9487429],[138.1490421,36.9488458],[138.1488597,36.9494545],[138.1487417,36.9498146],[138.148334,36.9501919],[138.1481945,36.9506806],[138.1479156,36.9513922],[138.1476688,36.9515723],[138.1470787,36.9517181],[138.1464994,36.951941],[138.1458235,36.9519238],[138.1453299,36.9519581],[138.1449222,36.9523439],[138.1445253,36.9525583],[138.1443,36.9527984],[138.1439996,36.9531756],[138.1367361,36.9450044],[138.1305456,36.9380072],[138.1556189,36.9328275],[138.1576574,36.9331877],[138.1599855,36.9342682],[138.1604147,36.9327246],[138.1606293,36.9328403],[138.1609243,36.9328618],[138.1612623,36.9329561],[138.1615734,36.9331534],[138.1617987,36.9334021],[138.1617987,36.9336936],[138.1618094,36.9340281],[138.1625926,36.9343883],[138.163569,36.9347485],[138.1648993,36.9349543],[138.1661224,36.9348771],[138.1670666,36.9349028],[138.1680429,36.9347999],[138.1687295,36.9344912],[138.1694054,36.9345169],[138.1706715,36.9341053],[138.1713366,36.9339595],[138.171798,36.9338309],[138.1723988,36.9338137],[138.1730425,36.9337537],[138.1733858,36.9336079],[138.1739867,36.9340538],[138.1744802,36.9342768],[138.1751239,36.9341053],[138.1757247,36.9338051],[138.1758642,36.9333849],[138.1765616,36.9331705],[138.1771517,36.9333506],[138.1772268,36.9338051],[138.1774843,36.9342768],[138.1780314,36.934354],[138.1790507,36.9342854],[138.1798875,36.9343969],[138.1804883,36.9343711],[138.181529,36.9343797],[138.1823659,36.9342425],[138.1831276,36.9339938],[138.1834173,36.933848],[138.18434,36.933788],[138.1852198,36.9337451],[138.1858742,36.9336679],[138.1866896,36.9336593],[138.1872582,36.9339767],[138.1879449,36.9342682],[138.1882238,36.934414],[138.1894791,36.9345255],[138.1899726,36.9343454],[138.1908202,36.9341053],[138.1911528,36.9338051],[138.1913566,36.9333935],[138.1918931,36.9335221],[138.1926978,36.933788],[138.1932878,36.9341653],[138.1941998,36.93486],[138.1946826,36.9350401],[138.1949723,36.9355289],[138.1956053,36.9355117],[138.1963885,36.9356146],[138.196646,36.9359148],[138.1966674,36.9367209],[138.1969142,36.9374498],[138.1974828,36.9379986],[138.1979763,36.9384445],[138.1985879,36.9386246],[138.1997251,36.9386161],[138.2003689,36.9381959],[138.2005191,36.9377585],[138.2004011,36.9374069],[138.200444,36.9372611],[138.2013881,36.9370468],[138.2022679,36.936961],[138.2027721,36.9367123],[138.2032871,36.9366008],[138.2044887,36.9371582],[138.2053685,36.937527],[138.2058084,36.9379986],[138.2065058,36.9384617],[138.2072139,36.9388133],[138.2073319,36.9392163],[138.2075572,36.9396965],[138.2082116,36.9402711],[138.208437,36.940717],[138.2084799,36.9411886],[138.2083297,36.9416345],[138.2090592,36.9422519],[138.2096708,36.942715],[138.2098102,36.9430665],[138.210454,36.9434524],[138.2107222,36.9435296],[138.2110977,36.9437525],[138.2116341,36.9442155],[138.2119238,36.94455],[138.2123315,36.945073],[138.2124549,36.9453474]]]}}
