{"type":"Feature","id":"attraction-large-large-port-W1502927985","properties":{"id":"attraction-large-large-port-W1502927985","kind":"attraction","name":"小川島漁港","shortName":"小川島漁港","context":"日本","subtype":"large-port","subtypeLabel":"港湾・埠頭","statusLabel":"","aliases":["Ogawashima Fishing Port"],"osmType":"way","osmId":1502927985,"osmDate":null,"officialAreaKm2":null,"areaSourceLabel":"","areaSourceUrl":"","boundarySourceLabel":"© OpenStreetMap contributors","boundarySourceUrl":"https://www.openstreetmap.org/copyright","geometryFile":"attractions/large-large-port-W1502927985.geojson"},"geometry":{"type":"Polygon","coordinates":[[[129.9007325,33.5935838],[129.9007941,33.5936071],[129.9008256,33.5935374],[129.9004018,33.5933788],[129.9000807,33.5933202],[129.8994094,33.5931978],[129.8987645,33.5926268],[129.8977024,33.5928325],[129.894831,33.5929549],[129.894834,33.5929989],[129.8948657,33.5934518],[129.8948733,33.5934627],[129.8948934,33.5937556],[129.8949046,33.5939842],[129.8945627,33.594011],[129.8945895,33.5943395],[129.8946525,33.5943942],[129.8954558,33.5943886],[129.8954719,33.5944355],[129.8954988,33.594516],[129.8958635,33.5946366],[129.8962069,33.5946455],[129.8964376,33.5946609],[129.8967299,33.5946813],[129.8968291,33.5947461],[129.8969847,33.5947617],[129.8971081,33.5947483],[129.8972475,33.5946478],[129.8972743,33.5944847],[129.8973709,33.5944735],[129.8973977,33.5943774],[129.8976552,33.5943685],[129.8976727,33.5943473],[129.8978081,33.594354],[129.8982775,33.5945685],[129.8982976,33.5946176],[129.8982494,33.5951069],[129.8982802,33.5952175],[129.898244,33.5954097],[129.8986141,33.5954286],[129.8988488,33.5954365],[129.8988086,33.5956811],[129.8989548,33.5956833],[129.8989789,33.5955482],[129.8994778,33.5955169],[129.8997286,33.5954018],[129.899856,33.5952533],[129.8999177,33.5952242],[129.9000733,33.5948399],[129.8999351,33.5944813],[129.900552,33.5939529],[129.9005735,33.5939664],[129.900717,33.5938468],[129.9008203,33.5938222],[129.9005796,33.5937213],[129.9006427,33.5936645],[129.9007325,33.5935838]]]}}
