{"type":"Feature","id":"attraction-large-military-base-W918579565","properties":{"id":"attraction-large-military-base-W918579565","kind":"attraction","name":"海上自衛隊 第一潜水隊群","shortName":"海上自衛隊 第一潜水隊群","context":"日本","subtype":"military-base","subtypeLabel":"基地・駐屯地・演習場","statusLabel":"","aliases":[],"osmType":"way","osmId":918579565,"osmDate":null,"officialAreaKm2":null,"areaSourceLabel":"","areaSourceUrl":"","boundarySourceLabel":"© OpenStreetMap contributors","boundarySourceUrl":"https://www.openstreetmap.org/copyright","geometryFile":"attractions/large-military-base-W918579565.geojson"},"geometry":{"type":"Polygon","coordinates":[[[132.550837,34.2272823],[132.5509204,34.2272539],[132.5510063,34.2272246],[132.551484,34.2268847],[132.5517883,34.2267736],[132.5519529,34.2266515],[132.5521202,34.2266607],[132.5521815,34.2266331],[132.552096,34.2265562],[132.5518284,34.2264072],[132.5516946,34.226272],[132.5516611,34.2261828],[132.5516536,34.2259982],[132.5516314,34.2259108],[132.5516017,34.2258786],[132.5513972,34.2257664],[132.550953,34.2255359],[132.5508638,34.2255082],[132.5507858,34.2255267],[132.5500089,34.2260845],[132.5500201,34.2261874],[132.5506241,34.2267714],[132.5506464,34.2267975],[132.5506864,34.2268093],[132.550704,34.2268346],[132.5507493,34.2269206],[132.5507107,34.2269657],[132.550837,34.2272823]]]}}
