{"type":"Feature","id":"attraction-large-park-W38231321","properties":{"id":"attraction-large-park-W38231321","kind":"attraction","name":"巾着田曼珠沙華公園","shortName":"巾着田曼珠沙華公園","context":"埼玉県・日高市","subtype":"large-park","subtypeLabel":"大型都市公園・広域公園","statusLabel":"著名な公園","aliases":["Kinchakuda Manjushage Park"],"osmType":"way","osmId":38231321,"osmDate":null,"officialAreaKm2":null,"areaSourceLabel":"","areaSourceUrl":"","boundarySourceLabel":"© OpenStreetMap contributors","boundarySourceUrl":"https://www.openstreetmap.org/copyright","geometryFile":"attractions/large-park-W38231321.geojson"},"geometry":{"type":"Polygon","coordinates":[[[139.3140246,35.8832444],[139.314065,35.882759],[139.3139791,35.8823917],[139.3137941,35.8818832],[139.3135797,35.881544],[139.3133572,35.881352],[139.3128349,35.8809789],[139.3122466,35.8806697],[139.3117727,35.8805355],[139.3108881,35.8803909],[139.310591,35.8804116],[139.3101125,35.8804942],[139.3095709,35.880734],[139.3094079,35.8810677],[139.3091807,35.8814681],[139.3090144,35.8818832],[139.3088856,35.8824439],[139.3088642,35.883148],[139.3089071,35.8835652],[139.3089527,35.8839868],[139.3089348,35.8841988],[139.3088762,35.8848941],[139.3089232,35.8849816],[139.3091847,35.8848132],[139.3093349,35.8847594],[139.3094496,35.8847116],[139.3095642,35.8845051],[139.3096755,35.8842905],[139.3098097,35.883951],[139.3100095,35.8834984],[139.3102401,35.883305],[139.3104681,35.883035],[139.3105754,35.882941],[139.3107149,35.8828975],[139.3108316,35.8829122],[139.3109496,35.8829448],[139.3114404,35.8831045],[139.311537,35.8831534],[139.3116376,35.8832436],[139.3117422,35.8833946],[139.3118884,35.8835457],[139.3119608,35.8837619],[139.3120037,35.8837912],[139.3120614,35.8837967],[139.3121928,35.8837945],[139.3123725,35.8837728],[139.3125871,35.8837434],[139.3128426,35.8836971],[139.3128377,35.8837917],[139.3126903,35.8842346],[139.3125769,35.8847043],[139.3124591,35.8848474],[139.3123427,35.8849549],[139.3123216,35.8850261],[139.3122927,35.8851316],[139.3123179,35.8851465],[139.3130296,35.8851053],[139.3131891,35.8850425],[139.3135513,35.8846929],[139.3137521,35.8842555],[139.3139636,35.883784],[139.3140246,35.8832444]]]}}
