{"type":"Feature","id":"attraction-large-industrial-complex-W216781917","properties":{"id":"attraction-large-industrial-complex-W216781917","kind":"attraction","name":"新大分火力発電所","shortName":"新大分火力発電所","context":"日本","subtype":"industrial-complex","subtypeLabel":"工業地帯・大規模工場","statusLabel":"","aliases":["Shin Oita Thermal Power Plant","九州電力株式会社"],"osmType":"way","osmId":216781917,"osmDate":null,"officialAreaKm2":null,"areaSourceLabel":"","areaSourceUrl":"","boundarySourceLabel":"© OpenStreetMap contributors","boundarySourceUrl":"https://www.openstreetmap.org/copyright","geometryFile":"attractions/large-industrial-complex-W216781917.geojson"},"geometry":{"type":"Polygon","coordinates":[[[131.7120097,33.2702234],[131.705306,33.2743925],[131.7017682,33.2671574],[131.7063419,33.2632324],[131.708853,33.2615698],[131.7092176,33.2616087],[131.711054,33.2636699],[131.7079478,33.2655591],[131.7120097,33.2702234]]]}}
