{"type":"Feature","id":"attraction-large-park-W606830226","properties":{"id":"attraction-large-park-W606830226","kind":"attraction","name":"バンナ公園","shortName":"バンナ公園","context":"沖縄県・石垣市","subtype":"large-park","subtypeLabel":"大型都市公園・広域公園","statusLabel":"","aliases":["Banna Park"],"osmType":"way","osmId":606830226,"osmDate":null,"officialAreaKm2":null,"areaSourceLabel":"","areaSourceUrl":"","boundarySourceLabel":"© OpenStreetMap contributors","boundarySourceUrl":"https://www.openstreetmap.org/copyright","geometryFile":"attractions/large-park-W606830226.geojson"},"geometry":{"type":"Polygon","coordinates":[[[124.1539299,24.3788823],[124.1539707,24.3784566],[124.1539487,24.3781014],[124.1539183,24.3779334],[124.1538554,24.3777181],[124.1537073,24.3773554],[124.1536698,24.3771746],[124.15367,24.376964],[124.1537373,24.3762943],[124.1537927,24.3761391],[124.1538731,24.3760166],[124.1540385,24.3758393],[124.1544083,24.3754804],[124.1545585,24.3752526],[124.1548731,24.3748148],[124.1553707,24.3742697],[124.1555202,24.3740324],[124.1555639,24.373839],[124.1555349,24.3733198],[124.155546,24.3731766],[124.1557146,24.3728993],[124.1558639,24.3725918],[124.1559084,24.372388],[124.1559138,24.3721599],[124.1558748,24.3719262],[124.1556424,24.3707312],[124.1556664,24.3706029],[124.1557178,24.3704513],[124.1557766,24.3703705],[124.1558963,24.3702733],[124.1560453,24.3701973],[124.1563977,24.3700583],[124.1565047,24.3699902],[124.1566347,24.3698859],[124.157065,24.3692977],[124.1571589,24.3691139],[124.1572111,24.3689519],[124.1572353,24.3688071],[124.1572443,24.3686592],[124.1572476,24.3683335],[124.1572399,24.3681309],[124.1572857,24.3681029],[124.1572963,24.3679559],[124.157274,24.3673136],[124.1581249,24.3672846],[124.1589644,24.3671942],[124.1598871,24.3671282],[124.160158,24.367612],[124.1604423,24.3676902],[124.1613972,24.3675705],[124.1618505,24.3677952],[124.1622877,24.3683254],[124.1630441,24.3686528],[124.1647741,24.3684403],[124.1652328,24.3684354],[124.1670459,24.3687628],[124.1674885,24.3687359],[124.1679069,24.3685233],[124.1683388,24.3683596],[124.1687921,24.368191],[124.1690603,24.3680493],[124.1693419,24.3680078],[124.1700044,24.3681177],[124.1709382,24.3683473],[124.1711283,24.3684036],[124.1716352,24.3685111],[124.171857,24.3684629],[124.1719913,24.3685295],[124.172115,24.368753],[124.1721261,24.3688141],[124.1720858,24.3690413],[124.1720751,24.3691341],[124.172077,24.369281],[124.1721234,24.3699013],[124.1721368,24.3699868],[124.172154,24.370039],[124.172183,24.370101],[124.1723996,24.3703851],[124.172623,24.370689],[124.1727939,24.3709201],[124.1728368,24.3710472],[124.1728601,24.3711575],[124.1729549,24.3714381],[124.1730621,24.3716726],[124.17313,24.371784],[124.1731936,24.3718705],[124.1734131,24.3720984],[124.1734595,24.3721753],[124.1735257,24.3722792],[124.1735544,24.3723883],[124.173601,24.3725255],[124.1736705,24.372828],[124.1737025,24.3729427],[124.1737232,24.3730122],[124.1737675,24.3730848],[124.1734913,24.3730897],[124.1735323,24.373142],[124.1735775,24.37329],[124.1735931,24.373421],[124.1734104,24.3738688],[124.1732599,24.3741529],[124.1732959,24.3743881],[124.173553,24.3746753],[124.1736169,24.3747549],[124.1736424,24.3749125],[124.1736344,24.37517],[124.1734686,24.3756314],[124.1737009,24.3756467],[124.173934,24.375717],[124.1739947,24.3758048],[124.1739875,24.3759335],[124.1740358,24.3762658],[124.1745937,24.3765198],[124.1748673,24.376515],[124.1749692,24.3768961],[124.1747546,24.3771208],[124.1744381,24.3771453],[124.1743791,24.3773163],[124.1747439,24.3776095],[124.174937,24.377888],[124.1751784,24.377971],[124.1753125,24.3780834],[124.1754574,24.3779075],[124.1756558,24.3778342],[124.1758275,24.377888],[124.1758811,24.378059],[124.1758275,24.3783473],[124.1757631,24.3786698],[124.1758597,24.3788017],[124.1760957,24.3788114],[124.1761601,24.3786355],[124.1764712,24.3784206],[124.1768655,24.3781592],[124.1772652,24.3782251],[124.1769969,24.3787553],[124.1770989,24.378809],[124.1772678,24.3786942],[124.177359,24.3787528],[124.1774261,24.3789873],[124.1775441,24.3790729],[124.1776648,24.3789727],[124.1779008,24.3789336],[124.1781127,24.3790753],[124.1783622,24.3792219],[124.1786009,24.3791852],[124.1787672,24.3791193],[124.1787538,24.3791974],[124.178696,24.379243],[124.178579,24.379312],[124.1785124,24.3793758],[124.1784802,24.3794369],[124.178453,24.379608],[124.1784346,24.3798033],[124.178458,24.379849],[124.1786438,24.3799597],[124.1787136,24.3800037],[124.1787592,24.3801038],[124.178845,24.3803237],[124.1788423,24.3804165],[124.1788235,24.3805118],[124.178777,24.380596],[124.1787,24.380671],[124.178528,24.3808265],[124.178279,24.3810517],[124.178212,24.3810786],[124.1779867,24.3812081],[124.1776997,24.3814572],[124.1759339,24.3834746],[124.1752167,24.3842837],[124.1749119,24.3846199],[124.174363,24.3852854],[124.1742074,24.3854148],[124.173966,24.385449],[124.1738373,24.3856543],[124.173663,24.3856836],[124.1736147,24.3855981],[124.1735584,24.3855981],[124.1735423,24.3857446],[124.1727242,24.3858106],[124.1717827,24.3860647],[124.1699025,24.3864091],[124.1693419,24.3866387],[124.1690281,24.3869808],[124.168548,24.3869979],[124.1682583,24.3870003],[124.1663003,24.3869295],[124.1660991,24.3868806],[124.1654018,24.3868659],[124.1649646,24.3868904],[124.1646534,24.3872592],[124.1635913,24.3877087],[124.1625613,24.3881875],[124.1620785,24.3884269],[124.1612631,24.3882853],[124.1608018,24.3882169],[124.1604263,24.3879677],[124.1602063,24.38787],[124.159973,24.3879433],[124.1597369,24.3880996],[124.1592219,24.3879946],[124.1591468,24.3877454],[124.1591388,24.3874571],[124.1590932,24.3873325],[124.1588357,24.3871835],[124.1588116,24.3869808],[124.1589001,24.3867438],[124.1589645,24.3864287],[124.1591924,24.3861038],[124.1591924,24.3859083],[124.1590235,24.3858082],[124.1589484,24.3854735],[124.1586935,24.3853977],[124.1584977,24.3853196],[124.1581196,24.3853635],[124.1574544,24.3856762],[124.156639,24.385046],[124.1566068,24.3846624],[124.1563573,24.384379],[124.1562742,24.3841616],[124.1562205,24.3839173],[124.1563547,24.3837365],[124.156478,24.3829108],[124.1566953,24.3829353],[124.1567784,24.3834874],[124.1567248,24.3842154],[124.1571754,24.3841274],[124.1572452,24.3837072],[124.157787,24.3835851],[124.1581947,24.3833066],[124.158538,24.3833066],[124.1587579,24.3832089],[124.1589189,24.3830623],[124.1592461,24.3829011],[124.15923,24.382432],[124.1592054,24.3820573],[124.1590557,24.3819791],[124.1588101,24.3819324],[124.1586184,24.3818774],[124.1585007,24.3817807],[124.158434,24.381679],[124.1583991,24.3815432],[124.1583681,24.381455],[124.1583083,24.3813847],[124.1582711,24.3813443],[124.1580471,24.3813669],[124.1577521,24.3813962],[124.1574919,24.3812887],[124.1573618,24.381081],[124.157335,24.3808477],[124.1573088,24.3806266],[124.157159,24.3806],[124.1565922,24.3805416],[124.1564323,24.3805193],[124.1562881,24.380444],[124.156209,24.380353],[124.1561532,24.3802198],[124.1559362,24.3802064],[124.1556895,24.3802089],[124.1538921,24.3800315],[124.1539299,24.3788823]]]}}
