{"type":"Feature","id":"attraction-large-park-W385583603","properties":{"id":"attraction-large-park-W385583603","kind":"attraction","name":"鹿児島県立吹上浜海浜公園","shortName":"鹿児島県立吹上浜海浜公園","context":"日本","subtype":"large-park","subtypeLabel":"大型都市公園・広域公園","statusLabel":"著名な公園","aliases":[],"osmType":"way","osmId":385583603,"osmDate":null,"officialAreaKm2":null,"areaSourceLabel":"","areaSourceUrl":"","boundarySourceLabel":"© OpenStreetMap contributors","boundarySourceUrl":"https://www.openstreetmap.org/copyright","geometryFile":"attractions/large-park-W385583603.geojson"},"geometry":{"type":"Polygon","coordinates":[[[130.2860989,31.4382097],[130.2853802,31.437533],[130.2848722,31.4371101],[130.2843518,31.4365181],[130.2838313,31.436074],[130.2832737,31.4355877],[130.2825798,31.4349111],[130.2822825,31.434467],[130.2815885,31.433875],[130.2808575,31.43323],[130.2807088,31.4328388],[130.2808327,31.4325216],[130.2811301,31.4322362],[130.2815762,31.4321727],[130.282109,31.4323525],[130.2822453,31.4325111],[130.2824807,31.4322256],[130.2864006,31.4348948],[130.2891457,31.4367279],[130.2893349,31.4368696],[130.2916874,31.4384634],[130.2910926,31.4391611],[130.2912537,31.4398483],[130.2913141,31.4399018],[130.2916006,31.4401549],[130.2918732,31.4404826],[130.2919723,31.4408421],[130.2919476,31.441043],[130.2925052,31.4413073],[130.2927406,31.4415821],[130.2933973,31.4419204],[130.2936475,31.4419495],[130.2939425,31.4419839],[130.2944506,31.4420896],[130.2945869,31.4419521],[130.2947232,31.4417196],[130.2949091,31.4416561],[130.2951445,31.4417513],[130.295603,31.4421213],[130.2957517,31.4423116],[130.295603,31.4424279],[130.2951569,31.4423327],[130.2948471,31.4422164],[130.2940788,31.442153],[130.2932734,31.4420156],[130.2923069,31.441487],[130.2916254,31.4418147],[130.2909191,31.442005],[130.2911917,31.442449],[130.2911917,31.4427344],[130.2905102,31.4430516],[130.2906713,31.4426076],[130.2902624,31.4424067],[130.2898039,31.4420367],[130.2895437,31.4419098],[130.2893082,31.4418041],[130.2890604,31.4414975],[130.2890852,31.4412333],[130.2891224,31.4410112],[130.2884533,31.4403664],[130.2878585,31.4397743],[130.2873504,31.439436],[130.2861609,31.4407998],[130.2859378,31.4405672],[130.2871398,31.4392563],[130.2866194,31.4388546],[130.286322,31.4384634],[130.2860989,31.4382097]]]}}
