{"type":"Feature","id":"attraction-large-park-R12243208","properties":{"id":"attraction-large-park-R12243208","kind":"attraction","name":"戸田川緑地","shortName":"戸田川緑地","context":"日本","subtype":"large-park","subtypeLabel":"大型都市公園・広域公園","statusLabel":"著名な公園","aliases":[],"osmType":"relation","osmId":12243208,"osmDate":null,"officialAreaKm2":null,"areaSourceLabel":"","areaSourceUrl":"","boundarySourceLabel":"© OpenStreetMap contributors","boundarySourceUrl":"https://www.openstreetmap.org/copyright","geometryFile":"attractions/large-park-R12243208.geojson"},"geometry":{"type":"MultiPolygon","coordinates":[[[[136.8118458,35.1132005],[136.8118604,35.1133402],[136.81195,35.1141956],[136.8127608,35.114135],[136.8127878,35.1141487],[136.8128518,35.1147466],[136.8129662,35.1158139],[136.8129745,35.1158917],[136.8130054,35.1161796],[136.8130136,35.1162568],[136.8130765,35.1168439],[136.8131671,35.1176896],[136.8131303,35.1177351],[136.8123718,35.1177903],[136.8123813,35.1178817],[136.8125358,35.1193571],[136.8125586,35.1195745],[136.8125815,35.1195712],[136.8128534,35.1199956],[136.8123685,35.1202022],[136.8118241,35.1195616],[136.811551,35.1192474],[136.8113572,35.1190765],[136.8109855,35.1188652],[136.810876,35.1187847],[136.8107513,35.1186504],[136.8106862,35.1185649],[136.810223,35.1176583],[136.8101579,35.1174006],[136.8100887,35.1168694],[136.810075,35.1165255],[136.8100805,35.1163514],[136.8104057,35.1143631],[136.8104987,35.1141087],[136.8106677,35.1137882],[136.8108342,35.1135508],[136.8109226,35.1134758],[136.8110458,35.1132654],[136.8118458,35.1132005]]],[[[136.8124469,35.1202981],[136.8131567,35.121182],[136.8135805,35.1216945],[136.8136839,35.1217839],[136.8146782,35.1223756],[136.815,35.1225225],[136.8160128,35.1228249],[136.816358,35.1229835],[136.8166923,35.1232348],[136.8172937,35.1237666],[136.8174405,35.1239201],[136.8175118,35.124065],[136.8175526,35.1242542],[136.8175647,35.1249565],[136.817555,35.1250449],[136.8174874,35.1251847],[136.8173517,35.1253517],[136.8172516,35.1254384],[136.8169527,35.1256181],[136.8167559,35.1256825],[136.815829,35.1258083],[136.8156606,35.1258088],[136.8152566,35.1257616],[136.8153568,35.1262028],[136.8153622,35.1262259],[136.8161002,35.1262053],[136.8168457,35.1261928],[136.8169979,35.1261852],[136.8178299,35.1261725],[136.8178922,35.1253164],[136.8178886,35.1241219],[136.8177975,35.1228738],[136.8172727,35.1229119],[136.8172007,35.1220775],[136.8159304,35.1221636],[136.8130833,35.1200181],[136.8124469,35.1202981]]],[[[136.8118407,35.120546],[136.8118132,35.1206068],[136.8112911,35.1212945],[136.8112953,35.1213377],[136.8120903,35.1217372],[136.8116399,35.1223594],[136.8119587,35.1225085],[136.8119048,35.1230828],[136.8128537,35.1231326],[136.8127091,35.1251497],[136.8124313,35.1260557],[136.8124969,35.1260425],[136.8127194,35.1258815],[136.8132787,35.1255591],[136.8136674,35.125304],[136.8138445,35.1252166],[136.814034,35.1251541],[136.8143208,35.1251221],[136.8146165,35.1250982],[136.8148693,35.1250988],[136.8152056,35.125179],[136.8154623,35.1252985],[136.8156523,35.1253342],[136.8158201,35.1253284],[136.8160416,35.1253],[136.8162862,35.1252552],[136.8164874,35.1251674],[136.8166842,35.1250032],[136.8167785,35.124903],[136.8168313,35.1247758],[136.8168472,35.1247076],[136.816847,35.1246161],[136.8168229,35.1244713],[136.8167793,35.1243354],[136.8167155,35.1242069],[136.81663,35.1240704],[136.816544,35.1239804],[136.8164428,35.1238964],[136.8162844,35.1237911],[136.8156157,35.1234052],[136.8150739,35.1231741],[136.8145537,35.1229489],[136.8143068,35.1228217],[136.8136308,35.1223736],[136.8131896,35.1220576],[136.8130319,35.1218854],[136.8119513,35.1205545],[136.8118407,35.120546]]],[[[136.8122675,35.1269287],[136.8123219,35.126913],[136.8123825,35.1273327],[136.8123931,35.1274939],[136.812429,35.1276149],[136.8124216,35.1277824],[136.812471,35.1279372],[136.8125931,35.1282446],[136.8128225,35.1287377],[136.8128574,35.1287907],[136.8128786,35.1289497],[136.8129061,35.1290537],[136.8129567,35.1291557],[136.8130052,35.129287],[136.8130224,35.1293678],[136.8130124,35.1294787],[136.8129516,35.1295774],[136.8128843,35.1297409],[136.8128067,35.1299303],[136.8127934,35.1300087],[136.8127902,35.130114],[136.8127744,35.1301741],[136.8127537,35.1301975],[136.8127045,35.1302173],[136.8126666,35.1302329],[136.8126335,35.1302615],[136.8123517,35.1304282],[136.8122828,35.1304851],[136.8121925,35.1305167],[136.8120676,35.1306101],[136.811405,35.1306887],[136.8108292,35.1307402],[136.8105191,35.1307876],[136.810326,35.130849],[136.8103035,35.1308011],[136.8105478,35.1306566],[136.8105455,35.1305877],[136.8105924,35.130558],[136.8106027,35.1303035],[136.8106043,35.1302643],[136.8106234,35.129941],[136.8120984,35.129968],[136.8121084,35.1295332],[136.8121379,35.1295327],[136.8122322,35.1275038],[136.8122675,35.1269287]]]]}}
