{"type":"Feature","id":"attraction-large-park-W495911100","properties":{"id":"attraction-large-park-W495911100","kind":"attraction","name":"土岐市総合公園","shortName":"土岐市総合公園","context":"日本","subtype":"large-park","subtypeLabel":"大型都市公園・広域公園","statusLabel":"著名な公園","aliases":[],"osmType":"way","osmId":495911100,"osmDate":null,"officialAreaKm2":null,"areaSourceLabel":"","areaSourceUrl":"","boundarySourceLabel":"© OpenStreetMap contributors","boundarySourceUrl":"https://www.openstreetmap.org/copyright","geometryFile":"attractions/large-park-W495911100.geojson"},"geometry":{"type":"Polygon","coordinates":[[[137.2091501,35.3211508],[137.208787,35.3204553],[137.2083947,35.3206092],[137.2072503,35.3208626],[137.2072644,35.3206046],[137.2079274,35.3195174],[137.208087,35.3191648],[137.2081402,35.3187468],[137.2083094,35.3180472],[137.2085514,35.3174783],[137.2086632,35.3171266],[137.2088605,35.3168901],[137.2091438,35.3166869],[137.2094297,35.3165665],[137.2096637,35.3163701],[137.2097837,35.3161852],[137.2098191,35.3160299],[137.2110421,35.3164334],[137.2122681,35.3168939],[137.2127039,35.3174636],[137.213075,35.3176016],[137.2136501,35.3179299],[137.2137064,35.3182418],[137.2134566,35.3184633],[137.2131467,35.3189072],[137.2127805,35.3191476],[137.2127405,35.3192648],[137.2117798,35.3199506],[137.2110647,35.3204317],[137.2107937,35.3205485],[137.2091501,35.3211508]]]}}
