{"type":"Feature","id":"attraction-large-park-W491897028","properties":{"id":"attraction-large-park-W491897028","kind":"attraction","name":"茨戸川緑地","shortName":"茨戸川緑地","context":"日本","subtype":"large-park","subtypeLabel":"大型都市公園・広域公園","statusLabel":"","aliases":[],"osmType":"way","osmId":491897028,"osmDate":null,"officialAreaKm2":null,"areaSourceLabel":"","areaSourceUrl":"","boundarySourceLabel":"© OpenStreetMap contributors","boundarySourceUrl":"https://www.openstreetmap.org/copyright","geometryFile":"attractions/large-park-W491897028.geojson"},"geometry":{"type":"Polygon","coordinates":[[[141.402881,43.1831967],[141.4011001,43.1852816],[141.400223,43.1861851],[141.4001023,43.1861773],[141.3971304,43.1835742],[141.3960146,43.1826472],[141.3952072,43.1817064],[141.3945662,43.1808048],[141.3940968,43.1797897],[141.3935496,43.1786924],[141.3930159,43.1776205],[141.3923453,43.1763413],[141.3913395,43.1749565],[141.3907601,43.1743599],[141.3955023,43.1716487],[141.3984071,43.1699683],[141.3992735,43.1694578],[141.4002337,43.1690372],[141.401784,43.1685383],[141.4027147,43.1683133],[141.4038171,43.1681745],[141.4055525,43.1680825],[141.407481,43.1682038],[141.4090689,43.1685383],[141.4104934,43.1688956],[141.4118696,43.1694373],[141.4138508,43.1703504],[141.4135278,43.1707496],[141.4118004,43.1703676],[141.409727,43.1698296],[141.4080802,43.1693875],[141.4079702,43.1692134],[141.4065969,43.1689161],[141.4048856,43.1685854],[141.4037752,43.16856],[141.4033702,43.1685952],[141.401954,43.1690334],[141.4009508,43.1694129],[141.3999906,43.1699333],[141.3990223,43.1706258],[141.3984698,43.1710992],[141.3979012,43.171819],[141.3974398,43.1724665],[141.3969302,43.1730768],[141.3965654,43.1738651],[141.3962543,43.1744989],[141.3963133,43.174941],[141.3963965,43.1756843],[141.3965654,43.1763611],[141.3967425,43.1770496],[141.3969651,43.17774],[141.3979897,43.178763],[141.3989338,43.1795062],[141.4005753,43.1800069],[141.4013264,43.1806191],[141.4019942,43.1816518],[141.4025789,43.1824772],[141.4029303,43.1831304],[141.402881,43.1831967]]]}}
