{"type":"Feature","id":"attraction-large-park-W999511823","properties":{"id":"attraction-large-park-W999511823","kind":"attraction","name":"薬師池公園","shortName":"薬師池公園","context":"日本","subtype":"large-park","subtypeLabel":"大型都市公園・広域公園","statusLabel":"著名な公園","aliases":["Yakushi-ike Park"],"osmType":"way","osmId":999511823,"osmDate":null,"officialAreaKm2":null,"areaSourceLabel":"","areaSourceUrl":"","boundarySourceLabel":"© OpenStreetMap contributors","boundarySourceUrl":"https://www.openstreetmap.org/copyright","geometryFile":"attractions/large-park-W999511823.geojson"},"geometry":{"type":"Polygon","coordinates":[[[139.4483429,35.5820671],[139.4484437,35.5820673],[139.4487539,35.5820798],[139.4487917,35.5820466],[139.4488055,35.5818395],[139.44895,35.5810925],[139.4489659,35.5809795],[139.4491378,35.5800163],[139.4491492,35.5799261],[139.4492955,35.5790509],[139.4493218,35.5788075],[139.4493131,35.5784845],[139.4493318,35.5783334],[139.44931,35.5781472],[139.4492777,35.5779123],[139.4492354,35.5777075],[139.4491178,35.5776263],[139.4489453,35.5775246],[139.4488706,35.5774381],[139.4488122,35.5772567],[139.4487676,35.5770999],[139.4487137,35.5770074],[139.44861,35.5769232],[139.4485789,35.5768975],[139.4484818,35.5768174],[139.4483536,35.5767116],[139.4482523,35.5766206],[139.448177,35.5765247],[139.4480388,35.5764304],[139.447799,35.576242],[139.4477359,35.5761262],[139.4476689,35.5760725],[139.4476213,35.5760472],[139.4475548,35.5760361],[139.4474167,35.5759913],[139.4473403,35.5759229],[139.447267,35.5758721],[139.4472117,35.5758365],[139.447115,35.5758145],[139.4470516,35.5758106],[139.4469632,35.5758125],[139.4468675,35.5758365],[139.4468091,35.5758631],[139.4467453,35.5759003],[139.4467137,35.5759299],[139.4467005,35.5759638],[139.4466869,35.5760054],[139.4467004,35.576083],[139.4467409,35.5763878],[139.4467969,35.5765134],[139.446831,35.5765704],[139.4468702,35.5766603],[139.4468727,35.5767495],[139.4468415,35.5768272],[139.4468415,35.5770488],[139.4467196,35.5773745],[139.4465387,35.5776456],[139.4464187,35.5780126],[139.4463151,35.5781962],[139.4462803,35.5782242],[139.4462142,35.5783248],[139.4460693,35.5785308],[139.4458925,35.5787388],[139.4458067,35.578819],[139.4457434,35.5788608],[139.446103,35.5790391],[139.4461979,35.5792879],[139.4466328,35.5791717],[139.4467803,35.5791352],[139.4468448,35.5791019],[139.4468655,35.5790669],[139.4469253,35.5790572],[139.4469681,35.5791537],[139.4470485,35.5792487],[139.4471799,35.5793403],[139.4474289,35.5794474],[139.4476128,35.5795069],[139.4476887,35.5797019],[139.4477242,35.5799741],[139.4472299,35.5800954],[139.4470694,35.5802364],[139.4469919,35.5803399],[139.4469576,35.5804568],[139.4469935,35.5805447],[139.4472524,35.5808106],[139.4473992,35.5809016],[139.4475118,35.5809282],[139.4476525,35.5809378],[139.4477932,35.5809684],[139.4478929,35.5810326],[139.4480914,35.5809821],[139.4481353,35.5812144],[139.4482604,35.5812042],[139.4482851,35.5816483],[139.4483338,35.5818721],[139.4483429,35.5820671]]]}}
