{"type":"Feature","id":"attraction-large-industrial-complex-R6286362","properties":{"id":"attraction-large-industrial-complex-R6286362","kind":"attraction","name":"川崎重工業 坂出造船工場","shortName":"川崎重工業 坂出造船工場","context":"香川県・坂出市","subtype":"industrial-complex","subtypeLabel":"工業地帯・大規模工場","statusLabel":"","aliases":["Kawasaki Heavy Industries Sakaide Works"],"osmType":"relation","osmId":6286362,"osmDate":null,"officialAreaKm2":null,"areaSourceLabel":"","areaSourceUrl":"","boundarySourceLabel":"© OpenStreetMap contributors","boundarySourceUrl":"https://www.openstreetmap.org/copyright","geometryFile":"attractions/large-industrial-complex-R6286362.geojson"},"geometry":{"type":"Polygon","coordinates":[[[133.8293822,34.3266453],[133.8297793,34.3267076],[133.830645,34.3268256],[133.831547,34.3269585],[133.8323832,34.3270786],[133.833165,34.3272025],[133.8337481,34.3272883],[133.8335647,34.3281037],[133.8336165,34.3281107],[133.8336042,34.3281575],[133.8336004,34.3281842],[133.8335694,34.3283756],[133.8335623,34.3284036],[133.8335526,34.3284418],[133.8335511,34.3284456],[133.833547,34.3284639],[133.8335069,34.3284712],[133.8334931,34.3284698],[133.8334811,34.3284727],[133.8334395,34.3286545],[133.8334326,34.328666],[133.8334276,34.3286889],[133.8334251,34.3287118],[133.8334115,34.3287576],[133.8334124,34.3287691],[133.8334038,34.328792],[133.8333251,34.3291543],[133.8333199,34.3291651],[133.8332174,34.3296334],[133.8332183,34.3296448],[133.8332132,34.3296677],[133.8332133,34.3296799],[133.8332237,34.3296899],[133.8332306,34.3297013],[133.8332497,34.3297242],[133.8332601,34.3297342],[133.8332844,34.3297663],[133.8332947,34.3297756],[133.8333069,34.3297827],[133.8333215,34.3297826],[133.8334026,34.3297946],[133.8338696,34.329867],[133.8340603,34.3298965],[133.8341846,34.3299141],[133.8342123,34.3299197],[133.8342675,34.3299253],[133.834296,34.3299324],[133.8343098,34.3299345],[133.8343236,34.3299344],[133.8343365,34.329938],[133.8343642,34.3299429],[133.8344332,34.3299535],[133.8344461,34.3299527],[133.8344617,34.329957],[133.8344782,34.3299777],[133.8344697,34.3300185],[133.8344706,34.3300242],[133.8344485,34.3301159],[133.8344163,34.3302641],[133.8344113,34.330287],[133.8343808,34.3304252],[133.8343384,34.3306185],[133.834313,34.3307445],[133.8343054,34.3307675],[133.8343063,34.3307789],[133.834296,34.3308133],[133.8342952,34.3308247],[133.8342876,34.3308477],[133.8342876,34.3308591],[133.8342825,34.3308706],[133.8342756,34.3308806],[133.8342636,34.3308835],[133.8342506,34.3308792],[133.8342368,34.3308822],[133.834186,34.3308745],[133.8341731,34.3308888],[133.8340311,34.3315243],[133.8340441,34.3315368],[133.8340931,34.331542],[133.8341041,34.3315537],[133.8341179,34.3315551],[133.8341283,34.3315666],[133.8341317,34.3315766],[133.8341232,34.3315995],[133.834125,34.3316109],[133.8340792,34.3318157],[133.8340741,34.3318286],[133.8340689,34.3318358],[133.8340422,34.3318344],[133.8339815,34.331826],[133.8337473,34.3317912],[133.8331109,34.3316996],[133.8330419,34.3316905],[133.8330142,34.3316834],[133.8328192,34.331656],[133.8328062,34.3316518],[133.8327372,34.3316412],[133.8325093,34.3316089],[133.8324273,34.3315984],[133.8324135,34.3315942],[133.8321796,34.3315612],[133.832152,34.3315548],[133.8321235,34.3315535],[133.8321065,34.3315504],[133.8320691,34.3315436],[133.8319025,34.3315212],[133.8318887,34.3315169],[133.8318611,34.3315127],[133.831849,34.3315127],[133.8318145,34.3315057],[133.8317938,34.331505],[133.8317662,34.3314979],[133.8317385,34.3314937],[133.8317247,34.3314945],[133.8317155,34.3314916],[133.8316419,34.3314804],[133.8316142,34.3314747],[133.8316013,34.3314747],[133.8313933,34.3314438],[133.8312345,34.3314214],[133.8310895,34.3314003],[133.8310757,34.331396],[133.8310627,34.3313939],[133.8310351,34.3313897],[133.8309695,34.3313827],[133.8309566,34.3313921],[133.8309428,34.3313964],[133.8309299,34.3314022],[133.8308645,34.3314381],[133.8308516,34.3314468],[133.8308378,34.3314511],[133.8308335,34.3314625],[133.8308293,34.3314855],[133.8308225,34.3315077],[133.8307429,34.3318972],[133.8306184,34.3324671],[133.8306023,34.3325366],[133.8305946,34.3325702],[133.8305896,34.3325931],[133.8305693,34.3327077],[133.8304507,34.3332547],[133.8304396,34.3332898],[133.8304414,34.3333013],[133.830438,34.3333127],[133.8304484,34.333317],[133.8304622,34.3333155],[133.8304898,34.3333226],[133.8307763,34.3333648],[133.830804,34.3333711],[133.8308316,34.3333753],[133.8308454,34.3333746],[133.8308575,34.3333803],[133.8309127,34.3333859],[133.8309542,34.3333943],[133.8311717,34.3334252],[133.8311863,34.3334273],[133.8312139,34.3334287],[133.8313052,34.3334463],[133.8316663,34.333499],[133.8317353,34.3335074],[133.8317759,34.3335123],[133.8317862,34.3335058],[133.8317946,34.3334436],[133.8318048,34.3334264],[133.8318187,34.3334277],[133.8318446,34.3334305],[133.8318683,34.3334355],[133.8319153,34.3334418],[133.8319706,34.3334502],[133.8319982,34.3334544],[133.832012,34.3334544],[133.8320396,34.3334608],[133.8320672,34.333465],[133.8320949,34.3334692],[133.8321087,34.3334713],[133.8321141,34.3334725],[133.8321252,34.3334748],[133.8321924,34.3334929],[133.8321737,34.3335728],[133.832428,34.3336107],[133.8326459,34.3336416],[133.8337842,34.3338122],[133.8346519,34.3339423],[133.8346579,34.3339345],[133.8346924,34.3338097],[133.8347013,34.3337776],[133.8347133,34.3337747],[133.8349049,34.3338039],[133.8349039,34.3338092],[133.8348737,34.3339632],[133.8348746,34.3339746],[133.8348884,34.3339775],[133.8353959,34.3340526],[133.8354063,34.3340476],[133.8354026,34.3340011],[133.8353853,34.3339804],[133.8353809,34.3339661],[133.8353926,34.3338716],[133.8354029,34.3338487],[133.8354141,34.3338458],[133.83573,34.3338936],[133.8359493,34.3339245],[133.8360805,34.3339448],[133.8363636,34.3339849],[133.8364634,34.334002],[133.8365846,34.3340229],[133.8366243,34.3340285],[133.8366295,34.3340399],[133.8365932,34.3342268],[133.8365975,34.3342361],[133.8366113,34.3342375],[133.8368599,34.334274],[133.8376575,34.3343884],[133.837787,34.3344096],[133.8389428,34.3345817],[133.8390386,34.3345929],[133.8390524,34.3345971],[133.8391583,34.3345439],[133.839166,34.3345338],[133.8391694,34.3345224],[133.8391795,34.3344536],[133.8391881,34.3344436],[133.8392148,34.3344442],[133.8402757,34.3346023],[133.8402895,34.3346058],[133.8403171,34.33461],[133.8403456,34.3346121],[133.8403931,34.334622],[133.8404138,34.3346219],[133.8404414,34.3346283],[133.8404691,34.3346325],[133.8404984,34.3346346],[133.8405105,34.3346388],[133.8405381,34.3346423],[133.8405528,34.3346423],[133.8405804,34.3346487],[133.8406218,34.3346528],[133.8406486,34.3346592],[133.8406762,34.3346627],[133.84069,34.3346627],[133.8407038,34.3346683],[133.8407453,34.3346725],[133.8407591,34.3346725],[133.8407738,34.3346775],[133.8408014,34.3346802],[133.8408135,34.3346796],[133.840816,34.3346795],[133.8408299,34.3346852],[133.8408385,34.3346923],[133.8408412,34.3347045],[133.8408404,34.3347281],[133.8408525,34.3347323],[133.8408663,34.3347323],[133.8408922,34.3347394],[133.8409198,34.3347443],[133.8409336,34.3347436],[133.8409514,34.3347498],[133.8409941,34.3347541],[133.841001,34.3347534],[133.8410139,34.3347576],[133.8410415,34.3347626],[133.8410545,34.3347633],[133.8411593,34.3347838],[133.8411732,34.3347293],[133.8413806,34.3347606],[133.8413655,34.3348179],[133.8421641,34.3349334],[133.8421908,34.3348792],[133.8424058,34.33492],[133.8423585,34.3351124],[133.8423552,34.3351353],[133.8423475,34.3351582],[133.8423459,34.3351811],[133.8423356,34.3352048],[133.8423244,34.3352105],[133.8423106,34.3352106],[133.8422968,34.3352063],[133.8422554,34.3352021],[133.8422424,34.3351986],[133.8422148,34.3351951],[133.842201,34.3351951],[133.8421734,34.3351881],[133.8421587,34.3351867],[133.8421475,34.3351881],[133.8421207,34.3351796],[133.842119,34.3351696],[133.8421224,34.3351581],[133.8421206,34.3351467],[133.8421325,34.3351123],[133.8421307,34.3351009],[133.8421359,34.335088],[133.8421287,34.335082],[133.842072,34.3350724],[133.8419937,34.3350645],[133.8418885,34.3350474],[133.8418786,34.3350443],[133.8418648,34.3350437],[133.8418372,34.3350387],[133.8418303,34.3350387],[133.8417175,34.3350219],[133.8416576,34.3350113],[133.8414505,34.3349804],[133.8414228,34.3349748],[133.8413676,34.3349692],[133.84134,34.3349643],[133.8413322,34.3349714],[133.8413254,34.3349944],[133.8413213,34.3350287],[133.8413127,34.3350516],[133.8413059,34.3350617],[133.8412921,34.3350617],[133.8412782,34.3350575],[133.8412644,34.3350575],[133.8411824,34.3350449],[133.8411678,34.3350449],[133.8411557,34.3350406],[133.8411419,34.3350385],[133.8411143,34.3350372],[133.8411039,34.3350308],[133.841096,34.3350122],[133.8410831,34.3350079],[133.8410701,34.3350072],[133.8410287,34.3349988],[133.8410011,34.3349967],[133.840995,34.3349924],[133.8409484,34.3349883],[133.84082,34.334969],[133.8408146,34.3349692],[133.8408112,34.3349693],[133.8407835,34.3349622],[133.8407283,34.3349552],[133.8407007,34.3349496],[133.8406731,34.3349468],[133.8406601,34.3349476],[133.8406118,34.3349377],[133.8405911,34.3349377],[133.8405505,34.3349285],[133.840068,34.3348548],[133.8395759,34.334781],[133.8394309,34.3347599],[133.839424,34.3347578],[133.8393964,34.3347536],[133.8393688,34.3347694],[133.8393172,34.3347982],[133.8393069,34.3348082],[133.8392931,34.334814],[133.8392811,34.3348212],[133.8391414,34.3354771],[133.8391364,34.3355171],[133.8391278,34.3355401],[133.8391184,34.3355515],[133.8391046,34.3355587],[133.8390908,34.3355602],[133.8390779,34.3355595],[133.8386427,34.3354948],[133.8386162,34.3354911],[133.8384881,34.3360802],[133.8385271,34.3360866],[133.8389569,34.3361445],[133.8389707,34.3361516],[133.8389811,34.3361588],[133.8389863,34.3361716],[133.8389142,34.3365027],[133.838739,34.3373072],[133.8387287,34.3373159],[133.838714,34.3373209],[133.8386847,34.3373181],[133.8386142,34.3373028],[133.8386217,34.337309],[133.8386104,34.3373047],[133.8383903,34.337271],[133.838298,34.3372577],[133.8382712,34.3372534],[133.8382574,34.3372528],[133.8382497,34.3372628],[133.8382489,34.3372857],[133.8381863,34.3375821],[133.8381118,34.3379359],[133.8381118,34.3379459],[133.8381205,34.3379544],[133.8381343,34.3379558],[133.838464,34.3380064],[133.8385659,34.3380262],[133.8385763,34.3380319],[133.8385781,34.3380433],[133.8385756,34.3380662],[133.838451,34.338614],[133.8384502,34.3386376],[133.8384459,34.3386491],[133.838458,34.3386562],[133.8437916,34.3394481],[133.8437451,34.3397464],[133.8431047,34.3403701],[133.8429745,34.340489],[133.8415094,34.3402541],[133.8407324,34.3410176],[133.8400853,34.3416507],[133.8392521,34.3410547],[133.8384663,34.3405227],[133.8380112,34.3401986],[133.8376643,34.3399435],[133.8366454,34.339216],[133.8357371,34.3385766],[133.8346451,34.338407],[133.8336286,34.3382489],[133.8323398,34.3380606],[133.8305677,34.3377924],[133.8293608,34.3376143],[133.8284188,34.3374666],[133.8284229,34.3374496],[133.8282977,34.3374043],[133.8280921,34.3373213],[133.8279305,34.3372332],[133.8277663,34.3371196],[133.8276338,34.3370054],[133.8275045,34.33686],[133.8273942,34.3367032],[133.8273148,34.3365531],[133.8272417,34.3363478],[133.8272144,34.3361005],[133.8272189,34.3359333],[133.8277822,34.3332841],[133.827939,34.333187],[133.8279951,34.3329098],[133.8280926,34.3324684],[133.827999,34.3323541],[133.8286112,34.3295681],[133.8286387,34.3293962],[133.828701,34.329345],[133.8287678,34.3290558],[133.8287232,34.3289936],[133.8291752,34.3269611],[133.8293822,34.3266453]]]}}
