{"type":"Feature","id":"attraction-large-industrial-complex-W362875711","properties":{"id":"attraction-large-industrial-complex-W362875711","kind":"attraction","name":"出光興産","shortName":"出光興産","context":"日本","subtype":"industrial-complex","subtypeLabel":"工業地帯・大規模工場","statusLabel":"","aliases":[],"osmType":"way","osmId":362875711,"osmDate":null,"officialAreaKm2":null,"areaSourceLabel":"","areaSourceUrl":"","boundarySourceLabel":"© OpenStreetMap contributors","boundarySourceUrl":"https://www.openstreetmap.org/copyright","geometryFile":"attractions/large-industrial-complex-W362875711.geojson"},"geometry":{"type":"Polygon","coordinates":[[[131.787394,33.990285],[131.786882,33.990416],[131.786379,33.990591],[131.786162,33.990699],[131.786086,33.990762],[131.786036,33.990846],[131.78585,33.99137],[131.785679,33.991777],[131.785623,33.991852],[131.785535,33.99192],[131.785411,33.991991],[131.785217,33.992056],[131.784587,33.992238],[131.784391,33.992326],[131.784201,33.992447],[131.784032,33.992579],[131.783854,33.992764],[131.783542,33.993138],[131.7832384,33.9935755],[131.7831142,33.9938177],[131.7830546,33.9940167],[131.7830215,33.9942816],[131.783047,33.994565],[131.782682,33.995017],[131.783265,33.995365],[131.78403,33.995766],[131.784885,33.996332],[131.78562,33.996627],[131.786136,33.99712],[131.786676,33.997626],[131.787177,33.997959],[131.788,33.999022],[131.78886,33.999559],[131.789147,33.999913],[131.789622,34.000436],[131.7901,34.000984],[131.791749,34.002884],[131.791351,34.003133],[131.79099,34.002721],[131.790915,34.002769],[131.791346,34.003273],[131.791661,34.003618],[131.791736,34.003566],[131.791456,34.003273],[131.791393,34.003204],[131.791803,34.002945],[131.792068,34.003273],[131.792288,34.003533],[131.792755,34.004179],[131.793488,34.005079],[131.793382,34.005177],[131.793513,34.005255],[131.793612,34.005211],[131.794202,34.006316],[131.795414,34.006928],[131.79577,34.007118],[131.797084,34.007886],[131.7974259,34.0089668],[131.7976444,34.009183],[131.7968677,34.0097181],[131.7965715,34.0097365],[131.7967665,34.0099706],[131.7968898,34.0097948],[131.7973426,34.0095113],[131.798381,34.0108],[131.798442,34.010887],[131.7986844,34.0114107],[131.7980145,34.0126267],[131.7980498,34.0126408],[131.7984191,34.0120022],[131.7987659,34.0114064],[131.798502,34.010831],[131.797684,34.0098184],[131.7979561,34.0096422],[131.7985186,34.0096788],[131.7985233,34.0098234],[131.7987489,34.0098384],[131.798754,34.0097333],[131.799585,34.009768],[131.799767,34.010203],[131.800019,34.010535],[131.800414,34.011123],[131.800859,34.011716],[131.802401,34.01273],[131.802968,34.0131841],[131.8033779,34.0135327],[131.8036078,34.0135045],[131.8037562,34.0135257],[131.803426,34.013276],[131.803386,34.013224],[131.803373,34.013162],[131.803388,34.013085],[131.803454,34.012851],[131.803476,34.012701],[131.803472,34.012582],[131.803462,34.012516],[131.803351,34.012043],[131.8031573,34.0118119],[131.8029867,34.0117549],[131.8026373,34.0116989],[131.8024337,34.0116149],[131.802242,34.011325],[131.8022939,34.0111055],[131.802553,34.010801],[131.8033471,34.0104085],[131.8032052,34.0101495],[131.8031445,34.0100036],[131.8031104,34.0098982],[131.8031259,34.0097381],[131.803222,34.0096424],[131.8043782,34.0087793],[131.8047467,34.0086456],[131.804941,34.0085814],[131.8049927,34.0084837],[131.8048221,34.0083774],[131.804176,34.007948],[131.804159,34.007801],[131.804257,34.00772],[131.8047897,34.0076378],[131.805031,34.007276],[131.805373,34.007202],[131.8049796,34.006708],[131.8049329,34.0062129],[131.8049614,34.0058757],[131.8039485,34.0063761],[131.803185,34.00645],[131.8029625,34.0066597],[131.802347,34.006574],[131.80209,34.007086],[131.801862,34.00696],[131.801453,34.006797],[131.801365,34.006662],[131.801365,34.006408],[131.80115,34.006017],[131.800923,34.005533],[131.800937,34.005386],[131.801038,34.005251],[131.801393,34.004949],[131.801508,34.004699],[131.801383,34.0046],[131.800974,34.004702],[131.800433,34.005073],[131.79999,34.005538],[131.799679,34.005659],[131.799246,34.005718],[131.798878,34.005738],[131.7985989,34.0056518],[131.79845,34.0054767],[131.7981523,34.0052539],[131.7976476,34.0050992],[131.7970928,34.0047813],[131.7968798,34.0048327],[131.796554,34.0048766],[131.7963618,34.004767],[131.796308,34.0044867],[131.796314,34.0039784],[131.796507,34.003682],[131.796354,34.003273],[131.795594,34.002679],[131.79504,34.00206],[131.794837,34.001888],[131.794635,34.001818],[131.794361,34.001776],[131.794091,34.001702],[131.79403,34.001612],[131.794041,34.001243],[131.793947,34.001142],[131.793528,34.0009],[131.793426,34.000762],[131.793467,34.000527],[131.793751,34.000032],[131.793794,33.999837],[131.793703,33.999637],[131.7935067,33.9994824],[131.792734,33.999069],[131.792315,33.998951],[131.791991,33.998911],[131.791291,33.998892],[131.791133,33.998877],[131.790819,33.998748],[131.790718,33.998582],[131.790738,33.998368],[131.79093,33.997902],[131.790954,33.997632],[131.790843,33.997452],[131.790302,33.99692],[131.790157,33.996844],[131.789325,33.996612],[131.789055,33.996485],[131.78888,33.996317],[131.78888,33.996184],[131.789075,33.995814],[131.789164,33.995566],[131.78918,33.995326],[131.789115,33.995104],[131.78889,33.994864],[131.788487,33.994698],[131.788078,33.994431],[131.787728,33.994051],[131.787174,33.993544],[131.786769,33.993161],[131.78665,33.992972],[131.786691,33.992832],[131.786927,33.992635],[131.787401,33.992409],[131.787398,33.992274],[131.787167,33.9917],[131.787125,33.991395],[131.787148,33.990929],[131.787213,33.990662],[131.787394,33.990285]]]}}
