{"type":"Feature","id":"attraction-large-park-R906394","properties":{"id":"attraction-large-park-R906394","kind":"attraction","name":"武蔵野公園","shortName":"武蔵野公園","context":"日本","subtype":"large-park","subtypeLabel":"大型都市公園・広域公園","statusLabel":"著名な公園","aliases":["Musashino Park"],"osmType":"relation","osmId":906394,"osmDate":null,"officialAreaKm2":null,"areaSourceLabel":"","areaSourceUrl":"","boundarySourceLabel":"© OpenStreetMap contributors","boundarySourceUrl":"https://www.openstreetmap.org/copyright","geometryFile":"attractions/large-park-R906394.geojson"},"geometry":{"type":"Polygon","coordinates":[[[139.5175162,35.6884699],[139.517347,35.6878036],[139.5174104,35.6878105],[139.5185921,35.6875695],[139.5187,35.6878566],[139.5191156,35.6877428],[139.5191301,35.6877124],[139.5192241,35.6876509],[139.5191786,35.6875339],[139.5191323,35.687451],[139.5191341,35.6874124],[139.5193652,35.6873477],[139.5196443,35.6872615],[139.5197724,35.6872219],[139.5198915,35.6871852],[139.5203796,35.6870227],[139.5206994,35.6875961],[139.5212382,35.68741],[139.5211793,35.6872969],[139.5211069,35.6873243],[139.5209271,35.6869921],[139.5209911,35.6869588],[139.5209366,35.6868667],[139.520973,35.6868537],[139.5212965,35.6867316],[139.5216645,35.6865192],[139.5228114,35.6888912],[139.5222245,35.6893708],[139.5217874,35.6897695],[139.5215838,35.6899288],[139.5213646,35.6900537],[139.5211808,35.6901477],[139.5210851,35.690205],[139.520958,35.6902953],[139.5207756,35.6904723],[139.5204328,35.6906248],[139.5201752,35.6907641],[139.5199609,35.6909563],[139.5197568,35.6911523],[139.5196207,35.6912789],[139.5194949,35.6914534],[139.5193031,35.6916551],[139.5191435,35.6918411],[139.5189492,35.6920037],[139.51877,35.6921154],[139.5185971,35.6921825],[139.5184237,35.6922359],[139.5181025,35.6924202],[139.517951,35.6925286],[139.5178041,35.6926622],[139.5177217,35.692761],[139.5175871,35.6928734],[139.5171179,35.6931761],[139.5166474,35.6934246],[139.5155995,35.6939078],[139.5153645,35.693532],[139.5151761,35.6932145],[139.5150403,35.6930046],[139.5148592,35.692699],[139.5147615,35.6927281],[139.5147012,35.6927281],[139.5146542,35.6926833],[139.5141216,35.6915896],[139.5139123,35.6909741],[139.513898,35.6909129],[139.5141784,35.6909921],[139.5165709,35.690532],[139.51673,35.6904287],[139.5169125,35.6900001],[139.5170647,35.6892275],[139.5175162,35.6884699]],[[139.519947,35.6878341],[139.5201152,35.6877849],[139.5198768,35.6872555],[139.5197121,35.6873045],[139.519947,35.6878341]],[[139.5223576,35.6883381],[139.521842,35.6877314],[139.5217229,35.68779],[139.5215886,35.6879292],[139.5212539,35.6881398],[139.5211589,35.6884451],[139.5209073,35.6885456],[139.5208262,35.6886237],[139.5206462,35.6887808],[139.5207906,35.688978],[139.5209463,35.6891427],[139.5210417,35.6891606],[139.5220269,35.6886245],[139.5223453,35.688452],[139.5223576,35.6883381]]]}}
