{"type":"Feature","id":"attraction-large-park-W169084619","properties":{"id":"attraction-large-park-W169084619","kind":"attraction","name":"手稲稲積公園","shortName":"手稲稲積公園","context":"札幌市","subtype":"large-park","subtypeLabel":"大型都市公園・広域公園","statusLabel":"著名な公園","aliases":["Teine Inazumi Park"],"osmType":"way","osmId":169084619,"osmDate":null,"officialAreaKm2":null,"areaSourceLabel":"","areaSourceUrl":"","boundarySourceLabel":"© OpenStreetMap contributors","boundarySourceUrl":"https://www.openstreetmap.org/copyright","geometryFile":"attractions/large-park-W169084619.geojson"},"geometry":{"type":"Polygon","coordinates":[[[141.2623062,43.1163996],[141.2622737,43.1163674],[141.2603694,43.1147977],[141.2587513,43.1133654],[141.2578671,43.1126187],[141.2578156,43.1126201],[141.257792,43.1126207],[141.2567406,43.1132296],[141.2564107,43.1134207],[141.2557457,43.1136063],[141.2557413,43.113626],[141.2566243,43.1142871],[141.2566789,43.1143281],[141.2553834,43.1151445],[141.2553839,43.1151851],[141.2558726,43.1156134],[141.2570113,43.1166113],[141.2582872,43.1177295],[141.2590419,43.1183908],[141.2591197,43.1184123],[141.2622767,43.1164897],[141.2623062,43.1163996]]]}}
