{"type":"Feature","id":"attraction-large-park-W476016290","properties":{"id":"attraction-large-park-W476016290","kind":"attraction","name":"偕楽園","shortName":"偕楽園","context":"茨城県・水戸市","subtype":"large-park","subtypeLabel":"大型都市公園・広域公園","statusLabel":"著名な公園","aliases":["Kairakuen"],"osmType":"way","osmId":476016290,"osmDate":null,"officialAreaKm2":null,"areaSourceLabel":"","areaSourceUrl":"","boundarySourceLabel":"© OpenStreetMap contributors","boundarySourceUrl":"https://www.openstreetmap.org/copyright","geometryFile":"attractions/large-park-W476016290.geojson"},"geometry":{"type":"Polygon","coordinates":[[[140.4489903,36.3763941],[140.4491262,36.3764335],[140.4492268,36.3763692],[140.4493716,36.3764373],[140.4497083,36.3763973],[140.4498799,36.3764027],[140.4500288,36.3764232],[140.450179,36.3765172],[140.4503278,36.3765496],[140.4506564,36.3765776],[140.4512599,36.3766176],[140.4518768,36.3766403],[140.4521638,36.3767083],[140.4522711,36.3766759],[140.4522657,36.3765841],[140.4524562,36.3765636],[140.4527579,36.376488],[140.4529779,36.3764232],[140.45312,36.3763681],[140.4533064,36.3762515],[140.4534553,36.3762029],[140.453635,36.3761911],[140.4540078,36.3761932],[140.4543163,36.3761414],[140.4543753,36.3760755],[140.4544504,36.3760572],[140.4545698,36.3760874],[140.4551256,36.3758531],[140.4555018,36.375716],[140.4556581,36.3756841],[140.456735,36.3755016],[140.4568785,36.3754536],[140.4568604,36.3747663],[140.4570696,36.3744769],[140.4566009,36.3742377],[140.4568778,36.3737695],[140.4574632,36.3735066],[140.4574817,36.3731295],[140.4549807,36.3732305],[140.4538522,36.3732833],[140.4530881,36.3734272],[140.4521207,36.3737646],[140.4510793,36.3743699],[140.4505309,36.3748164],[140.4489903,36.3763941]]]}}
