{"type":"Feature","id":"attraction-large-park-W688373835","properties":{"id":"attraction-large-park-W688373835","kind":"attraction","name":"蓮華寺池公園","shortName":"蓮華寺池公園","context":"日本","subtype":"large-park","subtypeLabel":"大型都市公園・広域公園","statusLabel":"著名な公園","aliases":[],"osmType":"way","osmId":688373835,"osmDate":null,"officialAreaKm2":null,"areaSourceLabel":"","areaSourceUrl":"","boundarySourceLabel":"© OpenStreetMap contributors","boundarySourceUrl":"https://www.openstreetmap.org/copyright","geometryFile":"attractions/large-park-W688373835.geojson"},"geometry":{"type":"Polygon","coordinates":[[[138.2586765,34.8748404],[138.2586697,34.8747056],[138.2587209,34.8745831],[138.2585697,34.8743909],[138.2579314,34.8735168],[138.2577954,34.8733899],[138.2577194,34.8732635],[138.2573932,34.873178],[138.2573443,34.8732132],[138.2572077,34.8732452],[138.2569954,34.8731619],[138.2567753,34.8730011],[138.2564423,34.8727984],[138.2561486,34.8726669],[138.2558641,34.8725705],[138.2556606,34.8725232],[138.2553273,34.8723682],[138.255139,34.8723157],[138.2547768,34.8721278],[138.2542891,34.8721544],[138.2541724,34.8721965],[138.2535493,34.8721755],[138.2532919,34.8721484],[138.2521738,34.8725744],[138.2518147,34.8727091],[138.2511821,34.8729026],[138.2508026,34.8731102],[138.2506718,34.8731906],[138.2507419,34.8735929],[138.250952,34.8741025],[138.2506952,34.8743515],[138.2500741,34.8751676],[138.2499199,34.8757001],[138.2498125,34.875976],[138.2493565,34.8762493],[138.2490881,34.8765735],[138.2491307,34.8771661],[138.2496841,34.8771039],[138.2499246,34.8769759],[138.2503216,34.8766235],[138.2509333,34.8762174],[138.2516712,34.8763093],[138.2519934,34.8764051],[138.2516665,34.8767231],[138.2517599,34.8773169],[138.2528153,34.8772671],[138.2528247,34.8770487],[138.2528947,34.8770641],[138.2528901,34.8768955],[138.2526047,34.8768659],[138.2526167,34.8767267],[138.2527471,34.8767036],[138.252912,34.8766197],[138.2530624,34.8765537],[138.2535387,34.8766974],[138.2536134,34.8766916],[138.2540898,34.8769387],[138.2541762,34.8769004],[138.2548346,34.8768429],[138.2550728,34.8767567],[138.2552643,34.8767357],[138.2556145,34.8766782],[138.2563571,34.8765001],[138.2569665,34.8767682],[138.2570669,34.8773142],[138.2573518,34.877387],[138.2573751,34.877295],[138.2576296,34.877364],[138.2579465,34.8774957],[138.2580549,34.8772703],[138.2581351,34.8769317],[138.2581395,34.8767702],[138.2581886,34.8766474],[138.2581935,34.8764455],[138.2582212,34.8763329],[138.2583185,34.8761208],[138.2583138,34.8759215],[138.258162,34.8758392],[138.2578771,34.8758641],[138.2576413,34.8759541],[138.2575759,34.875935],[138.2576075,34.8758878],[138.2577615,34.8758169],[138.2578141,34.8757281],[138.2580378,34.8755771],[138.2583838,34.8751591],[138.2585216,34.8750078],[138.2586717,34.8748972],[138.2586765,34.8748404]]]}}
