{"type":"Feature","id":"attraction-large-park-W437223323","properties":{"id":"attraction-large-park-W437223323","kind":"attraction","name":"逢瀬公園","shortName":"逢瀬公園","context":"日本","subtype":"large-park","subtypeLabel":"大型都市公園・広域公園","statusLabel":"著名な公園","aliases":[],"osmType":"way","osmId":437223323,"osmDate":null,"officialAreaKm2":null,"areaSourceLabel":"","areaSourceUrl":"","boundarySourceLabel":"© OpenStreetMap contributors","boundarySourceUrl":"https://www.openstreetmap.org/copyright","geometryFile":"attractions/large-park-W437223323.geojson"},"geometry":{"type":"Polygon","coordinates":[[[140.2733216,37.4155037],[140.2769152,37.4143745],[140.2787515,37.413512],[140.2801336,37.4133238],[140.2799362,37.4126024],[140.2768757,37.4108458],[140.2758095,37.4096852],[140.2751381,37.4094343],[140.2728082,37.4096852],[140.2701821,37.4111909],[140.2708535,37.4134806],[140.2721369,37.414798],[140.2733216,37.4155037]]]}}
