{"type":"Feature","id":"attraction-large-industrial-complex-W475417817","properties":{"id":"attraction-large-industrial-complex-W475417817","kind":"attraction","name":"デンソー網走テストセンター","shortName":"デンソー網走テストセンター","context":"日本","subtype":"industrial-complex","subtypeLabel":"工業地帯・大規模工場","statusLabel":"","aliases":[],"osmType":"way","osmId":475417817,"osmDate":null,"officialAreaKm2":null,"areaSourceLabel":"","areaSourceUrl":"","boundarySourceLabel":"© OpenStreetMap contributors","boundarySourceUrl":"https://www.openstreetmap.org/copyright","geometryFile":"attractions/large-industrial-complex-W475417817.geojson"},"geometry":{"type":"Polygon","coordinates":[[[144.1127636,43.9482556],[144.1131283,43.948132],[144.1131444,43.9476067],[144.1136648,43.9465601],[144.1137453,43.946],[144.1136272,43.9456099],[144.1133322,43.9453318],[144.1130449,43.9450712],[144.1122378,43.9446289],[144.1111489,43.9444628],[144.1103388,43.9445091],[144.1094323,43.9444821],[144.1071631,43.9442928],[144.106396,43.9442001],[144.1064175,43.9440495],[144.1065247,43.9439336],[144.106632,43.943783],[144.1066964,43.9434856],[144.1065516,43.943277],[144.1062994,43.9429912],[144.1064228,43.9427092],[144.1063799,43.9423848],[144.1062082,43.9421878],[144.1058381,43.9417938],[144.1055431,43.9412916],[144.1053714,43.9407856],[144.1052748,43.939959],[144.104497,43.9398779],[144.1013964,43.939538],[144.0991487,43.9394453],[144.0953963,43.9398199],[144.0949886,43.9405693],[144.0947096,43.9411487],[144.0941571,43.9421028],[144.0935563,43.9425895],[144.0926711,43.9430839],[144.0921025,43.9431457],[144.0915392,43.9431302],[144.0912549,43.9430684],[144.0909384,43.9433388],[144.0905254,43.9434972],[144.0901928,43.9434933],[144.0893023,43.944316],[144.0885781,43.9449649],[144.0878271,43.9452739],[144.0870331,43.946282],[144.0868454,43.9465755],[144.0867274,43.9471935],[144.0862016,43.9476415],[144.0858637,43.9481861],[144.0860139,43.9486689],[144.0863304,43.9492713],[144.0864001,43.9499009],[144.0864001,43.9510942],[144.0866415,43.9528437],[144.0869366,43.9536547],[144.0870278,43.9542726],[144.0865128,43.9547129],[144.0863572,43.95496],[144.0864484,43.9563695],[144.0863411,43.9580957],[144.0863143,43.9582308],[144.0868239,43.9585784],[144.0869312,43.9598372],[144.0870975,43.9621927],[144.0871672,43.9639379],[144.0884386,43.9646638],[144.0896563,43.9652507],[144.090815,43.9652276],[144.0912549,43.9655249],[144.0924995,43.9655133],[144.0962385,43.9654824],[144.0970968,43.9648839],[144.0979551,43.964158],[144.0979873,43.963992],[144.0980516,43.9638955],[144.0982394,43.9637989],[144.0986256,43.9636792],[144.0991567,43.9635364],[144.0992962,43.9634321],[144.0993176,43.9632468],[144.0992801,43.9628182],[144.0990119,43.9619339],[144.0987115,43.9610613],[144.0986256,43.9592155],[144.0985988,43.9560413],[144.100353,43.956022],[144.10053,43.9588062],[144.1007285,43.9590495],[144.1012006,43.9592387],[144.1032283,43.9588294],[144.1038238,43.9588178],[144.1037701,43.958393],[144.103518,43.9568522],[144.1033463,43.9562382],[144.1030298,43.956188],[144.1030137,43.9554698],[144.1025739,43.9538015],[144.1025417,43.9531951],[144.1023539,43.9523262],[144.1021769,43.9517933],[144.1019408,43.9514882],[144.1018282,43.9502214],[144.10156,43.949364],[144.1011576,43.9484989],[144.1006909,43.9458301],[144.1003369,43.9437328],[144.0998434,43.9407779],[144.0999238,43.9408281],[144.1001813,43.9410328],[144.100809,43.9426513],[144.1015385,43.9435706],[144.1018443,43.9437946],[144.1028152,43.9441345],[144.1041724,43.9442813],[144.1049771,43.9443817],[144.1055136,43.9443199],[144.107139,43.9445091],[144.1069137,43.9458571],[144.1071282,43.9459112],[144.1076754,43.9462318],[144.1080992,43.9461507],[144.1092311,43.9462743],[144.109451,43.9453627],[144.1101538,43.9453975],[144.1102181,43.9447486],[144.1108351,43.9448336],[144.1119884,43.9449147],[144.1127555,43.9452816],[144.1131847,43.9456447],[144.1132812,43.9462163],[144.1130345,43.9468999],[144.1128199,43.94729],[144.1125999,43.9477226],[144.1126965,43.9481552],[144.1127636,43.9482556]]]}}
