{"type":"Feature","id":"attraction-large-park-R13010385","properties":{"id":"attraction-large-park-R13010385","kind":"attraction","name":"安満遺跡公園","shortName":"安満遺跡公園","context":"日本","subtype":"large-park","subtypeLabel":"大型都市公園・広域公園","statusLabel":"著名な公園","aliases":[],"osmType":"relation","osmId":13010385,"osmDate":null,"officialAreaKm2":null,"areaSourceLabel":"","areaSourceUrl":"","boundarySourceLabel":"© OpenStreetMap contributors","boundarySourceUrl":"https://www.openstreetmap.org/copyright","geometryFile":"attractions/large-park-R13010385.geojson"},"geometry":{"type":"MultiPolygon","coordinates":[[[[135.6300167,34.8551171],[135.6288204,34.8541781],[135.6285328,34.854428],[135.6282176,34.8541914],[135.6283128,34.8541078],[135.6282189,34.8540362],[135.6284034,34.8538748],[135.628337,34.8538238],[135.6282511,34.8537556],[135.6281626,34.8538348],[135.628176,34.8543686],[135.6280137,34.8545017],[135.6280111,34.8549276],[135.6276087,34.8549243],[135.6276181,34.855019],[135.6288714,34.8554672],[135.6288773,34.8554762],[135.6288774,34.8555026],[135.628746,34.8555075],[135.628721,34.855513],[135.6287053,34.8555219],[135.6286999,34.8555299],[135.6286625,34.8564249],[135.6286977,34.856427],[135.6287239,34.856443],[135.628746,34.8564738],[135.6288513,34.8565162],[135.6288237,34.8565649],[135.6309439,34.8573537],[135.6309618,34.8573551],[135.6309856,34.857346],[135.6309994,34.8573331],[135.6310058,34.8573179],[135.6310145,34.8571204],[135.6310172,34.8571086],[135.6310279,34.8570887],[135.6310453,34.8570533],[135.6310486,34.8570433],[135.6310983,34.8562923],[135.631111,34.8562378],[135.6311439,34.8561839],[135.6311989,34.8561272],[135.6313779,34.8560006],[135.6314088,34.8559693],[135.6314302,34.8559319],[135.6314396,34.8558878],[135.6314564,34.8555596],[135.6313692,34.8555593],[135.6313665,34.8556177],[135.6307261,34.8556028],[135.6307355,34.8552226],[135.6301768,34.8552084],[135.6301724,34.8552205],[135.6301654,34.8552311],[135.6301515,34.8552422],[135.6301352,34.85525],[135.6301121,34.855252],[135.6300891,34.8552505],[135.6300791,34.8552493],[135.6300258,34.855222],[135.630007,34.8552033],[135.6299989,34.855182],[135.6299986,34.8551626],[135.6300048,34.8551341],[135.6300167,34.8551171]]],[[[135.6314594,34.8554331],[135.6315015,34.854506],[135.6315073,34.8542761],[135.6315207,34.8542266],[135.6315462,34.8541771],[135.6315875,34.8541142],[135.6313169,34.8539823],[135.631158,34.8539174],[135.6311338,34.8539333],[135.6310949,34.8539438],[135.6310426,34.853957],[135.6309716,34.8539592],[135.6309374,34.8539581],[135.6309018,34.8539465],[135.630871,34.8539179],[135.6308596,34.8538854],[135.6308696,34.8538381],[135.6308784,34.8538205],[135.6304532,34.8537226],[135.630181,34.8536885],[135.6299517,34.8536719],[135.6285703,34.8536367],[135.6285703,34.853618],[135.6284619,34.8537052],[135.6294318,34.8544764],[135.629485,34.8544786],[135.6294984,34.8544836],[135.6295151,34.8544957],[135.6295316,34.8545111],[135.629544,34.854554],[135.6295423,34.8545702],[135.6295376,34.8545818],[135.6295316,34.8545914],[135.6295212,34.854603],[135.6300878,34.8550548],[135.630134,34.8550597],[135.6301951,34.8551081],[135.6301931,34.8551808],[135.6312183,34.8552105],[135.6312123,34.8554564],[135.6314316,34.8554581],[135.6314443,34.8554526],[135.631456,34.8554441],[135.6314594,34.8554331]]],[[[135.631098,34.8574204],[135.6345959,34.8587034],[135.6346207,34.8587089],[135.6346589,34.8587084],[135.6346777,34.8586985],[135.6346891,34.8586842],[135.6346923,34.8584374],[135.6346238,34.8584377],[135.6346235,34.8583767],[135.6346392,34.8583764],[135.6346422,34.8583254],[135.6346603,34.8583042],[135.6346817,34.8582905],[135.6346957,34.8582852],[135.6347335,34.8576667],[135.6347571,34.856881],[135.6347516,34.8567029],[135.6346727,34.8567038],[135.634672,34.8566414],[135.6347022,34.8566408],[135.6346918,34.856634],[135.6346784,34.8566114],[135.634679,34.8565676],[135.6347178,34.8565681],[135.634721,34.8564813],[135.6347231,34.8564712],[135.6347421,34.8564217],[135.6347469,34.8564033],[135.6347474,34.8563093],[135.6347354,34.856174],[135.6347534,34.8556611],[135.6342553,34.8554284],[135.6338154,34.856027],[135.6335533,34.8558986],[135.6334659,34.8560036],[135.6332787,34.8559112],[135.6333587,34.8558033],[135.6320679,34.8551709],[135.6321993,34.854986],[135.6320992,34.854935],[135.6318708,34.8548187],[135.6317461,34.8543785],[135.6318249,34.8542301],[135.6316349,34.8541373],[135.6315845,34.8542167],[135.6315717,34.85425],[135.631567,34.8542632],[135.6315643,34.8542781],[135.6315503,34.8544797],[135.6315288,34.8550344],[135.6314949,34.85589],[135.6314912,34.8559241],[135.6314792,34.8559572],[135.6314597,34.8559913],[135.6314275,34.8560237],[135.6312592,34.8561431],[135.6312183,34.8561784],[135.6311841,34.8562185],[135.6311607,34.8562675],[135.6311533,34.8563033],[135.6311145,34.856967],[135.6311124,34.8569938],[135.631105,34.8570164],[135.631101,34.8570362],[135.631098,34.8574204]]]]}}
