{"type":"Feature","id":"attraction-large-park-W31959357","properties":{"id":"attraction-large-park-W31959357","kind":"attraction","name":"渚園","shortName":"渚園","context":"日本","subtype":"large-park","subtypeLabel":"大型都市公園・広域公園","statusLabel":"著名な公園","aliases":["Nagisaen"],"osmType":"way","osmId":31959357,"osmDate":null,"officialAreaKm2":null,"areaSourceLabel":"","areaSourceUrl":"","boundarySourceLabel":"© OpenStreetMap contributors","boundarySourceUrl":"https://www.openstreetmap.org/copyright","geometryFile":"attractions/large-park-W31959357.geojson"},"geometry":{"type":"Polygon","coordinates":[[[137.6101199,34.6992457],[137.6101944,34.6992196],[137.6101435,34.6990852],[137.6100424,34.6988712],[137.6098139,34.6984411],[137.6095548,34.6979968],[137.6095045,34.6979317],[137.60935,34.6977715],[137.6092845,34.6976801],[137.6092452,34.6976253],[137.6089241,34.6970897],[137.6087609,34.6967598],[137.6086924,34.6966545],[137.6086485,34.6965897],[137.6086001,34.6965299],[137.6085463,34.6964733],[137.6084867,34.69642],[137.6084249,34.6963714],[137.6083591,34.6963292],[137.6082884,34.6962926],[137.6082137,34.696262],[137.6081356,34.6962377],[137.6080578,34.6962206],[137.6079662,34.6962125],[137.6078696,34.69621],[137.6077731,34.6962137],[137.6076773,34.6962234],[137.6076447,34.6962289],[137.6075505,34.6962579],[137.6075608,34.696274],[137.6074501,34.6963197],[137.6072591,34.6963984],[137.6060623,34.6968916],[137.6061071,34.6969652],[137.6064408,34.6975125],[137.6048074,34.6981857],[137.6047879,34.6981938],[137.6045496,34.698292],[137.6044474,34.6983341],[137.6046054,34.6985933],[137.6046838,34.6988266],[137.6046975,34.6988897],[137.6047431,34.6989886],[137.6047988,34.6991101],[137.6048544,34.699202],[137.6049133,34.6992853],[137.6049277,34.6993113],[137.604939,34.6993419],[137.6049514,34.6993904],[137.6049634,34.6994261],[137.6049803,34.6994566],[137.6050476,34.699561],[137.6050757,34.6996122],[137.6051005,34.6996688],[137.6051223,34.699726],[137.6051611,34.6997831],[137.6054791,34.7001891],[137.605593,34.7003173],[137.6057168,34.7004342],[137.6060176,34.7009276],[137.6101199,34.6992457]]]}}
