{"type":"Feature","id":"attraction-large-industrial-complex-W618344823","properties":{"id":"attraction-large-industrial-complex-W618344823","kind":"attraction","name":"上越火力発電所","shortName":"上越火力発電所","context":"日本","subtype":"industrial-complex","subtypeLabel":"工業地帯・大規模工場","statusLabel":"","aliases":["Joetsu Power Plant","中部電力株式会社"],"osmType":"way","osmId":618344823,"osmDate":null,"officialAreaKm2":null,"areaSourceLabel":"","areaSourceUrl":"","boundarySourceLabel":"© OpenStreetMap contributors","boundarySourceUrl":"https://www.openstreetmap.org/copyright","geometryFile":"attractions/large-industrial-complex-W618344823.geojson"},"geometry":{"type":"Polygon","coordinates":[[[138.2754611,37.1987225],[138.2848336,37.2046565],[138.2777337,37.2118968],[138.2716605,37.2080623],[138.273283,37.2064489],[138.2726518,37.2060566],[138.2727995,37.205901],[138.2700718,37.2041729],[138.2714691,37.2027611],[138.2754611,37.1987225]]]}}
