{"type":"Feature","id":"attraction-large-park-W96166870","properties":{"id":"attraction-large-park-W96166870","kind":"attraction","name":"久良岐公園","shortName":"久良岐公園","context":"日本","subtype":"large-park","subtypeLabel":"大型都市公園・広域公園","statusLabel":"著名な公園","aliases":[],"osmType":"way","osmId":96166870,"osmDate":null,"officialAreaKm2":null,"areaSourceLabel":"","areaSourceUrl":"","boundarySourceLabel":"© OpenStreetMap contributors","boundarySourceUrl":"https://www.openstreetmap.org/copyright","geometryFile":"attractions/large-park-W96166870.geojson"},"geometry":{"type":"Polygon","coordinates":[[[139.6074348,35.4104164],[139.6072774,35.4104217],[139.6071939,35.4101383],[139.6071859,35.4099874],[139.6071691,35.4098463],[139.6071545,35.4097239],[139.6070515,35.4095118],[139.6069399,35.409267],[139.6070577,35.4090338],[139.6071578,35.4087803],[139.6071685,35.4085733],[139.6071471,35.4084218],[139.6071813,35.408112],[139.607187,35.4078998],[139.6071678,35.4078472],[139.6071326,35.4078089],[139.6069569,35.4077319],[139.6065139,35.4076762],[139.6062257,35.408523],[139.6059063,35.4084658],[139.6059993,35.408301],[139.6059745,35.4081819],[139.6060068,35.407965],[139.6060118,35.4073327],[139.6060654,35.4070339],[139.6060342,35.4069587],[139.6059494,35.4068544],[139.6054439,35.4065344],[139.6051526,35.4063751],[139.6047311,35.4060505],[139.6047469,35.4059122],[139.6047881,35.4057742],[139.6048888,35.4056865],[139.6050388,35.4055651],[139.6051189,35.4053762],[139.6051247,35.405234],[139.6051161,35.4051198],[139.6050989,35.4050195],[139.605139,35.4049123],[139.6051341,35.4048905],[139.6051318,35.4046928],[139.6052691,35.4045249],[139.6051246,35.4039248],[139.6048262,35.4035502],[139.6051649,35.4033712],[139.6052496,35.4033418],[139.6058848,35.4035776],[139.6060018,35.4035948],[139.6064442,35.403252],[139.6073224,35.4028277],[139.6073967,35.4026388],[139.6072927,35.4023034],[139.6075454,35.4020659],[139.6086804,35.4028546],[139.6088921,35.4030706],[139.6088451,35.4030947],[139.6089206,35.4033891],[139.6090154,35.4033821],[139.6090919,35.4034483],[139.6092028,35.4034044],[139.6093307,35.4035509],[139.609178,35.403655],[139.6091169,35.4038709],[139.6090462,35.403934],[139.6090279,35.4040355],[139.6090078,35.4041414],[139.6090287,35.4042298],[139.6090448,35.404319],[139.6090184,35.4043689],[139.608973,35.4044264],[139.6089108,35.4044846],[139.6088357,35.4045786],[139.6088211,35.4046293],[139.6088263,35.4046565],[139.6088568,35.4047],[139.6089175,35.404728],[139.6090224,35.4047517],[139.6092751,35.4047532],[139.6093167,35.4047599],[139.6093373,35.4047786],[139.6093455,35.404799],[139.6093483,35.4048278],[139.6093487,35.4050114],[139.6093715,35.4050622],[139.609335,35.405118],[139.6092646,35.4052137],[139.609153,35.40543],[139.609144,35.4054805],[139.6091475,35.405527],[139.6091593,35.405647],[139.6091769,35.4057425],[139.6092018,35.4058153],[139.60919,35.4059036],[139.6091593,35.4059872],[139.6091039,35.4061739],[139.6090923,35.4063066],[139.6091338,35.4064121],[139.6091711,35.4064741],[139.609264,35.4065541],[139.6095936,35.4067107],[139.6097309,35.4067853],[139.6098462,35.4068705],[139.6094754,35.4072993],[139.6091707,35.4079765],[139.6091817,35.4085358],[139.6088154,35.4085396],[139.6087644,35.4089275],[139.6086284,35.4089237],[139.6085854,35.4091147],[139.6086094,35.4092161],[139.6086249,35.4093315],[139.6086258,35.4094272],[139.6085879,35.4095324],[139.6085,35.4097253],[139.6084284,35.4099167],[139.6083839,35.4100059],[139.608293,35.4100769],[139.6081606,35.4101822],[139.6079105,35.4103908],[139.60785,35.4104348],[139.6077832,35.4104493],[139.6076711,35.4104493],[139.6075338,35.4104381],[139.6074348,35.4104164]]]}}
