{"type":"Feature","id":"attraction-large-park-W161769867","properties":{"id":"attraction-large-park-W161769867","kind":"attraction","name":"月寒公園","shortName":"月寒公園","context":"北海道・札幌市","subtype":"large-park","subtypeLabel":"大型都市公園・広域公園","statusLabel":"著名な公園","aliases":["Tsukisamu Park"],"osmType":"way","osmId":161769867,"osmDate":null,"officialAreaKm2":null,"areaSourceLabel":"","areaSourceUrl":"","boundarySourceLabel":"© OpenStreetMap contributors","boundarySourceUrl":"https://www.openstreetmap.org/copyright","geometryFile":"attractions/large-park-W161769867.geojson"},"geometry":{"type":"Polygon","coordinates":[[[141.3813184,43.0311016],[141.3813506,43.030357],[141.3816159,43.0294793],[141.3816732,43.0292384],[141.3817385,43.0285546],[141.3819115,43.0285614],[141.3837807,43.0276669],[141.3838534,43.0276752],[141.3844618,43.0287468],[141.3849448,43.0290395],[141.3856188,43.0311974],[141.3865034,43.0311848],[141.3870988,43.0312554],[141.3872676,43.0310629],[141.3878016,43.031275],[141.3884424,43.0316158],[141.3885946,43.0316715],[141.3886963,43.0316849],[141.3885034,43.0320112],[141.3898606,43.0325399],[141.3900292,43.0326068],[141.3900387,43.0326332],[141.3900668,43.0327099],[141.3905635,43.0328918],[141.390525,43.032949],[141.3907613,43.0334049],[141.3909778,43.0337589],[141.3910713,43.0337854],[141.3909475,43.0339822],[141.3908559,43.0340598],[141.3907706,43.0341168],[141.3906845,43.0341607],[141.3905802,43.034198],[141.3904008,43.0342285],[141.3900832,43.0342533],[141.3898854,43.0337215],[141.3884646,43.0330629],[141.3884504,43.0330588],[141.3884305,43.0330579],[141.3884116,43.0330678],[141.3883332,43.0332031],[141.3882317,43.033338],[141.3881733,43.0332832],[141.3880717,43.0332276],[141.387973,43.0331883],[141.3879078,43.0331726],[141.3878345,43.033159],[141.3873093,43.0331043],[141.3872815,43.0331221],[141.3869037,43.0335364],[141.3867628,43.033563],[141.3845845,43.0335157],[141.383659,43.0325238],[141.3827801,43.0315689],[141.3817257,43.0311415],[141.3815849,43.0311242],[141.3813184,43.0311016]]]}}
