{"type":"Feature","id":"attraction-large-park-W377692945","properties":{"id":"attraction-large-park-W377692945","kind":"attraction","name":"道の駅うつのみや ろまんちっく村","shortName":"道の駅うつのみや ろまんちっく村","context":"日本","subtype":"large-park","subtypeLabel":"大型都市公園・広域公園","statusLabel":"著名な公園","aliases":[],"osmType":"way","osmId":377692945,"osmDate":null,"officialAreaKm2":null,"areaSourceLabel":"","areaSourceUrl":"","boundarySourceLabel":"© OpenStreetMap contributors","boundarySourceUrl":"https://www.openstreetmap.org/copyright","geometryFile":"attractions/large-park-W377692945.geojson"},"geometry":{"type":"Polygon","coordinates":[[[139.8275741,36.6340789],[139.827617,36.6338895],[139.8276868,36.633756],[139.8279013,36.6334762],[139.8279603,36.6333987],[139.8279721,36.633329],[139.8279603,36.6332739],[139.8277189,36.6330845],[139.8276385,36.6329639],[139.8275634,36.6328864],[139.8273488,36.6327487],[139.8270645,36.6326109],[139.8269679,36.6325033],[139.8268123,36.6322709],[139.8271664,36.6319996],[139.8274483,36.6318684],[139.8276653,36.6320599],[139.8282286,36.6319437],[139.8281535,36.6317844],[139.8293604,36.6314874],[139.8296539,36.6314138],[139.8295758,36.6311542],[139.8299076,36.6310224],[139.8302002,36.6309127],[139.8307069,36.6307857],[139.831002,36.6307728],[139.8322387,36.6310849],[139.8327483,36.631158],[139.8328956,36.6311042],[139.8335554,36.6307943],[139.8336091,36.630678],[139.8336466,36.6305145],[139.8335232,36.6303164],[139.8331102,36.6302691],[139.8326274,36.6300409],[139.8324343,36.6298902],[139.8324021,36.6296535],[139.8323645,36.6290637],[139.8325362,36.6288786],[139.8339524,36.6288183],[139.8344019,36.6287703],[139.8344084,36.6292531],[139.8345639,36.6293693],[139.8347678,36.6294253],[139.8351004,36.6294296],[139.8353715,36.6294877],[139.8355271,36.6296126],[139.8356046,36.6297912],[139.8357417,36.6298838],[139.8358353,36.6298988],[139.8359319,36.6300538],[139.8361411,36.6301055],[139.8363556,36.630127],[139.83664,36.630127],[139.8367985,36.6301464],[139.8369701,36.6302841],[139.8371472,36.6305855],[139.8372866,36.6310074],[139.8373886,36.6313604],[139.8374425,36.6317459],[139.8376192,36.6324495],[139.8378016,36.6328585],[139.8380538,36.6331211],[139.8382254,36.6334052],[139.8383917,36.6337754],[139.838558,36.6339777],[139.8392447,36.6348171],[139.8389539,36.635219],[139.837112,36.6365584],[139.8366561,36.636115],[139.8369135,36.6358955],[139.836361,36.63531],[139.8353873,36.6340633],[139.8344678,36.6328859],[139.8344245,36.6328305],[139.833652,36.6332222],[139.8334725,36.6332933],[139.832901,36.63336],[139.8326757,36.633403],[139.8325362,36.6334805],[139.8320534,36.6341693],[139.8327615,36.634518],[139.8323913,36.6348623],[139.8333033,36.6358481],[139.8330994,36.6359945],[139.8332604,36.6362484],[139.8328259,36.6365196],[139.8316671,36.6352541],[139.831297,36.6349226],[139.8306157,36.6345481],[139.8299934,36.6343587],[139.829339,36.634264],[139.8284217,36.634165],[139.8275741,36.6340789]]]}}
