{"type":"Feature","id":"attraction-large-park-W744275393","properties":{"id":"attraction-large-park-W744275393","kind":"attraction","name":"鳥海花立高原","shortName":"鳥海花立高原","context":"日本","subtype":"large-park","subtypeLabel":"大型都市公園・広域公園","statusLabel":"","aliases":[],"osmType":"way","osmId":744275393,"osmDate":null,"officialAreaKm2":null,"areaSourceLabel":"","areaSourceUrl":"","boundarySourceLabel":"© OpenStreetMap contributors","boundarySourceUrl":"https://www.openstreetmap.org/copyright","geometryFile":"attractions/large-park-W744275393.geojson"},"geometry":{"type":"Polygon","coordinates":[[[140.0831962,39.2033444],[140.0843549,39.2028955],[140.0881905,39.2037061],[140.0881985,39.2046019],[140.088342,39.2047339],[140.0885855,39.2046544],[140.0889647,39.2044692],[140.0893635,39.2042685],[140.0903139,39.2044882],[140.0905853,39.2044858],[140.0908566,39.2046165],[140.0919939,39.2076592],[140.0944186,39.2093551],[140.0942576,39.2129878],[140.0915111,39.2124641],[140.0908566,39.211184],[140.0892902,39.2099952],[140.0884855,39.2087732],[140.0877238,39.2086485],[140.0874985,39.2093135],[140.0858355,39.2091556],[140.0851274,39.2086734],[140.0851274,39.2078088],[140.0829602,39.2060381],[140.0831962,39.2033444]]]}}
