{"type":"Feature","id":"attraction-large-park-R15476088","properties":{"id":"attraction-large-park-R15476088","kind":"attraction","name":"大分スポーツ公園","shortName":"大分スポーツ公園","context":"日本","subtype":"large-park","subtypeLabel":"大型都市公園・広域公園","statusLabel":"","aliases":[],"osmType":"relation","osmId":15476088,"osmDate":null,"officialAreaKm2":null,"areaSourceLabel":"","areaSourceUrl":"","boundarySourceLabel":"© OpenStreetMap contributors","boundarySourceUrl":"https://www.openstreetmap.org/copyright","geometryFile":"attractions/large-park-R15476088.geojson"},"geometry":{"type":"MultiPolygon","coordinates":[[[[131.6532122,33.2023795],[131.6533679,33.2020461],[131.6533697,33.2012645],[131.6532956,33.2011575],[131.653316,33.2010428],[131.6535069,33.200942],[131.6537941,33.2007109],[131.6545174,33.199682],[131.6546021,33.1995983],[131.6547642,33.1994951],[131.6553209,33.1991656],[131.6562409,33.1988797],[131.6570639,33.1988472],[131.6585778,33.1992728],[131.6594823,33.1987043],[131.6601344,33.1986653],[131.661202,33.1986718],[131.6615086,33.1989447],[131.6616912,33.1998575],[131.661656,33.2003987],[131.6616578,33.2006809],[131.6615911,33.2010484],[131.661491,33.2013679],[131.6604234,33.2037255],[131.6601946,33.2038622],[131.659933,33.2038661],[131.6582258,33.2039045],[131.6577329,33.2038641],[131.6573326,33.2037447],[131.6570638,33.2036005],[131.6561965,33.2029291],[131.6557999,33.2027988],[131.6554422,33.2027135],[131.6545804,33.2026918],[131.6541931,33.2026515],[131.6537946,33.2025522],[131.6532122,33.2023795]]],[[[131.6533721,33.2027872],[131.6537379,33.2028779],[131.6540007,33.2029354],[131.6541318,33.2029586],[131.6543037,33.2029821],[131.6544499,33.2029888],[131.6547514,33.2029892],[131.6551163,33.2029921],[131.6552918,33.2029996],[131.6554429,33.2030159],[131.6556188,33.2030486],[131.6557688,33.2030831],[131.655847,33.2031101],[131.6558596,33.203082],[131.6559594,33.2031174],[131.6560422,33.203155],[131.6561109,33.203195],[131.6561983,33.2032521],[131.6560146,33.2034747],[131.6557755,33.2034964],[131.6555995,33.2038221],[131.655466,33.2038949],[131.6550787,33.2038004],[131.654771,33.2032685],[131.6547581,33.2030498],[131.6545598,33.2030731],[131.6545764,33.2039973],[131.654241,33.2039957],[131.6541094,33.2039725],[131.6536276,33.2035786],[131.6535293,33.203467],[131.6535312,33.2032359],[131.6533903,33.2029847],[131.6533721,33.2027872]]],[[[131.6510089,33.2030703],[131.6511063,33.2031458],[131.6512282,33.2032367],[131.6513488,33.2032929],[131.6514174,33.2033064],[131.65153,33.2033242],[131.6516621,33.2033331],[131.6517879,33.2033126],[131.6518399,33.2033001],[131.6519401,33.2032737],[131.6520346,33.203222],[131.6521129,33.2031672],[131.6525086,33.2028745],[131.6526072,33.2028198],[131.6527007,33.2027736],[131.65283,33.2027354],[131.6529383,33.2027147],[131.6530259,33.2027156],[131.6531556,33.2027296],[131.6530407,33.2029498],[131.6530555,33.2033421],[131.6528035,33.2034832],[131.6524736,33.2036104],[131.652507,33.2037887],[131.6527294,33.2039298],[131.6527738,33.2040306],[131.6527071,33.204364],[131.6527053,33.2045408],[131.6523624,33.2047563],[131.6522086,33.2047346],[131.651825,33.2044431],[131.6514877,33.2042074],[131.651117,33.2043935],[131.6509984,33.2045144],[131.6510336,33.2049796],[131.6508742,33.2050417],[131.6506407,33.2049254],[131.6506409,33.2047047],[131.6507262,33.2046204],[131.650699,33.2045843],[131.6504127,33.2046339],[131.650217,33.2046679],[131.6499383,33.2046782],[131.649955,33.2046137],[131.6502107,33.2042555],[131.6503516,33.2037608],[131.6507389,33.2034336],[131.6510089,33.2030703]]],[[[131.6476983,33.1965412],[131.6478693,33.1955259],[131.648776,33.195642],[131.6499312,33.1958175],[131.650079,33.195836],[131.6501314,33.1956452],[131.649908,33.1955485],[131.6497579,33.1954327],[131.6496096,33.1952808],[131.6495503,33.1950636],[131.6494613,33.1949023],[131.6493409,33.1947876],[131.6491871,33.1946806],[131.6489943,33.1946527],[131.6474301,33.1945813],[131.6473523,33.194617],[131.6472689,33.1947147],[131.6470799,33.1967354],[131.64695,33.1983519],[131.6470049,33.1989243],[131.6471533,33.1995859],[131.6473114,33.2001421],[131.6473534,33.20035],[131.6493419,33.2007684],[131.6496438,33.2008561],[131.6499473,33.2009669],[131.6499596,33.2009244],[131.6499103,33.20074],[131.6499966,33.2005944],[131.650032,33.2004951],[131.6501476,33.2004513],[131.6503463,33.2004835],[131.6507175,33.2005377],[131.6508747,33.2004835],[131.6511474,33.2001136],[131.6513045,33.2001226],[131.6514154,33.2003005],[131.6514986,33.2002979],[131.651893,33.1999357],[131.6518699,33.1998197],[131.6515926,33.1996933],[131.6516477,33.1983304],[131.6513993,33.1982264],[131.6499785,33.1982199],[131.650095,33.1970375],[131.6499445,33.1970063],[131.6503252,33.1956427],[131.6501559,33.1955951],[131.6497235,33.1969606],[131.6476983,33.1965412]]],[[[131.6501566,33.1955833],[131.6498471,33.1954329],[131.649697,33.1952375],[131.6496359,33.1950467],[131.6495784,33.1948668],[131.6494876,33.194735],[131.649243,33.1945799],[131.649028,33.1945194],[131.6473823,33.1943876],[131.6473359,33.1943457],[131.6472889,33.1942899],[131.6473368,33.1933764],[131.6474562,33.1928482],[131.6476759,33.1922408],[131.6477548,33.1921543],[131.6478437,33.1921094],[131.648207,33.1921962],[131.64827,33.192176],[131.6485572,33.1922381],[131.6487036,33.1922924],[131.6501789,33.1924893],[131.6503271,33.1925141],[131.6504105,33.1925358],[131.6504606,33.1926072],[131.6504865,33.1927483],[131.6505088,33.1936106],[131.6505477,33.1937083],[131.6508331,33.1939208],[131.6508924,33.1940294],[131.6509054,33.1941829],[131.65072,33.1948218],[131.6504772,33.1956795],[131.6501566,33.1955833]]],[[[131.650608,33.195508],[131.6510559,33.1942084],[131.6510264,33.1939682],[131.6508547,33.1938156],[131.6507072,33.1936809],[131.650675,33.1936091],[131.6509808,33.1937662],[131.6510854,33.1937258],[131.6512624,33.1935822],[131.6516379,33.1937011],[131.6517425,33.1940333],[131.6515709,33.1944463],[131.6516406,33.1946528],[131.6521207,33.1953598],[131.6521797,33.1954137],[131.6534994,33.195407],[131.6536147,33.195416],[131.6540385,33.1961432],[131.6520644,33.1959255],[131.650608,33.195508]]],[[[131.6478596,33.1919586],[131.6487603,33.1922238],[131.6500484,33.1923975],[131.6502133,33.1924099],[131.65028,33.1919772],[131.650495,33.1917306],[131.6504857,33.1915864],[131.6504468,33.1915027],[131.6502355,33.1914174],[131.6502355,33.1908063],[131.6501725,33.1903177],[131.6494331,33.1900169],[131.648373,33.1896741],[131.6483563,33.1901502],[131.648299,33.1904567],[131.6481334,33.1909708],[131.6479221,33.1915786],[131.6478121,33.1918574],[131.6478596,33.1919586]]],[[[131.6473077,33.2054777],[131.648443,33.2050438],[131.6484278,33.2050201],[131.6483614,33.2050165],[131.6483172,33.2049791],[131.6482835,33.204954],[131.6482166,33.2049182],[131.6481703,33.2049029],[131.6481221,33.2049003],[131.6480387,33.204916],[131.6480233,33.2049144],[131.6480007,33.2049017],[131.6477974,33.2046696],[131.647668,33.2046187],[131.647612,33.2045664],[131.6475495,33.2045617],[131.6473119,33.204302],[131.6472875,33.2042798],[131.6472478,33.2042674],[131.6471882,33.2042646],[131.6471161,33.2042773],[131.6470764,33.2042966],[131.6470376,33.2043259],[131.647017,33.2043593],[131.6470155,33.2044039],[131.647337,33.204811],[131.647369,33.2049996],[131.6472883,33.2052996],[131.6473077,33.2054777]]]]}}
