{"type":"Feature","id":"attraction-large-park-W887391126","properties":{"id":"attraction-large-park-W887391126","kind":"attraction","name":"アルプス公園","shortName":"アルプス公園","context":"日本","subtype":"large-park","subtypeLabel":"大型都市公園・広域公園","statusLabel":"","aliases":[],"osmType":"way","osmId":887391126,"osmDate":null,"officialAreaKm2":null,"areaSourceLabel":"","areaSourceUrl":"","boundarySourceLabel":"© OpenStreetMap contributors","boundarySourceUrl":"https://www.openstreetmap.org/copyright","geometryFile":"attractions/large-park-W887391126.geojson"},"geometry":{"type":"Polygon","coordinates":[[[137.9546492,36.2576687],[137.9548647,36.2570364],[137.9550352,36.2570702],[137.9553897,36.2571606],[137.9551316,36.2576023],[137.9552123,36.2578959],[137.9553963,36.2579647],[137.9562891,36.2582988],[137.956757,36.2584844],[137.957157,36.2587354],[137.9577257,36.2591617],[137.9576994,36.2598675],[137.9573699,36.2602854],[137.9572648,36.2606438],[137.959448,36.2621458],[137.9591705,36.262545],[137.9587937,36.2631245],[137.9583022,36.2634931],[137.9578335,36.2641993],[137.9573829,36.2648265],[137.9565755,36.2659987],[137.9555878,36.2657726],[137.9542554,36.2665003],[137.9537344,36.2677448],[137.9516745,36.2694662],[137.9516959,36.2716287],[137.9511058,36.2718709],[137.9510099,36.2721488],[137.9503977,36.2719401],[137.9492611,36.2673222],[137.9502106,36.2636241],[137.951997,36.261284],[137.9526738,36.2591488],[137.9529282,36.2586441],[137.9536009,36.2580355],[137.9546492,36.2576687]]]}}
