{"type":"Feature","id":"attraction-large-park-W494866618","properties":{"id":"attraction-large-park-W494866618","kind":"attraction","name":"岐阜県百年公園","shortName":"岐阜県百年公園","context":"日本","subtype":"large-park","subtypeLabel":"大型都市公園・広域公園","statusLabel":"","aliases":[],"osmType":"way","osmId":494866618,"osmDate":null,"officialAreaKm2":null,"areaSourceLabel":"","areaSourceUrl":"","boundarySourceLabel":"© OpenStreetMap contributors","boundarySourceUrl":"https://www.openstreetmap.org/copyright","geometryFile":"attractions/large-park-W494866618.geojson"},"geometry":{"type":"Polygon","coordinates":[[[136.869855,35.471407],[136.8702198,35.4711449],[136.870649,35.47104],[136.8715378,35.4710232],[136.8719364,35.4710226],[136.8739081,35.4704213],[136.8753613,35.4701069],[136.8790237,35.4690329],[136.8795837,35.4690707],[136.881397,35.469045],[136.8820988,35.4691911],[136.8824769,35.4694355],[136.882003,35.470196],[136.8811545,35.4718279],[136.8806975,35.4727975],[136.8791911,35.4733834],[136.878541,35.4736363],[136.8771034,35.4754449],[136.8746611,35.4770051],[136.874095,35.478251],[136.8739367,35.4784964],[136.873482,35.479084],[136.873286,35.479498],[136.873665,35.480241],[136.8738881,35.4806408],[136.8706468,35.4800853],[136.86784,35.4797293],[136.8665263,35.4795163],[136.866163,35.4793273],[136.865935,35.4790892],[136.8652926,35.4782527],[136.8652846,35.4771911],[136.8658854,35.4766319],[136.8667008,35.4764747],[136.8678809,35.4763523],[136.868514,35.475934],[136.8680097,35.4756184],[136.8684179,35.4744731],[136.8687607,35.4739234],[136.8693369,35.4732144],[136.86918,35.4725884],[136.869855,35.471407]]]}}
