{"type":"Feature","id":"attraction-large-park-W1498425530","properties":{"id":"attraction-large-park-W1498425530","kind":"attraction","name":"長沼公園","shortName":"長沼公園","context":"日本","subtype":"large-park","subtypeLabel":"大型都市公園・広域公園","statusLabel":"著名な公園","aliases":[],"osmType":"way","osmId":1498425530,"osmDate":null,"officialAreaKm2":null,"areaSourceLabel":"","areaSourceUrl":"","boundarySourceLabel":"© OpenStreetMap contributors","boundarySourceUrl":"https://www.openstreetmap.org/copyright","geometryFile":"attractions/large-park-W1498425530.geojson"},"geometry":{"type":"Polygon","coordinates":[[[139.366479,35.6402172],[139.366434,35.63969],[139.3659376,35.6401056],[139.3656921,35.6399059],[139.3656987,35.6394198],[139.3657859,35.6391851],[139.3660368,35.6390222],[139.3661838,35.6387038],[139.3661191,35.638427],[139.3656949,35.6383343],[139.3652574,35.6383952],[139.365001,35.6382075],[139.3649028,35.6381211],[139.3648496,35.6380882],[139.3648161,35.6380243],[139.3647985,35.6379582],[139.3646766,35.6378078],[139.3642881,35.6375558],[139.3644085,35.6373796],[139.3643479,35.6372663],[139.3642303,35.6372104],[139.3645895,35.6367109],[139.3645756,35.6366757],[139.3642225,35.6364943],[139.3646742,35.6358634],[139.3645446,35.6357906],[139.3648999,35.6352177],[139.3649043,35.6351087],[139.3649053,35.6350696],[139.3650653,35.6350286],[139.3653778,35.6350392],[139.3655376,35.6350238],[139.3657311,35.6350445],[139.3657874,35.6350308],[139.3658394,35.6349969],[139.3659992,35.6348406],[139.3660448,35.6348137],[139.3661118,35.6348025],[139.3661787,35.6348048],[139.3665025,35.634875],[139.3665877,35.6348881],[139.3669147,35.6349152],[139.3669771,35.6351475],[139.3672603,35.6351703],[139.3673777,35.6350481],[139.3675434,35.634992],[139.3677844,35.6350071],[139.3678449,35.6348136],[139.3679626,35.6348816],[139.3680735,35.6349128],[139.3681487,35.6349582],[139.3684908,35.6351185],[139.3686211,35.6351586],[139.3690456,35.6353691],[139.3692967,35.6354128],[139.3696375,35.6355298],[139.3697836,35.6355282],[139.3709851,35.6359928],[139.3715241,35.6361354],[139.3713758,35.6351147],[139.371782,35.6350791],[139.3718664,35.6356213],[139.3724514,35.6354526],[139.372855,35.6353737],[139.3728972,35.6353957],[139.3729824,35.6357331],[139.3732674,35.6358865],[139.3735728,35.6358361],[139.3740359,35.6357671],[139.3740187,35.6358572],[139.3740287,35.6359362],[139.37407,35.6360531],[139.374174,35.6363027],[139.3741833,35.6365244],[139.3741647,35.6374284],[139.3740832,35.6375778],[139.37393,35.6377057],[139.3737595,35.6377803],[139.3735623,35.6378373],[139.3735539,35.6378917],[139.3736048,35.6379213],[139.3734733,35.6381497],[139.3729438,35.6388413],[139.3723658,35.6390172],[139.3723116,35.6400646],[139.3724611,35.6401008],[139.3723238,35.6403935],[139.3721068,35.6408258],[139.3720169,35.64092],[139.3719293,35.6409499],[139.3711185,35.6410796],[139.3705481,35.6409692],[139.3703082,35.6408354],[139.3698372,35.6406456],[139.370206,35.6398687],[139.3706643,35.6394643],[139.3702929,35.639328],[139.3699215,35.6397611],[139.3694812,35.6396409],[139.3693526,35.6392489],[139.3692107,35.6393311],[139.3693302,35.6395618],[139.369329,35.639707],[139.3695075,35.6398979],[139.3695377,35.6399172],[139.3695135,35.6399403],[139.3695196,35.6400361],[139.3695523,35.6400661],[139.3694039,35.640304],[139.3690895,35.64024],[139.3689935,35.6404649],[139.368791,35.640457],[139.3686718,35.640482],[139.3681264,35.6404976],[139.3679946,35.6404825],[139.3681473,35.6404007],[139.3681731,35.6403551],[139.3681639,35.6402573],[139.3679831,35.6399908],[139.3671602,35.6398603],[139.366479,35.6402172]]]}}
