{"type":"Feature","id":"attraction-large-industrial-complex-W828455842","properties":{"id":"attraction-large-industrial-complex-W828455842","kind":"attraction","name":"日本製紙","shortName":"日本製紙","context":"日本","subtype":"industrial-complex","subtypeLabel":"工業地帯・大規模工場","statusLabel":"","aliases":[],"osmType":"way","osmId":828455842,"osmDate":null,"officialAreaKm2":null,"areaSourceLabel":"","areaSourceUrl":"","boundarySourceLabel":"© OpenStreetMap contributors","boundarySourceUrl":"https://www.openstreetmap.org/copyright","geometryFile":"attractions/large-industrial-complex-W828455842.geojson"},"geometry":{"type":"Polygon","coordinates":[[[141.712153,42.6383077],[141.71855,42.6376506],[141.7190436,42.6373211],[141.7194432,42.6368752],[141.7195344,42.6365595],[141.7191589,42.6344363],[141.7199394,42.6343455],[141.7200011,42.6346277],[141.7215219,42.6348151],[141.7228335,42.6334595],[141.7221335,42.633053],[141.7224526,42.6327254],[141.7224285,42.6326484],[141.7226565,42.6324412],[141.7222434,42.6306475],[141.7218465,42.6304107],[141.7192447,42.6307777],[141.7188907,42.6306632],[141.7187566,42.6296529],[141.7177319,42.6298976],[141.7177641,42.6301975],[141.714465,42.6305922],[141.7146259,42.6314329],[141.7112142,42.6319617],[141.711241,42.6327747],[141.7106724,42.6329405],[141.7107475,42.6333194],[141.7113697,42.6333115],[141.7115253,42.6341087],[141.7090684,42.6343376],[141.7094815,42.6369107],[141.7120993,42.6367213],[141.712153,42.6383077]]]}}
