{"type":"Feature","id":"attraction-large-industrial-complex-W444749702","properties":{"id":"attraction-large-industrial-complex-W444749702","kind":"attraction","name":"日本製紙　岩沼工場","shortName":"日本製紙　岩沼工場","context":"日本","subtype":"industrial-complex","subtypeLabel":"工業地帯・大規模工場","statusLabel":"","aliases":[],"osmType":"way","osmId":444749702,"osmDate":null,"officialAreaKm2":null,"areaSourceLabel":"","areaSourceUrl":"","boundarySourceLabel":"© OpenStreetMap contributors","boundarySourceUrl":"https://www.openstreetmap.org/copyright","geometryFile":"attractions/large-industrial-complex-W444749702.geojson"},"geometry":{"type":"Polygon","coordinates":[[[140.8578396,38.0902877],[140.8586255,38.0916725],[140.8589953,38.0920631],[140.8590687,38.0920454],[140.8596819,38.0924553],[140.8602896,38.0928482],[140.862089,38.0942244],[140.8634619,38.0948458],[140.8653877,38.0940851],[140.86392,38.0922013],[140.8631988,38.0910144],[140.8625748,38.0898783],[140.8619668,38.0886143],[140.8616742,38.0879846],[140.861348,38.0872686],[140.8607634,38.0864433],[140.8606395,38.0862446],[140.8600887,38.0856472],[140.8600564,38.085618],[140.8591027,38.0847541],[140.8578354,38.0840644],[140.85664,38.0835716],[140.8561051,38.0837146],[140.8557844,38.0830528],[140.8547976,38.0826984],[140.8538219,38.0826382],[140.8537258,38.0827928],[140.8535113,38.0828624],[140.8535894,38.0830988],[140.8538013,38.0830499],[140.8540314,38.0835262],[140.8553551,38.0831618],[140.8555559,38.083531],[140.8557503,38.0834888],[140.8562238,38.0844207],[140.8556882,38.0846995],[140.8552439,38.0849086],[140.8550513,38.0847122],[140.8551237,38.0846784],[140.8548984,38.0844357],[140.8542922,38.084632],[140.8547697,38.0855567],[140.8549492,38.0860623],[140.8556251,38.0858497],[140.8558694,38.0864624],[140.8565989,38.0876952],[140.8567169,38.087938],[140.855797,38.0884194],[140.8571917,38.0905008],[140.8578396,38.0902877]]]}}
