{"type":"Feature","id":"attraction-large-airport-W172627190","properties":{"id":"attraction-large-airport-W172627190","kind":"attraction","name":"東京ヘリポート","shortName":"東京ヘリポート","context":"日本","subtype":"airport","subtypeLabel":"空港・飛行場","statusLabel":"","aliases":["Tokyo Heliport","東京都"],"osmType":"way","osmId":172627190,"osmDate":null,"officialAreaKm2":null,"areaSourceLabel":"","areaSourceUrl":"","boundarySourceLabel":"© OpenStreetMap contributors","boundarySourceUrl":"https://www.openstreetmap.org/copyright","geometryFile":"attractions/large-airport-W172627190.geojson"},"geometry":{"type":"Polygon","coordinates":[[[139.8370299,35.6384615],[139.8371374,35.638538],[139.8402153,35.6383599],[139.8398904,35.6342493],[139.8393778,35.6341069],[139.8391443,35.6338681],[139.8366544,35.6336211],[139.836835,35.6359494],[139.8367983,35.6359509],[139.8368126,35.6360978],[139.8368478,35.6360977],[139.8370299,35.6384615]]]}}
