{"type":"Feature","id":"attraction-large-park-W378490210","properties":{"id":"attraction-large-park-W378490210","kind":"attraction","name":"神戸総合運動公園","shortName":"神戸総合運動公園","context":"日本","subtype":"large-park","subtypeLabel":"大型都市公園・広域公園","statusLabel":"","aliases":["Kobe Sports Park"],"osmType":"way","osmId":378490210,"osmDate":null,"officialAreaKm2":null,"areaSourceLabel":"","areaSourceUrl":"","boundarySourceLabel":"© OpenStreetMap contributors","boundarySourceUrl":"https://www.openstreetmap.org/copyright","geometryFile":"attractions/large-park-W378490210.geojson"},"geometry":{"type":"Polygon","coordinates":[[[135.0711887,34.6820557],[135.0713649,34.6814256],[135.071537,34.6810095],[135.0716702,34.6807214],[135.0720492,34.6801536],[135.0727847,34.6791697],[135.0743192,34.6774445],[135.0748436,34.6767925],[135.0751755,34.6768076],[135.0753763,34.6767925],[135.0755668,34.6766459],[135.0757635,34.6761775],[135.0758516,34.6756923],[135.0759876,34.6753608],[135.076047,34.6752524],[135.0763773,34.6752202],[135.0770151,34.6752306],[135.0770595,34.675242],[135.0770765,34.6752762],[135.0771164,34.6753942],[135.0771265,34.6760821],[135.0771941,34.6761284],[135.0772074,34.6762977],[135.077357,34.6763323],[135.0774297,34.6763752],[135.0778012,34.676386],[135.0778524,34.6764408],[135.0778637,34.6771265],[135.0781833,34.6771282],[135.0781741,34.6776572],[135.0779385,34.6776564],[135.07792,34.6780565],[135.0773987,34.6780593],[135.0773987,34.6781022],[135.0768786,34.6781236],[135.0769699,34.6783238],[135.0770887,34.6785346],[135.0778358,34.6785974],[135.0779239,34.678562],[135.0784197,34.678631],[135.0787065,34.6782132],[135.0788458,34.6781088],[135.0793129,34.6782688],[135.0795997,34.6782486],[135.0799296,34.6784103],[135.0797698,34.678599],[135.0798579,34.6800008],[135.0802471,34.6798997],[135.0809007,34.6797919],[135.0816075,34.6797076],[135.0820561,34.6796739],[135.0825622,34.6796554],[135.0826298,34.6798424],[135.0825929,34.6799907],[135.0826154,34.6801558],[135.0826585,34.6803461],[135.0826052,34.680609],[135.0826257,34.6807741],[135.0827179,34.6809762],[135.0826953,34.6811396],[135.0827322,34.6813199],[135.0826667,34.6815659],[135.082513,34.6817108],[135.0824065,34.6819332],[135.0823737,34.6820966],[135.0823491,34.6823038],[135.0823491,34.682575],[135.0821627,34.683008],[135.0819396,34.6833351],[135.0817223,34.6835805],[135.0816383,34.6839069],[135.0817136,34.6840427],[135.0815282,34.6848384],[135.0814036,34.6848432],[135.0811023,34.6849385],[135.0809632,34.6849695],[135.0808712,34.6849511],[135.0796597,34.6838208],[135.0796341,34.6837936],[135.0795995,34.6837568],[135.0795656,34.683722],[135.0795369,34.6836904],[135.0794928,34.6836436],[135.0788119,34.6829694],[135.0786931,34.6828717],[135.078371,34.6826413],[135.0780449,34.6824501],[135.0778602,34.6823493],[135.0775747,34.6822428],[135.0773264,34.6821639],[135.0769313,34.6820875],[135.0767669,34.6820644],[135.0765568,34.6820532],[135.0762679,34.6820549],[135.0760999,34.6820716],[135.0759443,34.6820757],[135.0756668,34.6820964],[135.0752184,34.6821316],[135.0749076,34.6821588],[135.0745769,34.682166],[135.0737534,34.682222],[135.0731585,34.6822411],[135.0728071,34.6822321],[135.0725582,34.6822161],[135.0716936,34.6821201],[135.0711887,34.6820557]]]}}
