{"type":"Feature","id":"attraction-large-park-W370418218","properties":{"id":"attraction-large-park-W370418218","kind":"attraction","name":"田浦梅の里","shortName":"田浦梅の里","context":"日本","subtype":"large-park","subtypeLabel":"大型都市公園・広域公園","statusLabel":"著名な公園","aliases":[],"osmType":"way","osmId":370418218,"osmDate":null,"officialAreaKm2":null,"areaSourceLabel":"","areaSourceUrl":"","boundarySourceLabel":"© OpenStreetMap contributors","boundarySourceUrl":"https://www.openstreetmap.org/copyright","geometryFile":"attractions/large-park-W370418218.geojson"},"geometry":{"type":"Polygon","coordinates":[[[139.6323232,35.2880651],[139.6332454,35.2874769],[139.6333395,35.2873882],[139.6331549,35.2863536],[139.6324111,35.2853648],[139.6315751,35.2851175],[139.6312372,35.2844787],[139.6310299,35.2841548],[139.6306921,35.2839277],[139.630331,35.2831416],[139.6276059,35.2845442],[139.6276861,35.2868258],[139.6277301,35.2870826],[139.6280898,35.2873662],[139.628787,35.2872911],[139.6286455,35.2867538],[139.6282986,35.2863176],[139.6285818,35.2855895],[139.6296471,35.2857369],[139.6303832,35.2864562],[139.6315572,35.2866614],[139.6317255,35.2869475],[139.6318377,35.2872298],[139.6318138,35.2875279],[139.6318062,35.2876235],[139.6318728,35.2878227],[139.6323232,35.2880651]]]}}
