{"type":"Feature","id":"attraction-large-large-port-W993272070","properties":{"id":"attraction-large-large-port-W993272070","kind":"attraction","name":"国際コンテナターミナル","shortName":"国際コンテナターミナル","context":"日本","subtype":"large-port","subtypeLabel":"港湾・埠頭","statusLabel":"","aliases":[],"osmType":"way","osmId":993272070,"osmDate":null,"officialAreaKm2":null,"areaSourceLabel":"","areaSourceUrl":"","boundarySourceLabel":"© OpenStreetMap contributors","boundarySourceUrl":"https://www.openstreetmap.org/copyright","geometryFile":"attractions/large-large-port-W993272070.geojson"},"geometry":{"type":"Polygon","coordinates":[[[131.0875331,31.454257],[131.0869866,31.4540069],[131.0872259,31.4535985],[131.0838095,31.4519572],[131.0844908,31.4509204],[131.0842783,31.4508201],[131.0859067,31.4482814],[131.0861043,31.4482261],[131.08624,31.4482839],[131.0876764,31.4495848],[131.0874109,31.4500125],[131.0891505,31.4508506],[131.0892589,31.4506871],[131.0896333,31.4510353],[131.0875331,31.454257]]]}}
