{"type":"Feature","id":"attraction-large-park-W410374658","properties":{"id":"attraction-large-park-W410374658","kind":"attraction","name":"櫛形総合公園","shortName":"櫛形総合公園","context":"日本","subtype":"large-park","subtypeLabel":"大型都市公園・広域公園","statusLabel":"著名な公園","aliases":[],"osmType":"way","osmId":410374658,"osmDate":null,"officialAreaKm2":null,"areaSourceLabel":"","areaSourceUrl":"","boundarySourceLabel":"© OpenStreetMap contributors","boundarySourceUrl":"https://www.openstreetmap.org/copyright","geometryFile":"attractions/large-park-W410374658.geojson"},"geometry":{"type":"Polygon","coordinates":[[[138.454058,35.6187484],[138.4575494,35.6191396],[138.4576184,35.6191238],[138.4576538,35.6190994],[138.4582077,35.6179399],[138.4583404,35.6175903],[138.4584036,35.6174175],[138.4585067,35.6171358],[138.458597,35.6167977],[138.4587385,35.6161144],[138.4587226,35.6160813],[138.4573936,35.6156785],[138.4563496,35.6159705],[138.4558424,35.6161434],[138.4552666,35.616382],[138.4551109,35.6165164],[138.4545499,35.6176321],[138.4542331,35.618311],[138.4540359,35.6187209],[138.454058,35.6187484]]]}}
