{"type":"Feature","id":"attraction-large-park-R16714629","properties":{"id":"attraction-large-park-R16714629","kind":"attraction","name":"東京港野鳥公園","shortName":"東京港野鳥公園","context":"日本","subtype":"large-park","subtypeLabel":"大型都市公園・広域公園","statusLabel":"著名な公園","aliases":["Tokyo Port Wildbird Park"],"osmType":"relation","osmId":16714629,"osmDate":null,"officialAreaKm2":null,"areaSourceLabel":"","areaSourceUrl":"","boundarySourceLabel":"© OpenStreetMap contributors","boundarySourceUrl":"https://www.openstreetmap.org/copyright","geometryFile":"attractions/large-park-R16714629.geojson"},"geometry":{"type":"MultiPolygon","coordinates":[[[[139.7623204,35.5829814],[139.7624452,35.5829488],[139.7631757,35.582572],[139.7641722,35.582058],[139.7642637,35.5819178],[139.7642563,35.5789452],[139.763867,35.578567],[139.7668771,35.5785344],[139.7676827,35.5785521],[139.7703469,35.5810051],[139.7704911,35.5811449],[139.7661071,35.5842967],[139.7658265,35.5843872],[139.7627991,35.5843751],[139.7624435,35.5833399],[139.7623204,35.5829814]]],[[[139.7617872,35.5835712],[139.761923,35.5841392],[139.7618993,35.5842856],[139.7618171,35.5843928],[139.7590421,35.5843956],[139.7582918,35.5843964],[139.7574772,35.5843884],[139.7569478,35.5843808],[139.7561442,35.5843251],[139.7560223,35.5841726],[139.7560663,35.5839631],[139.7566047,35.5822152],[139.7577481,35.5822378],[139.7591554,35.5835758],[139.7592742,35.5835765],[139.7600634,35.5835809],[139.7600677,35.5834713],[139.760072,35.5833607],[139.7617111,35.5833607],[139.7617703,35.5835043],[139.7617872,35.5835712]]]]}}
