{"type":"Feature","id":"attraction-large-park-W148652775","properties":{"id":"attraction-large-park-W148652775","kind":"attraction","name":"都筑中央公園","shortName":"都筑中央公園","context":"日本","subtype":"large-park","subtypeLabel":"大型都市公園・広域公園","statusLabel":"著名な公園","aliases":[],"osmType":"way","osmId":148652775,"osmDate":null,"officialAreaKm2":null,"areaSourceLabel":"","areaSourceUrl":"","boundarySourceLabel":"© OpenStreetMap contributors","boundarySourceUrl":"https://www.openstreetmap.org/copyright","geometryFile":"attractions/large-park-W148652775.geojson"},"geometry":{"type":"Polygon","coordinates":[[[139.5670485,35.5486314],[139.5670244,35.548593],[139.5669598,35.5484662],[139.5668481,35.5482652],[139.5667685,35.5480798],[139.5668887,35.5479742],[139.5670765,35.5480354],[139.5671019,35.548006],[139.5671958,35.5480343],[139.5672709,35.5480408],[139.5675767,35.5479623],[139.567629,35.5478292],[139.5672471,35.5477099],[139.5667455,35.5476835],[139.566757,35.5472293],[139.5678007,35.5472227],[139.5681557,35.5474257],[139.5683678,35.5474733],[139.5685585,35.5474861],[139.5687328,35.5475479],[139.5690502,35.5474341],[139.5691196,35.5473736],[139.5691839,35.5472515],[139.571649,35.547506],[139.5718142,35.5475392],[139.5722005,35.5475305],[139.5730008,35.5472529],[139.5736438,35.5486825],[139.5733441,35.5488778],[139.5732569,35.5489989],[139.5730684,35.5495189],[139.5729632,35.5494779],[139.5728318,35.5496214],[139.572679,35.5497233],[139.5726542,35.549777],[139.5724108,35.5503037],[139.5720344,35.5504371],[139.5710214,35.5509453],[139.570706,35.5505608],[139.5698136,35.5508386],[139.5695783,35.5509715],[139.569351,35.5509372],[139.5691952,35.5508283],[139.569097,35.5507788],[139.568802,35.5505998],[139.5684619,35.5505439],[139.5681639,35.5504861],[139.5676417,35.550482],[139.5674622,35.5505527],[139.5673174,35.5504233],[139.5669606,35.5490355],[139.5671017,35.5490428],[139.5674673,35.5490585],[139.5678348,35.5490297],[139.5677811,35.548731],[139.5673842,35.5486915],[139.5670485,35.5486314]]]}}
