{"type":"Feature","id":"attraction-large-park-W633150992","properties":{"id":"attraction-large-park-W633150992","kind":"attraction","name":"松原スポーツ公園","shortName":"松原スポーツ公園","context":"日本","subtype":"large-park","subtypeLabel":"大型都市公園・広域公園","statusLabel":"著名な公園","aliases":[],"osmType":"way","osmId":633150992,"osmDate":null,"officialAreaKm2":null,"areaSourceLabel":"","areaSourceUrl":"","boundarySourceLabel":"© OpenStreetMap contributors","boundarySourceUrl":"https://www.openstreetmap.org/copyright","geometryFile":"attractions/large-park-W633150992.geojson"},"geometry":{"type":"Polygon","coordinates":[[[137.5396585,35.7978919],[137.5395866,35.7978045],[137.5393288,35.7974835],[137.5388065,35.7969686],[137.5380869,35.7964346],[137.5368669,35.7953764],[137.5372272,35.7953912],[137.5379531,35.7954811],[137.5384349,35.7955183],[137.5388621,35.7955828],[137.5392935,35.7956392],[137.5397764,35.7958791],[137.5405305,35.795851],[137.5413065,35.7961141],[137.541871,35.7963509],[137.5422696,35.7965457],[137.5428367,35.7971376],[137.5431603,35.7975613],[137.5434374,35.7979547],[137.5435841,35.7983271],[137.5437123,35.7986835],[137.5440016,35.7989139],[137.5443278,35.7991349],[137.5447072,35.7993527],[137.5452408,35.7996931],[137.5456763,35.8002434],[137.5458528,35.8007165],[137.5457919,35.8009763],[137.5456987,35.8012941],[137.5455703,35.8016978],[137.5453539,35.8016439],[137.5450657,35.8015085],[137.5443779,35.8011818],[137.5432943,35.8006424],[137.5427616,35.8003207],[137.5422265,35.7999789],[137.5417604,35.7996362],[137.5414682,35.7994199],[137.5410681,35.7991478],[137.5406889,35.7987884],[137.5396585,35.7978919]]]}}
