{"type":"Feature","id":"attraction-large-park-W482887077","properties":{"id":"attraction-large-park-W482887077","kind":"attraction","name":"湧永満之記念庭園","shortName":"湧永満之記念庭園","context":"日本","subtype":"large-park","subtypeLabel":"大型都市公園・広域公園","statusLabel":"著名な公園","aliases":[],"osmType":"way","osmId":482887077,"osmDate":null,"officialAreaKm2":null,"areaSourceLabel":"","areaSourceUrl":"","boundarySourceLabel":"© OpenStreetMap contributors","boundarySourceUrl":"https://www.openstreetmap.org/copyright","geometryFile":"attractions/large-park-W482887077.geojson"},"geometry":{"type":"Polygon","coordinates":[[[132.7448912,34.7231198],[132.744855,34.7226943],[132.7448523,34.7226381],[132.7448429,34.7225378],[132.7448282,34.7224033],[132.7448147,34.7223504],[132.7447624,34.7221749],[132.7447168,34.7220095],[132.744694,34.7218147],[132.7446914,34.7217133],[132.7447571,34.72167],[132.7448241,34.721648],[132.7449529,34.7216436],[132.7450789,34.7216722],[132.7452613,34.7216921],[132.7453391,34.7216965],[132.7454035,34.7216502],[132.7454705,34.721584],[132.745543,34.7215003],[132.7456073,34.7214363],[132.745669,34.7213724],[132.7456932,34.7213151],[132.745728,34.7212776],[132.7457656,34.7212423],[132.7457857,34.7212012],[132.7457911,34.7211241],[132.7458072,34.7210557],[132.745842,34.7209962],[132.7459104,34.7209138],[132.7459962,34.7209116],[132.7461196,34.720894],[132.7463423,34.7208962],[132.7465756,34.7209006],[132.7467741,34.720894],[132.7469082,34.7208896],[132.7470074,34.7208719],[132.7471281,34.7208675],[132.7472247,34.7208455],[132.7472783,34.7208279],[132.7473374,34.720808],[132.7474125,34.7207816],[132.7474688,34.7207397],[132.7475358,34.7206669],[132.7476431,34.7205876],[132.7477585,34.7204817],[132.7478684,34.7204134],[132.7479596,34.720334],[132.7480535,34.7202723],[132.748142,34.7201951],[132.7482359,34.7201378],[132.7482909,34.7200686],[132.7483633,34.7199914],[132.7484156,34.7199121],[132.7484626,34.7197919],[132.7485538,34.7196476],[132.7486154,34.7195296],[132.7486557,34.7194646],[132.748763,34.7193951],[132.7488648,34.7193532],[132.749003,34.7193819],[132.7490392,34.7194536],[132.7490955,34.7195086],[132.7491706,34.7195704],[132.7492337,34.719609],[132.749404,34.7196872],[132.7496051,34.7197649],[132.7498413,34.7198531],[132.750088,34.7199402],[132.7502958,34.7200196],[132.750391,34.7200967],[132.7504648,34.7202323],[132.7504863,34.7204776],[132.750261,34.7206826],[132.7501591,34.7207774],[132.7500088,34.7209185],[132.7498721,34.7210089],[132.7497809,34.7210905],[132.7495877,34.7211919],[132.7494349,34.7212712],[132.7493463,34.7213219],[132.7492981,34.7213881],[132.7492069,34.7214498],[132.7491049,34.7214917],[132.7490111,34.7215093],[132.7488609,34.7215402],[132.7487428,34.7215755],[132.7485712,34.7216372],[132.7484398,34.7216857],[132.7483378,34.7217386],[132.7482788,34.7218092],[132.7482198,34.7218841],[132.7481125,34.7219392],[132.7479972,34.7219899],[132.7478322,34.7220572],[132.7477437,34.7221112],[132.747674,34.7221619],[132.7476123,34.7222115],[132.747568,34.7222589],[132.7474862,34.722314],[132.7473897,34.7223683],[132.7473199,34.7224124],[132.7471925,34.7224818],[132.7471657,34.7225038],[132.7470812,34.7225425],[132.747096,34.7225755],[132.7471228,34.722613],[132.7471483,34.7226527],[132.746982,34.7227431],[132.7468868,34.7227993],[132.7468076,34.7228489],[132.7466789,34.7229194],[132.7464093,34.7230727],[132.7462135,34.7231895],[132.746066,34.7232722],[132.7459305,34.7233526],[132.7457964,34.7234364],[132.7457227,34.7234794],[132.7456503,34.7235213],[132.7456194,34.7235368],[132.7455845,34.7235411],[132.7455483,34.7235433],[132.7454974,34.72354],[132.7454464,34.7235135],[132.7454102,34.7234717],[132.7453579,34.7234464],[132.7453042,34.7234166],[132.745256,34.7233703],[132.7450749,34.7233284],[132.7450186,34.7233416],[132.7449797,34.7233493],[132.7449475,34.7233424],[132.7449234,34.723327],[132.7448912,34.7231198]]]}}
