{"type":"Feature","id":"attraction-large-industrial-complex-W935828607","properties":{"id":"attraction-large-industrial-complex-W935828607","kind":"attraction","name":"スズキ下川コース","shortName":"スズキ下川コース","context":"北海道・下川町","subtype":"industrial-complex","subtypeLabel":"工業地帯・大規模工場","statusLabel":"","aliases":["Suzuki Shimokawa Test course","スズキ"],"osmType":"way","osmId":935828607,"osmDate":null,"officialAreaKm2":null,"areaSourceLabel":"","areaSourceUrl":"","boundarySourceLabel":"© OpenStreetMap contributors","boundarySourceUrl":"https://www.openstreetmap.org/copyright","geometryFile":"attractions/large-industrial-complex-W935828607.geojson"},"geometry":{"type":"Polygon","coordinates":[[[142.6485765,44.2588127],[142.6485604,44.2589664],[142.6486677,44.2590931],[142.6487482,44.2591431],[142.648775,44.2599],[142.6508564,44.2670647],[142.65091,44.2682785],[142.6514035,44.26955],[142.6514572,44.2696652],[142.648834,44.2697037],[142.6452613,44.269646],[142.6443976,44.2697113],[142.6445746,44.2704181],[142.6451754,44.2729533],[142.644859,44.2736629],[142.6449823,44.2738751],[142.6459533,44.2742285],[142.646302,44.2750197],[142.6465166,44.2755958],[142.6467472,44.2760491],[142.6473641,44.2766943],[142.6481956,44.2771399],[142.6498025,44.2780397],[142.6510012,44.2784764],[142.6517308,44.2799512],[142.654295,44.2821173],[142.6559687,44.2848209],[142.6574251,44.2880898],[142.6589084,44.2891679],[142.6592195,44.2894214],[142.6587367,44.290005],[142.6584363,44.28979],[142.6583934,44.2897401],[142.6577121,44.2896786],[142.6575243,44.2898361],[142.6576155,44.2902431],[142.6575512,44.2902853],[142.6575136,44.2903775],[142.6577926,44.2908728],[142.6577818,44.2909612],[142.6573098,44.2917829],[142.6572776,44.2918981],[142.6568377,44.2928004],[142.6570308,44.2936298],[142.6566124,44.2941674],[142.655915,44.2944592],[142.6551962,44.2945667],[142.6541555,44.2943209],[142.6514733,44.2934647],[142.6511729,44.2936797],[142.6510549,44.2938103],[142.6510763,44.2941098],[142.6511782,44.2945168],[142.6515323,44.2955035],[142.6503092,44.2956917],[142.6498747,44.2940752],[142.6489413,44.2941866],[142.6484746,44.2932804],[142.64826,44.2932919],[142.6481742,44.2930145],[142.6476055,44.2930654],[142.6439309,44.2935377],[142.6435339,44.2933418],[142.6433998,44.2933226],[142.6416993,44.2935492],[142.6410824,44.2925931],[142.6408035,44.2923089],[142.6394141,44.2922283],[142.6377028,44.2922398],[142.6374668,44.2921899],[142.6372307,44.2919787],[142.6372415,44.2917944],[142.6381695,44.2893714],[142.6381963,44.289237],[142.6381856,44.2891142],[142.6380891,44.2889721],[142.637279,44.2879161],[142.6371717,44.2877125],[142.6371449,44.2875666],[142.6370645,44.2840989],[142.6372241,44.2837823],[142.637381,44.2837072],[142.6377672,44.2828354],[142.6375419,44.2826818],[142.6375419,44.2826165],[142.6376063,44.2823631],[142.6376009,44.2818561],[142.6375258,44.2804121],[142.6375902,44.2786224],[142.6373756,44.2774894],[142.6386845,44.2743898],[142.6388776,44.2737599],[142.6398754,44.2737368],[142.6398325,44.272984],[142.6389742,44.272984],[142.6388025,44.2724462],[142.6390922,44.2724309],[142.6390493,44.2721006],[142.638663,44.2721159],[142.6383197,44.2713784],[142.6377994,44.2681364],[142.637676,44.2674603],[142.6377135,44.2667304],[142.6380193,44.2648481],[142.6384699,44.2617671],[142.638706,44.2617671],[142.6387435,44.2613675],[142.6385343,44.2613445],[142.6386523,44.2605185],[142.6386309,44.260288],[142.6385397,44.2600613],[142.6384592,44.2595158],[142.6384807,44.259462],[142.6387864,44.2592507],[142.6393175,44.2590394],[142.6399344,44.2589318],[142.6414633,44.2583824],[142.6421446,44.2579482],[142.6423323,44.2577561],[142.6425469,44.2576101],[142.642858,44.2575141],[142.6434374,44.2574411],[142.6436788,44.2574833],[142.6440865,44.2575986],[142.6447463,44.2577331],[142.645846,44.2577254],[142.6471066,44.2574987],[142.6487482,44.2582133],[142.6485765,44.2588127]]]}}
