{"type":"Feature","id":"attraction-large-park-W58702497","properties":{"id":"attraction-large-park-W58702497","kind":"attraction","name":"上田城跡公園","shortName":"上田城跡公園","context":"日本","subtype":"large-park","subtypeLabel":"大型都市公園・広域公園","statusLabel":"著名な公園","aliases":["Ueda Castle Park"],"osmType":"way","osmId":58702497,"osmDate":null,"officialAreaKm2":null,"areaSourceLabel":"","areaSourceUrl":"","boundarySourceLabel":"© OpenStreetMap contributors","boundarySourceUrl":"https://www.openstreetmap.org/copyright","geometryFile":"attractions/large-park-W58702497.geojson"},"geometry":{"type":"Polygon","coordinates":[[[138.2472234,36.404854],[138.2474675,36.4048255],[138.2475203,36.4050993],[138.2468643,36.4055631],[138.2463585,36.4057436],[138.2457297,36.4058711],[138.2456338,36.4058957],[138.2455793,36.4061183],[138.2433807,36.4065663],[138.2430521,36.4061347],[138.2427538,36.4062188],[138.242458,36.4060138],[138.2422546,36.405803],[138.2416799,36.4048962],[138.241642,36.404832],[138.2408302,36.4051461],[138.2403147,36.4043036],[138.240148,36.4037844],[138.2406145,36.403557],[138.2410765,36.4033451],[138.2412735,36.4032684],[138.2414787,36.4032002],[138.241919,36.403074],[138.2419795,36.4033007],[138.2420593,36.4032827],[138.2426859,36.4031482],[138.2431317,36.4031582],[138.24291,36.402768],[138.2436395,36.402535],[138.2437442,36.4024941],[138.2438541,36.4024468],[138.243965,36.402389],[138.2440526,36.4023361],[138.2441407,36.4022704],[138.2444132,36.4020561],[138.2446435,36.4018666],[138.2448814,36.4020913],[138.2450002,36.4021784],[138.2452493,36.4019447],[138.2455121,36.402108],[138.2456495,36.4021934],[138.2459671,36.401932],[138.2460924,36.4018644],[138.2464057,36.4017796],[138.2465629,36.4020115],[138.2469437,36.4030358],[138.2469912,36.4031604],[138.2471805,36.4037523],[138.2473869,36.40449],[138.2471478,36.4045586],[138.24719,36.4047272],[138.2472234,36.404854]]]}}
