{"type":"Feature","id":"attraction-large-park-W269113553","properties":{"id":"attraction-large-park-W269113553","kind":"attraction","name":"舞岡公園","shortName":"舞岡公園","context":"日本","subtype":"large-park","subtypeLabel":"大型都市公園・広域公園","statusLabel":"著名な公園","aliases":[],"osmType":"way","osmId":269113553,"osmDate":null,"officialAreaKm2":null,"areaSourceLabel":"","areaSourceUrl":"","boundarySourceLabel":"© OpenStreetMap contributors","boundarySourceUrl":"https://www.openstreetmap.org/copyright","geometryFile":"attractions/large-park-W269113553.geojson"},"geometry":{"type":"Polygon","coordinates":[[[139.5473597,35.3866018],[139.5477403,35.3864909],[139.5483975,35.38627],[139.5488642,35.3860645],[139.5493389,35.3858261],[139.5498649,35.3854992],[139.5507313,35.3848705],[139.5520185,35.3839199],[139.5521527,35.3840329],[139.5522136,35.3840745],[139.5523035,35.3841127],[139.5529681,35.3841684],[139.5530968,35.3843082],[139.5532786,35.384469],[139.5548446,35.384999],[139.5557646,35.3853018],[139.5559363,35.3854473],[139.5559054,35.3856211],[139.5557762,35.3857868],[139.5552639,35.3861498],[139.554867,35.386399],[139.5542586,35.3867604],[139.5539066,35.3870275],[139.5534224,35.3872298],[139.5532722,35.3870647],[139.5530496,35.3870308],[139.5524971,35.3871838],[139.5519814,35.387201],[139.5514471,35.3877132],[139.5509782,35.3883676],[139.5502895,35.3883037],[139.5502426,35.38833],[139.5502708,35.3883901],[139.5502171,35.3887804],[139.5502426,35.3888602],[139.5504183,35.3891314],[139.5504371,35.3892451],[139.5503754,35.3894605],[139.550205,35.3896332],[139.5499476,35.3900006],[139.5498912,35.3901252],[139.5499234,35.3902094],[139.5500238,35.3905755],[139.5500199,35.3910293],[139.5499948,35.3910717],[139.5499572,35.3913603],[139.5499679,35.3916293],[139.5501646,35.3919257],[139.5503827,35.3921133],[139.5502037,35.3923424],[139.5506758,35.3927141],[139.5501876,35.3933569],[139.5496887,35.3931033],[139.5492488,35.3934357],[139.5487017,35.3934969],[139.5486874,35.3934835],[139.5483369,35.3931558],[139.548182,35.3927495],[139.5482671,35.3917651],[139.5478259,35.3917291],[139.5477401,35.3918389],[139.5475781,35.3919105],[139.547095,35.3919297],[139.5468261,35.3919908],[139.5466618,35.3918291],[139.5465646,35.3912471],[139.5470405,35.3911123],[139.5472015,35.3906575],[139.5473304,35.3899077],[139.5474296,35.3892648],[139.5475347,35.3887507],[139.5473979,35.3880084],[139.547502,35.3875221],[139.5474886,35.3868092],[139.5474543,35.3867541],[139.5473597,35.3866018]]]}}
