{"type":"Feature","id":"attraction-large-park-W478008706","properties":{"id":"attraction-large-park-W478008706","kind":"attraction","name":"鬼怒川緑地運動公園","shortName":"鬼怒川緑地運動公園","context":"日本","subtype":"large-park","subtypeLabel":"大型都市公園・広域公園","statusLabel":"","aliases":[],"osmType":"way","osmId":478008706,"osmDate":null,"officialAreaKm2":null,"areaSourceLabel":"","areaSourceUrl":"","boundarySourceLabel":"© OpenStreetMap contributors","boundarySourceUrl":"https://www.openstreetmap.org/copyright","geometryFile":"attractions/large-park-W478008706.geojson"},"geometry":{"type":"Polygon","coordinates":[[[139.9489069,36.5330912],[139.9489919,36.5327044],[139.9491422,36.5318529],[139.9491997,36.5316204],[139.9492979,36.5314468],[139.949296,36.53107],[139.949237,36.5309887],[139.9491354,36.5309544],[139.9491859,36.5294966],[139.9490986,36.528914],[139.9491042,36.5279325],[139.9488414,36.5271094],[139.948624,36.526185],[139.9484999,36.5254064],[139.9479508,36.5235201],[139.9475991,36.5223367],[139.9473015,36.520873],[139.9468869,36.5191948],[139.9467811,36.5186098],[139.9468668,36.5156757],[139.9469653,36.514832],[139.9471916,36.5115648],[139.9476462,36.5120667],[139.9480217,36.5115106],[139.9485689,36.5116183],[139.9490249,36.5116442],[139.9492341,36.5122608],[139.9491804,36.5126747],[139.9490624,36.5132136],[139.9493306,36.513274],[139.9495667,36.5133214],[139.9494272,36.5138431],[139.9487727,36.515033],[139.948011,36.5162963],[139.9477481,36.516874],[139.9476553,36.5173269],[139.9477859,36.5174846],[139.9479423,36.5175426],[139.9482753,36.5174593],[139.948571,36.5174197],[139.9502718,36.5170235],[139.9503827,36.5182021],[139.9508387,36.5194402],[139.9514672,36.5203514],[139.9520834,36.5218865],[139.9524162,36.5235405],[139.9524408,36.524729],[139.9522683,36.5260263],[139.9516767,36.5270266],[139.9510975,36.528007],[139.9507771,36.5287696],[139.9510728,36.5291756],[139.9515165,36.5298688],[139.9514302,36.5309086],[139.9501197,36.5323313],[139.9497506,36.5330011],[139.9494381,36.5331722],[139.9489069,36.5330912]]]}}
