{"type":"Feature","id":"attraction-large-park-W429028417","properties":{"id":"attraction-large-park-W429028417","kind":"attraction","name":"噴火湾パノラマパーク","shortName":"噴火湾パノラマパーク","context":"北海道・八雲町","subtype":"large-park","subtypeLabel":"大型都市公園・広域公園","statusLabel":"","aliases":[],"osmType":"way","osmId":429028417,"osmDate":null,"officialAreaKm2":null,"areaSourceLabel":"","areaSourceUrl":"","boundarySourceLabel":"© OpenStreetMap contributors","boundarySourceUrl":"https://www.openstreetmap.org/copyright","geometryFile":"attractions/large-park-W429028417.geojson"},"geometry":{"type":"Polygon","coordinates":[[[140.3145754,42.2258347],[140.3135327,42.2258542],[140.3134875,42.2274754],[140.3126836,42.2274607],[140.3127,42.2272482],[140.3114483,42.2275197],[140.3110859,42.2277417],[140.3108646,42.2280525],[140.311277,42.2289452],[140.3114108,42.2291852],[140.3116358,42.2298514],[140.3116483,42.229944],[140.3104486,42.2303326],[140.3100987,42.2297959],[140.3095739,42.2290372],[140.309324,42.2286208],[140.3092115,42.22764],[140.3091865,42.2269182],[140.309149,42.2268349],[140.3089366,42.2266961],[140.3081618,42.226946],[140.307712,42.2271403],[140.3071996,42.2275104],[140.3067747,42.227825],[140.3061374,42.2283247],[140.3056001,42.2289261],[140.3054751,42.229139],[140.3054626,42.2292315],[140.3054626,42.2293333],[140.3055751,42.2297682],[140.3056876,42.2305269],[140.3058125,42.2311098],[140.3059,42.2315632],[140.3059,42.2326828],[140.3058875,42.2329233],[140.3058961,42.2330806],[140.306168,42.2330468],[140.3064894,42.2329795],[140.3065526,42.2337641],[140.3066001,42.234092],[140.3070746,42.2342794],[140.3077073,42.2345371],[140.3082166,42.2346318],[140.308514,42.2351577],[140.3088791,42.2354165],[140.3094788,42.2352514],[140.3100799,42.2350172],[140.3109815,42.2350875],[140.3118988,42.2349821],[140.3124497,42.2352435],[140.3131168,42.2351109],[140.3133382,42.2350641],[140.3134964,42.2350289],[140.3136229,42.2349821],[140.3137538,42.2349349],[140.3136526,42.234714],[140.3136282,42.2346065],[140.3135868,42.2343685],[140.3135753,42.2341723],[140.3136266,42.2339147],[140.3137563,42.2337037],[140.3141745,42.2330467],[140.3143053,42.2326377],[140.3143349,42.2321855],[140.3144216,42.230714],[140.3144493,42.2301986],[140.314642,42.2266385],[140.3146221,42.2261376],[140.3145754,42.2258347]]]}}
