{"type":"Feature","id":"attraction-large-park-W243546219","properties":{"id":"attraction-large-park-W243546219","kind":"attraction","name":"あづま総合運動公園","shortName":"あづま総合運動公園","context":"日本","subtype":"large-park","subtypeLabel":"大型都市公園・広域公園","statusLabel":"","aliases":[],"osmType":"way","osmId":243546219,"osmDate":null,"officialAreaKm2":null,"areaSourceLabel":"","areaSourceUrl":"","boundarySourceLabel":"© OpenStreetMap contributors","boundarySourceUrl":"https://www.openstreetmap.org/copyright","geometryFile":"attractions/large-park-W243546219.geojson"},"geometry":{"type":"Polygon","coordinates":[[[140.3593163,37.7230473],[140.3591447,37.7228691],[140.35812,37.7217796],[140.3574474,37.7211134],[140.3574601,37.7209158],[140.357807,37.7206969],[140.357661,37.7205546],[140.3574185,37.7203354],[140.3573107,37.7202898],[140.3571427,37.7202431],[140.3569773,37.7201954],[140.356858,37.7202005],[140.3565944,37.7202395],[140.3551308,37.718709],[140.3543933,37.7177688],[140.3538056,37.7169885],[140.3546471,37.7162606],[140.3537136,37.7158334],[140.3537916,37.7155535],[140.353848,37.7155382],[140.3540109,37.7156077],[140.3549073,37.7153787],[140.3562565,37.7151584],[140.3569661,37.7150034],[140.3572442,37.7149938],[140.357567,37.7150297],[140.3578199,37.71511],[140.358056,37.7152978],[140.3586242,37.7158825],[140.3592596,37.7166024],[140.3600805,37.7174319],[140.3607962,37.7182667],[140.3610658,37.7185185],[140.3627891,37.7195121],[140.3628889,37.7195942],[140.3629664,37.7197627],[140.3630908,37.719871],[140.3632504,37.7199569],[140.3635137,37.7200711],[140.3640329,37.7203524],[140.3645202,37.7206333],[140.3651218,37.7209679],[140.3655905,37.7212863],[140.3665744,37.7220639],[140.3671212,37.7226548],[140.3675312,37.7232087],[140.3678208,37.7234743],[140.368148,37.7238159],[140.3685974,37.7242979],[140.368928,37.7246614],[140.3692297,37.7249909],[140.3699296,37.725726],[140.3710059,37.7268998],[140.371064,37.7269841],[140.3710948,37.7270436],[140.3711102,37.7270756],[140.3710897,37.7271875],[140.3711375,37.7272599],[140.371211,37.7273135],[140.3712709,37.7273424],[140.3713836,37.7273419],[140.3716626,37.7276094],[140.3732169,37.7291129],[140.3743617,37.7301712],[140.3751092,37.7309268],[140.3752096,37.7310829],[140.3753061,37.7312639],[140.3754062,37.7314263],[140.3754413,37.7314931],[140.375501,37.7315636],[140.3757096,37.7317526],[140.3758654,37.7318706],[140.3759341,37.7319029],[140.3767029,37.7322662],[140.3773632,37.7325487],[140.3777259,37.7326984],[140.3780892,37.7328177],[140.3786271,37.7330191],[140.3791914,37.7332047],[140.3805852,37.7336988],[140.3819626,37.7341276],[140.3837344,37.7346718],[140.3845624,37.7349905],[140.3850045,37.7352313],[140.3850182,37.7352417],[140.3850316,37.7352591],[140.3850289,37.7353032],[140.3849959,37.7353858],[140.3849066,37.7356092],[140.3847493,37.7359843],[140.3847048,37.7360103],[140.3846322,37.7360315],[140.3845549,37.736024],[140.3843307,37.7359369],[140.3840929,37.7358347],[140.3838545,37.7357355],[140.3836613,37.7356616],[140.3834095,37.7355739],[140.3831449,37.7354885],[140.3829386,37.735425],[140.3827131,37.7353559],[140.3824523,37.7352854],[140.382268,37.7352275],[140.3820612,37.7351479],[140.3818413,37.7350454],[140.3814633,37.7348644],[140.3810967,37.7346793],[140.3806557,37.7344534],[140.3803919,37.7343287],[140.380141,37.7342124],[140.3797917,37.7340526],[140.3795442,37.7339503],[140.3791927,37.7338282],[140.3783887,37.7335712],[140.378251,37.7338026],[140.3781709,37.7338958],[140.3780658,37.7339992],[140.3779588,37.7340779],[140.3778635,37.7341344],[140.3777908,37.7341717],[140.3777562,37.7341855],[140.3776146,37.7342454],[140.3773986,37.7343361],[140.377227,37.7344074],[140.3770515,37.7344728],[140.3769068,37.7345251],[140.3768322,37.7345485],[140.37676,37.7345696],[140.3766996,37.7345823],[140.3766329,37.734592],[140.3765762,37.7345965],[140.376523,37.7345988],[140.3764096,37.7345969],[140.3762957,37.734586],[140.3761976,37.7345666],[140.376124,37.7345448],[140.3760569,37.7345223],[140.3759716,37.7344838],[140.3759352,37.7344624],[140.3758831,37.7344336],[140.3758082,37.7343789],[140.3757401,37.7343236],[140.3756104,37.7341822],[140.3754945,37.734038],[140.375399,37.7339286],[140.375292,37.7338301],[140.3752052,37.733754],[140.3751096,37.7336789],[140.3748452,37.733534],[140.3744259,37.7333463],[140.3740114,37.7331553],[140.3738253,37.7330635],[140.3736918,37.7329898],[140.3734893,37.7328389],[140.3733123,37.7327074],[140.372952,37.7324081],[140.372632,37.7320951],[140.3723316,37.7317631],[140.372058,37.7314485],[140.3717439,37.7310856],[140.3714323,37.7307297],[140.3711956,37.7304456],[140.3709352,37.730134],[140.3704411,37.7295115],[140.3702958,37.7293253],[140.370082,37.729064],[140.369937,37.7289131],[140.3697867,37.7287934],[140.3695569,37.7286443],[140.3693014,37.7285023],[140.3692207,37.7284522],[140.368982,37.7283122],[140.3688726,37.7282331],[140.36874,37.7281184],[140.3686144,37.727983],[140.3685454,37.7278914],[140.3684679,37.7277873],[140.3684019,37.7276444],[140.3682672,37.7273362],[140.3681484,37.7270605],[140.3680531,37.7268215],[140.3678919,37.7264202],[140.367725,37.7260208],[140.367617,37.7257882],[140.3675199,37.7256396],[140.3674225,37.7255279],[140.3673182,37.7254491],[140.3672349,37.7253992],[140.3671297,37.7253433],[140.3669727,37.7252901],[140.3668458,37.7252581],[140.3667364,37.7252422],[140.3666134,37.7252381],[140.3664824,37.7252439],[140.3662936,37.7252711],[140.3659393,37.7253275],[140.3653387,37.725435],[140.3645558,37.7255592],[140.3638645,37.7256921],[140.3634783,37.7257607],[140.3631409,37.7258238],[140.3629105,37.7258643],[140.3628146,37.7258985],[140.3627158,37.7259495],[140.362604,37.7260237],[140.3624803,37.7261232],[140.3623195,37.7261321],[140.361987,37.7258737],[140.3610957,37.7250231],[140.3601698,37.7240221],[140.3594071,37.723235],[140.3595013,37.7231778],[140.3596332,37.723318],[140.3596944,37.7233317],[140.3598176,37.7233551],[140.3599274,37.7233598],[140.3600822,37.723346],[140.3601751,37.7233316],[140.3601565,37.7231613],[140.3602,37.7229379],[140.3602356,37.7228442],[140.3601441,37.7228239],[140.360171,37.722748],[140.360191,37.7227091],[140.3602571,37.722627],[140.3603002,37.7225847],[140.3603294,37.7225571],[140.3603603,37.7225328],[140.3604336,37.7224772],[140.3604633,37.7224068],[140.3606047,37.7223203],[140.3606208,37.7223109],[140.3605573,37.7222436],[140.3604896,37.7222861],[140.3603735,37.7222079],[140.3603357,37.7221912],[140.3603834,37.7221237],[140.3602833,37.7220793],[140.3602355,37.7221468],[140.3599275,37.722094],[140.3598816,37.7220935],[140.3598777,37.7220938],[140.3597341,37.7221108],[140.3597284,37.7221117],[140.3596719,37.7221211],[140.3595528,37.7221627],[140.3593531,37.7222765],[140.3592415,37.7223857],[140.3591706,37.7224954],[140.3591278,37.7226148],[140.3591152,37.7227309],[140.3591177,37.722777],[140.3593582,37.7230217],[140.3593163,37.7230473]]]}}
