{"type":"Feature","id":"attraction-large-industrial-complex-W422749616","properties":{"id":"attraction-large-industrial-complex-W422749616","kind":"attraction","name":"ファナック","shortName":"ファナック","context":"日本","subtype":"industrial-complex","subtypeLabel":"工業地帯・大規模工場","statusLabel":"","aliases":["Fanuc"],"osmType":"way","osmId":422749616,"osmDate":null,"officialAreaKm2":null,"areaSourceLabel":"","areaSourceUrl":"","boundarySourceLabel":"© OpenStreetMap contributors","boundarySourceUrl":"https://www.openstreetmap.org/copyright","geometryFile":"attractions/large-industrial-complex-W422749616.geojson"},"geometry":{"type":"Polygon","coordinates":[[[139.7875367,36.4878067],[139.7872685,36.4876967],[139.7870351,36.4872288],[139.7867133,36.4866595],[139.7862841,36.4857106],[139.7850331,36.4828148],[139.7845825,36.4817451],[139.7842392,36.4807444],[139.7839881,36.4800862],[139.7837736,36.4795169],[139.783559,36.4784989],[139.78328,36.4775672],[139.7862133,36.4776043],[139.7873506,36.4776733],[139.7880372,36.4778286],[139.7885522,36.4780011],[139.7893247,36.4785015],[139.7905756,36.4793788],[139.7933802,36.4815726],[139.7937459,36.48192],[139.7937405,36.4821011],[139.7936752,36.4821876],[139.7931832,36.4828747],[139.7923084,36.4839552],[139.7911753,36.485269],[139.7907767,36.4856853],[139.7903369,36.4861247],[139.7897118,36.4866299],[139.7890655,36.487067],[139.78825,36.4874774],[139.7875367,36.4878067]]]}}
