{"type":"Feature","id":"attraction-large-industrial-complex-W101971366","properties":{"id":"attraction-large-industrial-complex-W101971366","kind":"attraction","name":"トヨタ衣浦工場","shortName":"トヨタ衣浦工場","context":"日本","subtype":"industrial-complex","subtypeLabel":"工業地帯・大規模工場","statusLabel":"","aliases":[],"osmType":"way","osmId":101971366,"osmDate":null,"officialAreaKm2":null,"areaSourceLabel":"","areaSourceUrl":"","boundarySourceLabel":"© OpenStreetMap contributors","boundarySourceUrl":"https://www.openstreetmap.org/copyright","geometryFile":"attractions/large-industrial-complex-W101971366.geojson"},"geometry":{"type":"Polygon","coordinates":[[[136.9645653,34.852982],[136.9655826,34.8542809],[136.9658534,34.8551878],[136.966312,34.8559677],[136.9672734,34.8571602],[136.973072,34.8642685],[136.9733037,34.864778],[136.973423,34.8655724],[136.973423,34.8661962],[136.9733346,34.8669034],[136.9732948,34.8677739],[136.973317,34.8685029],[136.9734363,34.8690215],[136.9736794,34.8696888],[136.9740507,34.8705955],[136.9759095,34.8737299],[136.9756645,34.8738319],[136.9753679,34.8737383],[136.9748559,34.8728234],[136.9711137,34.8742695],[136.9682056,34.8749251],[136.9680926,34.8748966],[136.9673461,34.8736766],[136.9672868,34.8735796],[136.9666961,34.8726143],[136.9667236,34.8724968],[136.9685971,34.8717165],[136.955288,34.8548323],[136.9565796,34.8535454],[136.9571143,34.8535018],[136.957105,34.8533204],[136.9603604,34.8530881],[136.9604032,34.8532675],[136.9645653,34.852982]]]}}
