{"type":"Feature","id":"attraction-large-large-port-W1219842317","properties":{"id":"attraction-large-large-port-W1219842317","kind":"attraction","name":"神集島漁港","shortName":"神集島漁港","context":"日本","subtype":"large-port","subtypeLabel":"港湾・埠頭","statusLabel":"","aliases":["Kashiwajima Fishing Port"],"osmType":"way","osmId":1219842317,"osmDate":null,"officialAreaKm2":null,"areaSourceLabel":"","areaSourceUrl":"","boundarySourceLabel":"© OpenStreetMap contributors","boundarySourceUrl":"https://www.openstreetmap.org/copyright","geometryFile":"attractions/large-large-port-W1219842317.geojson"},"geometry":{"type":"Polygon","coordinates":[[[129.9692887,33.5369934],[129.9691684,33.5370353],[129.9669437,33.5377183],[129.9669659,33.5377543],[129.9671124,33.5387439],[129.9667101,33.5392764],[129.9663346,33.5392764],[129.9663788,33.5393849],[129.9668147,33.5397348],[129.9670333,33.5399102],[129.9677166,33.5405105],[129.9679667,33.5408089],[129.968259,33.5405519],[129.9683127,33.5405094],[129.9688706,33.5408022],[129.9695894,33.5409006],[129.9697508,33.5406896],[129.9697648,33.5406982],[129.9697718,33.5407026],[129.970217,33.5409587],[129.9707656,33.5404982],[129.9708611,33.5403954],[129.9709209,33.540305],[129.971188,33.5399013],[129.9713315,33.5396341],[129.9714776,33.5396841],[129.9716091,33.5397291],[129.9717942,33.5393178],[129.9717727,33.539092],[129.9717407,33.5390784],[129.9711585,33.5388304],[129.9710634,33.538737],[129.9704899,33.5381735],[129.9704049,33.53809],[129.969663,33.5373611],[129.9695182,33.5372189],[129.9693486,33.5370523],[129.9692887,33.5369934]]]}}
