{"type":"Feature","id":"attraction-large-park-W556161031","properties":{"id":"attraction-large-park-W556161031","kind":"attraction","name":"平和市民公園","shortName":"平和市民公園","context":"日本","subtype":"large-park","subtypeLabel":"大型都市公園・広域公園","statusLabel":"著名な公園","aliases":[],"osmType":"way","osmId":556161031,"osmDate":null,"officialAreaKm2":null,"areaSourceLabel":"","areaSourceUrl":"","boundarySourceLabel":"© OpenStreetMap contributors","boundarySourceUrl":"https://www.openstreetmap.org/copyright","geometryFile":"attractions/large-park-W556161031.geojson"},"geometry":{"type":"Polygon","coordinates":[[[131.6348044,33.2375763],[131.6345545,33.2376745],[131.6335295,33.2381008],[131.6332916,33.2381786],[131.6332803,33.2382123],[131.6334146,33.2385285],[131.6335086,33.2387725],[131.6335284,33.2388319],[131.6335918,33.2390308],[131.6336229,33.2391284],[131.6336468,33.2392408],[131.6336945,33.2394065],[131.6337555,33.2397333],[131.6337808,33.239866],[131.6338072,33.2400052],[131.6338169,33.2400234],[131.6338524,33.2400807],[131.6338788,33.2401167],[131.6339387,33.2401717],[131.6339642,33.2401993],[131.6339936,33.2402867],[131.6340429,33.2404488],[131.634083,33.240579],[131.6341179,33.2407871],[131.6341395,33.240921],[131.6341622,33.2410642],[131.634384,33.2412398],[131.6348534,33.2411884],[131.6351668,33.2419793],[131.6352498,33.2422395],[131.635406,33.2427734],[131.6347227,33.2428312],[131.634623,33.2429287],[131.6346082,33.2429587],[131.6346059,33.2429704],[131.6346075,33.242985],[131.6346183,33.2430166],[131.6347309,33.2432753],[131.6347644,33.2433735],[131.6348509,33.2435878],[131.6349408,33.2437482],[131.6352614,33.2443349],[131.6354109,33.2446764],[131.6356894,33.2454375],[131.6357683,33.2456542],[131.6360276,33.2468105],[131.6360421,33.2468851],[131.6360832,33.2470782],[131.6361234,33.2473032],[131.6361426,33.2477873],[131.6361567,33.2480292],[131.6361608,33.2484254],[131.6361684,33.2485406],[131.6361743,33.2487184],[131.6361754,33.2487604],[131.6361783,33.2488738],[131.6363743,33.2488989],[131.6366018,33.2489276],[131.6366473,33.2489258],[131.6379788,33.2491001],[131.6378933,33.2480661],[131.6376361,33.2465836],[131.6375693,33.2462706],[131.6374324,33.2458016],[131.6372955,33.2454201],[131.6372837,33.2453887],[131.6372738,33.2453531],[131.6371649,33.2450646],[131.6369958,33.2446283],[131.6367611,33.2439144],[131.6365967,33.243467],[131.6365552,33.2432815],[131.6363225,33.2425115],[131.636146,33.2419091],[131.6360209,33.2414599],[131.635891,33.2410246],[131.6358849,33.2410033],[131.6358794,33.2409823],[131.6353101,33.2390312],[131.6352912,33.2389664],[131.6350768,33.238213],[131.635031,33.2380549],[131.6349692,33.2378855],[131.6349509,33.2378313],[131.6348758,33.2376639],[131.634834,33.237578],[131.6348044,33.2375763]]]}}
