{"type":"Feature","id":"attraction-large-park-R17773724","properties":{"id":"attraction-large-park-R17773724","kind":"attraction","name":"東ヶ丘公園","shortName":"東ヶ丘公園","context":"日本","subtype":"large-park","subtypeLabel":"大型都市公園・広域公園","statusLabel":"","aliases":[],"osmType":"relation","osmId":17773724,"osmDate":null,"officialAreaKm2":null,"areaSourceLabel":"","areaSourceUrl":"","boundarySourceLabel":"© OpenStreetMap contributors","boundarySourceUrl":"https://www.openstreetmap.org/copyright","geometryFile":"attractions/large-park-R17773724.geojson"},"geometry":{"type":"MultiPolygon","coordinates":[[[[140.9607374,37.6211973],[140.9607385,37.6211722],[140.960771,37.6211507],[140.9610622,37.6210568],[140.9612563,37.6210031],[140.9616299,37.6209707],[140.9618255,37.6209537],[140.9619356,37.6209476],[140.9620404,37.6209463],[140.9621005,37.6210415],[140.9622568,37.6211599],[140.9623516,37.6212081],[140.9622815,37.6214137],[140.9623485,37.6214558],[140.9628977,37.6216254],[140.9629069,37.621637],[140.9630579,37.6216887],[140.9631313,37.6217328],[140.963157,37.6217132],[140.9635445,37.6218491],[140.9637631,37.6219325],[140.9639878,37.6219353],[140.9642178,37.6218709],[140.964439,37.6216676],[140.9645912,37.621709],[140.9651961,37.621894],[140.9651206,37.6220118],[140.9653325,37.6222692],[140.9651776,37.6227183],[140.9653698,37.6228335],[140.9654831,37.6232006],[140.9655928,37.6231303],[140.965629,37.6231516],[140.9655765,37.6232968],[140.9656136,37.6233509],[140.9658237,37.6233204],[140.9658973,37.6234896],[140.9659837,37.623522],[140.9660864,37.623743],[140.9661927,37.6239844],[140.9663106,37.6241037],[140.9666083,37.6242738],[140.9669655,37.6244939],[140.9669912,37.6245484],[140.9668558,37.6246243],[140.9667694,37.6246511],[140.9665534,37.6247287],[140.9663981,37.6247713],[140.9663339,37.6247861],[140.9659265,37.6248656],[140.9653696,37.6249701],[140.9650252,37.6250367],[140.9647321,37.6251079],[140.9645056,37.6251772],[140.9642103,37.62529],[140.9641589,37.6252715],[140.9641227,37.6252845],[140.9640912,37.625278],[140.9639792,37.6252836],[140.9639533,37.6252889],[140.9639238,37.6253142],[140.963838,37.6253114],[140.9637114,37.6253021],[140.9636433,37.6252993],[140.9635981,37.6252989],[140.9635102,37.6253086],[140.9633776,37.625336],[140.9633095,37.6253585],[140.9632424,37.6253915],[140.96315,37.6254342],[140.9630331,37.6255364],[140.9629365,37.6256282],[140.9628044,37.6257489],[140.962596,37.6259381],[140.9624619,37.6260613],[140.9624131,37.6261031],[140.9623237,37.6261876],[140.9622617,37.6262384],[140.9622362,37.6262464],[140.962223,37.6261393],[140.9621499,37.6259534],[140.9620442,37.6257449],[140.9618795,37.6255453],[140.9616081,37.6251452],[140.9614504,37.6252045],[140.9614329,37.6251098],[140.9613961,37.6250182],[140.9620672,37.6246475],[140.9620036,37.6245801],[140.9619681,37.6245541],[140.9618668,37.6243757],[140.9618286,37.6243061],[140.9617816,37.6241542],[140.9617367,37.6240342],[140.9617065,37.6239343],[140.9616791,37.623776],[140.9616616,37.6236183],[140.9616703,37.6234653],[140.9616764,37.623323],[140.9616797,37.6231493],[140.9616837,37.6230622],[140.9616677,37.6229486],[140.9616643,37.6228301],[140.9616133,37.6226719],[140.9615436,37.6225014],[140.9614739,37.622333],[140.9614242,37.6221923],[140.9613753,37.6220531],[140.961321,37.6219166],[140.9612586,37.6217945],[140.9612338,37.6217509],[140.9611366,37.621649],[140.9609884,37.6214758],[140.9608888,37.6213715],[140.9608043,37.6212727],[140.9607374,37.6211973]]],[[[140.9625391,37.6261538],[140.9625485,37.6262749],[140.9627778,37.6263137],[140.9627677,37.6268391],[140.9627569,37.6271563],[140.9626891,37.6277029],[140.9625643,37.6281861],[140.9628539,37.6287705],[140.9632221,37.6294976],[140.9637598,37.6298307],[140.9642173,37.630614],[140.964225,37.631202],[140.9642389,37.6317474],[140.9642666,37.6319072],[140.964949,37.6319133],[140.9652802,37.6319206],[140.9658379,37.6318731],[140.9660813,37.6317754],[140.966334,37.6319792],[140.9666575,37.6322281],[140.9665521,37.6326277],[140.9667493,37.6328485],[140.9670066,37.6330267],[140.9674441,37.6330242],[140.9677915,37.6330026],[140.9678824,37.6330056],[140.9679409,37.6329965],[140.9680457,37.6329672],[140.9684485,37.6328838],[140.9685276,37.6328662],[140.9685672,37.6328078],[140.9686436,37.6327712],[140.9687295,37.6328466],[140.9687757,37.6328758],[140.9688173,37.6328917],[140.969109,37.6328806],[140.9693229,37.6328721],[140.9695858,37.632862],[140.9700364,37.6328492],[140.9706419,37.6328323],[140.9711087,37.6328158],[140.9711107,37.6320893],[140.9709528,37.6319302],[140.9709218,37.6319025],[140.9709,37.6317796],[140.9710327,37.6317499],[140.9711628,37.6317153],[140.9714304,37.6316352],[140.9714344,37.6316468],[140.9715732,37.6316113],[140.9716812,37.6315698],[140.9718401,37.631513],[140.97198,37.6314751],[140.9725335,37.6309431],[140.9725149,37.6306103],[140.9730939,37.6300962],[140.9734955,37.6297777],[140.9735633,37.629397],[140.9746355,37.6292018],[140.9747054,37.6281632],[140.9731037,37.6275836],[140.9732744,37.6272133],[140.9726808,37.6268495],[140.9722007,37.6259983],[140.9720489,37.6257745],[140.9711686,37.6257227],[140.9711126,37.6255249],[140.9706059,37.6254657],[140.9695178,37.6254102],[140.968913,37.6254139],[140.9686888,37.6254083],[140.9685487,37.6253825],[140.9683386,37.6253307],[140.9680514,37.6252641],[140.9679111,37.625227],[140.9678253,37.6251782],[140.9677877,37.6251251],[140.967773,37.6250539],[140.9678052,37.6249126],[140.9678655,37.6247034],[140.9678762,37.6246322],[140.9678494,37.6245791],[140.9678052,37.6245079],[140.9677126,37.6244485],[140.9676013,37.624424],[140.9675128,37.6244474],[140.9673988,37.624492],[140.9673572,37.6244856],[140.9673505,37.6244315],[140.967368,37.6244113],[140.9670474,37.6246025],[140.9668744,37.6246928],[140.9667108,37.6247586],[140.9665955,37.6247969],[140.966414,37.6248448],[140.9662203,37.6248854],[140.9659539,37.6249373],[140.9657504,37.6249744],[140.9655195,37.6250172],[140.9652859,37.6250634],[140.9650904,37.6251041],[140.9649302,37.6251405],[140.9647542,37.625184],[140.964563,37.6252435],[140.9643887,37.6253059],[140.9642312,37.6253669],[140.9641861,37.6253809],[140.964118,37.6253977],[140.9640339,37.6254152],[140.9639136,37.6254215],[140.9638251,37.6254138],[140.9636915,37.6254047],[140.9636119,37.6254047],[140.9635252,37.6254103],[140.9634473,37.6254257],[140.9633659,37.625451],[140.963288,37.6254839],[140.9632181,37.6255288],[140.9631465,37.6255911],[140.9629766,37.6257453],[140.9628173,37.625889],[140.9626828,37.6260186],[140.9625722,37.626116],[140.9625391,37.6261538]]]]}}
