{"type":"Feature","id":"attraction-large-park-W632569002","properties":{"id":"attraction-large-park-W632569002","kind":"attraction","name":"各務原市総合運動公園","shortName":"各務原市総合運動公園","context":"日本","subtype":"large-park","subtypeLabel":"大型都市公園・広域公園","statusLabel":"","aliases":[],"osmType":"way","osmId":632569002,"osmDate":null,"officialAreaKm2":null,"areaSourceLabel":"","areaSourceUrl":"","boundarySourceLabel":"© OpenStreetMap contributors","boundarySourceUrl":"https://www.openstreetmap.org/copyright","geometryFile":"attractions/large-park-W632569002.geojson"},"geometry":{"type":"Polygon","coordinates":[[[136.8353075,35.3781069],[136.8429094,35.3782964],[136.8431061,35.3781976],[136.8433763,35.37812],[136.846744,35.377311],[136.8471261,35.3772365],[136.8477067,35.3771469],[136.848225,35.377055],[136.848073,35.3749154],[136.8404226,35.3736582],[136.8355759,35.3731334],[136.8353075,35.3781069]]]}}
