{"type":"Feature","id":"attraction-large-park-W651469478","properties":{"id":"attraction-large-park-W651469478","kind":"attraction","name":"新青森県総合運動公園","shortName":"新青森県総合運動公園","context":"日本","subtype":"large-park","subtypeLabel":"大型都市公園・広域公園","statusLabel":"","aliases":[],"osmType":"way","osmId":651469478,"osmDate":null,"officialAreaKm2":null,"areaSourceLabel":"","areaSourceUrl":"","boundarySourceLabel":"© OpenStreetMap contributors","boundarySourceUrl":"https://www.openstreetmap.org/copyright","geometryFile":"attractions/large-park-W651469478.geojson"},"geometry":{"type":"Polygon","coordinates":[[[140.8387855,40.8402883],[140.8386406,40.8415991],[140.838595,40.8421541],[140.8385602,40.8425193],[140.8384971,40.8430672],[140.8384153,40.8434345],[140.838367,40.843613],[140.8382839,40.8438088],[140.8382142,40.8439641],[140.8380693,40.8442329],[140.8379272,40.844447],[140.8378628,40.8445403],[140.8377099,40.8447382],[140.8370233,40.8454879],[140.8369884,40.8455924],[140.8386835,40.8463046],[140.8388512,40.8463776],[140.8389893,40.8464009],[140.8391543,40.8464151],[140.8394131,40.8463979],[140.8395284,40.8463553],[140.8395459,40.8463147],[140.8396947,40.8459921],[140.8398356,40.8458988],[140.8401078,40.8458095],[140.8402137,40.8457446],[140.8403505,40.8456289],[140.8407676,40.8452119],[140.841182,40.8447818],[140.8415803,40.8449137],[140.8426049,40.8451511],[140.8433157,40.8450405],[140.8437972,40.8449664],[140.8438776,40.8449461],[140.8439608,40.8449542],[140.8443524,40.8450719],[140.8444516,40.8451145],[140.8445629,40.8451703],[140.8446501,40.8452231],[140.8449747,40.8455508],[140.8450216,40.8455934],[140.8450873,40.845635],[140.8451638,40.8456776],[140.845271,40.8457019],[140.8453864,40.845706],[140.8457485,40.8456685],[140.8458759,40.8456512],[140.8459885,40.8455974],[140.8460583,40.8455447],[140.8461012,40.8454686],[140.8461347,40.8453458],[140.8461696,40.8452596],[140.8462661,40.8451247],[140.8465733,40.8448842],[140.8466846,40.8448102],[140.8467409,40.8447371],[140.8467731,40.844659],[140.8467986,40.8441406],[140.8467785,40.8440503],[140.8467114,40.8439702],[140.8466162,40.8438981],[140.8462353,40.84375],[140.8461253,40.8437023],[140.8460368,40.8436161],[140.845959,40.8434994],[140.8459403,40.8433746],[140.8459295,40.8432813],[140.8458853,40.843194],[140.8455165,40.8427537],[140.8454414,40.8426624],[140.8454025,40.8425559],[140.8453944,40.8424392],[140.8454132,40.8423428],[140.8454722,40.842215],[140.8455728,40.8421135],[140.845664,40.8420476],[140.8458088,40.8419897],[140.8459751,40.8419492],[140.8461307,40.8419197],[140.8462742,40.8419116],[140.8464526,40.841938],[140.8466658,40.8420121],[140.8469126,40.8421206],[140.8471432,40.8422038],[140.8472706,40.8422403],[140.8476274,40.8423185],[140.8477628,40.842354],[140.8479533,40.842424],[140.8481102,40.8425153],[140.8482845,40.8426391],[140.8483958,40.8426888],[140.8485179,40.8427365],[140.848656,40.8427527],[140.8487807,40.8427517],[140.8488625,40.8427243],[140.8489229,40.8426654],[140.848939,40.8425538],[140.8488706,40.842077],[140.8488236,40.8419035],[140.8487539,40.8417665],[140.8486922,40.8416854],[140.8486104,40.8416083],[140.8484951,40.841523],[140.84842,40.8414388],[140.8483851,40.8413739],[140.8484012,40.8412958],[140.8484334,40.8412065],[140.848715,40.8407915],[140.8487767,40.8407104],[140.8488746,40.8406211],[140.8490798,40.8405217],[140.849171,40.8405014],[140.8493118,40.8404851],[140.8494781,40.8404963],[140.8496538,40.8405156],[140.8498536,40.840543],[140.8500333,40.8405389],[140.8502157,40.8405064],[140.8503605,40.8404415],[140.8512913,40.8398804],[140.8513798,40.8398094],[140.8514442,40.8397181],[140.8515045,40.8395994],[140.8514978,40.8394685],[140.851471,40.8393711],[140.8514535,40.8392575],[140.8514602,40.8391743],[140.8515273,40.8390383],[140.8515447,40.8389724],[140.8513154,40.8388445],[140.8512323,40.8387887],[140.8511612,40.8386974],[140.8511102,40.8385625],[140.8511102,40.838323],[140.8511451,40.8381079],[140.851137,40.8379395],[140.8510995,40.8377629],[140.8510324,40.8377163],[140.8504155,40.8372678],[140.850319,40.8371359],[140.8501688,40.8368518],[140.8500802,40.8366996],[140.8497691,40.8365981],[140.8493131,40.8365068],[140.8488142,40.8365596],[140.8485541,40.836657],[140.8483824,40.8367057],[140.8480525,40.8367057],[140.8475107,40.8366042],[140.8470306,40.8364601],[140.846867,40.8364845],[140.84647,40.8366022],[140.8463604,40.8366917],[140.8462317,40.8368601],[140.8460413,40.8369555],[140.8458213,40.8369879],[140.8455611,40.8369514],[140.8454324,40.8369149],[140.8450971,40.8368824],[140.8448369,40.8369413],[140.8446197,40.8370488],[140.8445043,40.8371462],[140.8443166,40.8374851],[140.8442013,40.8376982],[140.8440913,40.8378017],[140.8438365,40.837895],[140.8437426,40.8379194],[140.8436085,40.8379397],[140.8435227,40.8379133],[140.8432115,40.8376312],[140.8431069,40.8375703],[140.8429084,40.8375298],[140.8427421,40.8375034],[140.8418195,40.8374729],[140.8403657,40.8373532],[140.8402021,40.8373674],[140.8399956,40.8374242],[140.8397381,40.8375095],[140.839376,40.8376048],[140.8391346,40.8376617],[140.838979,40.8376799],[140.8387483,40.8376698],[140.8384533,40.8376353],[140.8380563,40.8376109],[140.8379303,40.837619],[140.8379168,40.8376373],[140.8381314,40.8378626],[140.838346,40.8381142],[140.8384774,40.838313],[140.8386062,40.8385647],[140.8387027,40.8388001],[140.8387939,40.8391329],[140.8388181,40.8393682],[140.8388261,40.8395732],[140.8388342,40.8397497],[140.838802,40.8400785],[140.8387855,40.8402883]]]}}
