{"type":"Feature","id":"attraction-large-park-W325125068","properties":{"id":"attraction-large-park-W325125068","kind":"attraction","name":"蜂ヶ峯総合公園","shortName":"蜂ヶ峯総合公園","context":"日本","subtype":"large-park","subtypeLabel":"大型都市公園・広域公園","statusLabel":"著名な公園","aliases":[],"osmType":"way","osmId":325125068,"osmDate":null,"officialAreaKm2":null,"areaSourceLabel":"","areaSourceUrl":"","boundarySourceLabel":"© OpenStreetMap contributors","boundarySourceUrl":"https://www.openstreetmap.org/copyright","geometryFile":"attractions/large-park-W325125068.geojson"},"geometry":{"type":"Polygon","coordinates":[[[132.217585,34.1910815],[132.2175595,34.1911725],[132.2175526,34.1913406],[132.2179086,34.1915466],[132.2181603,34.1915596],[132.2184305,34.1916833],[132.218585,34.1916627],[132.218586,34.1921745],[132.2185998,34.1927395],[132.2183665,34.1927436],[132.2181844,34.1928171],[132.2181489,34.1928801],[132.2181666,34.1929259],[132.2183022,34.193033],[132.2187574,34.1932164],[132.2190091,34.1933828],[132.2191709,34.1936418],[132.2193915,34.1939491],[132.2196559,34.1941622],[132.2197889,34.1942495],[132.2198285,34.1943557],[132.2198303,34.194616],[132.219672,34.1951766],[132.2199112,34.1955751],[132.2201225,34.1957728],[132.2209754,34.1966052],[132.2213959,34.1970381],[132.2214475,34.1972126],[132.2218486,34.1971026],[132.2220724,34.1969685],[132.2228664,34.1973005],[132.2229406,34.1971503],[132.2230176,34.1969938],[132.2230646,34.1968666],[132.2230761,34.1967677],[132.2230639,34.1966714],[132.2230186,34.1965989],[132.2229481,34.1965237],[132.2229101,34.1964968],[132.2228166,34.1964571],[132.2223305,34.196299],[132.2218581,34.1960898],[132.2219386,34.1959682],[132.2220219,34.1959321],[132.2221863,34.1957195],[132.2223794,34.19542],[132.222527,34.1949696],[132.2222427,34.1948964],[132.2222025,34.1947788],[132.2216154,34.1947918],[132.2215943,34.19442],[132.2214656,34.1944161],[132.2213451,34.1943827],[132.2220345,34.1928956],[132.2220737,34.1927799],[132.2220561,34.1926788],[132.2222082,34.1926679],[132.222421,34.1925935],[132.2227258,34.19241],[132.2230097,34.1922352],[132.2232471,34.1921642],[132.2233163,34.1917962],[132.2233688,34.1911592],[132.2227871,34.1909917],[132.2229055,34.1907502],[132.2229609,34.1906472],[132.222832,34.1900522],[132.2227531,34.1899754],[132.222598,34.1899567],[132.2224436,34.1900095],[132.2223379,34.1899589],[132.2215658,34.1895902],[132.2212302,34.1898569],[132.2210571,34.1901575],[132.220687,34.1903216],[132.2204939,34.1902662],[132.2198354,34.1904625],[132.2185332,34.1910438],[132.2183333,34.191127],[132.2182287,34.1910449],[132.2181764,34.1910272],[132.2181228,34.1910272],[132.217585,34.1910815]]]}}
