{"type":"Feature","id":"attraction-large-industrial-complex-W1513162381","properties":{"id":"attraction-large-industrial-complex-W1513162381","kind":"attraction","name":"量子科学技術研究開発機構 那珂核融合研究所","shortName":"量子科学技術研究開発機構 那珂核融合研究所","context":"日本","subtype":"industrial-complex","subtypeLabel":"工業地帯・大規模工場","statusLabel":"","aliases":[],"osmType":"way","osmId":1513162381,"osmDate":null,"officialAreaKm2":null,"areaSourceLabel":"","areaSourceUrl":"","boundarySourceLabel":"© OpenStreetMap contributors","boundarySourceUrl":"https://www.openstreetmap.org/copyright","geometryFile":"attractions/large-industrial-complex-W1513162381.geojson"},"geometry":{"type":"Polygon","coordinates":[[[140.5425316,36.4699886],[140.5423682,36.4698083],[140.5422187,36.469752],[140.5416163,36.4695942],[140.5410886,36.4693839],[140.5398417,36.4702327],[140.5395615,36.4705068],[140.53937,36.470811],[140.5384501,36.4723582],[140.5381605,36.4726399],[140.5378056,36.4728351],[140.5372919,36.4729591],[140.5368716,36.4729478],[140.5366204,36.472894],[140.5365958,36.4733548],[140.5351045,36.47334],[140.5344544,36.4733251],[140.5344544,36.4726809],[140.5334469,36.4724902],[140.5333083,36.4725224],[140.5332528,36.4726363],[140.5321206,36.4759025],[140.5316861,36.4770973],[140.532818,36.4777142],[140.5350966,36.4791754],[140.5375603,36.4807772],[140.5392596,36.481699],[140.5412517,36.4826404],[140.5427722,36.4831176],[140.5439024,36.483451],[140.5438804,36.4830413],[140.5439458,36.4828385],[140.5441513,36.4826883],[140.5443568,36.4826282],[140.5452321,36.4822277],[140.5458439,36.4819086],[140.5461381,36.4816082],[140.5463483,36.4813641],[140.5467265,36.4805531],[140.5472636,36.4789347],[140.5475064,36.4781949],[140.5475401,36.4780972],[140.5474918,36.4774869],[140.5470036,36.4771483],[140.5467756,36.4769973],[140.5458905,36.4780843],[140.5398535,36.474808],[140.5425316,36.4699886]]]}}
