{"type":"Feature","id":"attraction-large-large-farm-W509399566","properties":{"id":"attraction-large-large-farm-W509399566","kind":"attraction","name":"北海道農業研究センター","shortName":"北海道農業研究センター","context":"日本","subtype":"large-farm","subtypeLabel":"大規模農場・牧場","statusLabel":"","aliases":[],"osmType":"way","osmId":509399566,"osmDate":null,"officialAreaKm2":null,"areaSourceLabel":"","areaSourceUrl":"","boundarySourceLabel":"© OpenStreetMap contributors","boundarySourceUrl":"https://www.openstreetmap.org/copyright","geometryFile":"attractions/large-large-farm-W509399566.geojson"},"geometry":{"type":"Polygon","coordinates":[[[141.3933134,42.9977325],[141.3930291,42.9981268],[141.3931417,42.9986486],[141.3930023,42.9990958],[141.3926697,42.9997903],[141.3927019,43.0000531],[141.3928735,43.001234],[141.3932383,43.0017676],[141.3937908,43.0021991],[141.3938767,43.0024659],[141.3936835,43.0028111],[141.394397,43.0031995],[141.3948047,43.0035722],[141.39503,43.0038311],[141.4004159,43.0091584],[141.4042703,43.0129937],[141.4051205,43.012838],[141.4071686,43.0129297],[141.4083418,43.0127614],[141.4088402,43.0125227],[141.4101724,43.0118846],[141.4124358,43.0107436],[141.4116139,43.0098643],[141.4135381,43.0088851],[141.4133927,43.0086037],[141.4142976,43.0080874],[141.4127278,43.005758],[141.4127233,43.0046862],[141.4127211,43.0041585],[141.4127092,43.0012879],[141.4133422,42.9997695],[141.4124793,42.9987115],[141.4123936,42.9979241],[141.4118206,42.9967457],[141.4102006,42.9953882],[141.40975,42.9949723],[141.4109087,42.9936068],[141.4082479,42.9914723],[141.4071,42.9903422],[141.4068854,42.990303],[141.405952,42.9907817],[141.406585,42.9943288],[141.4033127,42.9963769],[141.4046216,42.9975775],[141.400212,43.0006612],[141.3990211,43.0003082],[141.3979375,42.9995157],[141.396414,42.999445],[141.3960278,42.9992567],[141.3954484,42.9995627],[141.3951105,42.999551],[141.394912,42.9993352],[141.394625,42.9994058],[141.3944426,42.9994058],[141.3942388,42.9993587],[141.3941073,42.9992332],[141.3940993,42.99909],[141.3941771,42.9989154],[141.3943675,42.99878],[141.3937908,42.9982778],[141.3933134,42.9977325]]]}}
