{"type":"Feature","id":"attraction-large-park-W737028385","properties":{"id":"attraction-large-park-W737028385","kind":"attraction","name":"横手公園","shortName":"横手公園","context":"秋田県・横手市","subtype":"large-park","subtypeLabel":"大型都市公園・広域公園","statusLabel":"","aliases":["Yokote Park"],"osmType":"way","osmId":737028385,"osmDate":null,"officialAreaKm2":null,"areaSourceLabel":"","areaSourceUrl":"","boundarySourceLabel":"© OpenStreetMap contributors","boundarySourceUrl":"https://www.openstreetmap.org/copyright","geometryFile":"attractions/large-park-W737028385.geojson"},"geometry":{"type":"Polygon","coordinates":[[[140.5722572,39.3191225],[140.5716621,39.3190286],[140.5710584,39.3185775],[140.5708917,39.3189229],[140.5706381,39.3188552],[140.5705225,39.3188401],[140.5704488,39.318846],[140.5703351,39.318907],[140.5700936,39.3190752],[140.5697965,39.3192124],[140.5694062,39.319484],[140.5693662,39.3195278],[140.5691206,39.319882],[140.5691532,39.3199141],[140.5690468,39.3200309],[140.5689741,39.320183],[140.5689122,39.3203232],[140.5685415,39.3206078],[140.5684875,39.3206596],[140.5685355,39.3207278],[140.5685586,39.3207508],[140.5683359,39.3209287],[140.5682678,39.3210256],[140.5682426,39.3210809],[140.5682636,39.3211886],[140.5683198,39.3213033],[140.5684483,39.3213876],[140.5685351,39.3214648],[140.5685481,39.3215318],[140.5685235,39.3215856],[140.5684076,39.3218309],[140.5683998,39.3219492],[140.5682164,39.3221399],[140.5682254,39.3223156],[140.5682926,39.3223753],[140.5683979,39.3224194],[140.5688226,39.3230348],[140.5688218,39.3231426],[140.5688491,39.3232194],[140.5689357,39.323358],[140.5688359,39.3234065],[140.5685646,39.323748],[140.5685221,39.3238598],[140.5685259,39.3240804],[140.5685431,39.3241854],[140.5684866,39.3242892],[140.5684266,39.324386],[140.5683264,39.3244759],[140.5682878,39.3245169],[140.5684568,39.3246141],[140.5686747,39.3246435],[140.5688645,39.3246264],[140.5691025,39.324751],[140.5694676,39.3250518],[140.5694671,39.3250645],[140.5694761,39.3252705],[140.5695153,39.3254519],[140.5696461,39.32562],[140.5697546,39.3256773],[140.5698158,39.3257539],[140.5697999,39.3258858],[140.5698609,39.3260166],[140.5702015,39.3261651],[140.5706508,39.3263279],[140.5710176,39.3265516],[140.5711322,39.326877],[140.5715178,39.3273602],[140.5716659,39.3274345],[140.5718741,39.3275187],[140.5720543,39.3277166],[140.5713455,39.3281856],[140.5707766,39.328612],[140.5706976,39.3286616],[140.5705948,39.328553],[140.5705776,39.3285213],[140.5705251,39.3284635],[140.570378,39.3284048],[140.570239,39.3283533],[140.5701795,39.3283199],[140.570113,39.3282838],[140.5700254,39.328263],[140.5699577,39.3282431],[140.5698946,39.3282278],[140.5697732,39.3282061],[140.5696845,39.328151],[140.5696051,39.3281086],[140.5695285,39.3280684],[140.569451,39.3280582],[140.569492,39.3287344],[140.5694729,39.3288203],[140.5694246,39.3289199],[140.5694068,39.3290357],[140.569427,39.3290914],[140.5695639,39.3291669],[140.5697154,39.3291889],[140.5698678,39.3292681],[140.5705376,39.3301002],[140.5715075,39.3302375],[140.5726036,39.3316818],[140.5728722,39.3320966],[140.5730416,39.3321459],[140.5731351,39.3322365],[140.5732399,39.3323041],[140.5733491,39.3323311],[140.5734637,39.332444],[140.5735932,39.332547],[140.5737169,39.3326144],[140.5737363,39.332691],[140.5737811,39.3327382],[140.5737694,39.3327799],[140.5738674,39.3329588],[140.5743298,39.3332803],[140.5746639,39.3336272],[140.5748851,39.3339889],[140.5751608,39.3334779],[140.5754339,39.3329994],[140.5755436,39.332796],[140.5756317,39.3325831],[140.5756917,39.3324499],[140.5757209,39.3323238],[140.5757511,39.3321008],[140.5757247,39.3318115],[140.5756869,39.3316046],[140.5755877,39.3313567],[140.5754958,39.3311859],[140.5753455,39.3309358],[140.5751231,39.3306475],[140.57493,39.3304725],[140.5744386,39.3299194],[140.5739868,39.3294411],[140.5737615,39.3291778],[140.5736592,39.3290357],[140.5735828,39.3289124],[140.5735027,39.3287396],[140.5734613,39.328617],[140.573408,39.3284439],[140.5733783,39.3281391],[140.5733527,39.3278368],[140.5732535,39.327246],[140.573342,39.3268891],[140.5735072,39.3265067],[140.5735472,39.3262479],[140.5735221,39.3259039],[140.5733991,39.3249493],[140.5735183,39.3249443],[140.5737412,39.324986],[140.5739345,39.325072],[140.5741964,39.3252765],[140.574365,39.325535],[140.5744887,39.3258114],[140.5745704,39.3258993],[140.575116,39.3253213],[140.5749721,39.3252385],[140.5748994,39.3251842],[140.5747833,39.3250362],[140.5747761,39.3248571],[140.5747439,39.3246038],[140.5747375,39.3245531],[140.5749389,39.3245969],[140.5751096,39.3246332],[140.5752056,39.324708],[140.5752986,39.3248056],[140.575349,39.3248928],[140.5753482,39.3249781],[140.575336,39.3250939],[140.5752832,39.3251816],[140.5753136,39.3252356],[140.5753484,39.3252652],[140.5754019,39.3252876],[140.5755177,39.325318],[140.5757349,39.3253094],[140.5759476,39.3253115],[140.5761052,39.3253519],[140.5762112,39.3253006],[140.5760686,39.3250026],[140.5760165,39.3247048],[140.5761153,39.3241494],[140.5761214,39.323978],[140.5761195,39.323902],[140.575954,39.323441],[140.5758682,39.3233214],[140.5753727,39.3231569],[140.5749802,39.3229425],[140.5748195,39.3228778],[140.5746285,39.3228671],[140.5739804,39.3232944],[140.5738543,39.323285],[140.5737095,39.3231668],[140.5735085,39.3231472],[140.5735961,39.3229355],[140.5737929,39.3227382],[140.5742361,39.3223244],[140.5748152,39.3218001],[140.5750979,39.3215657],[140.5754488,39.3212681],[140.5757694,39.3209167],[140.5758712,39.3207616],[140.5758868,39.3206813],[140.5758769,39.3206014],[140.5758065,39.3205137],[140.5757778,39.3203249],[140.5756678,39.3202341],[140.5753862,39.3201851],[140.5751076,39.3199585],[140.5746438,39.3194641],[140.5739614,39.3191928],[140.5733849,39.3192485],[140.5722572,39.3191225]]]}}
