{"type":"Feature","id":"attraction-large-park-W343145803","properties":{"id":"attraction-large-park-W343145803","kind":"attraction","name":"府中市郷土の森公園","shortName":"府中市郷土の森公園","context":"日本","subtype":"large-park","subtypeLabel":"大型都市公園・広域公園","statusLabel":"著名な公園","aliases":[],"osmType":"way","osmId":343145803,"osmDate":null,"officialAreaKm2":null,"areaSourceLabel":"","areaSourceUrl":"","boundarySourceLabel":"© OpenStreetMap contributors","boundarySourceUrl":"https://www.openstreetmap.org/copyright","geometryFile":"attractions/large-park-W343145803.geojson"},"geometry":{"type":"Polygon","coordinates":[[[139.472918,35.657304],[139.4727382,35.6569542],[139.472495,35.6566282],[139.471658,35.6560347],[139.4709073,35.6557667],[139.4708523,35.6557511],[139.4700488,35.6555329],[139.4699896,35.6551316],[139.4707118,35.6550365],[139.470725,35.6541193],[139.4706911,35.6531927],[139.47073,35.6531643],[139.4707669,35.6531624],[139.4723216,35.6530863],[139.473858,35.6532079],[139.4749809,35.6534017],[139.4779016,35.6540409],[139.4780487,35.6541873],[139.4781401,35.6545791],[139.4782023,35.6549718],[139.4777442,35.6550512],[139.4777899,35.6555749],[139.478744,35.6560894],[139.4793086,35.6564615],[139.4793023,35.6565213],[139.4787948,35.6567584],[139.4782835,35.6568759],[139.4771048,35.657044],[139.4762623,35.6570945],[139.4753521,35.6571768],[139.4751736,35.6572605],[139.4750086,35.6574628],[139.4749426,35.6574633],[139.4744213,35.6570722],[139.4743511,35.6569795],[139.4743257,35.6567744],[139.4743928,35.6565278],[139.4742024,35.6564524],[139.4739849,35.6566667],[139.4733759,35.6570831],[139.472918,35.657304]]]}}
