{"type":"Feature","id":"attraction-large-large-port-W615193891","properties":{"id":"attraction-large-large-port-W615193891","kind":"attraction","name":"Shunan Bulk Terminal","shortName":"Shunan Bulk Terminal","context":"日本","subtype":"large-port","subtypeLabel":"港湾・埠頭","statusLabel":"","aliases":[],"osmType":"way","osmId":615193891,"osmDate":null,"officialAreaKm2":null,"areaSourceLabel":"","areaSourceUrl":"","boundarySourceLabel":"© OpenStreetMap contributors","boundarySourceUrl":"https://www.openstreetmap.org/copyright","geometryFile":"attractions/large-large-port-W615193891.geojson"},"geometry":{"type":"Polygon","coordinates":[[[131.7832556,34.0303269],[131.7854275,34.0302737],[131.7874803,34.0287384],[131.7865853,34.0278693],[131.7893094,34.0260923],[131.7884674,34.0246301],[131.784193,34.026323],[131.7810702,34.0275189],[131.7823473,34.02981],[131.7832556,34.0303269]]]}}
