{"type":"Feature","id":"attraction-large-industrial-complex-R19446865","properties":{"id":"attraction-large-industrial-complex-R19446865","kind":"attraction","name":"Daigas 泉北製造所第二工場","shortName":"Daigas 泉北製造所第二工場","context":"日本","subtype":"industrial-complex","subtypeLabel":"工業地帯・大規模工場","statusLabel":"","aliases":["Daigas","大阪ガス","Daigasガスアンドパワーソリューション 泉北製造所第二工場","Daigasガスアンドパワーソリューション"],"osmType":"relation","osmId":19446865,"osmDate":null,"officialAreaKm2":null,"areaSourceLabel":"","areaSourceUrl":"","boundarySourceLabel":"© OpenStreetMap contributors","boundarySourceUrl":"https://www.openstreetmap.org/copyright","geometryFile":"attractions/large-industrial-complex-R19446865.geojson"},"geometry":{"type":"MultiPolygon","coordinates":[[[[135.4048875,34.5371379],[135.4043987,34.5361937],[135.403654,34.5357767],[135.4034681,34.5358518],[135.4023023,34.5351753],[135.4021907,34.5353034],[135.4010924,34.5346742],[135.4003997,34.5355289],[135.4002949,34.5354871],[135.3995819,34.5362666],[135.3996326,34.5369932],[135.4009607,34.539312],[135.4017683,34.5407512],[135.4038578,34.5399417],[135.4045563,34.5396711],[135.4048875,34.5371379]]],[[[135.403414,34.5433065],[135.4044877,34.5428903],[135.4043584,34.5426641],[135.4034119,34.5410075],[135.4023382,34.5414238],[135.403414,34.5433065]]],[[[135.4066775,34.54194],[135.405647,34.5423921],[135.4055585,34.5422353],[135.4043584,34.5426641],[135.4044877,34.5428903],[135.403414,34.5433065],[135.4032786,34.543351],[135.409319,34.5542334],[135.4094719,34.5542467],[135.4095228,34.5543284],[135.4158399,34.5499922],[135.4158008,34.5499454],[135.4120751,34.5513629],[135.4066775,34.54194]]]]}}
