{"type":"Feature","id":"attraction-large-large-port-W1540153353","properties":{"id":"attraction-large-large-port-W1540153353","kind":"attraction","name":"厚岸漁港（厚岸地区）","shortName":"厚岸漁港（厚岸地区）","context":"日本","subtype":"large-port","subtypeLabel":"港湾・埠頭","statusLabel":"","aliases":["Akkeshi Fishing Port (Akkeshi)"],"osmType":"way","osmId":1540153353,"osmDate":null,"officialAreaKm2":null,"areaSourceLabel":"","areaSourceUrl":"","boundarySourceLabel":"© OpenStreetMap contributors","boundarySourceUrl":"https://www.openstreetmap.org/copyright","geometryFile":"attractions/large-large-port-W1540153353.geojson"},"geometry":{"type":"Polygon","coordinates":[[[144.8476517,43.0426793],[144.8365861,43.0335122],[144.8358723,43.0339569],[144.8348356,43.0329967],[144.8347771,43.0329498],[144.8346534,43.0329453],[144.8342265,43.0329297],[144.8341471,43.0329962],[144.8341782,43.0330161],[144.831094,43.0355991],[144.8310537,43.0355737],[144.8303453,43.0353382],[144.8302185,43.0353363],[144.8302167,43.0353975],[144.8302156,43.0354376],[144.8302711,43.0354385],[144.8301153,43.0408581],[144.8436169,43.0455708],[144.8463678,43.0437828],[144.8465397,43.0433981],[144.8476517,43.0426793]]]}}
