{"type":"Feature","id":"attraction-large-park-W307858899","properties":{"id":"attraction-large-park-W307858899","kind":"attraction","name":"千光寺公園","shortName":"千光寺公園","context":"日本","subtype":"large-park","subtypeLabel":"大型都市公園・広域公園","statusLabel":"著名な公園","aliases":["Senkōji Park"],"osmType":"way","osmId":307858899,"osmDate":null,"officialAreaKm2":null,"areaSourceLabel":"","areaSourceUrl":"","boundarySourceLabel":"© OpenStreetMap contributors","boundarySourceUrl":"https://www.openstreetmap.org/copyright","geometryFile":"attractions/large-park-W307858899.geojson"},"geometry":{"type":"Polygon","coordinates":[[[133.192846,34.4107777],[133.1932108,34.4113442],[133.1942408,34.4122293],[133.1949167,34.4124329],[133.1954102,34.4123974],[133.196717,34.4124085],[133.1988537,34.4118274],[133.1991647,34.4116226],[133.1991302,34.411283],[133.1991872,34.4111239],[133.1998195,34.410455],[133.1997704,34.4101977],[133.1999501,34.410083],[133.1999041,34.4098844],[133.1996012,34.4098996],[133.1994858,34.409722],[133.1993877,34.4097284],[133.1992149,34.4096481],[133.198944,34.4096146],[133.1987432,34.4093743],[133.1976102,34.4092335],[133.1971552,34.409005],[133.1960239,34.4084369],[133.1942896,34.4072592],[133.1937864,34.407226],[133.193486,34.4073928],[133.1937564,34.4083037],[133.1930928,34.4097509],[133.1928139,34.4104944],[133.192846,34.4107777]]]}}
