{"type":"Feature","id":"attraction-large-park-W488964753","properties":{"id":"attraction-large-park-W488964753","kind":"attraction","name":"府民の森 ちはや園地","shortName":"府民の森 ちはや園地","context":"日本","subtype":"large-park","subtypeLabel":"大型都市公園・広域公園","statusLabel":"著名な公園","aliases":[],"osmType":"way","osmId":488964753,"osmDate":null,"officialAreaKm2":null,"areaSourceLabel":"","areaSourceUrl":"","boundarySourceLabel":"© OpenStreetMap contributors","boundarySourceUrl":"https://www.openstreetmap.org/copyright","geometryFile":"attractions/large-park-W488964753.geojson"},"geometry":{"type":"Polygon","coordinates":[[[135.6806964,34.4092952],[135.6806374,34.4091912],[135.6804201,34.409127],[135.6802216,34.4090872],[135.6799775,34.4090805],[135.6795591,34.409169],[135.6792614,34.4092199],[135.6791246,34.409231],[135.678961,34.4092531],[135.6788725,34.4093704],[135.6788564,34.4095165],[135.6788564,34.4096846],[135.6788403,34.409751],[135.6786874,34.4098595],[135.6784111,34.4100055],[135.6782019,34.4101073],[135.6778774,34.410187],[135.6775662,34.4102865],[135.6772256,34.4103795],[135.6768742,34.4104547],[135.676496,34.4105477],[135.6762117,34.4106384],[135.6760025,34.4106959],[135.6758818,34.4107468],[135.6758657,34.4108508],[135.675863,34.4110013],[135.6759757,34.4111739],[135.6760535,34.4112912],[135.6761862,34.4114748],[135.6762506,34.4115988],[135.6762198,34.4118643],[135.6761232,34.4119882],[135.6759596,34.4121143],[135.6757638,34.4122183],[135.6755385,34.4123069],[135.6753346,34.4123666],[135.6751657,34.4124286],[135.675002,34.4125746],[135.6748659,34.4127959],[135.6748284,34.4130304],[135.6748498,34.4132738],[135.6748609,34.4133325],[135.6748937,34.413385],[135.6749608,34.4134243],[135.6750775,34.4134841],[135.6751841,34.4135383],[135.6752753,34.4135864],[135.6754047,34.413645],[135.6755616,34.413717],[135.6757333,34.4137418],[135.6758996,34.4137678],[135.6762201,34.4137618],[135.6764353,34.4137562],[135.6767076,34.4137529],[135.6769503,34.4137795],[135.6772346,34.413806],[135.677299,34.4138099],[135.6774801,34.4138165],[135.6776356,34.4138099],[135.6778583,34.4137922],[135.6779977,34.4137656],[135.678097,34.4136572],[135.6782069,34.4134492],[135.678266,34.4132633],[135.678333,34.413104],[135.6783652,34.4129004],[135.6783706,34.4125752],[135.6783115,34.4123649],[135.6781962,34.412095],[135.6781131,34.4119512],[135.6780701,34.4118693],[135.6780594,34.4117697],[135.6780701,34.411679],[135.678105,34.4115705],[135.6782619,34.4114643],[135.6786294,34.4112939],[135.6788735,34.4111789],[135.6790398,34.4110572],[135.6790988,34.4108912],[135.679088,34.4107452],[135.679072,34.4106102],[135.67908,34.4104597],[135.6791712,34.4103557],[135.6793402,34.4102805],[135.6794877,34.4102274],[135.6795735,34.4101056],[135.6796352,34.4099198],[135.6796996,34.4098534],[135.6800134,34.4097804],[135.6802709,34.4096963],[135.6804774,34.4095458],[135.6806089,34.4094351],[135.6806964,34.4092952]]]}}
