{"type":"Feature","id":"attraction-large-airport-W314547242","properties":{"id":"attraction-large-airport-W314547242","kind":"attraction","name":"横浜ヘリポート","shortName":"横浜ヘリポート","context":"日本","subtype":"airport","subtypeLabel":"空港・飛行場","statusLabel":"","aliases":["横浜市"],"osmType":"way","osmId":314547242,"osmDate":null,"officialAreaKm2":null,"areaSourceLabel":"","areaSourceUrl":"","boundarySourceLabel":"© OpenStreetMap contributors","boundarySourceUrl":"https://www.openstreetmap.org/copyright","geometryFile":"attractions/large-airport-W314547242.geojson"},"geometry":{"type":"Polygon","coordinates":[[[139.6557541,35.3433076],[139.6568423,35.3432981],[139.6568494,35.3419474],[139.6566969,35.3417789],[139.6548887,35.3414746],[139.6548843,35.3424099],[139.6557541,35.3433076]]]}}
