{"type":"Feature","id":"attraction-large-large-farm-R10662589","properties":{"id":"attraction-large-large-farm-R10662589","kind":"attraction","name":"パナリ牧場","shortName":"パナリ牧場","context":"日本","subtype":"large-farm","subtypeLabel":"大規模農場・牧場","statusLabel":"","aliases":[],"osmType":"relation","osmId":10662589,"osmDate":null,"officialAreaKm2":null,"areaSourceLabel":"","areaSourceUrl":"","boundarySourceLabel":"© OpenStreetMap contributors","boundarySourceUrl":"https://www.openstreetmap.org/copyright","geometryFile":"attractions/large-large-farm-R10662589.geojson"},"geometry":{"type":"Polygon","coordinates":[[[123.9249678,24.2200601],[123.9254341,24.2202496],[123.9257293,24.2202502],[123.9268265,24.220192],[123.9272476,24.2203782],[123.9279563,24.2202706],[123.928562,24.2202289],[123.9292565,24.2200663],[123.9291294,24.2197444],[123.9290659,24.2195834],[123.9292316,24.2193685],[123.929641,24.2195584],[123.9297624,24.2191467],[123.9299027,24.2188354],[123.929621,24.218617],[123.9293745,24.2182961],[123.92955,24.2182715],[123.9300203,24.2181954],[123.9306272,24.2183684],[123.9310673,24.2179187],[123.9319234,24.2176436],[123.9324682,24.2173657],[123.9329441,24.2171826],[123.9329441,24.2179777],[123.933966,24.219213],[123.9342664,24.2188044],[123.9341859,24.2186895],[123.9348216,24.2179459],[123.9355297,24.2179605],[123.9362032,24.2164972],[123.9358863,24.2161715],[123.9359539,24.2156819],[123.9355299,24.2142173],[123.9350542,24.2123188],[123.9337039,24.2107066],[123.9330211,24.2102015],[123.9322244,24.2096524],[123.9306541,24.2094543],[123.9298967,24.2095747],[123.9278884,24.2107632],[123.9269764,24.21182],[123.9266224,24.212182],[123.9257426,24.2136498],[123.9261289,24.213865],[123.9259894,24.2142173],[123.9256031,24.2143934],[123.9254422,24.214139],[123.924026,24.214687],[123.9239187,24.2155285],[123.9237792,24.2159786],[123.9233179,24.216233],[123.9226305,24.2160023],[123.9220356,24.2172191],[123.9225013,24.2181267],[123.9235858,24.2189877],[123.9246001,24.2198662],[123.9249678,24.2200601]],[[123.928332,24.2193119],[123.9286278,24.2192115],[123.9287037,24.2190455],[123.9286354,24.2187584],[123.9285254,24.2187964],[123.9283775,24.219004],[123.9282371,24.2190559],[123.928332,24.2193119]],[[123.9240961,24.2188016],[123.9244789,24.218499],[123.9244342,24.218214],[123.9242046,24.2179405],[123.9238346,24.218406],[123.9240961,24.2188016]],[[123.9233816,24.2171318],[123.9237006,24.2171085],[123.9239366,24.2169224],[123.9236304,24.2167304],[123.9233816,24.2171318]],[[123.9287689,24.2149661],[123.9291975,24.2150977],[123.9295268,24.2150566],[123.929635,24.2147233],[123.9296801,24.2141967],[123.9295989,24.214135],[123.9291298,24.21453],[123.9287689,24.2149661]],[[123.9300816,24.2145012],[123.9308575,24.214024],[123.9304695,24.213485],[123.93088,24.2131518],[123.9306455,24.212872],[123.9292336,24.2136002],[123.9300816,24.2145012]],[[123.9325702,24.2163019],[123.9335272,24.2155514],[123.9337441,24.2153012],[123.933642,24.2151208],[123.9333103,24.2150219],[123.9332273,24.2151092],[123.9331827,24.2153012],[123.9323852,24.2159644],[123.9323789,24.2161972],[123.9325702,24.2163019]],[[123.93148,24.2168914],[123.9320529,24.2166528],[123.9320393,24.2162743],[123.9319221,24.2160645],[123.931498,24.2163895],[123.9314259,24.2166158],[123.931286,24.2167515],[123.9313672,24.2168503],[123.93148,24.2168914]]]}}
