{"type":"Feature","id":"attraction-large-military-base-W362029291","properties":{"id":"attraction-large-military-base-W362029291","kind":"attraction","name":"United States Army Kure Pier6","shortName":"United States Army Kure Pier6","context":"日本","subtype":"military-base","subtypeLabel":"基地・駐屯地・演習場","statusLabel":"","aliases":[],"osmType":"way","osmId":362029291,"osmDate":null,"officialAreaKm2":null,"areaSourceLabel":"","areaSourceUrl":"","boundarySourceLabel":"© OpenStreetMap contributors","boundarySourceUrl":"https://www.openstreetmap.org/copyright","geometryFile":"attractions/large-military-base-W362029291.geojson"},"geometry":{"type":"Polygon","coordinates":[[[132.5511557,34.2279526],[132.5504886,34.2284404],[132.5500901,34.2280521],[132.5495745,34.2283877],[132.5493613,34.2281675],[132.549409,34.2281335],[132.5494605,34.2281771],[132.5495396,34.2281206],[132.5494891,34.2280745],[132.5498613,34.2278086],[132.549745,34.2277],[132.5502075,34.2273784],[132.550142,34.2273076],[132.5505137,34.227059],[132.550626,34.2273331],[132.5507346,34.2275028],[132.5508416,34.227617],[132.5511557,34.2279526]]]}}
