{"type":"Feature","id":"attraction-large-park-W483898629","properties":{"id":"attraction-large-park-W483898629","kind":"attraction","name":"つつじが岡公園","shortName":"つつじが岡公園","context":"日本","subtype":"large-park","subtypeLabel":"大型都市公園・広域公園","statusLabel":"著名な公園","aliases":["Tsutsujigaoka Park"],"osmType":"way","osmId":483898629,"osmDate":null,"officialAreaKm2":null,"areaSourceLabel":"","areaSourceUrl":"","boundarySourceLabel":"© OpenStreetMap contributors","boundarySourceUrl":"https://www.openstreetmap.org/copyright","geometryFile":"attractions/large-park-W483898629.geojson"},"geometry":{"type":"Polygon","coordinates":[[[139.5406585,36.2442922],[139.5402573,36.2438351],[139.5396779,36.2438743],[139.53969,36.2437363],[139.5398083,36.2436882],[139.5400497,36.2436035],[139.5412515,36.2429061],[139.5413868,36.2428033],[139.5415299,36.2423288],[139.5431116,36.2406261],[139.5426385,36.2403209],[139.5424352,36.2405152],[139.5420784,36.2402545],[139.5421694,36.2401846],[139.5423203,36.2399843],[139.5424986,36.2398641],[139.542679,36.239736],[139.5427689,36.2396081],[139.5428961,36.2393863],[139.5429352,36.239183],[139.5429754,36.239104],[139.5431113,36.2389384],[139.5431605,36.2388076],[139.5431927,36.2386951],[139.5431817,36.2386362],[139.5431659,36.2385956],[139.5430966,36.2385076],[139.5430975,36.2384745],[139.5431122,36.2384474],[139.5434368,36.2383869],[139.5437343,36.238342],[139.5442696,36.2383057],[139.5448033,36.2382732],[139.5464569,36.2381878],[139.5468177,36.2381684],[139.5469436,36.2384714],[139.5467901,36.2385937],[139.5467551,36.2387026],[139.5462259,36.2390458],[139.5465347,36.2396308],[139.5465906,36.2399288],[139.5467359,36.240269],[139.5470037,36.2405983],[139.5470591,36.2406616],[139.5472884,36.2409223],[139.5475781,36.2412371],[139.5477889,36.2415465],[139.5480824,36.2416394],[139.5482133,36.2417643],[139.5486357,36.2422249],[139.550483,36.2413419],[139.5508259,36.2410831],[139.5508962,36.240994],[139.5510437,36.2407794],[139.5511358,36.2406121],[139.5514465,36.2402206],[139.5516211,36.2403145],[139.5518602,36.2400829],[139.5519068,36.2401073],[139.5520916,36.2402414],[139.552163,36.2402993],[139.552229,36.2402949],[139.552335,36.2402127],[139.5526716,36.2399326],[139.5535535,36.2392902],[139.5537411,36.2395053],[139.5517956,36.240956],[139.5516211,36.2410446],[139.5518797,36.2414983],[139.552397,36.241806],[139.5529466,36.2420251],[139.5535221,36.2423223],[139.5543045,36.2424632],[139.554977,36.2423693],[139.5553844,36.2421398],[139.5555951,36.2423965],[139.5557612,36.2423239],[139.5557422,36.242245],[139.5558239,36.2422244],[139.5558868,36.2423103],[139.5559936,36.2424552],[139.5562369,36.2424756],[139.556621,36.2425214],[139.557616,36.2424737],[139.5578257,36.2432917],[139.5578262,36.2433073],[139.5578392,36.243322],[139.5567365,36.2435763],[139.5566602,36.2435966],[139.5563453,36.2436411],[139.5562777,36.2435835],[139.5562,36.2434812],[139.556089,36.2434944],[139.5559958,36.2435055],[139.5558701,36.2435204],[139.555853,36.2435259],[139.5558288,36.243625],[139.5557896,36.2436609],[139.5554208,36.243593],[139.5549042,36.2434576],[139.5543632,36.2433199],[139.5540211,36.2432009],[139.5530535,36.2431897],[139.5519595,36.2428546],[139.5513226,36.2427317],[139.5505634,36.2428907],[139.5501047,36.2430579],[139.549418,36.2432075],[139.5487183,36.2431709],[139.548207,36.2430526],[139.5480049,36.2428969],[139.547617,36.2429758],[139.5473065,36.2431689],[139.5467175,36.2435331],[139.5463577,36.2437308],[139.5461217,36.24386],[139.5460408,36.243897],[139.546009,36.2438919],[139.5458559,36.243679],[139.5453996,36.2437925],[139.5451809,36.2437426],[139.5451626,36.2436567],[139.5449789,36.2433895],[139.5456843,36.2430564],[139.5448728,36.2423592],[139.5426066,36.2432396],[139.5427072,36.2434735],[139.5424581,36.2434638],[139.5419944,36.2436615],[139.541525,36.2438568],[139.541287,36.2439655],[139.5410617,36.244085],[139.5408719,36.2441975],[139.5406767,36.2443146],[139.5406585,36.2442922]]]}}
