{"type":"Feature","id":"attraction-large-industrial-complex-W1362304447","properties":{"id":"attraction-large-industrial-complex-W1362304447","kind":"attraction","name":"パンパシフィック・カッパー(株)佐賀関製錬所","shortName":"パンパシフィック・カッパー(株)佐賀関製錬所","context":"日本","subtype":"industrial-complex","subtypeLabel":"工業地帯・大規模工場","statusLabel":"","aliases":["Pan Pacific Copper Saganoseki Smelter and Refinery"],"osmType":"way","osmId":1362304447,"osmDate":null,"officialAreaKm2":null,"areaSourceLabel":"","areaSourceUrl":"","boundarySourceLabel":"© OpenStreetMap contributors","boundarySourceUrl":"https://www.openstreetmap.org/copyright","geometryFile":"attractions/large-industrial-complex-W1362304447.geojson"},"geometry":{"type":"Polygon","coordinates":[[[131.884353,33.2559762],[131.884285,33.256067],[131.88389,33.2563434],[131.8839812,33.2565901],[131.8847161,33.2569513],[131.8849871,33.2572518],[131.8857837,33.2579695],[131.88573,33.2582163],[131.8841046,33.2588263],[131.8825543,33.259073],[131.8816799,33.2593332],[131.8803549,33.2593422],[131.8800974,33.2594409],[131.879003,33.2599433],[131.8776995,33.2598266],[131.8774098,33.2602259],[131.8774205,33.2617061],[131.8771711,33.2622377],[131.8765435,33.2621457],[131.8761599,33.2621861],[131.8759292,33.2623655],[131.8758354,33.2626279],[131.8757308,33.2626705],[131.875551,33.2626705],[131.8753311,33.2625404],[131.8751058,33.2624395],[131.874682,33.2624148],[131.874344,33.2622668],[131.8739766,33.2620111],[131.8735313,33.2617241],[131.8733194,33.2614998],[131.8730593,33.2613809],[131.8726435,33.2612845],[131.872142,33.2611948],[131.8716538,33.2610736],[131.8713051,33.2610647],[131.8709779,33.260966],[131.8703717,33.2608135],[131.8697843,33.2605331],[131.8694946,33.2602685],[131.8690896,33.2599747],[131.8680221,33.2593018],[131.867829,33.2590792],[131.8677458,33.2589833],[131.8676103,33.2588117],[131.86734,33.258685],[131.8672818,33.258666],[131.867197,33.258617],[131.8681612,33.2571332],[131.8682058,33.2566339],[131.868242,33.2566283],[131.8681171,33.2562883],[131.8697052,33.2539098],[131.8703831,33.2528904],[131.8704837,33.2529431],[131.8698109,33.2539742],[131.8699793,33.2540518],[131.870298,33.2535693],[131.8704338,33.2536316],[131.8704605,33.2535985],[131.8705272,33.2535997],[131.8708754,33.2530952],[131.8709109,33.2530767],[131.8712484,33.2529566],[131.8713011,33.2529385],[131.8725754,33.2525458],[131.8733843,33.2522929],[131.8733795,33.2522747],[131.8734248,33.2522595],[131.8734163,33.2522241],[131.8735482,33.2521963],[131.8735669,33.2522014],[131.8735829,33.252234],[131.8749889,33.2518165],[131.8749554,33.2517433],[131.8751588,33.2513899],[131.875259,33.2513631],[131.8749701,33.2506785],[131.8740492,33.2509546],[131.8738432,33.2504697],[131.8747178,33.2502052],[131.8748141,33.2501767],[131.8746391,33.2497901],[131.8750147,33.2496675],[131.8752798,33.2502157],[131.8758354,33.2514677],[131.8760801,33.251477],[131.8765026,33.2514347],[131.8770397,33.2514111],[131.8774549,33.2514166],[131.8778235,33.2514156],[131.8779704,33.2514335],[131.878256,33.2514996],[131.8783674,33.2515412],[131.8784465,33.2516085],[131.8785712,33.2518103],[131.8787482,33.251955],[131.8788904,33.2521502],[131.8789494,33.2522118],[131.8794416,33.2525651],[131.8797343,33.2527188],[131.8800357,33.2529722],[131.8802811,33.2532291],[131.8803214,33.2533177],[131.8803509,33.2534511],[131.8804555,33.2537797],[131.8804957,33.2538717],[131.8805534,33.2539345],[131.880607,33.2539681],[131.8807358,33.2540298],[131.8809785,33.2541263],[131.8810429,33.2541184],[131.8812709,33.2541689],[131.8813647,33.2542126],[131.8818341,33.2545042],[131.8819052,33.2546276],[131.8819991,33.2547868],[131.8821198,33.2548777],[131.8822002,33.2549147],[131.8829271,33.2553139],[131.8830371,33.2553431],[131.8831149,33.2553509],[131.8837076,33.2553666],[131.8838391,33.2553969],[131.8838927,33.2554406],[131.8839504,33.2554676],[131.8840778,33.2555292],[131.8841086,33.2555707],[131.8841945,33.2556874],[131.884353,33.2559762]]]}}
