{"type":"Feature","id":"attraction-large-park-W544715396","properties":{"id":"attraction-large-park-W544715396","kind":"attraction","name":"希望ヶ丘文化公園","shortName":"希望ヶ丘文化公園","context":"日本","subtype":"large-park","subtypeLabel":"大型都市公園・広域公園","statusLabel":"","aliases":[],"osmType":"way","osmId":544715396,"osmDate":null,"officialAreaKm2":null,"areaSourceLabel":"","areaSourceUrl":"","boundarySourceLabel":"© OpenStreetMap contributors","boundarySourceUrl":"https://www.openstreetmap.org/copyright","geometryFile":"attractions/large-park-W544715396.geojson"},"geometry":{"type":"Polygon","coordinates":[[[136.0483238,35.0612729],[136.0492143,35.0603816],[136.0504925,35.0608929],[136.0504442,35.0611212],[136.0506828,35.0611619],[136.0514152,35.0608271],[136.0522857,35.0609788],[136.053988,35.0618482],[136.0544055,35.0617396],[136.0550342,35.0604448],[136.0562706,35.0602431],[136.0568027,35.0597628],[136.0574233,35.0609763],[136.0570479,35.0618633],[136.0573053,35.0624341],[136.0569261,35.0628288],[136.0570371,35.0637514],[136.0520267,35.0640939],[136.0519838,35.064814],[136.0540437,35.065938],[136.0551381,35.0652004],[136.0559535,35.0655604],[136.0566831,35.0679402],[136.0575818,35.0672992],[136.0577559,35.0659029],[136.0583889,35.065455],[136.0584104,35.0646559],[136.0592258,35.0643749],[136.0605669,35.0655516],[136.0624891,35.0644792],[136.0654708,35.0637088],[136.066677,35.0629611],[136.0682003,35.062404],[136.0693431,35.0630708],[136.0708344,35.063409],[136.0730815,35.0630166],[136.0752439,35.0620873],[136.0761613,35.0591014],[136.0760325,35.0580431],[136.0766709,35.0570683],[136.0774648,35.0571736],[136.0783124,35.0550878],[136.077894,35.0532742],[136.076746,35.0515966],[136.0788488,35.050288],[136.0813271,35.0503846],[136.0826576,35.0508852],[136.0839236,35.051017],[136.0843849,35.0509291],[136.0861873,35.0489354],[136.088848,35.0454922],[136.0887569,35.0448423],[136.0822821,35.0446489],[136.0810697,35.0443064],[136.0800826,35.0436915],[136.0788327,35.0454527],[136.0788058,35.0458611],[136.0790742,35.0462037],[136.0792044,35.0466261],[136.0780924,35.0473148],[136.0780603,35.0475739],[136.0781487,35.0476758],[136.0780657,35.0480944],[136.0778001,35.0482371],[136.0774272,35.0486719],[136.0764563,35.0492603],[136.0759521,35.0490714],[136.0755015,35.0489266],[136.0750348,35.0490628],[136.0737204,35.0490232],[136.0722667,35.0486631],[136.07077,35.0498664],[136.0696435,35.0496029],[136.0670096,35.049761],[136.0648692,35.0517811],[136.0636997,35.0518118],[136.0634154,35.0522466],[136.0633993,35.0526857],[136.0626,35.0530766],[136.0618007,35.0528526],[136.0606313,35.0529931],[136.0598481,35.0529668],[136.0587377,35.0525891],[136.0581021,35.0520583],[136.0572946,35.0520621],[136.0561896,35.0515095],[136.0538322,35.0519677],[136.0509646,35.0502089],[136.0496342,35.0497654],[136.0484219,35.0499542],[136.0477513,35.0503392],[136.0481107,35.0505339],[136.048063,35.0523613],[136.0475206,35.0529931],[136.0480994,35.0544291],[136.04766,35.0545785],[136.0473973,35.0548024],[136.0494143,35.0559398],[136.0490352,35.056291],[136.0489891,35.0567808],[136.0492104,35.0571342],[136.0490227,35.0573669],[136.0490521,35.0577928],[136.0492131,35.0580102],[136.0500151,35.0582473],[136.0501438,35.0585217],[136.0499882,35.0587193],[136.0480575,35.0584879],[136.0477754,35.0584471],[136.0476749,35.058421],[136.0474702,35.0586912],[136.0483238,35.0612729]]]}}
