{"type":"Feature","id":"attraction-large-industrial-complex-R8534238","properties":{"id":"attraction-large-industrial-complex-R8534238","kind":"attraction","name":"ENEOS 和歌山製油所","shortName":"ENEOS 和歌山製油所","context":"日本","subtype":"industrial-complex","subtypeLabel":"工業地帯・大規模工場","statusLabel":"","aliases":["Wakayama Refinery"],"osmType":"relation","osmId":8534238,"osmDate":null,"officialAreaKm2":null,"areaSourceLabel":"","areaSourceUrl":"","boundarySourceLabel":"© OpenStreetMap contributors","boundarySourceUrl":"https://www.openstreetmap.org/copyright","geometryFile":"attractions/large-industrial-complex-R8534238.geojson"},"geometry":{"type":"MultiPolygon","coordinates":[[[[135.1092804,34.0974527],[135.1100314,34.0975721],[135.110064,34.0976268],[135.1105628,34.0985262],[135.1107331,34.0988334],[135.1119179,34.0983997],[135.1121695,34.0982942],[135.1122766,34.0983946],[135.112597,34.0988711],[135.1128267,34.0992303],[135.1130194,34.0995402],[135.1131527,34.099775],[135.113354,34.1001248],[135.1135099,34.1004347],[135.1137736,34.1009934],[135.1139154,34.101274],[135.114067,34.101666],[135.1139664,34.1016907],[135.1139905,34.1017588],[135.1140883,34.1017376],[135.1142244,34.1021344],[135.1143605,34.1025922],[135.1145221,34.1031368],[135.1146383,34.1035617],[135.1148396,34.1042425],[135.1151004,34.1051228],[135.1152847,34.1055125],[135.1153102,34.1055877],[135.1154265,34.1061511],[135.1155456,34.1067614],[135.1155909,34.1068318],[135.1156561,34.1068788],[135.1157554,34.1069046],[135.1161324,34.1069304],[135.1171134,34.1066065],[135.1176833,34.1063717],[135.1183977,34.1060619],[135.1181426,34.1049515],[135.1181482,34.1049233],[135.1186812,34.1043176],[135.1186359,34.103834],[135.1183042,34.1033927],[135.1181085,34.1031791],[135.1181199,34.102841],[135.1181397,34.1028152],[135.1181766,34.1027988],[135.1182219,34.1027964],[135.1182758,34.1028082],[135.1189194,34.1032401],[135.1191349,34.1033364],[135.1204986,34.1042613],[135.1216383,34.1049961],[135.1217772,34.1050407],[135.121902,34.1050571],[135.1220182,34.1050501],[135.1220736,34.105061],[135.1224341,34.1052164],[135.1230934,34.1053246],[135.1234447,34.1054134],[135.1236216,34.1054783],[135.1237139,34.1055027],[135.1238222,34.1055264],[135.1241869,34.1055697],[135.124604,34.1056707],[135.1251303,34.1057981],[135.1256778,34.1061231],[135.1264557,34.1063334],[135.1264852,34.1063593],[135.1265532,34.1065507],[135.1265361,34.106571],[135.1253028,34.1069654],[135.1251264,34.1070972],[135.1247083,34.1072939],[135.1244738,34.107366],[135.1237646,34.107775],[135.1231605,34.107976],[135.1228472,34.1081641],[135.1227336,34.1083208],[135.1223963,34.1085061],[135.122231,34.1087598],[135.1220692,34.1089037],[135.1216399,34.1089814],[135.1215403,34.109023],[135.1211833,34.1090478],[135.1210284,34.1090763],[135.1205792,34.109186],[135.1203262,34.1093057],[135.1202057,34.1094553],[135.1201867,34.109642],[135.119796,34.1099142],[135.1192745,34.1100582],[135.1188029,34.1104771],[135.1187908,34.1108448],[135.1185895,34.1110856],[135.1183241,34.1111675],[135.1182521,34.1111897],[135.1179733,34.111402],[135.1178132,34.1116742],[135.1177323,34.1117383],[135.1172882,34.111821],[135.1171936,34.1118238],[135.1167202,34.1117597],[135.1162882,34.1114904],[135.116271,34.1113065],[135.1163553,34.1106496],[135.115925,34.110061],[135.1156513,34.1100425],[135.1152469,34.1113023],[135.1151642,34.1116471],[135.1149749,34.1128527],[135.1151918,34.1135624],[135.1154001,34.1137818],[135.1157804,34.1142336],[135.1160197,34.1151869],[135.1160283,34.1155004],[135.1158889,34.1160576],[135.1158028,34.1162257],[135.1160094,34.1165777],[135.1163984,34.116763],[135.1166617,34.1169796],[135.1167701,34.1171548],[135.1169922,34.1173529],[135.1171936,34.117722],[135.1173812,34.1180369],[135.1176875,34.1182891],[135.1185593,34.1184537],[135.1190285,34.1185229],[135.1191152,34.1184902],[135.119376,34.1183917],[135.1196038,34.1183117],[135.1201871,34.1182959],[135.1212539,34.117722],[135.1212573,34.1174218],[135.121319,34.1173287],[135.121852,34.1173399],[135.1220297,34.1172983],[135.1220856,34.1171985],[135.1221166,34.1170891],[135.1221324,34.1170166],[135.1221033,34.1167974],[135.1220095,34.1166148],[135.1218932,34.1165237],[135.1217531,34.116414],[135.1217712,34.1163041],[135.1219105,34.1161715],[135.1221384,34.1159913],[135.122179,34.1158484],[135.122217,34.1154996],[135.1220946,34.1154279],[135.122141,34.1152097],[135.1221747,34.1149923],[135.1220198,34.1148007],[135.1219703,34.1146986],[135.1222784,34.114674],[135.1225297,34.1146259],[135.1228481,34.1145893],[135.1231575,34.1143775],[135.1232872,34.114368],[135.1235672,34.1143476],[135.1236687,34.1143932],[135.1240543,34.1143761],[135.1244571,34.114027],[135.1246137,34.1139885],[135.1248719,34.1140084],[135.1250302,34.1139614],[135.1251731,34.1138374],[135.1252884,34.1138004],[135.1255672,34.1139543],[135.1257118,34.1138616],[135.1258564,34.1139186],[135.1256963,34.1143276],[135.1258753,34.1144587],[135.1261438,34.1144673],[135.1262712,34.1144074],[135.1266499,34.1139471],[135.1269074,34.1138656],[135.1269872,34.1138403],[135.1274743,34.1137533],[135.1276723,34.1135852],[135.1277928,34.1137163],[135.1287222,34.1136593],[135.1290957,34.1136251],[135.1293711,34.1134683],[135.1294296,34.1134441],[135.1294881,34.1134441],[135.1295725,34.1134626],[135.1296448,34.113504],[135.1297429,34.1135937],[135.1301164,34.1140455],[135.1301198,34.1141338],[135.129985,34.114156],[135.129857,34.114156],[135.126557,34.114472],[135.1260596,34.1146164],[135.1260413,34.1148594],[135.1258455,34.114889],[135.1258136,34.1147156],[135.1256975,34.1146664],[135.1256047,34.1146024],[135.1254952,34.1145586],[135.125344,34.1145624],[135.124992,34.114624],[135.1246355,34.1146195],[135.1241883,34.1146879],[135.123643,34.1147675],[135.1228746,34.1149443],[135.122613,34.115211],[135.122552,34.1153104],[135.1226173,34.1176431],[135.1223764,34.1177295],[135.1221291,34.1176682],[135.1219102,34.1176614],[135.121045,34.118121],[135.119064,34.119261],[135.118769,34.119748],[135.1156095,34.1199499],[135.114171,34.1191551],[135.113445,34.1177574],[135.1120892,34.115239],[135.1118262,34.1135593],[135.1119336,34.1132836],[135.1120645,34.1129184],[135.1122212,34.1124146],[135.1132577,34.109477],[135.1122095,34.1059631],[135.1113081,34.10435],[135.1095931,34.101321],[135.108484,34.099379],[135.1084167,34.0992549],[135.1078026,34.0982407],[135.1078837,34.0980833],[135.1079833,34.0980466],[135.108029,34.0979526],[135.1092804,34.0974527]]],[[[135.1090678,34.097068],[135.107867,34.0975187],[135.1076397,34.0975417],[135.1059687,34.0969767],[135.105776,34.0969102],[135.1050826,34.0966758],[135.1049723,34.0967554],[135.1049117,34.0968132],[135.1048349,34.0967708],[135.1048279,34.0966975],[135.1047799,34.0966212],[135.1026973,34.0958946],[135.1022479,34.0944661],[135.1024966,34.0944239],[135.1026257,34.0943341],[135.1026532,34.0942728],[135.1026498,34.0941773],[135.1025792,34.0938822],[135.1028512,34.0938252],[135.1022677,34.0921247],[135.1042178,34.0916957],[135.1043831,34.0916658],[135.1044364,34.0916572],[135.1044829,34.0916515],[135.1045328,34.0916515],[135.1045586,34.0916572],[135.1071404,34.0928959],[135.1079511,34.0927904],[135.1080028,34.0927761],[135.1080492,34.0927519],[135.1080974,34.0927177],[135.108137,34.0926792],[135.1083728,34.0923371],[135.1084072,34.0923015],[135.1084417,34.0922673],[135.1084761,34.092243],[135.1085467,34.0922288],[135.1095467,34.0920207],[135.1104111,34.0918019],[135.1113637,34.0916282],[135.1115423,34.0922034],[135.1117295,34.092349],[135.1120016,34.0923208],[135.1121349,34.0924241],[135.1121802,34.0927833],[135.1120924,34.0929336],[135.1122681,34.0936567],[135.1122738,34.0939573],[135.1122143,34.0945888],[135.1121037,34.0953378],[135.1122284,34.0957158],[135.1121973,34.0963074],[135.112064,34.0963051],[135.1117011,34.0962511],[135.1115083,34.0961642],[135.1114289,34.0961266],[135.1113155,34.0961126],[135.1112191,34.0961642],[135.1111256,34.0962206],[135.1109696,34.0962652],[135.1108761,34.096291],[135.1107683,34.0963332],[135.110808,34.0963872],[135.1090678,34.097068]]]]}}
