{"type":"Feature","id":"attraction-large-park-W565475104","properties":{"id":"attraction-large-park-W565475104","kind":"attraction","name":"敦賀市総合運動公園","shortName":"敦賀市総合運動公園","context":"日本","subtype":"large-park","subtypeLabel":"大型都市公園・広域公園","statusLabel":"著名な公園","aliases":[],"osmType":"way","osmId":565475104,"osmDate":null,"officialAreaKm2":null,"areaSourceLabel":"","areaSourceUrl":"","boundarySourceLabel":"© OpenStreetMap contributors","boundarySourceUrl":"https://www.openstreetmap.org/copyright","geometryFile":"attractions/large-park-W565475104.geojson"},"geometry":{"type":"Polygon","coordinates":[[[136.033049,35.6448094],[136.0327909,35.6446627],[136.0297897,35.6390425],[136.0297873,35.6390211],[136.0297918,35.639004],[136.0298038,35.6389918],[136.0298203,35.6389809],[136.0298427,35.6389736],[136.0299149,35.6389582],[136.0299746,35.6389458],[136.0300317,35.6389355],[136.0301002,35.6389252],[136.0301623,35.6389169],[136.0302207,35.6389107],[136.0302778,35.6389045],[136.0303565,35.6388963],[136.0304389,35.638887],[136.0305049,35.6388788],[136.0305595,35.6388716],[136.0306128,35.6388633],[136.0306686,35.638854],[136.0307269,35.6388427],[136.0307904,35.6388282],[136.0308551,35.6388128],[136.0309084,35.6387994],[136.0309832,35.6387798],[136.0310644,35.638755],[136.0311291,35.6387313],[136.0312065,35.6387004],[136.0312852,35.6386684],[136.031388,35.6386272],[136.0314768,35.6385901],[136.0315681,35.638555],[136.0316684,35.6385148],[136.0317229,35.6384921],[136.031761,35.6384777],[136.031799,35.6384653],[136.0318523,35.6384478],[136.0318993,35.6384333],[136.0319475,35.6384189],[136.03203,35.6383952],[136.032101,35.6383766],[136.0321898,35.638357],[136.0322824,35.6383385],[136.0323522,35.6383271],[136.0324309,35.6383178],[136.0325159,35.6383096],[136.0326085,35.6383013],[136.0326897,35.6382962],[136.0327925,35.6382941],[136.032913,35.6382931],[136.0330589,35.6382931],[136.0332036,35.6382951],[136.0333596,35.6383003],[136.0335461,35.6383065],[136.0337445,35.6383107],[136.0339408,35.6383143],[136.0341581,35.6383167],[136.0342922,35.6383172],[136.0345162,35.638318],[136.0347739,35.6383131],[136.0350451,35.6383034],[136.0352321,35.638534],[136.0355936,35.6388346],[136.0371632,35.6399203],[136.0371135,35.6400618],[136.0370198,35.6400488],[136.0369689,35.6400922],[136.0369482,35.6401357],[136.0369495,35.6401643],[136.0369642,35.6404867],[136.0369529,35.6405835],[136.0369075,35.6406434],[136.0367941,35.6406848],[136.0367091,35.6407355],[136.0366467,35.6408461],[136.0365843,35.6410028],[136.0364823,35.6411917],[136.0363518,35.6413484],[136.0362214,35.6414268],[136.0361364,35.6415235],[136.0361477,35.6416433],[136.0361817,35.6418415],[136.0361874,35.6420074],[136.0362328,35.6421641],[136.0362328,35.6423207],[136.0362044,35.6424083],[136.036142,35.6424774],[136.0360513,35.6425235],[136.0359719,35.6425972],[136.0358926,35.6427262],[136.0359039,35.642823],[136.0358812,35.642929],[136.0357791,35.643058],[136.0356998,35.6431317],[136.0356204,35.6432101],[136.0355693,35.6433161],[136.0356374,35.6435188],[136.0356544,35.6436709],[136.0355484,35.6444114],[136.0354722,35.6449435],[136.0337809,35.6448554],[136.033702,35.6448187],[136.0335633,35.644808],[136.0334032,35.6448271],[136.033049,35.6448094]]]}}
