{"type":"Feature","id":"attraction-large-park-W90543372","properties":{"id":"attraction-large-park-W90543372","kind":"attraction","name":"飯森山公園","shortName":"飯森山公園","context":"日本","subtype":"large-park","subtypeLabel":"大型都市公園・広域公園","statusLabel":"著名な公園","aliases":["Iimoriyama Park"],"osmType":"way","osmId":90543372,"osmDate":null,"officialAreaKm2":null,"areaSourceLabel":"","areaSourceUrl":"","boundarySourceLabel":"© OpenStreetMap contributors","boundarySourceUrl":"https://www.openstreetmap.org/copyright","geometryFile":"attractions/large-park-W90543372.geojson"},"geometry":{"type":"Polygon","coordinates":[[[139.8246624,38.8897667],[139.8249425,38.8898212],[139.8250904,38.8898389],[139.8254358,38.8898624],[139.8257139,38.8899094],[139.8259837,38.8899964],[139.8264281,38.8908518],[139.826452,38.8909423],[139.8264386,38.8909881],[139.8246719,38.8929841],[139.8242157,38.8934994],[139.8238127,38.8936536],[139.8227518,38.8939533],[139.8210177,38.8931031],[139.8208592,38.8930812],[139.8207204,38.8930633],[139.8202622,38.8930227],[139.8201796,38.8929525],[139.8202162,38.8924897],[139.8203675,38.8914203],[139.820429,38.8911188],[139.8205097,38.8909377],[139.8206384,38.890746],[139.8208772,38.8905243],[139.8209916,38.8904392],[139.8213619,38.8901556],[139.8215496,38.8899495],[139.8217143,38.8897361],[139.8219081,38.889341],[139.8231378,38.8895095],[139.8230499,38.8900352],[139.8233128,38.8900595],[139.8232935,38.890105],[139.8234797,38.8901698],[139.8235435,38.8900529],[139.8237451,38.8900302],[139.8240461,38.8899635],[139.8244925,38.889921],[139.8246199,38.8899202],[139.8246624,38.8897667]]]}}
