{"type":"Feature","id":"attraction-large-industrial-complex-W936384597","properties":{"id":"attraction-large-industrial-complex-W936384597","kind":"attraction","name":"ダイハツ工業北海道自動車試験場","shortName":"ダイハツ工業北海道自動車試験場","context":"日本","subtype":"industrial-complex","subtypeLabel":"工業地帯・大規模工場","statusLabel":"","aliases":[],"osmType":"way","osmId":936384597,"osmDate":null,"officialAreaKm2":null,"areaSourceLabel":"","areaSourceUrl":"","boundarySourceLabel":"© OpenStreetMap contributors","boundarySourceUrl":"https://www.openstreetmap.org/copyright","geometryFile":"attractions/large-industrial-complex-W936384597.geojson"},"geometry":{"type":"Polygon","coordinates":[[[142.2405267,44.1116854],[142.2402424,44.1115814],[142.23998,44.1115375],[142.2396576,44.1114157],[142.2394806,44.1113349],[142.2390354,44.1111153],[142.2385955,44.1107725],[142.2380912,44.1101794],[142.2378069,44.1099213],[142.2333705,44.107202],[142.232641,44.1067705],[142.2305649,44.1086079],[142.2302216,44.108604],[142.228741,44.1099444],[142.2287571,44.1103758],[142.2282207,44.1108958],[142.2279632,44.1115891],[142.2279686,44.1117624],[142.2283924,44.1124634],[142.2292077,44.1129602],[142.2297817,44.1133261],[142.229889,44.1133993],[142.2303396,44.1141233],[142.229594,44.115506],[142.2296476,44.1155368],[142.2295296,44.1161106],[142.2300714,44.1173815],[142.2300714,44.117474],[142.2292829,44.1184868],[142.2291648,44.1185908],[142.2265899,44.1203546],[142.2264504,44.1213019],[142.2268957,44.1225034],[142.2267455,44.1236317],[142.2275072,44.1245097],[142.2271639,44.127775],[142.2261393,44.1284489],[142.2259033,44.1285567],[142.2252595,44.1287954],[142.2252005,44.1288878],[142.228843,44.137158],[142.2308439,44.1374775],[142.2310048,44.1373466],[142.2311228,44.1373466],[142.2325659,44.1381898],[142.2354412,44.1386209],[142.2356665,44.1384592],[142.2361439,44.1385516],[142.2373724,44.1381821],[142.2379678,44.1380165],[142.2404623,44.1378625],[142.2425598,44.1388057],[142.2444427,44.1383668],[142.2442496,44.1379819],[142.2448075,44.1378394],[142.245006,44.1382321],[142.2468942,44.1378048],[142.2496194,44.1371965],[142.2504455,44.137004],[142.2500485,44.1361878],[142.2497857,44.1350713],[142.2495282,44.1348826],[142.2468942,44.1345207],[142.246213,44.1327612],[142.2450972,44.1302354],[142.2458482,44.1300391],[142.2480959,44.1296232],[142.2461808,44.1293075],[142.2456121,44.1276556],[142.2434825,44.128137],[142.2416693,44.1242555],[142.2419321,44.1241824],[142.2420555,44.1244635],[142.2434932,44.1242594],[142.2436112,44.1242093],[142.2438902,44.1239783],[142.2435254,44.123778],[142.2445124,44.123547],[142.2446841,44.1233776],[142.2424525,44.1181325],[142.2413367,44.1189798],[142.2398293,44.1158603],[142.24271,44.1152056],[142.2417498,44.1145162],[142.2414547,44.1149861],[142.2395396,44.1143005],[142.240811,44.1132106],[142.2397381,44.1123786],[142.2405267,44.1116854]]]}}
