{"type":"Feature","id":"attraction-large-airport-W151578860","properties":{"id":"attraction-large-airport-W151578860","kind":"attraction","name":"Аэропорт Ясный","shortName":"Аэропорт Ясный","context":"日本","subtype":"airport","subtypeLabel":"空港・飛行場","statusLabel":"","aliases":["ヤースヌイ空港","Yasny Airport","Аэродром Итуруп"],"osmType":"way","osmId":151578860,"osmDate":null,"officialAreaKm2":null,"areaSourceLabel":"","areaSourceUrl":"","boundarySourceLabel":"© OpenStreetMap contributors","boundarySourceUrl":"https://www.openstreetmap.org/copyright","geometryFile":"attractions/large-airport-W151578860.geojson"},"geometry":{"type":"Polygon","coordinates":[[[147.9445446,45.2622596],[147.9524758,45.2594466],[147.9531135,45.2603868],[147.9530632,45.2604047],[147.9531947,45.2605992],[147.9534508,45.2605039],[147.9534374,45.2604814],[147.9534228,45.2604589],[147.953322,45.2603154],[147.9539542,45.2600952],[147.9540933,45.2600496],[147.9541517,45.2600243],[147.9542024,45.2600928],[147.9542197,45.2600865],[147.9542328,45.2601042],[147.9543053,45.2600777],[147.9543621,45.2600555],[147.9543752,45.2600743],[147.9545413,45.2600145],[147.9545779,45.2600648],[147.9549379,45.2599351],[147.9549016,45.2598852],[147.9550279,45.2598397],[147.9550635,45.2598888],[147.9552839,45.2598094],[147.9551759,45.2596607],[147.9555664,45.2595205],[147.9556352,45.2594976],[147.9557005,45.2594746],[147.9562246,45.2592906],[147.9570584,45.2589946],[147.9564267,45.2580912],[147.9604045,45.2566844],[147.9645592,45.2552156],[147.9646986,45.2554082],[147.9701811,45.2534745],[147.9731261,45.2524211],[147.9733648,45.2515959],[147.9762402,45.2505829],[147.9756018,45.2496716],[147.9762972,45.2493795],[147.9787541,45.2484882],[147.9800094,45.2479595],[147.9804492,45.2481634],[147.9818655,45.2479066],[147.9827667,45.2474458],[147.9824985,45.24697],[147.9820693,45.2465016],[147.9813076,45.2464488],[147.9796553,45.2472646],[147.9795158,45.2478386],[147.9786897,45.2482012],[147.9769516,45.2488508],[147.9754227,45.2494022],[147.9746389,45.2483724],[147.9739737,45.2485839],[147.9716322,45.2494336],[147.9707524,45.2491693],[147.9691941,45.2497131],[147.9636875,45.2516694],[147.9564723,45.2542241],[147.9504159,45.2563766],[147.9465589,45.2577474],[147.9464489,45.257568],[147.9436326,45.2585687],[147.9390889,45.2601735],[147.9394537,45.2607115],[147.9393625,45.260872],[147.938012,45.261327],[147.9378457,45.2616036],[147.9388462,45.2630063],[147.9392955,45.2630714],[147.9405346,45.2626146],[147.9409397,45.262758],[147.9411301,45.2630525],[147.9416209,45.2631432],[147.9421145,45.2631281],[147.9445446,45.2622596]]]}}
