{"type":"Feature","id":"attraction-large-park-W205321847","properties":{"id":"attraction-large-park-W205321847","kind":"attraction","name":"鹿児島県立吉野公園","shortName":"鹿児島県立吉野公園","context":"日本","subtype":"large-park","subtypeLabel":"大型都市公園・広域公園","statusLabel":"著名な公園","aliases":["Kagoshima prefectual Yoshino Park"],"osmType":"way","osmId":205321847,"osmDate":null,"officialAreaKm2":null,"areaSourceLabel":"","areaSourceUrl":"","boundarySourceLabel":"© OpenStreetMap contributors","boundarySourceUrl":"https://www.openstreetmap.org/copyright","geometryFile":"attractions/large-park-W205321847.geojson"},"geometry":{"type":"Polygon","coordinates":[[[130.5963385,31.6359384],[130.5963411,31.6357283],[130.5967167,31.6357215],[130.5967998,31.6356233],[130.5969125,31.6355388],[130.5969527,31.6354589],[130.59695,31.6353241],[130.5969446,31.6352944],[130.5967569,31.6352762],[130.5967274,31.635178],[130.5967488,31.6350409],[130.5967703,31.6349245],[130.5968669,31.6348034],[130.5969554,31.6346915],[130.5969715,31.6346116],[130.5969742,31.6345477],[130.597001,31.63447],[130.5970439,31.6344312],[130.5972102,31.6343444],[130.5973759,31.6343418],[130.5975562,31.6342919],[130.597684,31.634237],[130.5977859,31.6341477],[130.5977875,31.633961],[130.5977367,31.6337871],[130.5976835,31.6335394],[130.5977447,31.6333336],[130.597819,31.6332505],[130.5979532,31.6330062],[130.5977922,31.6329057],[130.5978754,31.6327664],[130.5978834,31.6326545],[130.5978351,31.6326271],[130.5975213,31.6324718],[130.5974076,31.6324438],[130.597001,31.6322696],[130.596637,31.6320293],[130.5961918,31.6316877],[130.5952693,31.6310834],[130.5949598,31.6306318],[130.5947266,31.630712],[130.5945256,31.6309192],[130.5946259,31.631018],[130.594226,31.6313034],[130.5940452,31.6312797],[130.593616,31.6312477],[130.5933827,31.6312226],[130.5931976,31.6311838],[130.5930715,31.631145],[130.5929734,31.6310793],[130.5927921,31.6313182],[130.5925485,31.6316451],[130.5924707,31.6317821],[130.5920845,31.6322982],[130.5915488,31.633031],[130.5913227,31.6333396],[130.5911055,31.6336165],[130.5913476,31.6337632],[130.5914912,31.6338782],[130.5916487,31.6340207],[130.591872,31.634281],[130.5921788,31.6346524],[130.5923476,31.6348593],[130.5925333,31.6350779],[130.5926485,31.6351574],[130.5928449,31.6352624],[130.5929992,31.635339],[130.59314,31.6353829],[130.5933311,31.6354286],[130.5938729,31.6355462],[130.5953213,31.6358619],[130.5956398,31.6359344],[130.5957451,31.6359475],[130.5959978,31.635959],[130.5963385,31.6359384]]]}}
