{"type":"Feature","id":"attraction-large-park-W905884095","properties":{"id":"attraction-large-park-W905884095","kind":"attraction","name":"小松中央公園","shortName":"小松中央公園","context":"日本","subtype":"large-park","subtypeLabel":"大型都市公園・広域公園","statusLabel":"著名な公園","aliases":[],"osmType":"way","osmId":905884095,"osmDate":null,"officialAreaKm2":null,"areaSourceLabel":"","areaSourceUrl":"","boundarySourceLabel":"© OpenStreetMap contributors","boundarySourceUrl":"https://www.openstreetmap.org/copyright","geometryFile":"attractions/large-park-W905884095.geojson"},"geometry":{"type":"Polygon","coordinates":[[[133.1069388,33.8913624],[133.1069135,33.8912937],[133.1067508,33.8909461],[133.1067559,33.8908082],[133.1069758,33.8907592],[133.1073084,33.8908037],[133.1075176,33.890639],[133.1075927,33.8904653],[133.1075927,33.8900957],[133.1074157,33.8901001],[133.1074371,33.8899666],[133.107464,33.8898998],[133.1073817,33.8898844],[133.1072592,33.8897386],[133.1072699,33.8895796],[133.1076865,33.888705],[133.1078142,33.8886652],[133.1078089,33.8884841],[133.1078668,33.8883502],[133.1079422,33.8882946],[133.1079684,33.8882752],[133.108038,33.8882031],[133.108333,33.8880606],[133.1086925,33.8880024],[133.1087883,33.8879273],[133.1087404,33.8877506],[133.1085488,33.8874899],[133.1083731,33.8873352],[133.108123,33.8871585],[133.1079207,33.8870347],[133.1081506,33.8870052],[133.1085047,33.8870186],[133.1087997,33.8869874],[133.1090143,33.8868805],[133.1091752,33.8866846],[133.109304,33.8866267],[133.110452,33.886453],[133.1107202,33.8868137],[133.1111225,33.8874906],[133.1112673,33.887887],[133.1111761,33.8882343],[133.1111386,33.8889869],[133.1110455,33.8890505],[133.110883,33.8890957],[133.110741,33.889161],[133.1106161,33.8892391],[133.1104724,33.8893442],[133.1103475,33.8894394],[133.1103075,33.889475],[133.1102534,33.8895232],[133.1102209,33.8896041],[133.110214,33.889661],[133.1102106,33.889776],[133.1102174,33.8898314],[133.1102037,33.8898655],[133.1101473,33.8898925],[133.1100778,33.889911],[133.1097692,33.8899933],[133.1096397,33.890024],[133.1095296,33.8900501],[133.1092781,33.8900984],[133.1091618,33.8901098],[133.1090677,33.8901183],[133.1088949,33.8901225],[133.1087683,33.8901154],[133.1086879,33.8901154],[133.1086212,33.8901382],[133.1085596,33.8901722],[133.1084877,33.8902347],[133.1084415,33.8903001],[133.1084227,33.8903611],[133.1084193,33.8904066],[133.1084056,33.8906239],[133.1083902,33.8906835],[133.108356,33.8907403],[133.1083217,33.8907858],[133.1082721,33.8908355],[133.1082122,33.8908795],[133.1081387,33.890915],[133.1080651,33.8909434],[133.107983,33.8909633],[133.107894,33.8909846],[133.1078102,33.8910031],[133.1076767,33.8910286],[133.1075809,33.8910471],[133.1074697,33.8910755],[133.1073602,33.891111],[133.1072832,33.8911451],[133.1072148,33.8911948],[133.1071395,33.8912459],[133.1070848,33.8912914],[133.1070488,33.891324],[133.1070026,33.8913454],[133.1069388,33.8913624]]]}}
