{"type":"Feature","id":"attraction-large-large-farm-W1212258060","properties":{"id":"attraction-large-large-farm-W1212258060","kind":"attraction","name":"鹿沼","shortName":"鹿沼","context":"日本","subtype":"large-farm","subtypeLabel":"大規模農場・牧場","statusLabel":"","aliases":[],"osmType":"way","osmId":1212258060,"osmDate":null,"officialAreaKm2":null,"areaSourceLabel":"","areaSourceUrl":"","boundarySourceLabel":"© OpenStreetMap contributors","boundarySourceUrl":"https://www.openstreetmap.org/copyright","geometryFile":"attractions/large-large-farm-W1212258060.geojson"},"geometry":{"type":"Polygon","coordinates":[[[141.2132524,38.7730374],[141.212911,38.773058],[141.2129097,38.7729146],[141.2131771,38.7728237],[141.2119903,38.7702394],[141.2100832,38.7677608],[141.2097864,38.7676245],[141.2095587,38.7674628],[141.2091644,38.7671015],[141.2081686,38.767151],[141.2080453,38.7675925],[141.2071113,38.7691206],[141.2068023,38.7698718],[141.2065828,38.7701635],[141.2061844,38.7704234],[141.2058185,38.7706072],[141.2052249,38.7707689],[141.2048916,38.7708449],[141.2048863,38.7710789],[141.2037052,38.7711424],[141.20355,38.7711544],[141.2032962,38.7712193],[141.2029805,38.7713532],[141.2026824,38.7715429],[141.2024604,38.7718466],[141.2019238,38.7724995],[141.2013384,38.773238],[141.2011879,38.7735962],[141.2010741,38.7743156],[141.2015254,38.7747594],[141.2017408,38.7748766],[141.2018059,38.7749717],[141.2026962,38.7755327],[141.2028344,38.7755898],[141.2029849,38.7756088],[141.2031719,38.7755866],[141.2034321,38.7755296],[141.2035866,38.7754947],[141.2041842,38.7754662],[141.2042045,38.7757071],[141.204172,38.7759669],[141.2045826,38.776398],[141.2041761,38.776585],[141.2043102,38.7768195],[141.2047208,38.7771491],[141.2060096,38.7778084],[141.2066519,38.7782299],[141.2070503,38.7785975],[141.2073227,38.7789525],[141.2074609,38.779111],[141.2078106,38.7793867],[141.2080108,38.7792726],[141.2084237,38.7797914],[141.2082881,38.7798827],[141.2086239,38.7800989],[141.2087133,38.780195],[141.2087687,38.7802982],[141.2087872,38.7804135],[141.2089629,38.7806129],[141.2088273,38.7806897],[141.2088088,38.7808963],[141.2087626,38.7810956],[141.2086578,38.7814607],[141.2085562,38.7816793],[141.2084021,38.7818282],[141.2082604,38.7819555],[141.2082296,38.7820708],[141.208245,38.7822149],[141.2083097,38.7823061],[141.2084637,38.7824046],[141.209043,38.7826712],[141.2091539,38.782676],[141.209502,38.7825415],[141.2095606,38.782335],[141.2095729,38.7822773],[141.2096253,38.7822125],[141.2097146,38.7821716],[141.2095637,38.781905],[141.2095914,38.7817369],[141.2096838,38.7815376],[141.2097978,38.7814175],[141.2102107,38.7814727],[141.2108731,38.7815232],[141.2108978,38.7815592],[141.2109655,38.7816529],[141.2111227,38.7820492],[141.2112213,38.7819939],[141.2112706,38.7819123],[141.2115463,38.7817377],[141.2115941,38.7817153],[141.211286,38.7813382],[141.2117358,38.7811221],[141.2118714,38.7810548],[141.2125184,38.7818546],[141.2132332,38.7814919],[141.2130576,38.7812806],[141.2130422,38.7811485],[141.2130268,38.7809683],[141.212999,38.7807762],[141.2129528,38.7806321],[141.2129251,38.7805096],[141.2120408,38.7796882],[141.21201,38.7793639],[141.211896,38.7791838],[141.2118436,38.7791213],[141.212389,38.7787947],[141.2124229,38.7787418],[141.2124198,38.7786866],[141.2123643,38.7785689],[141.2122473,38.7784104],[141.2121764,38.7783527],[141.2129467,38.7778867],[141.2130114,38.7779228],[141.2133071,38.7779324],[141.2135105,38.7779636],[141.2137108,38.7780044],[141.2141174,38.7781149],[141.2146104,38.7782879],[141.2149709,38.7778819],[141.2149339,38.7776994],[141.2149709,38.777685],[141.215088,38.7776562],[141.2151126,38.7774904],[141.2151188,38.7774256],[141.2148076,38.7769524],[141.2146258,38.7764648],[141.2145734,38.7763135],[141.2145919,38.7762126],[141.2144718,38.7761405],[141.2143116,38.7761189],[141.2141976,38.7761045],[141.2139911,38.7761165],[141.2138402,38.7760877],[141.2137046,38.7760276],[141.2136152,38.7759508],[141.2135629,38.7759123],[141.2134181,38.7758811],[141.2132578,38.7758283],[141.2131377,38.775749],[141.2130114,38.7756409],[141.2126416,38.7752854],[141.2125738,38.7752542],[141.212503,38.7752398],[141.2124414,38.7752542],[141.2123674,38.7751677],[141.2123304,38.7748386],[141.2125954,38.7744831],[141.2126293,38.7743798],[141.2128974,38.7744423],[141.2129497,38.7741733],[141.2129528,38.7739523],[141.2129343,38.7737673],[141.2129436,38.7737265],[141.2134273,38.7736977],[141.2134735,38.7740652],[141.2132517,38.7740748],[141.2132732,38.7744903],[141.2135351,38.7745672],[141.2136491,38.7745672],[141.2137539,38.7745504],[141.2138217,38.7745144],[141.2135321,38.7737481],[141.2134489,38.7735007],[141.2132524,38.7730374]]]}}
