{"type":"Feature","id":"attraction-large-park-R17993569","properties":{"id":"attraction-large-park-R17993569","kind":"attraction","name":"秦野市カルチャーパーク","shortName":"秦野市カルチャーパーク","context":"日本","subtype":"large-park","subtypeLabel":"大型都市公園・広域公園","statusLabel":"著名な公園","aliases":["秦野中央運動公園"],"osmType":"relation","osmId":17993569,"osmDate":null,"officialAreaKm2":null,"areaSourceLabel":"","areaSourceUrl":"","boundarySourceLabel":"© OpenStreetMap contributors","boundarySourceUrl":"https://www.openstreetmap.org/copyright","geometryFile":"attractions/large-park-R17993569.geojson"},"geometry":{"type":"MultiPolygon","coordinates":[[[[139.204736,35.3796119],[139.2047465,35.3795826],[139.2045255,35.3792794],[139.204349,35.3789432],[139.2042644,35.3787704],[139.2041499,35.3785756],[139.2041073,35.3785343],[139.2040319,35.3785082],[139.2039801,35.3785084],[139.2039415,35.3785089],[139.2038783,35.3785499],[139.2038412,35.3785631],[139.2036924,35.3786322],[139.2035111,35.378689],[139.203126,35.3788044],[139.2029479,35.3788636],[139.2028065,35.3789383],[139.2024189,35.3791972],[139.2019804,35.3794657],[139.2012642,35.3800561],[139.2012294,35.3800736],[139.2011972,35.3800868],[139.2011294,35.3800703],[139.200937,35.3797347],[139.2007874,35.3794236],[139.2006533,35.379154],[139.2004948,35.3789345],[139.2004058,35.3788219],[139.2003525,35.3788184],[139.1995036,35.3793578],[139.1993546,35.3794486],[139.1990275,35.3796087],[139.1987987,35.3796816],[139.198509,35.379725],[139.1982351,35.3797252],[139.1979684,35.3796952],[139.1976764,35.3796841],[139.1975059,35.3797033],[139.1973327,35.3797407],[139.1971295,35.3798031],[139.1969371,35.3798707],[139.1968663,35.3799063],[139.1967618,35.3799499],[139.1964731,35.380109],[139.1964595,35.3801851],[139.1969569,35.3807745],[139.1969885,35.3807556],[139.1978012,35.3817418],[139.1978309,35.381816],[139.1987155,35.3828493],[139.198797,35.3828744],[139.200675,35.382146],[139.2013474,35.3817947],[139.2019952,35.381447],[139.2046265,35.3796795],[139.204736,35.3796119]]],[[[139.2044877,35.3788966],[139.2045477,35.3790471],[139.2046556,35.3792554],[139.2048474,35.3795227],[139.2048708,35.3795224],[139.2054486,35.3791372],[139.2059813,35.3787721],[139.2063611,35.3785335],[139.2069302,35.3782096],[139.2077418,35.3777845],[139.2076096,35.3776014],[139.2065634,35.378104],[139.2065714,35.3781127],[139.2061317,35.3783493],[139.2060933,35.3783107],[139.2058696,35.3784389],[139.2057999,35.3783668],[139.2055016,35.3785668],[139.2050577,35.3787489],[139.2044877,35.3788966]]],[[[139.2035893,35.3814655],[139.2035059,35.3814138],[139.2035305,35.3813561],[139.2035557,35.3812967],[139.2039462,35.3810364],[139.2039784,35.3810723],[139.2039373,35.3810997],[139.203972,35.381135],[139.2038829,35.3811914],[139.2039233,35.3812325],[139.2039473,35.3812569],[139.2035893,35.3814655]]],[[[139.2085817,35.3774476],[139.2086635,35.3775646],[139.2089814,35.3774296],[139.2093032,35.3772823],[139.2092228,35.3771579],[139.2085817,35.3774476]]]]}}
