{"type":"Feature","id":"attraction-large-airport-W130967700","properties":{"id":"attraction-large-airport-W130967700","kind":"attraction","name":"北九州空港","shortName":"北九州空港","context":"福岡県・北九州市","subtype":"airport","subtypeLabel":"空港・飛行場","statusLabel":"","aliases":["Kitakyushu Airport","北九州エアターミナル"],"osmType":"way","osmId":130967700,"osmDate":null,"officialAreaKm2":null,"areaSourceLabel":"","areaSourceUrl":"","boundarySourceLabel":"© OpenStreetMap contributors","boundarySourceUrl":"https://www.openstreetmap.org/copyright","geometryFile":"attractions/large-airport-W130967700.geojson"},"geometry":{"type":"Polygon","coordinates":[[[131.0354905,33.8567765],[131.0343227,33.8580252],[131.02469,33.8566664],[131.0266898,33.8468201],[131.0273755,33.8435488],[131.0303891,33.8288223],[131.0302885,33.8288109],[131.0307806,33.8264541],[131.0321479,33.8199134],[131.0323048,33.8199293],[131.0327174,33.8199843],[131.0327093,33.8199519],[131.0419334,33.8212241],[131.0417435,33.8221286],[131.0417971,33.8222111],[131.0418034,33.8223705],[131.0400092,33.8308456],[131.0399092,33.8310531],[131.0389781,33.8355998],[131.0380154,33.8398769],[131.0352966,33.8534219],[131.0354905,33.8567765]]]}}
