{"type":"Feature","id":"attraction-large-park-W170994573","properties":{"id":"attraction-large-park-W170994573","kind":"attraction","name":"船橋市運動公園","shortName":"船橋市運動公園","context":"日本","subtype":"large-park","subtypeLabel":"大型都市公園・広域公園","statusLabel":"著名な公園","aliases":["船橋市立夏見総合運動公園","Funabashi City Undo Park"],"osmType":"way","osmId":170994573,"osmDate":null,"officialAreaKm2":null,"areaSourceLabel":"","areaSourceUrl":"","boundarySourceLabel":"© OpenStreetMap contributors","boundarySourceUrl":"https://www.openstreetmap.org/copyright","geometryFile":"attractions/large-park-W170994573.geojson"},"geometry":{"type":"Polygon","coordinates":[[[139.9941766,35.7277387],[139.9966034,35.7274763],[139.9966437,35.7280063],[139.9970667,35.7280741],[139.9971372,35.7282275],[139.9972105,35.7283809],[139.9972366,35.7284515],[139.9972253,35.7284862],[139.9971774,35.7285549],[139.9971379,35.7285961],[139.997121,35.7286339],[139.9971273,35.7286708],[139.9971532,35.7287113],[139.997233,35.7287755],[139.9972748,35.7288387],[139.9972808,35.7289358],[139.9973127,35.7290378],[139.9973187,35.729123],[139.9973192,35.7293448],[139.9973091,35.7294852],[139.9973052,35.7295787],[139.9973295,35.7296548],[139.9974463,35.7299518],[139.9974723,35.7300514],[139.9974903,35.7301433],[139.9975192,35.7303307],[139.9975134,35.7304502],[139.9974801,35.7305106],[139.9974148,35.7306365],[139.9973822,35.7307094],[139.9973944,35.7309744],[139.9974424,35.7310307],[139.9976656,35.731567],[139.9977115,35.7318428],[139.997723,35.7319351],[139.9977576,35.7320007],[139.9983291,35.7324318],[139.9983868,35.7324599],[139.9984907,35.7325185],[139.9986956,35.7326005],[139.998788,35.7326286],[139.9988746,35.7326591],[139.9988688,35.7327715],[139.998915,35.7328793],[139.9989958,35.7329379],[139.9991199,35.7329964],[139.9993835,35.7331237],[139.9995529,35.7331628],[139.9995442,35.7333619],[139.9993914,35.7333317],[139.9990624,35.73325],[139.9984015,35.7328025],[139.9982341,35.7327932],[139.9981157,35.7327768],[139.9979114,35.7326455],[139.9977112,35.7327112],[139.9975459,35.7327858],[139.9972234,35.732968],[139.9971173,35.7330542],[139.9969907,35.733137],[139.9967928,35.7332281],[139.9966438,35.7332679],[139.9965205,35.7332718],[139.9964579,35.7332693],[139.9963973,35.7332295],[139.9963713,35.7331803],[139.9963367,35.7330421],[139.9962992,35.7328687],[139.9962905,35.7327656],[139.9961433,35.7326836],[139.996051,35.7326555],[139.9958403,35.7326672],[139.9957162,35.7326953],[139.9956555,35.7327468],[139.9955898,35.7328673],[139.9948392,35.7331137],[139.995178,35.7329447],[139.9949412,35.732736],[139.9948841,35.7327724],[139.9947215,35.7325999],[139.9946923,35.7324944],[139.9945031,35.7323929],[139.9943703,35.7324726],[139.9940529,35.7321586],[139.9940875,35.7319853],[139.9942145,35.7318353],[139.9940933,35.7317744],[139.9939894,35.7317603],[139.9938797,35.7317041],[139.9938295,35.7317855],[139.9937285,35.7315887],[139.9939017,35.7313872],[139.993426,35.7311823],[139.992995,35.7309721],[139.9932863,35.7308284],[139.9937163,35.7306134],[139.9937789,35.7306277],[139.9939149,35.7305315],[139.9940211,35.7304453],[139.9940456,35.7303592],[139.9940277,35.7303247],[139.9940655,35.7302195],[139.9941458,35.7299778],[139.9942809,35.7297419],[139.9943184,35.7294796],[139.9943466,35.7293354],[139.9943494,35.7291339],[139.9943382,35.7290515],[139.9942648,35.7288477],[139.9942507,35.728763],[139.9941971,35.7285844],[139.9941701,35.7283911],[139.9941766,35.7277387]]]}}
