{"type":"Feature","id":"attraction-large-airport-R2360780","properties":{"id":"attraction-large-airport-R2360780","kind":"attraction","name":"多良間空港","shortName":"多良間空港","context":"日本","subtype":"airport","subtypeLabel":"空港・飛行場","statusLabel":"","aliases":["Tarama Airport"],"osmType":"relation","osmId":2360780,"osmDate":null,"officialAreaKm2":null,"areaSourceLabel":"","areaSourceUrl":"","boundarySourceLabel":"© OpenStreetMap contributors","boundarySourceUrl":"https://www.openstreetmap.org/copyright","geometryFile":"attractions/large-airport-R2360780.geojson"},"geometry":{"type":"Polygon","coordinates":[[[124.6740984,24.6566683],[124.673454,24.6614038],[124.6751387,24.6615884],[124.6755804,24.6585006],[124.6756225,24.6582062],[124.6760592,24.6582539],[124.6761476,24.6576234],[124.6757247,24.6575681],[124.6760675,24.6547973],[124.6760841,24.6547421],[124.6761062,24.6547094],[124.6761393,24.6546994],[124.6761946,24.6546893],[124.6780876,24.6548831],[124.6783494,24.6533088],[124.6773791,24.6531994],[124.6772002,24.6531845],[124.6764308,24.6531206],[124.6763835,24.6530756],[124.676362,24.6530183],[124.6766355,24.6510195],[124.6770718,24.6510743],[124.6771434,24.6505148],[124.6767234,24.6504615],[124.6773481,24.6461853],[124.6771287,24.6461395],[124.6755685,24.6459243],[124.6747748,24.6517778],[124.6741637,24.6562845],[124.673701,24.6562362],[124.6736523,24.6566217],[124.6740984,24.6566683]]]}}
