{"type":"Feature","id":"attraction-large-park-W102626703","properties":{"id":"attraction-large-park-W102626703","kind":"attraction","name":"川下公園","shortName":"川下公園","context":"日本","subtype":"large-park","subtypeLabel":"大型都市公園・広域公園","statusLabel":"著名な公園","aliases":[],"osmType":"way","osmId":102626703,"osmDate":null,"officialAreaKm2":null,"areaSourceLabel":"","areaSourceUrl":"","boundarySourceLabel":"© OpenStreetMap contributors","boundarySourceUrl":"https://www.openstreetmap.org/copyright","geometryFile":"attractions/large-park-W102626703.geojson"},"geometry":{"type":"Polygon","coordinates":[[[141.4408585,43.0611726],[141.4409906,43.0641688],[141.4414082,43.0643426],[141.4416999,43.0644445],[141.4420008,43.064519],[141.4422622,43.0645526],[141.443365,43.0646776],[141.4434843,43.0646911],[141.4450605,43.0648698],[141.447657,43.0651642],[141.4484645,43.0642932],[141.4485068,43.0641604],[141.4484941,43.0640275],[141.4484434,43.0639256],[141.4483419,43.0638329],[141.448177,43.0637156],[141.4479825,43.0635333],[141.4473695,43.0629464],[141.4467226,43.0622638],[141.446659,43.0622116],[141.4458522,43.0625172],[141.4454525,43.0619738],[141.4453908,43.0619641],[141.4452259,43.0619147],[141.4450906,43.0618344],[141.4449849,43.0617386],[141.4449088,43.0616151],[141.4448581,43.0614452],[141.4420043,43.0610498],[141.4418479,43.0611579],[141.4416449,43.0612073],[141.4408585,43.0611726]]]}}
