{"type":"Feature","id":"attraction-large-park-W475767264","properties":{"id":"attraction-large-park-W475767264","kind":"attraction","name":"国営備北丘陵公園 みのりの里","shortName":"国営備北丘陵公園 みのりの里","context":"日本","subtype":"large-park","subtypeLabel":"大型都市公園・広域公園","statusLabel":"","aliases":[],"osmType":"way","osmId":475767264,"osmDate":null,"officialAreaKm2":null,"areaSourceLabel":"","areaSourceUrl":"","boundarySourceLabel":"© OpenStreetMap contributors","boundarySourceUrl":"https://www.openstreetmap.org/copyright","geometryFile":"attractions/large-park-W475767264.geojson"},"geometry":{"type":"Polygon","coordinates":[[[133.0029797,34.8418618],[133.0029821,34.8417438],[133.0029968,34.841686],[133.0030291,34.8416682],[133.0030114,34.8416276],[133.0026435,34.8415361],[133.0024263,34.8414975],[133.00199,34.8413719],[133.0016431,34.8413379],[133.0011749,34.8413016],[133.0009659,34.8412997],[133.0007785,34.8413062],[133.0006175,34.8413118],[133.0003115,34.8413294],[133.0000031,34.8413591],[132.9994057,34.8414535],[132.9990171,34.841531],[132.9984061,34.8416581],[132.9981315,34.8417259],[132.997897,34.8417832],[132.9974289,34.8418574],[132.997206,34.8419033],[132.9969827,34.8419218],[132.9968242,34.8419411],[132.9965564,34.8419656],[132.9959989,34.8419716],[132.9955504,34.8418153],[132.9962746,34.8422579],[132.9964356,34.8425573],[132.996736,34.842839],[132.997133,34.8432001],[132.9974441,34.843429],[132.9978625,34.8436227],[132.9980985,34.84379],[132.9979698,34.8441951],[132.9979805,34.8447322],[132.9980127,34.8450051],[132.9983024,34.8450315],[132.9982166,34.8451988],[132.9984633,34.8454278],[132.9986779,34.8454894],[132.9987959,34.8456039],[132.9986994,34.8457536],[132.998517,34.8460001],[132.998356,34.8462114],[132.9982488,34.8464404],[132.9982058,34.8465636],[132.9981951,34.8467221],[132.9982595,34.8469775],[132.998356,34.8472064],[132.9985492,34.8474793],[132.998753,34.8476378],[132.9990749,34.8476731],[132.9994182,34.847629],[132.9998473,34.8475146],[133.0001478,34.8473737],[133.0005125,34.8473473],[133.0007378,34.8474265],[133.0007486,34.8476995],[133.0009095,34.84799],[133.0010704,34.8481837],[133.0013816,34.8482806],[133.0017678,34.8482278],[133.0018966,34.8483951],[133.0018966,34.8485711],[133.0016713,34.8487296],[133.0012892,34.8487225],[133.0009739,34.8486592],[133.0007486,34.8487825],[133.0008237,34.849073],[133.0007486,34.849346],[133.0007378,34.8495397],[133.0004374,34.8497686],[133.0002443,34.8498302],[133.0001799,34.8499095],[133.000312,34.8502034],[133.0004618,34.8503095],[133.0005555,34.850473],[133.0008022,34.8507547],[133.0009739,34.8510276],[133.0013387,34.8510012],[133.0017034,34.8510893],[133.001918,34.8511773],[133.0021004,34.8514062],[133.0023686,34.8516263],[133.0027441,34.8517936],[133.003184,34.8518377],[133.0035166,34.8519081],[133.0036239,34.8520225],[133.003463,34.8522515],[133.0034952,34.8525244],[133.003463,34.8527445],[133.0037526,34.8527973],[133.0040852,34.8527093],[133.0044929,34.8525068],[133.0049435,34.8522251],[133.0051474,34.8519785],[133.005834,34.8514503],[133.0061452,34.8511949],[133.0063705,34.850922],[133.0067138,34.8506314],[133.0069928,34.8503673],[133.0073146,34.8501208],[133.007776,34.8498214],[133.0082665,34.8496108],[133.0085377,34.8495044],[133.0084733,34.8493988],[133.0083875,34.8492579],[133.0082695,34.8489938],[133.008252,34.8486955],[133.0082413,34.8484567],[133.0082145,34.8482322],[133.0081756,34.8477853],[133.0080535,34.8473297],[133.008248,34.8471888],[133.0087845,34.8471007],[133.0091999,34.8470486],[133.0094818,34.8469863],[133.0096612,34.8469606],[133.009849,34.8469342],[133.0099509,34.8469253],[133.0097085,34.8467353],[133.0094829,34.8466919],[133.0092831,34.8466744],[133.009075,34.8466164],[133.0089173,34.8466131],[133.0083387,34.8466008],[133.0080611,34.8465433],[133.0077813,34.8465447],[133.0074948,34.8465081],[133.0071658,34.8464191],[133.0067239,34.8463232],[133.0064494,34.8462483],[133.0059002,34.8460238],[133.0053936,34.8458416],[133.0048717,34.8454409],[133.0045575,34.8451685],[133.0044261,34.8450523],[133.0042403,34.8448507],[133.0040227,34.8446806],[133.0038513,34.844465],[133.0036466,34.8441875],[133.0034757,34.8439536],[133.003265,34.843549],[133.0031571,34.8432951],[133.0030921,34.8430477],[133.0030446,34.8427296],[133.002982,34.8424763],[133.002984,34.8423037],[133.0029725,34.8420863],[133.0029587,34.8419651],[133.0029797,34.8418618]]]}}
