{"type":"Feature","id":"attraction-large-park-W551003074","properties":{"id":"attraction-large-park-W551003074","kind":"attraction","name":"庚申山総合公園","shortName":"庚申山総合公園","context":"日本","subtype":"large-park","subtypeLabel":"大型都市公園・広域公園","statusLabel":"","aliases":[],"osmType":"way","osmId":551003074,"osmDate":null,"officialAreaKm2":null,"areaSourceLabel":"","areaSourceUrl":"","boundarySourceLabel":"© OpenStreetMap contributors","boundarySourceUrl":"https://www.openstreetmap.org/copyright","geometryFile":"attractions/large-park-W551003074.geojson"},"geometry":{"type":"Polygon","coordinates":[[[139.0631181,36.2271263],[139.0640643,36.2269539],[139.0643696,36.2269605],[139.064673,36.2270145],[139.0649041,36.2270786],[139.0652181,36.2272617],[139.0655028,36.2274296],[139.0659085,36.2277187],[139.0661599,36.2278169],[139.0666035,36.2278338],[139.0668684,36.2279007],[139.066952,36.2280562],[139.0671964,36.2281649],[139.0675166,36.2284146],[139.0682013,36.2285302],[139.0683387,36.2284548],[139.0687678,36.228733],[139.0691534,36.2290644],[139.0692549,36.2293068],[139.0694145,36.2295623],[139.0696072,36.2299217],[139.0699101,36.2304044],[139.0704836,36.230647],[139.0709401,36.2307459],[139.0713391,36.2309146],[139.0713285,36.2312132],[139.0711666,36.2315054],[139.0709879,36.2316485],[139.0708763,36.2317009],[139.0706693,36.2318733],[139.0705728,36.2319537],[139.0704004,36.2320257],[139.0703262,36.232108],[139.0701221,36.2322142],[139.0698835,36.2325757],[139.0696439,36.2328511],[139.0695037,36.2331306],[139.0701774,36.2334645],[139.0700409,36.2336598],[139.0700028,36.2337331],[139.0700128,36.2338212],[139.070353,36.2339587],[139.0703459,36.2339649],[139.0701667,36.2341224],[139.0698737,36.2339499],[139.0694421,36.2344835],[139.0693615,36.2344424],[139.0692771,36.2345236],[139.0688189,36.2342896],[139.0686591,36.234409],[139.0686135,36.2343793],[139.0682816,36.2341058],[139.0677718,36.2336505],[139.0679812,36.2334627],[139.0674504,36.2328828],[139.0671201,36.2326455],[139.0669039,36.2321849],[139.0665184,36.2319392],[139.0663803,36.2320941],[139.0663041,36.2322282],[139.0660381,36.231956],[139.0658076,36.2319039],[139.0657936,36.2319588],[139.0655519,36.2319338],[139.0654654,36.2319766],[139.0654119,36.2321829],[139.0662062,36.2325605],[139.0661936,36.2332329],[139.0663052,36.2333632],[139.0667835,36.2336307],[139.0669799,36.2338258],[139.0679245,36.2344095],[139.0680774,36.2345042],[139.0681314,36.2345844],[139.068285,36.2347385],[139.0682856,36.2347755],[139.0682487,36.2347913],[139.0680925,36.2347301],[139.0680055,36.2347266],[139.06783,36.2347567],[139.0675917,36.2350543],[139.0674816,36.2351148],[139.0673191,36.2350836],[139.0668814,36.2350025],[139.0667103,36.2350181],[139.0664775,36.2352227],[139.066174,36.2350239],[139.0655824,36.2345296],[139.0649902,36.2342346],[139.0644535,36.2339585],[139.0640077,36.2336082],[139.0638014,36.2332857],[139.0636597,36.2330307],[139.0635165,36.2328889],[139.0633441,36.2326762],[139.0630855,36.2323856],[139.0626573,36.2320442],[139.0624583,36.2318889],[139.0622665,36.231536],[139.0621189,36.2310097],[139.0623383,36.2306739],[139.062185,36.2302947],[139.0619257,36.2298103],[139.0614011,36.2294052],[139.0612014,36.2290756],[139.0607007,36.2287278],[139.0602368,36.2284249],[139.0603261,36.2277315],[139.0606186,36.227562],[139.0611482,36.2274111],[139.0613493,36.2272983],[139.0618302,36.2271327],[139.0624765,36.2270711],[139.0631181,36.2271263]]]}}
