{"type":"Feature","id":"attraction-large-park-W453506206","properties":{"id":"attraction-large-park-W453506206","kind":"attraction","name":"富津みなと公園","shortName":"富津みなと公園","context":"日本","subtype":"large-park","subtypeLabel":"大型都市公園・広域公園","statusLabel":"著名な公園","aliases":[],"osmType":"way","osmId":453506206,"osmDate":null,"officialAreaKm2":null,"areaSourceLabel":"","areaSourceUrl":"","boundarySourceLabel":"© OpenStreetMap contributors","boundarySourceUrl":"https://www.openstreetmap.org/copyright","geometryFile":"attractions/large-park-W453506206.geojson"},"geometry":{"type":"Polygon","coordinates":[[[139.8220901,35.3269331],[139.8226145,35.3262362],[139.8189761,35.3243739],[139.8227258,35.3194936],[139.8221733,35.3192178],[139.8219024,35.319196],[139.8207222,35.3186029],[139.8165474,35.324015],[139.8220901,35.3269331]]]}}
