{"type":"Feature","id":"attraction-large-park-W170693374","properties":{"id":"attraction-large-park-W170693374","kind":"attraction","name":"天王寺公園","shortName":"天王寺公園","context":"日本","subtype":"large-park","subtypeLabel":"大型都市公園・広域公園","statusLabel":"著名な公園","aliases":["Tennoji Park"],"osmType":"way","osmId":170693374,"osmDate":null,"officialAreaKm2":null,"areaSourceLabel":"","areaSourceUrl":"","boundarySourceLabel":"© OpenStreetMap contributors","boundarySourceUrl":"https://www.openstreetmap.org/copyright","geometryFile":"attractions/large-park-W170693374.geojson"},"geometry":{"type":"Polygon","coordinates":[[[135.5096365,34.6536229],[135.5096022,34.6536262],[135.5095928,34.6537001],[135.5082457,34.6538523],[135.5081244,34.6533648],[135.5079246,34.6526941],[135.5072767,34.6507767],[135.506664,34.6490247],[135.5080151,34.6487549],[135.508632,34.6486396],[135.5090168,34.6485393],[135.5108803,34.6481299],[135.5117896,34.6479275],[135.5119445,34.6479118],[135.5120075,34.647877],[135.5120437,34.6478302],[135.5122783,34.6478311],[135.5128086,34.6479034],[135.5129977,34.6480788],[135.5130691,34.6485416],[135.5127046,34.6486835],[135.5119988,34.648846],[135.5123389,34.6501452],[135.5114445,34.6503009],[135.5116097,34.6509081],[135.5119865,34.6509241],[135.5121872,34.6508947],[135.5123017,34.6508497],[135.5123916,34.6508035],[135.5124862,34.6507844],[135.5126101,34.650763],[135.5127123,34.6507855],[135.512781,34.6508406],[135.5128048,34.6509088],[135.512818,34.6510256],[135.5128504,34.6510739],[135.5128504,34.6511261],[135.5128086,34.6512198],[135.512619,34.6512439],[135.5126251,34.6513569],[135.5125245,34.6514915],[135.5124535,34.6515985],[135.5124009,34.6517184],[135.5125848,34.652223],[135.5124101,34.6522995],[135.5123582,34.6523223],[135.5123515,34.6522793],[135.5111982,34.6523669],[135.5111794,34.6524431],[135.5109748,34.6523951],[135.5108092,34.652079],[135.5107214,34.6520017],[135.5103505,34.6518942],[135.5101813,34.6518199],[135.5100054,34.6516973],[135.5099369,34.6516912],[135.5098007,34.6517254],[135.5095901,34.6518805],[135.5095493,34.6519317],[135.5095586,34.6525826],[135.5094828,34.6529279],[135.5096365,34.6536229]]]}}
