{"type":"Feature","id":"attraction-large-park-W493819124","properties":{"id":"attraction-large-park-W493819124","kind":"attraction","name":"亀城公園","shortName":"亀城公園","context":"愛知県・刈谷市","subtype":"large-park","subtypeLabel":"大型都市公園・広域公園","statusLabel":"著名な公園","aliases":[],"osmType":"way","osmId":493819124,"osmDate":null,"officialAreaKm2":null,"areaSourceLabel":"","areaSourceUrl":"","boundarySourceLabel":"© OpenStreetMap contributors","boundarySourceUrl":"https://www.openstreetmap.org/copyright","geometryFile":"attractions/large-park-W493819124.geojson"},"geometry":{"type":"Polygon","coordinates":[[[136.982324,34.9898789],[136.9817849,34.987071],[136.9818117,34.9868974],[136.9818865,34.9867901],[136.9821496,34.9866165],[136.9821983,34.9866593],[136.9825249,34.9869241],[136.9828939,34.987247],[136.9833242,34.9876233],[136.9833622,34.9875852],[136.9833783,34.9873984],[136.983389,34.9869458],[136.983448,34.9868754],[136.9836036,34.9868007],[136.9838772,34.9866974],[136.9841722,34.9866623],[136.9843734,34.9866799],[136.985019,34.9867707],[136.9850826,34.9869867],[136.9850919,34.9872684],[136.9851263,34.9875245],[136.9851909,34.9878144],[136.9853633,34.9881387],[136.9854875,34.9882751],[136.9856527,34.9883962],[136.9858453,34.9885401],[136.9862037,34.9888003],[136.9864331,34.9890808],[136.9858332,34.990065],[136.9857896,34.9901677],[136.9857387,34.9903612],[136.9849147,34.9903601],[136.984773,34.9903599],[136.9846043,34.9902369],[136.9843944,34.9900631],[136.9839643,34.9899118],[136.9838746,34.989858],[136.9838289,34.9898501],[136.982324,34.9898789]]]}}
