{"type":"Feature","id":"attraction-large-industrial-complex-W566118617","properties":{"id":"attraction-large-industrial-complex-W566118617","kind":"attraction","name":"三菱ケミカル 大竹事業所","shortName":"三菱ケミカル 大竹事業所","context":"日本","subtype":"industrial-complex","subtypeLabel":"工業地帯・大規模工場","statusLabel":"","aliases":[],"osmType":"way","osmId":566118617,"osmDate":null,"officialAreaKm2":null,"areaSourceLabel":"","areaSourceUrl":"","boundarySourceLabel":"© OpenStreetMap contributors","boundarySourceUrl":"https://www.openstreetmap.org/copyright","geometryFile":"attractions/large-industrial-complex-W566118617.geojson"},"geometry":{"type":"Polygon","coordinates":[[[132.23536,34.2236704],[132.2364181,34.2254335],[132.2350167,34.2260345],[132.2354458,34.2267231],[132.2282761,34.2296823],[132.2257322,34.2307326],[132.223286,34.231746],[132.2206534,34.2327328],[132.2205952,34.2327235],[132.2202324,34.2317306],[132.2201492,34.2309766],[132.2204711,34.2296837],[132.2208238,34.228433],[132.221051,34.2276058],[132.2213106,34.2264492],[132.2214326,34.2263205],[132.2216767,34.2262873],[132.2233129,34.2261544],[132.2247183,34.2260533],[132.225358,34.2259779],[132.2254774,34.225928],[132.2259516,34.225704],[132.2258945,34.2256153],[132.2261667,34.2254506],[132.2263587,34.2253248],[132.2264926,34.2252189],[132.2266093,34.2250697],[132.226954,34.2245985],[132.2270478,34.2245014],[132.2271909,34.2244062],[132.2273469,34.2243601],[132.2275106,34.2243488],[132.2336917,34.2243226],[132.233866,34.2243068],[132.2340846,34.2242392],[132.23536,34.2236704]]]}}
