{"type":"Feature","id":"attraction-large-park-W165912106","properties":{"id":"attraction-large-park-W165912106","kind":"attraction","name":"ぼうさいの丘公園","shortName":"ぼうさいの丘公園","context":"日本","subtype":"large-park","subtypeLabel":"大型都市公園・広域公園","statusLabel":"著名な公園","aliases":[],"osmType":"way","osmId":165912106,"osmDate":null,"officialAreaKm2":null,"areaSourceLabel":"","areaSourceUrl":"","boundarySourceLabel":"© OpenStreetMap contributors","boundarySourceUrl":"https://www.openstreetmap.org/copyright","geometryFile":"attractions/large-park-W165912106.geojson"},"geometry":{"type":"Polygon","coordinates":[[[139.3447288,35.4347251],[139.3443368,35.4343341],[139.3442323,35.4341543],[139.3442184,35.4340956],[139.3442294,35.4339242],[139.3443036,35.4337987],[139.3444018,35.4336558],[139.3444068,35.4335567],[139.3443975,35.4334655],[139.3443825,35.4334089],[139.3443959,35.4333162],[139.344422,35.4332514],[139.3445463,35.43312],[139.3445377,35.4330975],[139.3445149,35.4330841],[139.3443074,35.4331212],[139.3442827,35.433041],[139.3442176,35.4330393],[139.3441455,35.4330175],[139.3438275,35.4329314],[139.3433864,35.4327761],[139.343328,35.4327268],[139.3432573,35.4326135],[139.3430531,35.432067],[139.3429765,35.4320728],[139.34289,35.4319599],[139.341744,35.4321373],[139.3416039,35.4321434],[139.3415825,35.4321482],[139.3415615,35.432113],[139.3414781,35.4319792],[139.341341,35.4318253],[139.3412482,35.431709],[139.3410106,35.4316759],[139.3408841,35.4317793],[139.3408165,35.4316657],[139.3406675,35.4316378],[139.3406624,35.4316416],[139.3406456,35.4316958],[139.3406284,35.4316922],[139.3406218,35.43174],[139.3406171,35.4318298],[139.3406315,35.431914],[139.3406657,35.4319575],[139.3406951,35.431976],[139.340766,35.43204],[139.3407372,35.4320973],[139.3408305,35.4323282],[139.340854,35.4324272],[139.3409322,35.4326147],[139.3409532,35.4326346],[139.3412178,35.4325798],[139.3413798,35.4325613],[139.3415882,35.4340476],[139.3415666,35.4343978],[139.3414165,35.4351787],[139.3415618,35.4352211],[139.3415939,35.4353015],[139.3416511,35.4354487],[139.3417057,35.4355487],[139.3421759,35.4361468],[139.3424868,35.4359931],[139.3424825,35.4359743],[139.342364,35.4358255],[139.3422557,35.4356296],[139.3422501,35.4355685],[139.3423562,35.435442],[139.3424073,35.4354871],[139.3424912,35.4355197],[139.3425811,35.4355464],[139.3426788,35.4355627],[139.3428236,35.4355475],[139.3430936,35.4354903],[139.3431793,35.4354864],[139.3433177,35.4358458],[139.3440595,35.43593],[139.344162,35.4359512],[139.3441647,35.4360152],[139.3441272,35.4361157],[139.3440427,35.4363061],[139.3440346,35.4363646],[139.3440521,35.4364227],[139.3440819,35.436483],[139.3441203,35.4365255],[139.3442169,35.4365868],[139.3446261,35.4362719],[139.3449225,35.435966],[139.3449592,35.4356379],[139.3450212,35.4355387],[139.3450204,35.4354054],[139.3451934,35.4353814],[139.3453198,35.4353859],[139.3452848,35.4353187],[139.3452037,35.4351762],[139.3450386,35.4349997],[139.3447288,35.4347251]]]}}
