{"type":"Feature","id":"attraction-large-park-W476665582","properties":{"id":"attraction-large-park-W476665582","kind":"attraction","name":"静峰ふるさと公園","shortName":"静峰ふるさと公園","context":"日本","subtype":"large-park","subtypeLabel":"大型都市公園・広域公園","statusLabel":"著名な公園","aliases":[],"osmType":"way","osmId":476665582,"osmDate":null,"officialAreaKm2":null,"areaSourceLabel":"","areaSourceUrl":"","boundarySourceLabel":"© OpenStreetMap contributors","boundarySourceUrl":"https://www.openstreetmap.org/copyright","geometryFile":"attractions/large-park-W476665582.geojson"},"geometry":{"type":"Polygon","coordinates":[[[140.4178946,36.4995596],[140.4194249,36.4997964],[140.4198772,36.4997953],[140.4206282,36.4996573],[140.4212341,36.4995268],[140.4215374,36.500804],[140.4222613,36.5009409],[140.4221165,36.5012969],[140.421959,36.501269],[140.42164,36.501225],[140.421446,36.501221],[140.421408,36.501361],[140.421332,36.501488],[140.421164,36.501658],[140.420821,36.50186],[140.4205893,36.5019435],[140.4211883,36.5039938],[140.4205178,36.5041258],[140.4196971,36.5036011],[140.4190957,36.5031896],[140.418775,36.5030496],[140.4186426,36.5030165],[140.4182443,36.5029169],[140.4180581,36.5028606],[140.4176625,36.5027408],[140.417123,36.502582],[140.417082,36.502546],[140.416958,36.502512],[140.416824,36.502466],[140.41662,36.502375],[140.416448,36.502289],[140.4162075,36.5021502],[140.4163856,36.5013448],[140.4171863,36.5014566],[140.4174022,36.5008274],[140.4175959,36.5003166],[140.4178946,36.4995596]]]}}
