{"type":"Feature","id":"attraction-large-park-W313329242","properties":{"id":"attraction-large-park-W313329242","kind":"attraction","name":"稲永公園","shortName":"稲永公園","context":"日本","subtype":"large-park","subtypeLabel":"大型都市公園・広域公園","statusLabel":"著名な公園","aliases":[],"osmType":"way","osmId":313329242,"osmDate":null,"officialAreaKm2":null,"areaSourceLabel":"","areaSourceUrl":"","boundarySourceLabel":"© OpenStreetMap contributors","boundarySourceUrl":"https://www.openstreetmap.org/copyright","geometryFile":"attractions/large-park-W313329242.geojson"},"geometry":{"type":"Polygon","coordinates":[[[136.8501514,35.0786363],[136.8502022,35.0787407],[136.8505814,35.078945],[136.8509648,35.0790698],[136.8510651,35.0790819],[136.8511493,35.0790856],[136.8512437,35.0790802],[136.851378,35.0790616],[136.8538746,35.0790803],[136.853873,35.0793044],[136.8506469,35.0792887],[136.8504875,35.0794244],[136.8504554,35.0824714],[136.8525081,35.0824782],[136.8525102,35.0834432],[136.8539103,35.0835547],[136.854751,35.0836217],[136.8548316,35.0835524],[136.8549321,35.0839705],[136.8548523,35.0840008],[136.854817,35.0839982],[136.8548281,35.083896],[136.8530041,35.0837551],[136.8529928,35.0838527],[136.8528668,35.0838511],[136.8527688,35.0838832],[136.8527277,35.0838226],[136.8519699,35.0837706],[136.8472976,35.0846365],[136.8473006,35.0845625],[136.8470107,35.084547],[136.8471529,35.0842023],[136.848544,35.0804471],[136.8489684,35.0793436],[136.8490902,35.0790583],[136.8491675,35.0789087],[136.8492772,35.0787843],[136.8494056,35.0787067],[136.8495283,35.0786715],[136.8496819,35.0786609],[136.8498452,35.0786627],[136.8498893,35.0785856],[136.8498072,35.0784406],[136.8496058,35.0779907],[136.8491043,35.0767604],[136.8487316,35.0757682],[136.8486032,35.0741897],[136.8485389,35.073687],[136.8483351,35.0724731],[136.8484038,35.072466],[136.8484967,35.0726875],[136.8485683,35.0727852],[136.8486876,35.0729111],[136.8488412,35.073042],[136.848995,35.0731341],[136.8490944,35.0731832],[136.8492595,35.0732369],[136.8494058,35.0732814],[136.8496177,35.0733014],[136.8497997,35.0733428],[136.8516223,35.0733607],[136.8516059,35.0787619],[136.8539602,35.078765],[136.8538364,35.078854],[136.8516042,35.0788372],[136.8515123,35.0788863],[136.8511094,35.0788844],[136.8508879,35.0788638],[136.8507579,35.0788204],[136.8505044,35.0787198],[136.8504805,35.0786932],[136.8504759,35.0786726],[136.8504862,35.0785841],[136.8502114,35.0785803],[136.8502058,35.078621],[136.8501514,35.0786363]]]}}
