{"type":"Feature","id":"attraction-large-industrial-complex-W103827577","properties":{"id":"attraction-large-industrial-complex-W103827577","kind":"attraction","name":"常陸那珂火力発電所","shortName":"常陸那珂火力発電所","context":"日本","subtype":"industrial-complex","subtypeLabel":"工業地帯・大規模工場","statusLabel":"","aliases":["Hitachinaka Thermal power station","株式会社JERA"],"osmType":"way","osmId":103827577,"osmDate":null,"officialAreaKm2":null,"areaSourceLabel":"","areaSourceUrl":"","boundarySourceLabel":"© OpenStreetMap contributors","boundarySourceUrl":"https://www.openstreetmap.org/copyright","geometryFile":"attractions/large-industrial-complex-W103827577.geojson"},"geometry":{"type":"Polygon","coordinates":[[[140.6093061,36.4350041],[140.6093947,36.4397222],[140.6120405,36.4404859],[140.6150213,36.4410136],[140.6271132,36.440929],[140.626971,36.4348953],[140.6178372,36.434953],[140.6178685,36.4393011],[140.6159003,36.4393167],[140.6159062,36.4349002],[140.6093061,36.4350041]]]}}
