{"type":"Feature","id":"attraction-large-park-W100228647","properties":{"id":"attraction-large-park-W100228647","kind":"attraction","name":"生駒山麓公園","shortName":"生駒山麓公園","context":"日本","subtype":"large-park","subtypeLabel":"大型都市公園・広域公園","statusLabel":"著名な公園","aliases":[],"osmType":"way","osmId":100228647,"osmDate":null,"officialAreaKm2":null,"areaSourceLabel":"","areaSourceUrl":"","boundarySourceLabel":"© OpenStreetMap contributors","boundarySourceUrl":"https://www.openstreetmap.org/copyright","geometryFile":"attractions/large-park-W100228647.geojson"},"geometry":{"type":"Polygon","coordinates":[[[135.6736141,34.7014403],[135.673665,34.7016372],[135.6737347,34.7018467],[135.6738433,34.7020507],[135.6741867,34.7021444],[135.6746534,34.702215],[135.6747875,34.7022855],[135.6751388,34.7026582],[135.67523,34.7026913],[135.6754419,34.7026891],[135.6758094,34.7029096],[135.6758818,34.7030121],[135.6759623,34.7034697],[135.6761801,34.7037605],[135.6763753,34.7038296],[135.6765014,34.7038881],[135.6766637,34.7040612],[135.6767731,34.7042328],[135.6767817,34.7042464],[135.676838,34.7042729],[135.6776936,34.7044068],[135.6780745,34.7044663],[135.6786847,34.7046003],[135.6791689,34.7047502],[135.6792265,34.7047833],[135.6793238,34.7048363],[135.6796369,34.7046913],[135.6800728,34.7045634],[135.6802015,34.7045116],[135.680911,34.7041648],[135.6809673,34.7041918],[135.6809794,34.7043699],[135.6810504,34.7044856],[135.6811685,34.7045667],[135.68143,34.7045579],[135.6816598,34.7044594],[135.6815305,34.704022],[135.6812945,34.7037971],[135.681257,34.7035485],[135.6813428,34.7034239],[135.6815842,34.7031891],[135.6819034,34.7027249],[135.6823352,34.7018473],[135.6821448,34.7015335],[135.6818336,34.7011841],[135.6814474,34.7008313],[135.6807661,34.7005556],[135.6802377,34.700603],[135.679571,34.700774],[135.6793231,34.7008213],[135.678725,34.7008765],[135.6782812,34.7008596],[135.6778988,34.7007618],[135.6775984,34.7005633],[135.6773999,34.7002039],[135.676826,34.6997143],[135.6764443,34.6995701],[135.6758899,34.699324],[135.6753186,34.6991653],[135.6749953,34.6991857],[135.6748626,34.6991311],[135.6744361,34.6992154],[135.6742484,34.6994018],[135.6741244,34.6994344],[135.6739476,34.6994292],[135.6737884,34.6996435],[135.6737224,34.6996919],[135.673606,34.699977],[135.673563,34.7001435],[135.6736972,34.7004015],[135.6737749,34.7004864],[135.6737387,34.7008282],[135.6736717,34.7011135],[135.6736086,34.7013329],[135.6736141,34.7014403]]]}}
