{"type":"Feature","id":"attraction-large-park-W473493413","properties":{"id":"attraction-large-park-W473493413","kind":"attraction","name":"内牧公園","shortName":"内牧公園","context":"日本","subtype":"large-park","subtypeLabel":"大型都市公園・広域公園","statusLabel":"著名な公園","aliases":[],"osmType":"way","osmId":473493413,"osmDate":null,"officialAreaKm2":null,"areaSourceLabel":"","areaSourceUrl":"","boundarySourceLabel":"© OpenStreetMap contributors","boundarySourceUrl":"https://www.openstreetmap.org/copyright","geometryFile":"attractions/large-park-W473493413.geojson"},"geometry":{"type":"Polygon","coordinates":[[[139.7149627,35.9925085],[139.7149882,35.9927407],[139.7154388,35.9931552],[139.7157668,35.9936053],[139.7159574,35.9935119],[139.7158649,35.9933733],[139.7161881,35.9932214],[139.7163752,35.9935064],[139.717472,35.9928506],[139.7172338,35.9926377],[139.7176504,35.9923376],[139.7178205,35.99244],[139.7179965,35.99232],[139.7183712,35.9924583],[139.7189707,35.9919386],[139.7191792,35.9916302],[139.7196891,35.9914489],[139.7201476,35.9912953],[139.7206442,35.9912931],[139.7207078,35.9912953],[139.721559,35.9906339],[139.7218175,35.9903053],[139.7216488,35.9901974],[139.7216932,35.9901645],[139.722167,35.9904455],[139.7228876,35.9907469],[139.7234689,35.9898146],[139.7235134,35.9897437],[139.723926,35.990062],[139.7239747,35.9901123],[139.7242707,35.9899106],[139.7241827,35.989811],[139.7247732,35.9893064],[139.7249325,35.9891702],[139.724739,35.9890446],[139.7249897,35.9885102],[139.725418,35.9875974],[139.7250364,35.9874751],[139.7252303,35.9866056],[139.7249647,35.9865042],[139.7246944,35.9872197],[139.7245529,35.9875219],[139.7244423,35.987715],[139.7243772,35.9878355],[139.7243063,35.9879019],[139.7239984,35.9880926],[139.723676,35.9883319],[139.7231379,35.9888372],[139.7230831,35.9889602],[139.7230449,35.9891187],[139.7229493,35.9892077],[139.7225735,35.9893574],[139.722273,35.9894833],[139.719475,35.9907153],[139.718691,35.9910795],[139.7178528,35.9914582],[139.7176382,35.9914723],[139.7173304,35.9916887],[139.7161402,35.9922264],[139.7160034,35.9924456],[139.7158827,35.9925313],[139.7157539,35.9925443],[139.7153905,35.9924532],[139.7149627,35.9925085]]]}}
