{"type":"Feature","id":"attraction-large-military-base-R5972878","properties":{"id":"attraction-large-military-base-R5972878","kind":"attraction","name":"金武レッド・ビーチ訓練場","shortName":"金武レッド・ビーチ訓練場","context":"日本","subtype":"military-base","subtypeLabel":"基地・駐屯地・演習場","statusLabel":"","aliases":["Kin Red Port"],"osmType":"relation","osmId":5972878,"osmDate":null,"officialAreaKm2":null,"areaSourceLabel":"","areaSourceUrl":"","boundarySourceLabel":"© OpenStreetMap contributors","boundarySourceUrl":"https://www.openstreetmap.org/copyright","geometryFile":"attractions/large-military-base-R5972878.geojson"},"geometry":{"type":"Polygon","coordinates":[[[127.9105889,26.4477251],[127.9106801,26.4480517],[127.9111897,26.4481213],[127.9112487,26.4482126],[127.9114553,26.4483158],[127.9116323,26.4482702],[127.911745,26.4479724],[127.9118013,26.4479676],[127.91204,26.447934],[127.9119595,26.4476506],[127.9119166,26.4475137],[127.9116618,26.4473384],[127.9115974,26.4470827],[127.9116484,26.4468629],[127.9115599,26.4465687],[127.9112206,26.4466384],[127.911297,26.4469302],[127.9114982,26.4471427],[127.911576,26.4475281],[127.9105889,26.4477251]]]}}
