{"type":"Feature","id":"attraction-large-industrial-complex-W544261673","properties":{"id":"attraction-large-industrial-complex-W544261673","kind":"attraction","name":"日産自動車九州","shortName":"日産自動車九州","context":"日本","subtype":"industrial-complex","subtypeLabel":"工業地帯・大規模工場","statusLabel":"","aliases":[],"osmType":"way","osmId":544261673,"osmDate":null,"officialAreaKm2":null,"areaSourceLabel":"","areaSourceUrl":"","boundarySourceLabel":"© OpenStreetMap contributors","boundarySourceUrl":"https://www.openstreetmap.org/copyright","geometryFile":"attractions/large-industrial-complex-W544261673.geojson"},"geometry":{"type":"Polygon","coordinates":[[[130.9878449,33.7659078],[130.9883973,33.7645602],[130.9889307,33.763544],[130.98904,33.7633222],[130.9906589,33.7606359],[130.9916187,33.7590377],[130.9916697,33.7589521],[130.9917174,33.758874],[130.9918934,33.7588603],[130.9921786,33.7588752],[130.9923978,33.7588539],[130.992441,33.7588432],[130.992879,33.7587344],[130.9931808,33.7586468],[130.9934322,33.7585999],[130.9937076,33.7585486],[130.9940236,33.7584669],[130.9952922,33.7581495],[130.9973778,33.7575247],[130.9976711,33.7574123],[130.9982975,33.7571519],[130.9983895,33.7571225],[130.9985586,33.7570683],[130.9989296,33.7569495],[130.9994008,33.7568169],[130.9996069,33.7567112],[130.9997488,33.7568695],[131.0054842,33.7604346],[131.0055048,33.7607952],[131.0054792,33.7611293],[131.0052099,33.7617339],[130.9961119,33.7711671],[130.991842,33.7684365],[130.9899346,33.7672298],[130.9898862,33.7671992],[130.9878449,33.7659078]]]}}
