{"type":"Feature","id":"attraction-large-park-R7100484","properties":{"id":"attraction-large-park-R7100484","kind":"attraction","name":"国営ひたち海浜公園","shortName":"国営ひたち海浜公園","context":"茨城県・ひたちなか市","subtype":"large-park","subtypeLabel":"大型都市公園・広域公園","statusLabel":"","aliases":["Hitachi Seaside Park"],"osmType":"relation","osmId":7100484,"osmDate":null,"officialAreaKm2":null,"areaSourceLabel":"","areaSourceUrl":"","boundarySourceLabel":"© OpenStreetMap contributors","boundarySourceUrl":"https://www.openstreetmap.org/copyright","geometryFile":"attractions/large-park-R7100484.geojson"},"geometry":{"type":"Polygon","coordinates":[[[140.6019453,36.4035331],[140.6034553,36.4043229],[140.6035869,36.4041417],[140.6036765,36.4038153],[140.6045246,36.4015715],[140.6083158,36.4015428],[140.6097419,36.3998783],[140.6098834,36.3996378],[140.6101571,36.3990911],[140.610191,36.3990194],[140.6102756,36.3988403],[140.6105158,36.3982235],[140.6106938,36.3975858],[140.6108284,36.3969239],[140.611063,36.3957989],[140.6112381,36.3949214],[140.6114375,36.3937439],[140.6115233,36.3932515],[140.611356,36.3930924],[140.6062294,36.3931245],[140.6053439,36.3931555],[140.6051502,36.3931742],[140.6039365,36.3932527],[140.6025015,36.3934717],[140.6019341,36.3936038],[140.6003865,36.3940303],[140.5995706,36.3943097],[140.5988062,36.394623],[140.5980782,36.3949644],[140.5973525,36.3953138],[140.5957262,36.3962264],[140.5956845,36.3962988],[140.5956547,36.3963182],[140.5955957,36.3963457],[140.5955252,36.3963758],[140.5950633,36.3966296],[140.5932864,36.3976266],[140.5932465,36.3977711],[140.5939867,36.3985554],[140.5945345,36.3990506],[140.5940197,36.3994702],[140.5940124,36.399458],[140.5936089,36.3991006],[140.5933545,36.3988707],[140.5930118,36.3985696],[140.5928641,36.3984303],[140.5925697,36.3981672],[140.5925009,36.3981431],[140.5924239,36.3981367],[140.5923585,36.3981579],[140.5916305,36.3986734],[140.5910202,36.3992304],[140.590464,36.3997853],[140.5904554,36.3998228],[140.5904644,36.3998568],[140.5904309,36.3999331],[140.5903979,36.3999956],[140.5903332,36.4000211],[140.5902916,36.4000409],[140.5899234,36.4007526],[140.589844,36.4009316],[140.5897811,36.4010968],[140.5897089,36.4013509],[140.5897024,36.4013734],[140.5896602,36.4015462],[140.5896523,36.4016009],[140.5896273,36.4017152],[140.5896145,36.4017844],[140.5895933,36.4018872],[140.5895785,36.4019688],[140.5895301,36.4022239],[140.5895254,36.4024139],[140.5895314,36.4026414],[140.5895469,36.4029679],[140.5896027,36.4035415],[140.5898871,36.4061035],[140.5900582,36.4078047],[140.5901376,36.408537],[140.5901448,36.408585],[140.5901514,36.4086527],[140.5901556,36.4087098],[140.5902366,36.4095429],[140.5902999,36.4104518],[140.6004235,36.4117367],[140.6005683,36.411403],[140.6007656,36.4110636],[140.6010473,36.41087],[140.6014057,36.4107466],[140.6015907,36.4106226],[140.6018401,36.4105494],[140.6024097,36.4106212],[140.6026434,36.4106227],[140.6029558,36.4105794],[140.6031962,36.4106215],[140.603512,36.4109437],[140.6043987,36.4115681],[140.6045761,36.4116097],[140.6049012,36.4115919],[140.6049603,36.4115384],[140.6050046,36.4111756],[140.6052632,36.4111518],[140.6051747,36.4103094],[140.6050627,36.4098845],[140.6050596,36.4090304],[140.6049596,36.4084349],[140.6048696,36.4078475],[140.6047996,36.4073647],[140.6047496,36.4068819],[140.6047764,36.4065425],[140.6038393,36.4052026],[140.6030613,36.4046581],[140.6023348,36.4042144],[140.6019736,36.4040217],[140.6016476,36.4039044],[140.6019453,36.4035331]],[[140.5971515,36.4014087],[140.5971335,36.4014013],[140.5970869,36.4013764],[140.5970218,36.4013415],[140.5969906,36.4013248],[140.5969713,36.4013145],[140.5960362,36.4007513],[140.5956471,36.4005303],[140.5953761,36.4003762],[140.5950826,36.4001896],[140.5947184,36.3999135],[140.5941578,36.3995791],[140.5941539,36.3995769],[140.5946688,36.3991573],[140.5950625,36.3994889],[140.5958948,36.4001274],[140.5968875,36.400759],[140.597458,36.4010829],[140.5997872,36.402334],[140.6017898,36.4034532],[140.6014894,36.4038245],[140.6012765,36.4036854],[140.6011874,36.4036108],[140.5995815,36.4027516],[140.5979032,36.4018466],[140.5971515,36.4014087]]]}}
