{"type":"Feature","id":"attraction-large-park-W418266189","properties":{"id":"attraction-large-park-W418266189","kind":"attraction","name":"上毛野はにわの里公園","shortName":"上毛野はにわの里公園","context":"日本","subtype":"large-park","subtypeLabel":"大型都市公園・広域公園","statusLabel":"著名な公園","aliases":[],"osmType":"way","osmId":418266189,"osmDate":null,"officialAreaKm2":null,"areaSourceLabel":"","areaSourceUrl":"","boundarySourceLabel":"© OpenStreetMap contributors","boundarySourceUrl":"https://www.openstreetmap.org/copyright","geometryFile":"attractions/large-park-W418266189.geojson"},"geometry":{"type":"Polygon","coordinates":[[[138.9829847,36.3772162],[138.9819175,36.3787031],[138.9832033,36.3793194],[138.9832501,36.379368],[138.9833678,36.3794112],[138.9835006,36.3794446],[138.9837538,36.3794742],[138.9839963,36.3794578],[138.984178,36.3795089],[138.9844589,36.3796096],[138.9847173,36.3797215],[138.9848945,36.3798346],[138.9849483,36.3798471],[138.985175,36.3798996],[138.9852009,36.3799867],[138.9848348,36.3809585],[138.984824,36.3810643],[138.9848227,36.3811755],[138.9848012,36.3813526],[138.9846379,36.382422],[138.984529,36.3831351],[138.9845424,36.3831621],[138.9846765,36.3831816],[138.9848105,36.3832228],[138.9851137,36.3833728],[138.9853393,36.3834539],[138.9856292,36.3835895],[138.9857187,36.3835852],[138.9859761,36.3832524],[138.9857816,36.3831928],[138.9858696,36.3830298],[138.9855772,36.382938],[138.985685,36.3827713],[138.985677,36.3825305],[138.9858285,36.3825186],[138.9858218,36.3823383],[138.9859653,36.3823351],[138.9859841,36.382157],[138.9857762,36.3821418],[138.9857963,36.3818611],[138.985917,36.3818428],[138.9860445,36.3818028],[138.9861397,36.381765],[138.986247,36.381711],[138.9863902,36.3817697],[138.9865755,36.3815043],[138.9866097,36.3814514],[138.9866292,36.3813914],[138.9867197,36.3811199],[138.9867566,36.3810567],[138.9867928,36.3809936],[138.9869262,36.3808251],[138.9869772,36.3807442],[138.9870503,36.3805849],[138.9870617,36.3805482],[138.9870637,36.3804775],[138.9870503,36.3800839],[138.9869993,36.3800726],[138.9869846,36.3799425],[138.9869969,36.379597],[138.9863854,36.3795835],[138.9863893,36.3792567],[138.9870089,36.3792592],[138.9870335,36.3785653],[138.9856813,36.3785378],[138.9848283,36.3785247],[138.9848274,36.378497],[138.9848099,36.3784017],[138.9847866,36.3783288],[138.984765,36.3782551],[138.984738,36.378184],[138.9847114,36.3781212],[138.9846785,36.3780671],[138.9846189,36.3779954],[138.9845464,36.3779289],[138.9844753,36.3778767],[138.9843848,36.3778187],[138.9843614,36.3778027],[138.9841502,36.3776999],[138.9829847,36.3772162]]]}}
