{"type":"Feature","id":"attraction-large-park-W403876890","properties":{"id":"attraction-large-park-W403876890","kind":"attraction","name":"沼津御用邸記念公園","shortName":"沼津御用邸記念公園","context":"静岡県・沼津市","subtype":"large-park","subtypeLabel":"大型都市公園・広域公園","statusLabel":"著名な公園","aliases":["Numazu goyoutei  Memorial Park"],"osmType":"way","osmId":403876890,"osmDate":null,"officialAreaKm2":null,"areaSourceLabel":"","areaSourceUrl":"","boundarySourceLabel":"© OpenStreetMap contributors","boundarySourceUrl":"https://www.openstreetmap.org/copyright","geometryFile":"attractions/large-park-W403876890.geojson"},"geometry":{"type":"Polygon","coordinates":[[[138.8711693,35.0747333],[138.8723763,35.0737982],[138.8727196,35.072964],[138.8729101,35.0725623],[138.8744175,35.0711333],[138.8743585,35.0710279],[138.8761394,35.0693266],[138.8760885,35.0692695],[138.8767081,35.0686921],[138.8767188,35.0685933],[138.8769817,35.0683211],[138.8764702,35.0679304],[138.8758551,35.0674606],[138.8736664,35.0696405],[138.871746,35.0714318],[138.8707804,35.0721694],[138.8690691,35.0732714],[138.8693803,35.0736467],[138.8700937,35.0734777],[138.8705175,35.0735326],[138.870665,35.0736204],[138.8710459,35.0747136],[138.8711693,35.0747333]]]}}
