{"type":"Feature","id":"attraction-large-industrial-complex-W657142699","properties":{"id":"attraction-large-industrial-complex-W657142699","kind":"attraction","name":"県営東部産業団地","shortName":"県営東部産業団地","context":"日本","subtype":"industrial-complex","subtypeLabel":"工業地帯・大規模工場","statusLabel":"","aliases":[],"osmType":"way","osmId":657142699,"osmDate":null,"officialAreaKm2":null,"areaSourceLabel":"","areaSourceUrl":"","boundarySourceLabel":"© OpenStreetMap contributors","boundarySourceUrl":"https://www.openstreetmap.org/copyright","geometryFile":"attractions/large-industrial-complex-W657142699.geojson"},"geometry":{"type":"Polygon","coordinates":[[[139.2392957,37.7882806],[139.2370105,37.7857582],[139.2366403,37.786021],[139.2334479,37.7875961],[139.2337274,37.7879203],[139.232955,37.788446],[139.2325848,37.7885096],[139.2319411,37.7889293],[139.231807,37.7892854],[139.2316031,37.789349],[139.2315924,37.7894761],[139.2313617,37.7895482],[139.2317265,37.7902138],[139.2360181,37.7943809],[139.2366511,37.7940672],[139.2370856,37.7936094],[139.2372143,37.7935839],[139.2382014,37.7950337],[139.2371446,37.7956441],[139.2377937,37.7963562],[139.2383945,37.796742],[139.2390919,37.7970302],[139.2394298,37.7968013],[139.2406207,37.7963435],[139.240331,37.7957374],[139.240272,37.7954406],[139.2402506,37.7952075],[139.2403203,37.7949701],[139.2437911,37.7942579],[139.2443544,37.7958009],[139.2447191,37.7955339],[139.2449766,37.7953982],[139.2450356,37.7953219],[139.2446119,37.7941774],[139.2462426,37.7938298],[139.24613,37.7935966],[139.2469829,37.7933889],[139.2462587,37.7915958],[139.2470097,37.7914135],[139.2455667,37.7878058],[139.2455077,37.786924],[139.2392957,37.7882806]]]}}
