{"type":"Feature","id":"attraction-large-industrial-complex-W1126465212","properties":{"id":"attraction-large-industrial-complex-W1126465212","kind":"attraction","name":"旭工業団地","shortName":"旭工業団地","context":"日本","subtype":"industrial-complex","subtypeLabel":"工業地帯・大規模工場","statusLabel":"","aliases":[],"osmType":"way","osmId":1126465212,"osmDate":null,"officialAreaKm2":null,"areaSourceLabel":"","areaSourceUrl":"","boundarySourceLabel":"© OpenStreetMap contributors","boundarySourceUrl":"https://www.openstreetmap.org/copyright","geometryFile":"attractions/large-industrial-complex-W1126465212.geojson"},"geometry":{"type":"Polygon","coordinates":[[[136.5491654,36.5522435],[136.549453,36.552414],[136.549946,36.552238],[136.5501366,36.5546041],[136.5508161,36.5544174],[136.551594,36.5542642],[136.5519695,36.554245],[136.5524105,36.5542235],[136.5525983,36.5542666],[136.5547795,36.5544538],[136.5552382,36.5545308],[136.5557928,36.5545858],[136.5560119,36.5546298],[136.5563269,36.5547123],[136.5568307,36.5547666],[136.5576369,36.5546987],[136.557861,36.5546892],[136.558036,36.554626],[136.5581284,36.5545755],[136.5582763,36.5544498],[136.5584319,36.5542268],[136.5590676,36.5532472],[136.5591428,36.5531368],[136.5596056,36.5524065],[136.5596345,36.5523532],[136.5600953,36.5523925],[136.5624556,36.552391],[136.5647116,36.55238],[136.5653005,36.5523882],[136.5654614,36.5524047],[136.567577,36.552831],[136.567717,36.5528787],[136.5676402,36.5530039],[136.5676673,36.5530401],[136.5683876,36.5533291],[136.5692542,36.5535897],[136.5700507,36.5538418],[136.5712467,36.5541982],[136.5714283,36.5542066],[136.5721185,36.5542357],[136.5726312,36.5542371],[136.572385,36.555098],[136.5724702,36.556331],[136.573783,36.5562784],[136.5769767,36.5561501],[136.5769175,36.5557161],[136.576833,36.5549405],[136.5769132,36.5545447],[136.5770362,36.5541301],[136.5770921,36.5538511],[136.5771202,36.5536642],[136.5771357,36.5535426],[136.5770276,36.5532782],[136.5769001,36.553009],[136.5768346,36.5528438],[136.5766358,36.5524628],[136.5765342,36.5522451],[136.5764348,36.5520909],[136.5753191,36.5516935],[136.5744483,36.5514169],[136.5741622,36.5513833],[136.572994,36.5510523],[136.572805,36.5509623],[136.572266,36.5508189],[136.5721609,36.5507835],[136.5717199,36.5506725],[136.5715498,36.5506827],[136.5699283,36.5502807],[136.5696728,36.5502533],[136.5696203,36.5502025],[136.5688321,36.5500033],[136.5689053,36.5496766],[136.5689829,36.5493671],[136.5693749,36.5494212],[136.5695365,36.5489233],[136.5690899,36.5488378],[136.5690081,36.5487384],[136.5678005,36.5487079],[136.5677794,36.5493869],[136.5678542,36.5498052],[136.5668755,36.5496413],[136.5665512,36.5495802],[136.5654501,36.5494495],[136.5650656,36.5494146],[136.565145,36.5488952],[136.5651594,36.5481578],[136.5641518,36.5481829],[136.5641558,36.5472539],[136.562902,36.5472311],[136.5624732,36.5472403],[136.5625597,36.5471518],[136.563439,36.5462961],[136.5634272,36.5462487],[136.5627642,36.5461371],[136.5607416,36.545722],[136.5603351,36.5456367],[136.5599172,36.5455587],[136.5594,36.5454843],[136.559343,36.5469483],[136.5593173,36.5481103],[136.55919,36.5486006],[136.5589796,36.5485769],[136.5570212,36.548291],[136.5567637,36.5482499],[136.5563625,36.5481741],[136.5539288,36.5477531],[136.5538471,36.547726],[136.5525174,36.5474504],[136.5523246,36.5476459],[136.5524782,36.5477729],[136.5527627,36.5477838],[136.5527439,36.5484808],[136.5527231,36.5485646],[136.5491654,36.5522435]]]}}
