{"type":"Feature","id":"attraction-large-park-W471896633","properties":{"id":"attraction-large-park-W471896633","kind":"attraction","name":"水戸市森林公園","shortName":"水戸市森林公園","context":"日本","subtype":"large-park","subtypeLabel":"大型都市公園・広域公園","statusLabel":"","aliases":[],"osmType":"way","osmId":471896633,"osmDate":null,"officialAreaKm2":null,"areaSourceLabel":"","areaSourceUrl":"","boundarySourceLabel":"© OpenStreetMap contributors","boundarySourceUrl":"https://www.openstreetmap.org/copyright","geometryFile":"attractions/large-park-W471896633.geojson"},"geometry":{"type":"Polygon","coordinates":[[[140.3710356,36.4201237],[140.3708929,36.4187658],[140.3710589,36.4187674],[140.3703752,36.4175226],[140.36993,36.4172593],[140.3692782,36.4170262],[140.36901,36.4169744],[140.3688561,36.4169931],[140.3688356,36.417106],[140.3683072,36.4171449],[140.3678995,36.4172809],[140.367579,36.4174945],[140.3673899,36.4177816],[140.3678298,36.4185414],[140.3672826,36.4184766],[140.3669339,36.4184593],[140.3675991,36.4188392],[140.3664969,36.4189579],[140.3665531,36.4194177],[140.3668508,36.4193874],[140.3674328,36.4193874],[140.3674938,36.4195031],[140.3675093,36.4195472],[140.3674355,36.4196033],[140.3666309,36.4197176],[140.3666362,36.4198774],[140.366773,36.4200134],[140.3670144,36.4201299],[140.3672853,36.4202529],[140.3680566,36.4203413],[140.3679639,36.420663],[140.3677577,36.4208341],[140.3620094,36.422653],[140.3618475,36.4226272],[140.3603962,36.4270076],[140.3616017,36.4270708],[140.3622347,36.4272845],[140.3625297,36.4275736],[140.3628972,36.427729],[140.3630045,36.4277959],[140.363148,36.4278952],[140.3633076,36.427906],[140.3634363,36.4278412],[140.3636992,36.4278132],[140.3640559,36.4275672],[140.3641659,36.4275844],[140.3643215,36.4278456],[140.3644717,36.4279772],[140.3646353,36.4280349],[140.3648686,36.4280355],[140.3661883,36.4274636],[140.3663599,36.4274334],[140.3664485,36.4274506],[140.3664672,36.4275801],[140.3663492,36.4278628],[140.3663331,36.427988],[140.3663519,36.4280722],[140.3665021,36.4282729],[140.3665692,36.4284175],[140.3666523,36.4287282],[140.3667033,36.4288556],[140.3667985,36.4289462],[140.3668883,36.4290282],[140.3669849,36.4290563],[140.3670466,36.429026],[140.3673068,36.4287908],[140.3674623,36.428588],[140.3675106,36.4285577],[140.3675643,36.4285685],[140.3676447,36.4286808],[140.3678459,36.42878],[140.3678298,36.4288405],[140.3678781,36.4289527],[140.367921,36.4290066],[140.3679639,36.4290433],[140.3680336,36.4290757],[140.3681409,36.4290304],[140.3682937,36.4290108],[140.3685862,36.4290045],[140.3688088,36.4290347],[140.3689094,36.4290919],[140.3689362,36.4290428],[140.3690878,36.4288318],[140.3691521,36.4287714],[140.3691897,36.4286743],[140.3691575,36.428575],[140.3690234,36.4284024],[140.3689778,36.4282491],[140.3689751,36.4281628],[140.3690422,36.4281024],[140.3692219,36.4280981],[140.3694981,36.4281132],[140.3697449,36.4281196],[140.370225,36.4282642],[140.3736963,36.4271199],[140.3756389,36.4290877],[140.3778467,36.4265253],[140.3803691,36.4280657],[140.380404,36.428247],[140.3810075,36.4283808],[140.3811416,36.4284498],[140.3814125,36.4286721],[140.3817317,36.429175],[140.3818953,36.4293541],[140.3820447,36.4294685],[140.3827107,36.4297468],[140.3834671,36.4299411],[140.3842932,36.4301957],[140.384835,36.4303252],[140.3853822,36.4304007],[140.3861573,36.4304547],[140.3863933,36.4304202],[140.3866267,36.4302626],[140.3860883,36.429387],[140.386042,36.4290563],[140.384835,36.428534],[140.3846794,36.4286052],[140.3844541,36.4284175],[140.3846687,36.4281089],[140.3845721,36.4280096],[140.3841644,36.427988],[140.3841591,36.4278305],[140.3845641,36.4278564],[140.3846982,36.4277031],[140.384835,36.4277312],[140.3847867,36.4278974],[140.3848457,36.4280614],[140.3850281,36.4282923],[140.3853902,36.4284995],[140.3856343,36.428629],[140.3859213,36.4287239],[140.3862137,36.4287951],[140.3863853,36.428957],[140.3865838,36.4292764],[140.3870505,36.4298634],[140.3872517,36.4300597],[140.3873751,36.4300921],[140.3875714,36.4300776],[140.3879303,36.4299368],[140.3884292,36.4296692],[140.3885847,36.4295138],[140.3886974,36.4292764],[140.3887886,36.429026],[140.3888315,36.4287714],[140.3887913,36.4286257],[140.3884131,36.4283333],[140.3880268,36.4281024],[140.3876674,36.4279578],[140.3877237,36.4278628],[140.3883433,36.4279837],[140.3888905,36.4282448],[140.3891668,36.4284153],[140.3900514,36.4278933],[140.3895771,36.4272499],[140.3890461,36.4265615],[140.3896174,36.4266521],[140.3899795,36.4271161],[140.3903764,36.4274808],[140.3910416,36.4277959],[140.391106,36.4277096],[140.3908324,36.4273751],[140.3905213,36.4269564],[140.3904462,36.426732],[140.3903979,36.4263802],[140.3904077,36.4259036],[140.3888721,36.4258828],[140.3886178,36.4258907],[140.3884526,36.4259081],[140.3881677,36.4260254],[140.3880256,36.4261049],[140.3879111,36.4262094],[140.3877659,36.426314],[140.3875681,36.4264185],[140.3874026,36.4265721],[140.3872237,36.4268473],[140.3868493,36.4267492],[140.3865784,36.4266607],[140.3867152,36.4262572],[140.3867528,36.4260737],[140.386734,36.4258773],[140.3866267,36.4257651],[140.3859696,36.4256378],[140.3860822,36.42545],[140.3863639,36.4254047],[140.3865945,36.4253378],[140.3868064,36.4252515],[140.387072,36.4250205],[140.3874716,36.4246062],[140.3876567,36.424358],[140.3877827,36.4240796],[140.3877667,36.4239457],[140.3877023,36.4238832],[140.3868654,36.4241227],[140.3863773,36.4242263],[140.3860661,36.4243536],[140.3858489,36.4244875],[140.3856423,36.4246774],[140.3853178,36.424932],[140.3850925,36.4245004],[140.3845346,36.4244335],[140.3822239,36.4239792],[140.3816485,36.423827],[140.3811416,36.4239004],[140.3807267,36.4240436],[140.3805992,36.4240876],[140.3805155,36.4241164],[140.3805006,36.4241216],[140.3803503,36.4241745],[140.3802913,36.4241076],[140.3802967,36.4239803],[140.3805622,36.4238033],[140.3805622,36.4237278],[140.3803933,36.4236695],[140.3800473,36.4234882],[140.3795564,36.423404],[140.3790361,36.4232832],[140.3789583,36.4232335],[140.3789476,36.4231947],[140.3788832,36.423104],[140.3790119,36.4230048],[140.3791675,36.4229508],[140.3795832,36.4230307],[140.380294,36.4231364],[140.3822143,36.4236096],[140.3826383,36.4235422],[140.3829601,36.4235724],[140.3835663,36.4236997],[140.3839982,36.4237105],[140.3843807,36.4236508],[140.3847867,36.4235875],[140.3860232,36.4232745],[140.3856155,36.4224997],[140.3861188,36.4217905],[140.3857791,36.4216494],[140.3846633,36.4216407],[140.3837568,36.4218048],[140.3829843,36.4218393],[140.3825692,36.4218247],[140.382079,36.4218846],[140.3818524,36.4219515],[140.381374,36.4224131],[140.3803021,36.4223098],[140.3795564,36.4223098],[140.3788725,36.4224155],[140.3785398,36.4224274],[140.3781603,36.4223292],[140.3728831,36.4188737],[140.372529,36.418986],[140.372293,36.419232],[140.3710356,36.4201237]]]}}
