{"type":"Feature","id":"attraction-large-park-W106990140","properties":{"id":"attraction-large-park-W106990140","kind":"attraction","name":"古河総合公園","shortName":"古河総合公園","context":"日本","subtype":"large-park","subtypeLabel":"大型都市公園・広域公園","statusLabel":"著名な公園","aliases":[],"osmType":"way","osmId":106990140,"osmDate":null,"officialAreaKm2":null,"areaSourceLabel":"","areaSourceUrl":"","boundarySourceLabel":"© OpenStreetMap contributors","boundarySourceUrl":"https://www.openstreetmap.org/copyright","geometryFile":"attractions/large-park-W106990140.geojson"},"geometry":{"type":"Polygon","coordinates":[[[139.7030342,36.1783261],[139.7030278,36.178351],[139.7029991,36.1788185],[139.702992,36.178937],[139.7029909,36.1789915],[139.7029755,36.1793093],[139.7029608,36.1793878],[139.7029365,36.1794194],[139.7028172,36.1796577],[139.7027844,36.1797231],[139.702733,36.1798258],[139.7026054,36.1799758],[139.7022127,36.1803871],[139.7021239,36.1804676],[139.701942,36.1805259],[139.7016778,36.1806117],[139.7015841,36.1806421],[139.7013562,36.1807682],[139.701274,36.1808214],[139.7011953,36.1808372],[139.7011408,36.1808335],[139.7010677,36.1807308],[139.7008752,36.1804709],[139.7007955,36.1804232],[139.7006106,36.1803973],[139.7005353,36.1804432],[139.7001542,36.1806691],[139.6999807,36.1807704],[139.6998455,36.1807876],[139.699771,36.1807718],[139.6996983,36.1805517],[139.6997249,36.1804742],[139.6996915,36.1803221],[139.6997487,36.1803047],[139.6997205,36.1801669],[139.6996203,36.1798695],[139.6994756,36.1795752],[139.6992833,36.1792441],[139.6992357,36.1789805],[139.698948,36.178581],[139.6984655,36.177911],[139.6981237,36.1774858],[139.697718,36.176928],[139.697643,36.1768248],[139.6971108,36.176029],[139.6980924,36.1754617],[139.6982641,36.1756652],[139.6991712,36.1752464],[139.6994926,36.175098],[139.700029,36.1746542],[139.7004444,36.1745203],[139.7007746,36.1745416],[139.7012627,36.1746563],[139.7016759,36.1746736],[139.701987,36.1746173],[139.7024159,36.1750365],[139.7024966,36.1751153],[139.7023343,36.1753434],[139.7023263,36.175724],[139.7024188,36.1760224],[139.7025371,36.1761287],[139.7025892,36.1764966],[139.7027079,36.1764897],[139.7027236,36.1766067],[139.7027802,36.176602],[139.7027854,36.1766148],[139.7027916,36.1766548],[139.7027968,36.1766813],[139.7029438,36.1766636],[139.7030714,36.1769354],[139.703105,36.1770568],[139.7031134,36.1771709],[139.7031392,36.1773568],[139.703168,36.1774424],[139.7032186,36.1775863],[139.7033035,36.177823],[139.7033248,36.1778833],[139.703319,36.1779288],[139.7032024,36.1780842],[139.7030432,36.1783065],[139.7030342,36.1783261]]]}}
