{"type":"Feature","id":"attraction-large-industrial-complex-W425690872","properties":{"id":"attraction-large-industrial-complex-W425690872","kind":"attraction","name":"白糠太陽光発電所","shortName":"白糠太陽光発電所","context":"日本","subtype":"industrial-complex","subtypeLabel":"工業地帯・大規模工場","statusLabel":"","aliases":["ユーラスエナジー白糠"],"osmType":"way","osmId":425690872,"osmDate":null,"officialAreaKm2":null,"areaSourceLabel":"","areaSourceUrl":"","boundarySourceLabel":"© OpenStreetMap contributors","boundarySourceUrl":"https://www.openstreetmap.org/copyright","geometryFile":"attractions/large-industrial-complex-W425690872.geojson"},"geometry":{"type":"Polygon","coordinates":[[[144.1753536,42.9899584],[144.1741107,42.9925689],[144.176321,42.9929835],[144.1818058,42.9942975],[144.1940531,42.9970881],[144.1950102,42.9950412],[144.1938371,42.9947572],[144.1945229,42.9933174],[144.1915533,42.9925437],[144.187475,42.9914834],[144.186098,42.9911255],[144.1855869,42.9910169],[144.1847507,42.9909445],[144.1840071,42.9909521],[144.1816461,42.9912895],[144.1808653,42.9912863],[144.1800989,42.9912014],[144.1753536,42.9899584]]]}}
