{"type":"Feature","id":"attraction-large-park-W645157971","properties":{"id":"attraction-large-park-W645157971","kind":"attraction","name":"遠賀川河川敷公園","shortName":"遠賀川河川敷公園","context":"日本","subtype":"large-park","subtypeLabel":"大型都市公園・広域公園","statusLabel":"","aliases":[],"osmType":"way","osmId":645157971,"osmDate":null,"officialAreaKm2":null,"areaSourceLabel":"","areaSourceUrl":"","boundarySourceLabel":"© OpenStreetMap contributors","boundarySourceUrl":"https://www.openstreetmap.org/copyright","geometryFile":"attractions/large-park-W645157971.geojson"},"geometry":{"type":"Polygon","coordinates":[[[130.7356161,33.7312705],[130.7351244,33.7320547],[130.7347539,33.7327077],[130.734446,33.7332637],[130.7342073,33.7337599],[130.7339476,33.7344284],[130.7337931,33.7349625],[130.7336773,33.7355259],[130.7335825,33.7362497],[130.7335369,33.737032],[130.733572,33.7379164],[130.7337264,33.7393582],[130.7338949,33.7403068],[130.7340743,33.7410786],[130.7349779,33.7447045],[130.7351384,33.7455602],[130.735266,33.7464228],[130.7353195,33.746926],[130.7353401,33.7477132],[130.7353031,33.7493596],[130.7352784,33.7497327],[130.7351755,33.7503111],[130.7350026,33.7509306],[130.7345498,33.7519506],[130.7341054,33.7526481],[130.7337598,33.7530609],[130.7330884,33.753768],[130.7323021,33.7546202],[130.7317341,33.7552945],[130.7309706,33.7562086],[130.7276106,33.7542657],[130.7282268,33.753703],[130.7293918,33.7524674],[130.7301657,33.7516186],[130.7307091,33.7509614],[130.7308696,33.7507219],[130.7310548,33.7503659],[130.731123,33.7502284],[130.7312302,33.7498156],[130.7312936,33.7488804],[130.7312871,33.7486404],[130.7312607,33.7484115],[130.7306391,33.7459265],[130.7302398,33.7447113],[130.729754,33.7431641],[130.7294576,33.7422023],[130.7292642,33.7417436],[130.728844,33.7408675],[130.7286707,33.7405323],[130.728132,33.7395487],[130.7269854,33.7374279],[130.7252181,33.7341346],[130.7246104,33.7331142],[130.724409,33.732871],[130.7241659,33.7326593],[130.7238279,33.7324287],[130.7234746,33.732255],[130.7232378,33.7321581],[130.724312,33.7304077],[130.7252485,33.7307387],[130.7255068,33.730865],[130.7259854,33.7312157],[130.7265134,33.7317116],[130.7267375,33.7319991],[130.7273225,33.7330795],[130.7282151,33.7347916],[130.7291685,33.7366395],[130.7294762,33.7372239],[130.7303309,33.7388791],[130.7304942,33.7391823],[130.7309728,33.7400573],[130.7312919,33.7406764],[130.731383,33.7408659],[130.7315578,33.7414724],[130.7317743,33.7414282],[130.731592,33.7407238],[130.7314932,33.7401615],[130.7313033,33.7389739],[130.7312501,33.7385853],[130.7311779,33.7377767],[130.7311248,33.7372334],[130.7311172,33.7365637],[130.7311589,33.7360015],[130.7312387,33.7353792],[130.7313868,33.7347569],[130.7316451,33.7340524],[130.731911,33.7334775],[130.7330924,33.7313768],[130.7335306,33.7305841],[130.7356161,33.7312705]]]}}
