{"type":"Feature","id":"attraction-large-park-W492581939","properties":{"id":"attraction-large-park-W492581939","kind":"attraction","name":"大池公園","shortName":"大池公園","context":"愛知県・東海市","subtype":"large-park","subtypeLabel":"大型都市公園・広域公園","statusLabel":"著名な公園","aliases":[],"osmType":"way","osmId":492581939,"osmDate":null,"officialAreaKm2":null,"areaSourceLabel":"","areaSourceUrl":"","boundarySourceLabel":"© OpenStreetMap contributors","boundarySourceUrl":"https://www.openstreetmap.org/copyright","geometryFile":"attractions/large-park-W492581939.geojson"},"geometry":{"type":"Polygon","coordinates":[[[136.9031212,35.0277341],[136.9025204,35.0278999],[136.9024198,35.0278439],[136.9023702,35.0275046],[136.9019571,35.0250896],[136.9018809,35.0248361],[136.9017257,35.0244311],[136.9027907,35.0246702],[136.9030666,35.0242711],[136.9029776,35.0242494],[136.9023977,35.023154],[136.9030833,35.0229115],[136.9042831,35.0224755],[136.9044969,35.0224975],[136.9047046,35.0225042],[136.9050129,35.0225268],[136.90523,35.0223179],[136.9054663,35.0222285],[136.9056829,35.0222987],[136.9058718,35.0224459],[136.9061518,35.0225031],[136.9063336,35.0223927],[136.9066098,35.0224234],[136.9071773,35.0223065],[136.9075028,35.0227667],[136.9077249,35.0232401],[136.9079186,35.0236346],[136.9080393,35.0238805],[136.9082272,35.0246664],[136.9084689,35.0251256],[136.9086209,35.0253709],[136.9086425,35.0256461],[136.9086993,35.0258175],[136.90903,35.0262819],[136.9083381,35.0264734],[136.9047976,35.0273278],[136.9031212,35.0277341]]]}}
