{"type":"Feature","id":"attraction-large-park-W490246296","properties":{"id":"attraction-large-park-W490246296","kind":"attraction","name":"大蓮公園","shortName":"大蓮公園","context":"大阪府・堺市","subtype":"large-park","subtypeLabel":"大型都市公園・広域公園","statusLabel":"著名な公園","aliases":["Ohasu Park"],"osmType":"way","osmId":490246296,"osmDate":null,"officialAreaKm2":null,"areaSourceLabel":"","areaSourceUrl":"","boundarySourceLabel":"© OpenStreetMap contributors","boundarySourceUrl":"https://www.openstreetmap.org/copyright","geometryFile":"attractions/large-park-W490246296.geojson"},"geometry":{"type":"Polygon","coordinates":[[[135.5111463,34.4942949],[135.51124,34.4941481],[135.5114829,34.4937077],[135.5115371,34.4935945],[135.5116379,34.4933738],[135.5116939,34.4932138],[135.5117092,34.4931704],[135.5117261,34.4931224],[135.5117979,34.4928974],[135.5118071,34.4928634],[135.5118141,34.4928396],[135.5118194,34.4928185],[135.5119272,34.4924222],[135.5120699,34.4918311],[135.5121756,34.4913352],[135.5122793,34.4908862],[135.5123525,34.4906114],[135.5124765,34.4902194],[135.5125049,34.4901306],[135.5126534,34.4897349],[135.51285,34.4893027],[135.5129074,34.4891739],[135.5131615,34.4887061],[135.5135527,34.4881078],[135.5134787,34.4878937],[135.5134115,34.4878704],[135.5129501,34.4885888],[135.5128034,34.4885799],[135.512328,34.4884236],[135.5120089,34.4881854],[135.5118108,34.4883631],[135.5115915,34.4885327],[135.5113625,34.4887077],[135.5113267,34.4890872],[135.5111092,34.4890422],[135.510849,34.4889825],[135.5106451,34.4890654],[135.5106035,34.4891207],[135.5106974,34.4893639],[135.5105177,34.4894048],[135.5102669,34.4891925],[135.5098807,34.4893495],[135.5099668,34.4894882],[135.509942,34.4896136],[135.5098943,34.4896749],[135.5098943,34.489828],[135.5099456,34.4898426],[135.5099474,34.489898],[135.5099969,34.4899535],[135.5099951,34.490022],[135.5100474,34.4900235],[135.5100482,34.4901037],[135.509873,34.4901095],[135.5098093,34.4901825],[135.5097403,34.490181],[135.5097457,34.4899688],[135.5097321,34.4898355],[135.5096465,34.4898434],[135.5096111,34.489637],[135.5095351,34.4895217],[135.5093736,34.4896072],[135.5094185,34.4896642],[135.5092837,34.4898837],[135.5091079,34.4900259],[135.509116,34.4900691],[135.5090334,34.4901343],[135.509033,34.49026],[135.5089191,34.490319],[135.5087768,34.4904221],[135.5087555,34.4904991],[135.5089079,34.4906729],[135.5088771,34.4907117],[135.5088617,34.4907719],[135.5084714,34.4905577],[135.5084097,34.4905607],[135.508279,34.4906647],[135.5082477,34.4907972],[135.5081528,34.4907353],[135.5080389,34.4906211],[135.5078449,34.4907049],[135.5079738,34.4911187],[135.507996,34.4911921],[135.5079924,34.4912089],[135.5080107,34.4913319],[135.5083448,34.4917186],[135.5084455,34.4918478],[135.5085489,34.4920342],[135.5085738,34.4921709],[135.5084765,34.4923126],[135.5084582,34.4923427],[135.5084521,34.4924263],[135.5084699,34.4924723],[135.5085058,34.4925173],[135.5085589,34.4925519],[135.5086328,34.4926017],[135.5087398,34.4926728],[135.5088813,34.4927587],[135.5091979,34.4929775],[135.5093453,34.4932138],[135.5097588,34.4935897],[135.5099612,34.493764],[135.5100503,34.4938004],[135.5104744,34.4938968],[135.5106508,34.4939494],[135.510791,34.4940207],[135.5108726,34.494073],[135.5109444,34.494141],[135.5110883,34.4942681],[135.5111463,34.4942949]]]}}
