{"type":"Feature","id":"attraction-large-park-W112170811","properties":{"id":"attraction-large-park-W112170811","kind":"attraction","name":"三好公園","shortName":"三好公園","context":"愛知県・みよし市","subtype":"large-park","subtypeLabel":"大型都市公園・広域公園","statusLabel":"著名な公園","aliases":[],"osmType":"way","osmId":112170811,"osmDate":null,"officialAreaKm2":null,"areaSourceLabel":"","areaSourceUrl":"","boundarySourceLabel":"© OpenStreetMap contributors","boundarySourceUrl":"https://www.openstreetmap.org/copyright","geometryFile":"attractions/large-park-W112170811.geojson"},"geometry":{"type":"Polygon","coordinates":[[[137.0863714,35.0943725],[137.0859325,35.0935206],[137.0859232,35.0929161],[137.0860292,35.0926022],[137.0865195,35.0925783],[137.0864898,35.0920459],[137.0871266,35.0915826],[137.0875961,35.0914457],[137.088303,35.0909953],[137.0891476,35.0904014],[137.0892717,35.0902778],[137.0894228,35.0903992],[137.0895469,35.0903595],[137.089613,35.0903998],[137.0899758,35.0938639],[137.0900312,35.0940642],[137.0894526,35.094067],[137.0893582,35.0940289],[137.0892881,35.0939224],[137.089313,35.0938338],[137.0894732,35.0935422],[137.0894599,35.0934375],[137.0892764,35.0933914],[137.0887754,35.0935647],[137.0882591,35.0937798],[137.0869205,35.094811],[137.0863714,35.0943725]]]}}
