{"type":"Feature","id":"attraction-large-park-W753623384","properties":{"id":"attraction-large-park-W753623384","kind":"attraction","name":"尾関山公園","shortName":"尾関山公園","context":"日本","subtype":"large-park","subtypeLabel":"大型都市公園・広域公園","statusLabel":"著名な公園","aliases":[],"osmType":"way","osmId":753623384,"osmDate":null,"officialAreaKm2":null,"areaSourceLabel":"","areaSourceUrl":"","boundarySourceLabel":"© OpenStreetMap contributors","boundarySourceUrl":"https://www.openstreetmap.org/copyright","geometryFile":"attractions/large-park-W753623384.geojson"},"geometry":{"type":"Polygon","coordinates":[[[132.8410022,34.8159816],[132.8407765,34.8160268],[132.840695,34.8158617],[132.8402132,34.8159458],[132.8402625,34.8161358],[132.8392725,34.8162604],[132.8392004,34.8159707],[132.8385101,34.8162541],[132.8385309,34.816388],[132.8380795,34.8164706],[132.8372773,34.8164612],[132.8369871,34.8163429],[132.8369321,34.8159614],[132.83686,34.8154693],[132.8371919,34.814968],[132.8376376,34.8144962],[132.8379676,34.8141302],[132.8389349,34.8132878],[132.8396632,34.8129359],[132.8402455,34.8129312],[132.8406191,34.8131056],[132.8410439,34.8133454],[132.8410534,34.8135837],[132.8410396,34.8143878],[132.8407694,34.8150116],[132.8408406,34.8154849],[132.8410022,34.8159816]]]}}
