{"type":"Feature","id":"attraction-large-park-W794845710","properties":{"id":"attraction-large-park-W794845710","kind":"attraction","name":"大森公園","shortName":"大森公園","context":"日本","subtype":"large-park","subtypeLabel":"大型都市公園・広域公園","statusLabel":"著名な公園","aliases":[],"osmType":"way","osmId":794845710,"osmDate":null,"officialAreaKm2":null,"areaSourceLabel":"","areaSourceUrl":"","boundarySourceLabel":"© OpenStreetMap contributors","boundarySourceUrl":"https://www.openstreetmap.org/copyright","geometryFile":"attractions/large-park-W794845710.geojson"},"geometry":{"type":"Polygon","coordinates":[[[140.4320423,39.3502379],[140.431942,39.350061],[140.4316346,39.3497427],[140.4314346,39.3495727],[140.4313348,39.3494803],[140.4312621,39.349413],[140.4311767,39.3493534],[140.4310791,39.3492659],[140.4310271,39.349159],[140.4310067,39.3490371],[140.4310252,39.3489036],[140.431076,39.3487166],[140.4310806,39.3484283],[140.4310822,39.3480864],[140.4310648,39.3480003],[140.4310452,39.347903],[140.4310483,39.3477338],[140.4310668,39.3476504],[140.431094,39.347605],[140.4311446,39.3475144],[140.4312018,39.3474122],[140.4313933,39.3474228],[140.4315925,39.3475014],[140.4318936,39.3475506],[140.4324762,39.3475953],[140.4328214,39.3475932],[140.4332555,39.3474721],[140.4334751,39.3474317],[140.4335905,39.3473628],[140.433966,39.3469812],[140.4344167,39.3469812],[140.4352857,39.3475122],[140.4355003,39.3485244],[140.4353715,39.3491383],[140.4351355,39.349437],[140.4349102,39.3495614],[140.4350711,39.3500841],[140.4354895,39.3505072],[140.4366053,39.3509138],[140.4373885,39.3519757],[140.4373885,39.3532533],[140.4368199,39.3547798],[140.4369487,39.3551116],[140.437528,39.3554517],[140.437528,39.3558997],[140.4374636,39.3570279],[140.4369057,39.357733],[140.4351677,39.3580731],[140.4350674,39.3578318],[140.4354107,39.3573424],[140.4353356,39.3568861],[140.4352184,39.3567192],[140.4344244,39.3564205],[140.4342037,39.3562266],[140.4338443,39.3556957],[140.4337914,39.3552757],[140.4339086,39.3552104],[140.433163,39.3536009],[140.4323693,39.3538542],[140.432094,39.353164],[140.4321245,39.3527353],[140.432362,39.3522066],[140.4323974,39.3517045],[140.4322636,39.3508524],[140.4321632,39.3504884],[140.4320423,39.3502379]]]}}
