{"type":"Feature","id":"attraction-large-industrial-complex-R8300084","properties":{"id":"attraction-large-industrial-complex-R8300084","kind":"attraction","name":"JFEスチール","shortName":"JFEスチール","context":"日本","subtype":"industrial-complex","subtypeLabel":"工業地帯・大規模工場","statusLabel":"","aliases":["JFE Steel"],"osmType":"relation","osmId":8300084,"osmDate":null,"officialAreaKm2":null,"areaSourceLabel":"","areaSourceUrl":"","boundarySourceLabel":"© OpenStreetMap contributors","boundarySourceUrl":"https://www.openstreetmap.org/copyright","geometryFile":"attractions/large-industrial-complex-R8300084.geojson"},"geometry":{"type":"MultiPolygon","coordinates":[[[[133.4469559,34.480073],[133.4474811,34.4803891],[133.4482267,34.480639],[133.448849,34.4806854],[133.4500022,34.4806586],[133.4558647,34.4805226],[133.4632337,34.4803516],[133.4631425,34.4714054],[133.4627241,34.4706049],[133.4627206,34.470182],[133.462649,34.4615338],[133.4635073,34.4601936],[133.4563248,34.4601981],[133.4563246,34.4604289],[133.456506,34.468796],[133.456521,34.470575],[133.456291,34.470598],[133.455197,34.470625],[133.455207,34.471093],[133.455047,34.471093],[133.454991,34.471178],[133.455067,34.473868],[133.455256,34.473882],[133.455286,34.476499],[133.455294,34.477384],[133.454325,34.47741],[133.44926,34.477471],[133.4471404,34.4792735],[133.4471324,34.4798704],[133.4470385,34.479855],[133.4469205,34.4797488],[133.4468965,34.4797647],[133.4467273,34.4798771],[133.4469559,34.480073]]],[[[133.433985,34.4782339],[133.4153943,34.4784424],[133.4149633,34.4782352],[133.414914,34.477105],[133.414899,34.476805],[133.414684,34.476775],[133.414684,34.47575],[133.414697,34.47544],[133.414687,34.474829],[133.414513,34.474818],[133.414497,34.473984],[133.414669,34.473978],[133.414674,34.473324],[133.414649,34.470958],[133.414628,34.470468],[133.4146,34.467001],[133.414523,34.459242],[133.415008,34.459235],[133.415099,34.459285],[133.415765,34.458734],[133.417851,34.456946],[133.4198162,34.4560243],[133.4197271,34.455907],[133.42455,34.453613],[133.42643,34.452717],[133.426512,34.452833],[133.434047,34.449249],[133.438142,34.447344],[133.439767,34.446554],[133.440883,34.446042],[133.441474,34.445744],[133.442713,34.445162],[133.443639,34.445575],[133.444952,34.44617],[133.444954,34.44656],[133.445118,34.446594],[133.44511,34.448393],[133.444968,34.448398],[133.444975,34.44966],[133.445157,34.449672],[133.445191,34.449767],[133.445533,34.449768],[133.445566,34.453323],[133.445574,34.454827],[133.44556,34.454855],[133.445479,34.454855],[133.445465,34.454748],[133.445344,34.454743],[133.445335,34.454894],[133.445206,34.455018],[133.445194,34.455447],[133.445206,34.455999],[133.44507,34.456016],[133.44507,34.457582],[133.445085,34.457633],[133.445255,34.457644],[133.445255,34.457937],[133.445288,34.458215],[133.445609,34.45822],[133.445656,34.459768],[133.44567,34.461427],[133.445669,34.46347],[133.445683,34.463487],[133.445614,34.463487],[133.445608,34.463571],[133.445384,34.463588],[133.445377,34.463774],[133.44518,34.463774],[133.445248,34.467584],[133.445414,34.467603],[133.445417,34.467689],[133.445711,34.467693],[133.445723,34.467785],[133.445751,34.469534],[133.44555,34.469547],[133.445444,34.469629],[133.445408,34.469696],[133.445383,34.469837],[133.445411,34.470096],[133.445547,34.470271],[133.445808,34.470264],[133.445804,34.471984],[133.445336,34.47244],[133.445356,34.475381],[133.445523,34.475373],[133.445513,34.476147],[133.445368,34.476155],[133.445349,34.476345],[133.445356,34.476856],[133.445703,34.476862],[133.445717,34.477155],[133.445363,34.477161],[133.445359,34.477311],[133.445356,34.477413],[133.44447,34.478158],[133.444608,34.478266],[133.444397,34.478458],[133.444248,34.478334],[133.443357,34.479084],[133.44291,34.47949],[133.442904,34.479978],[133.442813,34.480044],[133.442827,34.480086],[133.443058,34.480092],[133.443051,34.480853],[133.442833,34.480869],[133.442833,34.481039],[133.442933,34.481046],[133.442928,34.481979],[133.442908,34.482334],[133.442916,34.482678],[133.443682,34.484493],[133.443698,34.484633],[133.443717,34.48593],[133.4436107,34.4867101],[133.4431601,34.4869489],[133.438267,34.4871054],[133.4373558,34.4871346],[133.4372592,34.480723],[133.4370124,34.4803427],[133.4344536,34.4783837],[133.433985,34.4782339]]]]}}
