{"type":"Feature","id":"attraction-large-airport-W57015332","properties":{"id":"attraction-large-airport-W57015332","kind":"attraction","name":"波照間空港","shortName":"波照間空港","context":"日本","subtype":"airport","subtypeLabel":"空港・飛行場","statusLabel":"","aliases":["Hateruma Airport"],"osmType":"way","osmId":57015332,"osmDate":null,"officialAreaKm2":null,"areaSourceLabel":"","areaSourceUrl":"","boundarySourceLabel":"© OpenStreetMap contributors","boundarySourceUrl":"https://www.openstreetmap.org/copyright","geometryFile":"attractions/large-airport-W57015332.geojson"},"geometry":{"type":"Polygon","coordinates":[[[123.8050827,24.0594313],[123.8034729,24.0556335],[123.8038566,24.0553822],[123.8041747,24.0552752],[123.8045268,24.0560968],[123.8048216,24.0567845],[123.8055416,24.0584649],[123.8058196,24.0591136],[123.8058412,24.059164],[123.8062558,24.0601314],[123.8062883,24.0602072],[123.8066297,24.0610039],[123.8078374,24.063822],[123.807058,24.0641491],[123.8054109,24.0602044],[123.8044526,24.0605493],[123.8043284,24.0602437],[123.8041514,24.059815],[123.8050827,24.0594313]]]}}
