{"type":"Feature","id":"attraction-large-park-W1229719590","properties":{"id":"attraction-large-park-W1229719590","kind":"attraction","name":"八ヶ岳自然文化園","shortName":"八ヶ岳自然文化園","context":"日本","subtype":"large-park","subtypeLabel":"大型都市公園・広域公園","statusLabel":"著名な公園","aliases":[],"osmType":"way","osmId":1229719590,"osmDate":null,"officialAreaKm2":null,"areaSourceLabel":"","areaSourceUrl":"","boundarySourceLabel":"© OpenStreetMap contributors","boundarySourceUrl":"https://www.openstreetmap.org/copyright","geometryFile":"attractions/large-park-W1229719590.geojson"},"geometry":{"type":"Polygon","coordinates":[[[138.2628892,35.9738578],[138.2628614,35.9735425],[138.2634806,35.9723431],[138.2636754,35.9720024],[138.2648374,35.9715491],[138.2669212,35.9713999],[138.2679022,35.9713689],[138.2683127,35.9713661],[138.2690329,35.9714816],[138.2687233,35.9715729],[138.2682835,35.9716703],[138.2684965,35.9720172],[138.2683783,35.9721272],[138.2685844,35.9722758],[138.2689746,35.9731698],[138.2692225,35.9738078],[138.2692857,35.9739891],[138.2692462,35.9742921],[138.268972,35.9744799],[138.2681967,35.9746429],[138.2673056,35.9747752],[138.2663353,35.9747027],[138.2656024,35.9745533],[138.265054,35.9744467],[138.2643949,35.9741181],[138.2636085,35.973961],[138.2628892,35.9738578]]]}}
