{"type":"Feature","id":"attraction-large-park-W321241206","properties":{"id":"attraction-large-park-W321241206","kind":"attraction","name":"薩摩川内市総合運動公園","shortName":"薩摩川内市総合運動公園","context":"日本","subtype":"large-park","subtypeLabel":"大型都市公園・広域公園","statusLabel":"著名な公園","aliases":[],"osmType":"way","osmId":321241206,"osmDate":null,"officialAreaKm2":null,"areaSourceLabel":"","areaSourceUrl":"","boundarySourceLabel":"© OpenStreetMap contributors","boundarySourceUrl":"https://www.openstreetmap.org/copyright","geometryFile":"attractions/large-park-W321241206.geojson"},"geometry":{"type":"Polygon","coordinates":[[[130.2995786,31.8539382],[130.2996192,31.8532199],[130.2998144,31.8531785],[130.3000075,31.8527905],[130.2999891,31.8525864],[130.2998781,31.8521153],[130.2998966,31.8514872],[130.3001678,31.8510214],[130.3002848,31.8508068],[130.3002787,31.8503671],[130.3003465,31.8503723],[130.3002294,31.8496238],[130.3003156,31.8490585],[130.3004043,31.8487528],[130.300519,31.8483571],[130.3005128,31.8481215],[130.3006669,31.8480326],[130.3008209,31.8478755],[130.301012,31.8478755],[130.3014988,31.8478965],[130.3016018,31.8478446],[130.3016651,31.8478127],[130.3017021,31.8479436],[130.3016405,31.8481425],[130.3014371,31.8484042],[130.3013817,31.8486502],[130.3014988,31.8490271],[130.3017329,31.8493516],[130.3019363,31.8495401],[130.302269,31.8498175],[130.3026819,31.8500844],[130.3029653,31.8503723],[130.303181,31.8507649],[130.3032981,31.8511731],[130.3034398,31.8518798],[130.3035692,31.8522305],[130.3037479,31.8525026],[130.3040067,31.8526963],[130.3043025,31.8528429],[130.3046353,31.8529318],[130.3056027,31.8532511],[130.3061019,31.8533977],[130.3062559,31.8538112],[130.3061019,31.8538164],[130.3059355,31.8537117],[130.3056767,31.8536541],[130.3044196,31.8535233],[130.304284,31.8536541],[130.3043765,31.8538164],[130.3044073,31.8540886],[130.3041978,31.8542299],[130.3032981,31.8542299],[130.3031933,31.8543869],[130.3030208,31.8544445],[130.3027065,31.8546591],[130.3023307,31.8548737],[130.302115,31.8550883],[130.3018931,31.8554494],[130.3017884,31.8557059],[130.3012831,31.8558053],[130.3011229,31.8557006],[130.3007039,31.8557425],[130.3006915,31.855978],[130.3002109,31.8563706],[130.2997857,31.8562188],[130.2999151,31.8559205],[130.2997426,31.8558158],[130.2996871,31.8553186],[130.2995084,31.8552296],[130.2994345,31.8544968],[130.2992619,31.8544759],[130.299225,31.8543189],[130.2991079,31.8543712],[130.2990771,31.8542037],[130.2992126,31.8540886],[130.2995786,31.8539382]]]}}
