{"type":"Feature","id":"attraction-large-park-W435598514","properties":{"id":"attraction-large-park-W435598514","kind":"attraction","name":"花フェスタ記念公園","shortName":"花フェスタ記念公園","context":"日本","subtype":"large-park","subtypeLabel":"大型都市公園・広域公園","statusLabel":"著名な公園","aliases":[],"osmType":"way","osmId":435598514,"osmDate":null,"officialAreaKm2":null,"areaSourceLabel":"","areaSourceUrl":"","boundarySourceLabel":"© OpenStreetMap contributors","boundarySourceUrl":"https://www.openstreetmap.org/copyright","geometryFile":"attractions/large-park-W435598514.geojson"},"geometry":{"type":"Polygon","coordinates":[[[137.0950581,35.4202188],[137.0961724,35.4192862],[137.0972081,35.418373],[137.0973493,35.4185609],[137.097469,35.4186484],[137.0975222,35.4186872],[137.0984145,35.4190448],[137.0988678,35.4189309],[137.0990908,35.4188749],[137.0991552,35.4189379],[137.0991384,35.4189963],[137.0991037,35.4191164],[137.0993613,35.4192634],[137.0997221,35.4196099],[137.0998767,35.4195994],[137.0999927,35.4194524],[137.1001859,35.4195574],[137.1003921,35.4195574],[137.1004436,35.4194524],[137.1013068,35.4191164],[137.1013799,35.4195958],[137.101571,35.4200097],[137.1019639,35.4203553],[137.1024535,35.4204603],[137.1032008,35.4203763],[137.1039738,35.4201978],[137.1046566,35.4203448],[137.1048747,35.4204204],[137.1052049,35.4205349],[137.1052622,35.4205548],[137.1044634,35.4213948],[137.1042236,35.4217214],[137.1035615,35.4226232],[137.103059,35.4233791],[137.1026869,35.4241742],[137.1024793,35.424618],[137.1021829,35.4251429],[137.0991228,35.4257992],[137.0985674,35.4255285],[137.0977857,35.4251476],[137.0972067,35.4248654],[137.096199,35.4244983],[137.0954657,35.4241446],[137.0955705,35.4238703],[137.0960493,35.4233581],[137.0971171,35.4226418],[137.0970145,35.4216997],[137.0969168,35.4216258],[137.0960591,35.4209766],[137.0950581,35.4202188]]]}}
