{"type":"Feature","id":"attraction-large-industrial-complex-W888791965","properties":{"id":"attraction-large-industrial-complex-W888791965","kind":"attraction","name":"ボッシュ女満別テクニカルセンター","shortName":"ボッシュ女満別テクニカルセンター","context":"北海道・大空町","subtype":"industrial-complex","subtypeLabel":"工業地帯・大規模工場","statusLabel":"","aliases":["Bosch Memanbetsu Technical Center"],"osmType":"way","osmId":888791965,"osmDate":null,"officialAreaKm2":null,"areaSourceLabel":"","areaSourceUrl":"","boundarySourceLabel":"© OpenStreetMap contributors","boundarySourceUrl":"https://www.openstreetmap.org/copyright","geometryFile":"attractions/large-industrial-complex-W888791965.geojson"},"geometry":{"type":"Polygon","coordinates":[[[144.1578662,43.9054605],[144.1580272,43.9057658],[144.1582632,43.9060364],[144.1584134,43.906276],[144.1585743,43.9070683],[144.1586977,43.9072113],[144.1588479,43.908193],[144.1592127,43.9087534],[144.1594702,43.9090007],[144.1599101,43.9092867],[144.1613048,43.9101447],[144.1628015,43.9102838],[144.1635793,43.9060093],[144.1644752,43.9060944],[144.1646951,43.9070413],[144.1650653,43.9069369],[144.1653925,43.9067553],[144.1657358,43.9066161],[144.166916,43.9062451],[144.1663957,43.9053871],[144.1637403,43.905132],[144.1657412,43.8942665],[144.163633,43.8940964],[144.1626084,43.8943979],[144.1625735,43.8946434],[144.1624019,43.8946318],[144.1615891,43.9004088],[144.1614765,43.9004803],[144.1613182,43.900459],[144.1613585,43.9002039],[144.1601434,43.9000628],[144.1597411,43.9015181],[144.1594246,43.9024863],[144.1578662,43.9054605]]]}}
