{"type":"Feature","id":"attraction-large-park-W493385691","properties":{"id":"attraction-large-park-W493385691","kind":"attraction","name":"豊橋公園","shortName":"豊橋公園","context":"日本","subtype":"large-park","subtypeLabel":"大型都市公園・広域公園","statusLabel":"著名な公園","aliases":[],"osmType":"way","osmId":493385691,"osmDate":null,"officialAreaKm2":null,"areaSourceLabel":"","areaSourceUrl":"","boundarySourceLabel":"© OpenStreetMap contributors","boundarySourceUrl":"https://www.openstreetmap.org/copyright","geometryFile":"attractions/large-park-W493385691.geojson"},"geometry":{"type":"Polygon","coordinates":[[[137.3995779,34.7697237],[137.3995565,34.7693436],[137.3995256,34.7690297],[137.3997295,34.7690198],[137.3996423,34.7682728],[137.3994981,34.7681054],[137.3993372,34.7679352],[137.3992876,34.7679396],[137.3989838,34.7679732],[137.3985118,34.7680261],[137.3982918,34.768015],[137.3979552,34.7680051],[137.3977232,34.7680106],[137.3974939,34.7680084],[137.3968434,34.7680701],[137.3966731,34.7680933],[137.3957987,34.7682497],[137.3955158,34.7683007],[137.3954688,34.7683092],[137.3949619,34.7684282],[137.394668,34.7684282],[137.3945998,34.7684308],[137.394394,34.7684269],[137.3942424,34.7684032],[137.3937134,34.7682837],[137.3934445,34.7682495],[137.3930991,34.7682528],[137.3928977,34.7682809],[137.3928349,34.768293],[137.3927746,34.7683047],[137.3926767,34.7683157],[137.3924943,34.7683466],[137.3925251,34.7684259],[137.3925385,34.7685614],[137.3925332,34.7686936],[137.3924674,34.7687277],[137.3924433,34.7687883],[137.3924151,34.7689294],[137.3924902,34.769163],[137.3925143,34.7692886],[137.3925144,34.7694053],[137.3925016,34.7694333],[137.3924862,34.7694472],[137.3924574,34.7704562],[137.392447,34.7706931],[137.39245,34.7708067],[137.3926451,34.77087],[137.3930025,34.7709316],[137.3936382,34.7710776],[137.3938219,34.7710633],[137.3939896,34.7710391],[137.3943463,34.7710931],[137.3950517,34.7712704],[137.3952847,34.7712869],[137.3963352,34.7713883],[137.3964103,34.7713916],[137.3974362,34.771494],[137.3979565,34.7715326],[137.39878,34.7715183],[137.399193,34.7715557],[137.399177,34.7713602],[137.3991495,34.7709226],[137.3991202,34.7704916],[137.3991107,34.7703529],[137.3990862,34.7699929],[137.3991474,34.7699837],[137.3992802,34.7699473],[137.3994988,34.7698636],[137.3995444,34.7698493],[137.3995833,34.7698482],[137.3995779,34.7697237]]]}}
