{"type":"Feature","id":"attraction-large-industrial-complex-W962283251","properties":{"id":"attraction-large-industrial-complex-W962283251","kind":"attraction","name":"石狩LNG基地","shortName":"石狩LNG基地","context":"日本","subtype":"industrial-complex","subtypeLabel":"工業地帯・大規模工場","statusLabel":"","aliases":["北海道ガス"],"osmType":"way","osmId":962283251,"osmDate":null,"officialAreaKm2":null,"areaSourceLabel":"","areaSourceUrl":"","boundarySourceLabel":"© OpenStreetMap contributors","boundarySourceUrl":"https://www.openstreetmap.org/copyright","geometryFile":"attractions/large-industrial-complex-W962283251.geojson"},"geometry":{"type":"Polygon","coordinates":[[[141.3011703,43.2078109],[141.3015121,43.2075004],[141.2992156,43.2059134],[141.2984142,43.2053596],[141.2948978,43.2029392],[141.2924516,43.2012968],[141.291824,43.2008784],[141.2916326,43.2015681],[141.2895593,43.208503],[141.2954574,43.2124234],[141.2967671,43.2113765],[141.2940175,43.207601],[141.2955751,43.2063219],[141.2996425,43.2090397],[141.3011703,43.2078109]]]}}
