{"type":"Feature","id":"attraction-large-park-W54500385","properties":{"id":"attraction-large-park-W54500385","kind":"attraction","name":"末吉公園","shortName":"末吉公園","context":"日本","subtype":"large-park","subtypeLabel":"大型都市公園・広域公園","statusLabel":"著名な公園","aliases":["Sueyoshi Park"],"osmType":"way","osmId":54500385,"osmDate":null,"officialAreaKm2":null,"areaSourceLabel":"","areaSourceUrl":"","boundarySourceLabel":"© OpenStreetMap contributors","boundarySourceUrl":"https://www.openstreetmap.org/copyright","geometryFile":"attractions/large-park-W54500385.geojson"},"geometry":{"type":"Polygon","coordinates":[[[127.7148132,26.2261526],[127.7150238,26.226184],[127.7154593,26.2262076],[127.7157706,26.226238],[127.7160449,26.2262521],[127.7163864,26.2262593],[127.7165681,26.2262754],[127.7167159,26.2263255],[127.7173024,26.2264963],[127.7175585,26.2265524],[127.7175974,26.2266319],[127.7177862,26.2266447],[127.7179622,26.2266599],[127.7180565,26.2267318],[127.7180544,26.2268113],[127.7180703,26.2269779],[127.7180954,26.2270979],[127.7177625,26.2271818],[127.7173047,26.2274314],[127.7173396,26.2275951],[127.7174473,26.2275912],[127.7174749,26.2277859],[127.7174197,26.2278153],[127.7174778,26.2279856],[127.7177436,26.2279466],[127.7182086,26.2278106],[127.7185272,26.2277009],[127.7187425,26.2277488],[127.7188011,26.227789],[127.7188316,26.2278361],[127.7188459,26.2279033],[127.7187406,26.2281143],[127.7186036,26.2281654],[127.7185071,26.2283027],[127.7183656,26.2282961],[127.7182914,26.2283263],[127.7182037,26.2283364],[127.7181427,26.2284768],[127.7180703,26.2285054],[127.7179727,26.2285632],[127.7180344,26.2286322],[127.7180168,26.2286682],[127.7179705,26.2286907],[127.7179542,26.2287604],[127.7179128,26.2288493],[127.7176652,26.2290063],[127.7175724,26.2288616],[127.7174556,26.228826],[127.7173406,26.2288325],[127.7172712,26.2288931],[127.7167465,26.2293488],[127.7169365,26.229652],[127.7172251,26.2295169],[127.7172757,26.2295131],[127.7173152,26.2295286],[127.7173424,26.2295612],[127.7173921,26.2296695],[127.7174225,26.2298288],[127.7173613,26.2298682],[127.7173128,26.2301346],[127.7171343,26.2302389],[127.7169556,26.230385],[127.7165926,26.2305274],[127.7165486,26.2304712],[127.7164653,26.2305035],[127.716486,26.2306771],[127.7163995,26.2306974],[127.7162567,26.2306974],[127.7160725,26.2306839],[127.7157978,26.2305454],[127.7157099,26.2303434],[127.715628,26.2302474],[127.7155172,26.2303201],[127.7153343,26.2302698],[127.7150756,26.2303698],[127.7149637,26.2302307],[127.7146411,26.2302934],[127.7144308,26.230375],[127.7143456,26.2304803],[127.7143435,26.2306398],[127.7138837,26.2307419],[127.7137856,26.2304921],[127.7136493,26.2305056],[127.713559,26.2305859],[127.7136614,26.2307344],[127.713503,26.2308203],[127.7133296,26.2306824],[127.7131476,26.2307425],[127.7132828,26.2310033],[127.7131126,26.2310059],[127.7129736,26.2310389],[127.7127711,26.231115],[127.7126644,26.2311923],[127.7126795,26.2312696],[127.7125247,26.2314033],[127.7120995,26.2315371],[127.7118981,26.2316557],[127.7116902,26.2317417],[127.7116198,26.2317686],[127.7115047,26.2318091],[127.7114608,26.231794],[127.7112974,26.231763],[127.7110246,26.2317307],[127.7108143,26.2316774],[127.7106378,26.2316568],[127.7105749,26.2317218],[127.7104894,26.2317509],[127.7103614,26.2317234],[127.7102774,26.2317065],[127.7102412,26.2318166],[127.7101903,26.231833],[127.7101247,26.231812],[127.7099583,26.2317757],[127.7099028,26.2317109],[127.7099679,26.2314982],[127.7100312,26.2313934],[127.7101671,26.2313913],[127.7102411,26.2312236],[127.7102572,26.2311777],[127.7104104,26.2309419],[127.7103523,26.2308756],[127.7103819,26.2308311],[127.7104156,26.2307932],[127.7104494,26.230779],[127.7104885,26.2307885],[127.7105539,26.2308226],[127.7107365,26.2307194],[127.7107685,26.2304716],[127.7109038,26.2303948],[127.7109687,26.2303813],[127.7110015,26.2303867],[127.7110246,26.2303994],[127.7111069,26.2305262],[127.7115271,26.2303577],[127.7118967,26.2300467],[127.7118505,26.2299783],[127.7119676,26.2298808],[127.7120305,26.2298351],[127.7120685,26.2297766],[127.712059,26.229747],[127.7120372,26.2297166],[127.7120422,26.2296921],[127.712099,26.2296546],[127.712011,26.2295916],[127.711954,26.229621],[127.7119065,26.2295865],[127.7117398,26.2296613],[127.7116838,26.22962],[127.7117084,26.2295908],[127.7119959,26.2294759],[127.7119681,26.2293567],[127.7123188,26.2291861],[127.7128897,26.2287189],[127.7128019,26.2285959],[127.712867,26.228512],[127.7127933,26.2283393],[127.7130207,26.228348],[127.712993,26.2279472],[127.7134627,26.2278997],[127.7133212,26.2272108],[127.7133958,26.2270433],[127.7134097,26.2267546],[127.7134003,26.2264526],[127.7133498,26.2264112],[127.7131737,26.2260564],[127.7134696,26.2263529],[127.7136797,26.2265321],[127.7139791,26.226557],[127.7140763,26.2265067],[127.7141511,26.2264353],[127.7142267,26.2263574],[127.7141045,26.2262779],[127.7140403,26.2262349],[127.7139768,26.2261855],[127.7139104,26.2261281],[127.7138186,26.2260362],[127.7136746,26.2258951],[127.7137214,26.2258531],[127.7137716,26.2258531],[127.7138801,26.22599],[127.7140376,26.2260557],[127.7144442,26.2260347],[127.7144657,26.2258306],[127.7146788,26.2258132],[127.7147485,26.2258122],[127.7148132,26.2261526]]]}}
