{"type":"Feature","id":"attraction-large-park-W172505944","properties":{"id":"attraction-large-park-W172505944","kind":"attraction","name":"群馬の森","shortName":"群馬の森","context":"日本","subtype":"large-park","subtypeLabel":"大型都市公園・広域公園","statusLabel":"著名な公園","aliases":["群馬県立公園"],"osmType":"way","osmId":172505944,"osmDate":null,"officialAreaKm2":null,"areaSourceLabel":"","areaSourceUrl":"","boundarySourceLabel":"© OpenStreetMap contributors","boundarySourceUrl":"https://www.openstreetmap.org/copyright","geometryFile":"attractions/large-park-W172505944.geojson"},"geometry":{"type":"Polygon","coordinates":[[[139.0859101,36.297666],[139.0861401,36.2975589],[139.0862155,36.296609],[139.0841134,36.2967074],[139.0806155,36.2968542],[139.0784146,36.2969452],[139.0771301,36.2969923],[139.0756522,36.2970446],[139.0753766,36.2979225],[139.0756312,36.2979332],[139.0764708,36.2979995],[139.0771929,36.2980519],[139.0772801,36.2984612],[139.0768081,36.2992802],[139.079379,36.2991832],[139.0833394,36.2989549],[139.0842283,36.2990424],[139.0835404,36.2996742],[139.0835662,36.2997579],[139.0831585,36.3003525],[139.0831265,36.300531],[139.0836338,36.3016992],[139.0836841,36.3024796],[139.0836679,36.3027433],[139.08361,36.3029214],[139.0831175,36.303572],[139.083456,36.3035562],[139.0836294,36.3035478],[139.0841576,36.3035407],[139.0841576,36.3034677],[139.0841708,36.3028946],[139.0841527,36.3022753],[139.0839973,36.3017403],[139.0839856,36.3000652],[139.0843656,36.2994342],[139.0850348,36.2989813],[139.0864121,36.2985007],[139.0863252,36.2983562],[139.0859101,36.297666]]]}}
