{"type":"Feature","id":"attraction-large-airport-W1136964759","properties":{"id":"attraction-large-airport-W1136964759","kind":"attraction","name":"津市伊勢湾ヘリポート","shortName":"津市伊勢湾ヘリポート","context":"日本","subtype":"airport","subtypeLabel":"空港・飛行場","statusLabel":"","aliases":["津市"],"osmType":"way","osmId":1136964759,"osmDate":null,"officialAreaKm2":null,"areaSourceLabel":"","areaSourceUrl":"","boundarySourceLabel":"© OpenStreetMap contributors","boundarySourceUrl":"https://www.openstreetmap.org/copyright","geometryFile":"attractions/large-airport-W1136964759.geojson"},"geometry":{"type":"Polygon","coordinates":[[[136.555939,34.6722775],[136.5562818,34.6727044],[136.5550372,34.6742574],[136.554662,34.6747254],[136.5536844,34.6735144],[136.555939,34.6722775]]]}}
