{"type":"Feature","id":"attraction-large-park-R1481217","properties":{"id":"attraction-large-park-R1481217","kind":"attraction","name":"いわき公園","shortName":"いわき公園","context":"日本","subtype":"large-park","subtypeLabel":"大型都市公園・広域公園","statusLabel":"","aliases":["Iwaki-Park"],"osmType":"relation","osmId":1481217,"osmDate":null,"officialAreaKm2":null,"areaSourceLabel":"","areaSourceUrl":"","boundarySourceLabel":"© OpenStreetMap contributors","boundarySourceUrl":"https://www.openstreetmap.org/copyright","geometryFile":"attractions/large-park-R1481217.geojson"},"geometry":{"type":"Polygon","coordinates":[[[140.9282687,37.0153179],[140.9279632,37.0155019],[140.9269333,37.0156013],[140.9260519,37.0158414],[140.9261921,37.0161904],[140.9260708,37.0162296],[140.9242334,37.016646],[140.9232773,37.0169806],[140.9226037,37.0171713],[140.9224132,37.0171593],[140.9221176,37.0165136],[140.9216499,37.0153846],[140.9214817,37.0149879],[140.9213013,37.0146551],[140.9209848,37.0143224],[140.9205916,37.0140223],[140.9203224,37.0138329],[140.9200435,37.0136818],[140.9195048,37.0134247],[140.9190753,37.0132404],[140.918713,37.0130561],[140.9183476,37.0128539],[140.9180175,37.0126364],[140.9177069,37.0123892],[140.9173626,37.0120493],[140.9169369,37.0116344],[140.9162056,37.0108503],[140.9142082,37.0086875],[140.9142227,37.008576],[140.9145919,37.0083422],[140.9149906,37.0080502],[140.9153914,37.0077452],[140.9158543,37.0072463],[140.9167248,37.0076493],[140.917047,37.0077173],[140.9172985,37.0077016],[140.917614,37.0076228],[140.9177669,37.007552],[140.9185953,37.007048],[140.9187481,37.0069928],[140.9203053,37.0066763],[140.9203329,37.0068085],[140.9208819,37.006987],[140.9210121,37.0070752],[140.9219435,37.0082412],[140.9221657,37.0084992],[140.9223247,37.0086363],[140.9228101,37.0088107],[140.9234215,37.0089367],[140.9238397,37.0091918],[140.9243012,37.0094848],[140.9251177,37.0112267],[140.9255832,37.012052],[140.9260645,37.0126347],[140.9276266,37.0137694],[140.9280358,37.014171],[140.9282133,37.0147183],[140.9285437,37.0149781],[140.9282687,37.0153179]]]}}
