{"type":"Feature","id":"attraction-large-industrial-complex-R9212359","properties":{"id":"attraction-large-industrial-complex-R9212359","kind":"attraction","name":"日本製鉄株式会社","shortName":"日本製鉄株式会社","context":"日本","subtype":"industrial-complex","subtypeLabel":"工業地帯・大規模工場","statusLabel":"","aliases":["NIPPON STEEL CORPORATION"],"osmType":"relation","osmId":9212359,"osmDate":null,"officialAreaKm2":null,"areaSourceLabel":"","areaSourceUrl":"","boundarySourceLabel":"© OpenStreetMap contributors","boundarySourceUrl":"https://www.openstreetmap.org/copyright","geometryFile":"attractions/large-industrial-complex-R9212359.geojson"},"geometry":{"type":"MultiPolygon","coordinates":[[[[135.4319591,34.6717288],[135.4319859,34.6717486],[135.4320669,34.6717847],[135.4328683,34.6721413],[135.4345742,34.6729001],[135.4355049,34.6733678],[135.4355341,34.6733603],[135.4357651,34.6735134],[135.4357866,34.6735575],[135.4370401,34.674217],[135.4372321,34.6743111],[135.4372775,34.6742592],[135.4374986,34.6740642],[135.4377161,34.6742308],[135.4376846,34.6742646],[135.4380466,34.6744621],[135.4386624,34.6736397],[135.4387075,34.6735795],[135.4402915,34.6721933],[135.4406795,34.6718538],[135.4408435,34.6717105],[135.4411751,34.67142],[135.4411644,34.6713295],[135.440754,34.6709964],[135.4405544,34.6708707],[135.4393673,34.6701229],[135.4380745,34.6694192],[135.4374335,34.669075],[135.4370392,34.6689625],[135.4368621,34.6689934],[135.4365752,34.6689206],[135.4360065,34.6686603],[135.4359609,34.6686427],[135.4355988,34.6686162],[135.4353118,34.6686647],[135.4351965,34.6686713],[135.4342577,34.6693508],[135.4336167,34.669867],[135.4327824,34.6706016],[135.4323529,34.6711519],[135.4320342,34.671592],[135.4319591,34.6717288]]],[[[135.4318021,34.6721215],[135.4316911,34.6723238],[135.4314107,34.6728375],[135.4313568,34.6730491],[135.4311982,34.6732898],[135.4310333,34.6736167],[135.4310641,34.6736262],[135.4307807,34.6741621],[135.4306004,34.6745162],[135.4305188,34.6746714],[135.4305196,34.674748],[135.4304086,34.6749292],[135.4302923,34.6752877],[135.4301568,34.6757014],[135.4300905,34.675894],[135.430082,34.6761011],[135.4301298,34.6762468],[135.4302061,34.6763735],[135.430317,34.6765027],[135.4304903,34.6766218],[135.4306875,34.6767396],[135.430974,34.6768847],[135.431145,34.6769702],[135.4313368,34.6769658],[135.4315218,34.677073],[135.4315601,34.6771078],[135.4316801,34.6771712],[135.431731,34.6771789],[135.4319369,34.677287],[135.4320985,34.6773741],[135.4325002,34.6775853],[135.4326383,34.6776686],[135.4327979,34.677748],[135.4327526,34.6778102],[135.4330266,34.677946],[135.4330736,34.6778845],[135.4335182,34.6780985],[135.4356894,34.6752437],[135.436981,34.6759012],[135.437629,34.6750203],[135.4374169,34.6749148],[135.4366078,34.674807],[135.4364522,34.6748548],[135.4363585,34.6748149],[135.4363956,34.674766],[135.4362366,34.6746862],[135.4363974,34.6744696],[135.4363924,34.6744404],[135.4362791,34.6743803],[135.4362891,34.6743348],[135.4354898,34.6739383],[135.4352049,34.6737942],[135.4341042,34.6732572],[135.4329592,34.6726954],[135.4318021,34.6721215]]]]}}
