{"type":"Feature","id":"attraction-large-park-W784481432","properties":{"id":"attraction-large-park-W784481432","kind":"attraction","name":"甲山森林公園","shortName":"甲山森林公園","context":"日本","subtype":"large-park","subtypeLabel":"大型都市公園・広域公園","statusLabel":"著名な公園","aliases":["Kabutoyama Forest Park"],"osmType":"way","osmId":784481432,"osmDate":null,"officialAreaKm2":null,"areaSourceLabel":"","areaSourceUrl":"","boundarySourceLabel":"© OpenStreetMap contributors","boundarySourceUrl":"https://www.openstreetmap.org/copyright","geometryFile":"attractions/large-park-W784481432.geojson"},"geometry":{"type":"Polygon","coordinates":[[[135.3394547,34.7722404],[135.3392619,34.7710314],[135.3364134,34.7700047],[135.3352493,34.7705378],[135.3352386,34.7713178],[135.3349972,34.771688],[135.3347665,34.7718598],[135.3345144,34.7718554],[135.3335381,34.772155],[135.3323954,34.7726177],[135.3318322,34.7726662],[135.3308237,34.7729218],[135.3308666,34.7730231],[135.3311616,34.7732831],[135.3316122,34.7735166],[135.3321379,34.7740057],[135.3321326,34.7742745],[135.3327441,34.7745918],[135.3325832,34.7750104],[135.3327656,34.77531],[135.3335756,34.775711],[135.3336614,34.7766671],[135.3344661,34.7771078],[135.3341603,34.7779185],[135.3341121,34.7781741],[135.3346646,34.7782181],[135.3352756,34.777239],[135.3376257,34.7774675],[135.3396058,34.7771996],[135.3410927,34.7739094],[135.3395072,34.7732613],[135.3394547,34.7722404]]]}}
