{"type":"Feature","id":"attraction-large-industrial-complex-W969271384","properties":{"id":"attraction-large-industrial-complex-W969271384","kind":"attraction","name":"興人ライフサイエンス 佐伯工場","shortName":"興人ライフサイエンス 佐伯工場","context":"日本","subtype":"industrial-complex","subtypeLabel":"工業地帯・大規模工場","statusLabel":"","aliases":[],"osmType":"way","osmId":969271384,"osmDate":null,"officialAreaKm2":null,"areaSourceLabel":"","areaSourceUrl":"","boundarySourceLabel":"© OpenStreetMap contributors","boundarySourceUrl":"https://www.openstreetmap.org/copyright","geometryFile":"attractions/large-industrial-complex-W969271384.geojson"},"geometry":{"type":"Polygon","coordinates":[[[131.9163482,32.9685437],[131.9161649,32.9685397],[131.9160646,32.968316],[131.9160976,32.9683067],[131.9159956,32.968098],[131.9161107,32.9680633],[131.9159972,32.9678115],[131.9158353,32.9678605],[131.9157528,32.9676913],[131.9155835,32.9677049],[131.9154806,32.9674799],[131.9159698,32.9673174],[131.91588,32.9671321],[131.9232766,32.9647529],[131.9232933,32.9647502],[131.9233128,32.9647507],[131.9233351,32.964753],[131.9233524,32.9647572],[131.9233672,32.9647638],[131.9233976,32.9647919],[131.9234585,32.9648832],[131.9237025,32.9662462],[131.9237395,32.9664125],[131.9237793,32.9665903],[131.9238075,32.966706],[131.923858,32.9668707],[131.9239649,32.967134],[131.9241281,32.9674992],[131.9259986,32.9717286],[131.9260333,32.9718173],[131.9260593,32.9719007],[131.9260593,32.9720345],[131.9260459,32.9721119],[131.9260333,32.972157],[131.9259883,32.9722497],[131.9258884,32.9723634],[131.9258307,32.972415],[131.9257429,32.9724774],[131.925698,32.9725006],[131.925614,32.9725301],[131.9240415,32.973037],[131.9239515,32.9730669],[131.9222179,32.9736292],[131.9221129,32.9736634],[131.9212098,32.973961],[131.9212291,32.9740012],[131.9212836,32.9740602],[131.9191364,32.974759],[131.9179058,32.9751531],[131.9177035,32.9737914],[131.917566,32.972834],[131.9174048,32.9728587],[131.9172539,32.9723479],[131.9173767,32.9723122],[131.9172895,32.9720746],[131.9172164,32.9720983],[131.9168592,32.971341],[131.9169662,32.9713036],[131.9163935,32.9700887],[131.9162829,32.9698708],[131.9162454,32.9697358],[131.9161515,32.969522],[131.9159369,32.9690112],[131.9159201,32.9689807],[131.9159608,32.9689631],[131.9163852,32.9686691],[131.9163482,32.9685437]]]}}
