{"type":"Feature","id":"attraction-large-industrial-complex-W533552290","properties":{"id":"attraction-large-industrial-complex-W533552290","kind":"attraction","name":"産業技術総合研究所つくば北","shortName":"産業技術総合研究所つくば北","context":"日本","subtype":"industrial-complex","subtypeLabel":"工業地帯・大規模工場","statusLabel":"","aliases":[],"osmType":"way","osmId":533552290,"osmDate":null,"officialAreaKm2":null,"areaSourceLabel":"","areaSourceUrl":"","boundarySourceLabel":"© OpenStreetMap contributors","boundarySourceUrl":"https://www.openstreetmap.org/copyright","geometryFile":"attractions/large-industrial-complex-W533552290.geojson"},"geometry":{"type":"Polygon","coordinates":[[[140.0217682,36.1745711],[140.0206741,36.1733297],[140.0204063,36.1724516],[140.0206179,36.1716732],[140.021481,36.1710206],[140.0227374,36.1705562],[140.0240969,36.170903],[140.0328323,36.1802476],[140.0291513,36.1824407],[140.0248353,36.1778404],[140.024268,36.1781489],[140.0240801,36.1779448],[140.0236951,36.1774446],[140.0223038,36.1752545],[140.0217682,36.1745711]]]}}
