{"type":"Feature","id":"attraction-large-military-base-W343204846","properties":{"id":"attraction-large-military-base-W343204846","kind":"attraction","name":"出砂島射爆撃場","shortName":"出砂島射爆撃場","context":"日本","subtype":"military-base","subtypeLabel":"基地・駐屯地・演習場","statusLabel":"","aliases":["Idesuna Jima Range"],"osmType":"way","osmId":343204846,"osmDate":null,"officialAreaKm2":null,"areaSourceLabel":"","areaSourceUrl":"","boundarySourceLabel":"© OpenStreetMap contributors","boundarySourceUrl":"https://www.openstreetmap.org/copyright","geometryFile":"attractions/large-military-base-W343204846.geojson"},"geometry":{"type":"Polygon","coordinates":[[[127.1037222,26.4210516],[127.094106,26.4199175],[127.0851456,26.4165925],[127.0774521,26.4113035],[127.07155,26.4044111],[127.0678413,26.3963852],[127.0665783,26.387773],[127.0678466,26.3791614],[127.0715593,26.3711373],[127.0774628,26.3642473],[127.0851549,26.3589606],[127.0941113,26.3556374],[127.1037222,26.354504],[127.1133331,26.3556374],[127.1222896,26.3589606],[127.1299816,26.3642473],[127.1358852,26.3711373],[127.1395978,26.3791614],[127.1408662,26.387773],[127.1396032,26.3963852],[127.1358945,26.4044111],[127.1299923,26.4113035],[127.1222988,26.4165925],[127.1133385,26.4199175],[127.1037222,26.4210516]]]}}
