{"type":"Feature","id":"attraction-large-park-R8381243","properties":{"id":"attraction-large-park-R8381243","kind":"attraction","name":"野幌森林公園","shortName":"野幌森林公園","context":"日本","subtype":"large-park","subtypeLabel":"大型都市公園・広域公園","statusLabel":"","aliases":[],"osmType":"relation","osmId":8381243,"osmDate":null,"officialAreaKm2":null,"areaSourceLabel":"","areaSourceUrl":"","boundarySourceLabel":"© OpenStreetMap contributors","boundarySourceUrl":"https://www.openstreetmap.org/copyright","geometryFile":"attractions/large-park-R8381243.geojson"},"geometry":{"type":"MultiPolygon","coordinates":[[[[141.5089327,43.058984],[141.5088871,43.0588742],[141.4984024,43.0628054],[141.4970505,43.0627505],[141.4948537,43.0625741],[141.4948204,43.0625371],[141.4948838,43.0621452],[141.4949388,43.0621484],[141.4951461,43.0606654],[141.4950405,43.0606615],[141.4950268,43.0606448],[141.4950308,43.0606066],[141.4949101,43.0605988],[141.4930728,43.0604871],[141.4933625,43.0584587],[141.4934644,43.0578434],[141.4935449,43.0575416],[141.4929226,43.0572927],[141.4924881,43.0571476],[141.4921018,43.0571084],[141.4921233,43.0569477],[141.4919034,43.0567361],[141.4922628,43.0549565],[141.491729,43.0549154],[141.4919114,43.0538256],[141.4920174,43.0533798],[141.4918417,43.0531916],[141.4921582,43.0515011],[141.4932364,43.0515874],[141.4936602,43.0516187],[141.493569,43.0512071],[141.4935341,43.0509484],[141.4935341,43.0507622],[141.4935824,43.050625],[141.4936629,43.0505348],[141.4938158,43.0504329],[141.4940652,43.0503173],[141.4942825,43.050282],[141.49443,43.0502938],[141.4947116,43.0503192],[141.4949584,43.0503545],[141.4951756,43.0503212],[141.4952078,43.0500429],[141.4948001,43.0500429],[141.4945078,43.0499704],[141.4943415,43.0499017],[141.4940103,43.0497264],[141.4938593,43.0496598],[141.4937017,43.0496119],[141.4935022,43.0495771],[141.4932686,43.0495548],[141.493156,43.0495399],[141.4930433,43.0495386],[141.4929266,43.0495558],[141.4927677,43.0496023],[141.4927443,43.0495869],[141.4927128,43.0495793],[141.4924479,43.0495783],[141.4924572,43.0495627],[141.4920562,43.0495333],[141.4919436,43.0493235],[141.4919651,43.0491746],[141.4918658,43.0485964],[141.4920348,43.04861],[141.4922065,43.0482298],[141.4916941,43.0481925],[141.4920053,43.0477457],[141.4921609,43.0477516],[141.4922628,43.0477319],[141.492362,43.0476809],[141.4923991,43.0476216],[141.4926356,43.0467107],[141.4926624,43.0466892],[141.4928763,43.0466925],[141.4933163,43.0459594],[141.4933236,43.0458801],[141.4935636,43.0455817],[141.4938909,43.0452621],[141.4944354,43.0446466],[141.4946204,43.044433],[141.4947787,43.0443056],[141.4949718,43.044235],[141.4952159,43.0441546],[141.4954975,43.0439684],[141.4957926,43.0438449],[141.496211,43.0435822],[141.4965221,43.0432647],[141.496911,43.0427276],[141.4985365,43.0432374],[141.4993331,43.0421473],[141.4998266,43.0423865],[141.5000358,43.042508],[141.5001914,43.0427609],[141.5002879,43.0428648],[141.500296,43.042953],[141.5003362,43.043053],[141.5004998,43.0431784],[141.5005696,43.0433],[141.5005562,43.0433921],[141.5004556,43.0434161],[141.5004348,43.0434325],[141.5004362,43.0434887],[141.5004777,43.0435142],[141.5005783,43.0435156],[141.5006144,43.0435267],[141.5006427,43.0435656],[141.5006859,43.0436897],[141.5007111,43.0437356],[141.5007989,43.0438469],[141.500815,43.0438831],[141.5008251,43.0439155],[141.5008244,43.0439488],[141.5008076,43.0439821],[141.5007747,43.0440057],[141.5007727,43.044039],[141.5008036,43.0440616],[141.5009712,43.0440698],[141.5010205,43.0440787],[141.5011382,43.044114],[141.5013347,43.0441169],[141.5013836,43.0441571],[141.5014379,43.0442566],[141.5015466,43.0443041],[141.5016509,43.0443847],[141.5017008,43.0444535],[141.5017108,43.0445187],[141.5017095,43.0445518],[141.501678,43.0446133],[141.5016797,43.0446329],[141.5017276,43.0447368],[141.5022158,43.0447774],[141.5024364,43.0432725],[141.5026081,43.0419474],[141.5027422,43.0403477],[141.5028548,43.0395642],[141.5028192,43.039558],[141.5028388,43.0391009],[141.5028817,43.0391097],[141.5029514,43.0390813],[141.5031955,43.0391332],[141.5037185,43.0392077],[141.503756,43.03905],[141.5038142,43.0386839],[141.5038566,43.0382422],[141.5039223,43.0381874],[141.5039599,43.0380109],[141.5042603,43.0364387],[141.5051454,43.0364426],[141.505301,43.0362387],[141.5058643,43.0362563],[141.5065805,43.0359721],[141.5066421,43.0356153],[141.5035379,43.0353187],[141.5034328,43.0352819],[141.5035213,43.0346528],[141.5036005,43.0335802],[141.5037507,43.0330861],[141.5043837,43.0292354],[141.5051588,43.0236687],[141.5054324,43.0235628],[141.5061459,43.0233903],[141.5065536,43.0232491],[141.5073422,43.0227608],[141.5079671,43.0226353],[141.5096971,43.0222706],[141.5100297,43.0222745],[141.5113708,43.0224843],[141.5117624,43.0225392],[141.5120923,43.0225216],[141.5131196,43.0222529],[141.5133503,43.0222549],[141.5137258,43.0223784],[141.514273,43.0226079],[141.5146002,43.0226255],[141.5152895,43.0225687],[141.5159574,43.0224039],[141.5164322,43.0222216],[141.5170249,43.0220274],[141.5187335,43.0220706],[141.5192753,43.0222824],[141.5201604,43.0226746],[141.5209705,43.0227138],[141.5217215,43.0226942],[141.521979,43.0226549],[141.5233254,43.0220627],[141.5233952,43.0215764],[141.5230733,43.0212117],[141.5230465,43.0210038],[141.5234166,43.0197762],[141.5252835,43.0197723],[141.5307069,43.0199723],[141.5317422,43.020039],[141.532504,43.020443],[141.5351218,43.0223255],[141.5361196,43.0230746],[141.5380132,43.0244786],[141.5392363,43.0245609],[141.5401161,43.0237177],[141.5402985,43.0237334],[141.5411031,43.0236668],[141.5414947,43.0236432],[141.5415859,43.0244119],[141.5424496,43.0244707],[141.5460545,43.0243844],[141.5463334,43.024455],[141.5468323,43.0244315],[141.5470844,43.0244001],[141.5472883,43.0242393],[141.5474439,43.0242472],[141.5476316,43.0243335],[141.5478623,43.0243884],[141.549595,43.0244864],[141.5497559,43.024659],[141.5500027,43.0247452],[141.5503621,43.024808],[141.5505391,43.0248119],[141.5506625,43.0247609],[141.5507376,43.0246354],[141.5509254,43.0246472],[141.5509307,43.0238393],[141.5525883,43.023553],[141.549992,43.0308471],[141.5448099,43.0298433],[141.5438819,43.0299727],[141.5436029,43.030851],[141.5463012,43.0314039],[141.5458023,43.0326783],[141.5431416,43.0321568],[141.5409422,43.0379874],[141.5468109,43.0392676],[141.5469879,43.0396988],[141.5472078,43.0399635],[141.5483263,43.040287],[141.5489352,43.0404065],[141.5491122,43.0404869],[141.5491524,43.040534],[141.5485114,43.040732],[141.548034,43.040828],[141.547747,43.0407751],[141.5475458,43.0408045],[141.5472481,43.0409456],[141.5470013,43.040979],[141.5466714,43.0409476],[141.5463629,43.0409103],[141.5462556,43.0409535],[141.5460142,43.0416651],[141.5462691,43.0417082],[141.5458989,43.0425864],[141.5456253,43.0427511],[141.5434849,43.0491295],[141.543324,43.0498077],[141.5433723,43.0500115],[141.5432489,43.0506975],[141.5430772,43.0517324],[141.5422082,43.0555504],[141.5419373,43.0570398],[141.5415725,43.0586429],[141.5361518,43.0581491],[141.5355227,43.0583191],[141.5344888,43.0581726],[141.5343171,43.0581844],[141.5338987,43.058153],[141.5334803,43.0580982],[141.5331101,43.0580354],[141.5327748,43.0603558],[141.5327387,43.0603531],[141.5326489,43.0610795],[141.5326273,43.061122],[141.5326456,43.0612317],[141.5322947,43.0636565],[141.5322184,43.064169],[141.5317355,43.0679179],[141.5316949,43.0679298],[141.5300443,43.067812],[141.5298123,43.0678149],[141.5295991,43.0678453],[141.5294637,43.0678865],[141.5293497,43.0679629],[141.5292424,43.0680216],[141.5290815,43.0680608],[141.5289313,43.0680619],[141.5285733,43.0680508],[141.527448,43.0680158],[141.5273219,43.0680295],[141.5266754,43.0683207],[141.5266455,43.0683499],[141.5264567,43.06839],[141.526299,43.068476],[141.5262084,43.0684933],[141.525995,43.0684987],[141.5259266,43.0687138],[141.5257657,43.0687711],[141.525259,43.0688746],[141.5249267,43.0689222],[141.5243654,43.0688795],[141.5243326,43.0691695],[141.5235441,43.0691072],[141.5234971,43.0696696],[141.5233844,43.0697068],[141.5232772,43.0697734],[141.5228909,43.0695736],[141.522333,43.0698557],[141.5190446,43.0721208],[141.5186691,43.0721639],[141.5176606,43.0720581],[141.5182346,43.0734296],[141.517092,43.0738998],[141.5170115,43.0734335],[141.5169364,43.0728653],[141.5169418,43.0725048],[141.5170383,43.0716976],[141.5081227,43.0702946],[141.50823,43.0697186],[141.5086484,43.0697303],[141.508804,43.0681785],[141.5089488,43.067912],[141.5088093,43.066654],[141.5089059,43.0661954],[141.506685,43.06607],[141.5043676,43.0659329],[141.5024579,43.0658075],[141.50249,43.0656076],[141.5026966,43.0656174],[141.5060842,43.0643103],[141.5064168,43.0642378],[141.5065992,43.0641712],[141.5067092,43.0640811],[141.506862,43.0638655],[141.5069506,43.0636519],[141.5069774,43.063505],[141.5071464,43.0624526],[141.5072027,43.062145],[141.5072483,43.0620293],[141.5073636,43.0618275],[141.5074977,43.0616394],[141.5076774,43.0614297],[141.5083185,43.0605929],[141.5084204,43.0604479],[141.5084848,43.0602813],[141.5085787,43.0600011],[141.5088442,43.0592309],[141.5089327,43.058984]]],[[[141.5163249,43.0184525],[141.5159762,43.018478],[141.5153513,43.0183957],[141.5151018,43.0184427],[141.5148979,43.0185957],[141.5146136,43.0189173],[141.5143052,43.0189036],[141.5139913,43.0189546],[141.5135139,43.0191095],[141.512602,43.0197606],[141.5111428,43.0200665],[141.51007,43.0202979],[141.5088522,43.020443],[141.5082997,43.0205018],[141.5077954,43.0205959],[141.5068781,43.0209293],[141.5055638,43.0215647],[141.505816,43.0196586],[141.5063685,43.0194546],[141.506803,43.0193919],[141.5071624,43.0193487],[141.5074789,43.0193683],[141.5077579,43.0193174],[141.5078887,43.019159],[141.5081213,43.0189968],[141.5083505,43.0187967],[141.5086933,43.0176336],[141.5091312,43.0174936],[141.5096247,43.0169327],[141.5095925,43.0169053],[141.5098527,43.0168033],[141.5101504,43.016768],[141.5105984,43.0167739],[141.510947,43.0168013],[141.511226,43.0168856],[141.5114433,43.0168641],[141.5116927,43.0167837],[141.5121004,43.0164307],[141.5123633,43.0162444],[141.5127709,43.0161463],[141.5129426,43.016058],[141.5130874,43.015958],[141.5132323,43.0157227],[141.5134415,43.0155403],[141.5136024,43.0154599],[141.5137821,43.0154089],[141.5140316,43.0153952],[141.5143615,43.0154285],[141.5149891,43.0154599],[141.5156436,43.0154756],[141.5159386,43.0154324],[141.5162739,43.0153481],[141.5165019,43.0152069],[141.516754,43.0150441],[141.5170786,43.0148951],[141.5180013,43.014746],[141.5183553,43.0146715],[141.5188462,43.0145283],[141.5190312,43.0144754],[141.5192163,43.0144048],[141.5200317,43.0140008],[141.5202677,43.0142322],[141.5214077,43.014393],[141.5221386,43.0140968],[141.5229017,43.0138145],[141.5230626,43.0137301],[141.5234247,43.0136556],[141.5236071,43.0136164],[141.5240255,43.0135987],[141.5242642,43.0135987],[141.5246156,43.0136635],[141.5248141,43.0137909],[141.5250313,43.0140145],[141.525144,43.0145715],[141.5250367,43.0148539],[141.5249509,43.0153128],[141.5246826,43.0157874],[141.5243876,43.0162306],[141.5227032,43.0165797],[141.5210938,43.0169562],[141.5194899,43.0173838],[141.5178055,43.0179446],[141.5167111,43.0182858],[141.5163249,43.0184525]]],[[[141.5332389,43.0197174],[141.5332818,43.0183761],[141.5332818,43.0180074],[141.5331745,43.017223],[141.532917,43.0169484],[141.53252,43.016666],[141.5322626,43.0161875],[141.5322626,43.015858],[141.5325415,43.0155442],[141.533153,43.0153011],[141.5340114,43.0152775],[141.5355456,43.0151167],[141.5360311,43.0151265],[141.5365702,43.0151912],[141.5378872,43.0155344],[141.538142,43.0156266],[141.5383673,43.0156207],[141.5384719,43.0156031],[141.5389279,43.0156129],[141.5391424,43.0155462],[141.5396896,43.0153658],[141.5399471,43.0152246],[141.5401858,43.0150892],[141.5403333,43.015003],[141.5405425,43.0149186],[141.5406901,43.0148892],[141.5410629,43.0148755],[141.5413794,43.0148598],[141.5420821,43.0149206],[141.5425354,43.0149324],[141.543501,43.0149167],[141.5439248,43.0148559],[141.5441287,43.0147519],[141.5443379,43.0147009],[141.5446356,43.0146676],[141.5452284,43.0146637],[141.5453437,43.0148892],[141.5456066,43.0159718],[141.5475136,43.0161953],[141.5504855,43.0165091],[141.5511373,43.0165091],[141.5519527,43.0165856],[141.5519285,43.0163601],[141.553039,43.0164601],[141.5527976,43.0174955],[141.5521485,43.0175975],[141.5511534,43.0179113],[141.5505901,43.0180544],[141.550228,43.0181054],[141.5495065,43.0181839],[141.5487045,43.0182211],[141.5481761,43.0181937],[141.5472239,43.0180897],[141.5464273,43.0179956],[141.5454912,43.017823],[141.5442869,43.0175916],[141.5439329,43.017572],[141.5436727,43.0175897],[141.5432569,43.0177407],[141.5430504,43.017927],[141.5429404,43.0181172],[141.5427312,43.0187859],[141.5427151,43.0189605],[141.5427956,43.0190742],[141.5434286,43.0192938],[141.5435627,43.0193742],[141.5435439,43.0198155],[141.5434957,43.0199978],[141.543324,43.0202508],[141.5429431,43.020645],[141.542742,43.0208313],[141.5424684,43.0208626],[141.5414974,43.0208332],[141.5409261,43.0208097],[141.5404272,43.0207842],[141.5400866,43.0207509],[141.5393409,43.0205528],[141.538775,43.0204234],[141.5378737,43.0201979],[141.5364897,43.0200233],[141.5345532,43.0198115],[141.5332389,43.0197174]]]]}}
