{"type":"Feature","id":"attraction-large-park-R9645089","properties":{"id":"attraction-large-park-R9645089","kind":"attraction","name":"葛西海浜公園","shortName":"葛西海浜公園","context":"日本","subtype":"large-park","subtypeLabel":"大型都市公園・広域公園","statusLabel":"著名な公園","aliases":["Kasai Marin Park"],"osmType":"relation","osmId":9645089,"osmDate":null,"officialAreaKm2":null,"areaSourceLabel":"","areaSourceUrl":"","boundarySourceLabel":"© OpenStreetMap contributors","boundarySourceUrl":"https://www.openstreetmap.org/copyright","geometryFile":"attractions/large-park-R9645089.geojson"},"geometry":{"type":"Polygon","coordinates":[[[139.8497251,35.638462],[139.849863,35.6373686],[139.8516648,35.6373998],[139.8524218,35.6376412],[139.8532231,35.6384648],[139.8540169,35.638354],[139.8547167,35.6382204],[139.8555743,35.6380587],[139.8561938,35.6379243],[139.8570761,35.6376258],[139.8577077,35.6372787],[139.8582161,35.6368782],[139.858615,35.6363667],[139.8588042,35.6365375],[139.8588565,35.6365691],[139.8589588,35.6365409],[139.8590382,35.6367141],[139.8590746,35.6368946],[139.8590322,35.6371681],[139.8589752,35.6374119],[139.858854,35.6376152],[139.8587197,35.6377567],[139.8585451,35.6378994],[139.8583287,35.6380205],[139.8579141,35.6379688],[139.857978,35.638151],[139.8568851,35.6384397],[139.8564865,35.6385263],[139.8559856,35.638564],[139.8559558,35.6385687],[139.8558406,35.638587],[139.8557201,35.6386109],[139.8557147,35.6386119],[139.8556304,35.638636],[139.855563,35.6386682],[139.8555104,35.6387239],[139.8553482,35.638992],[139.8550987,35.6392231],[139.854797,35.6393855],[139.8526029,35.6402432],[139.8522677,35.6403762],[139.8518962,35.6404405],[139.8515823,35.6404481],[139.8511787,35.640386],[139.8508702,35.6403032],[139.8505698,35.6401561],[139.8504086,35.6400667],[139.8503029,35.6399969],[139.8501409,35.6398028],[139.8501163,35.6397804],[139.8499616,35.6395682],[139.8498514,35.6393932],[139.8497814,35.6392023],[139.8497396,35.638652],[139.8497251,35.638462]]]}}
