{"type":"Feature","id":"attraction-large-park-W251883776","properties":{"id":"attraction-large-park-W251883776","kind":"attraction","name":"県立あいかわ公園","shortName":"県立あいかわ公園","context":"神奈川県・愛川町","subtype":"large-park","subtypeLabel":"大型都市公園・広域公園","statusLabel":"著名な公園","aliases":[],"osmType":"way","osmId":251883776,"osmDate":null,"officialAreaKm2":null,"areaSourceLabel":"","areaSourceUrl":"","boundarySourceLabel":"© OpenStreetMap contributors","boundarySourceUrl":"https://www.openstreetmap.org/copyright","geometryFile":"attractions/large-park-W251883776.geojson"},"geometry":{"type":"Polygon","coordinates":[[[139.2511056,35.5468393],[139.2510545,35.5451213],[139.2511581,35.5430995],[139.2518903,35.5419227],[139.2537915,35.5401732],[139.2540639,35.5394635],[139.2542457,35.539437],[139.2546987,35.5395854],[139.2547592,35.5395923],[139.2548835,35.5395851],[139.2551751,35.5395165],[139.2555165,35.5395206],[139.2560377,35.5395569],[139.257088,35.5395005],[139.257287,35.5395132],[139.257644,35.5396036],[139.2579269,35.5397511],[139.2581746,35.5398425],[139.2589843,35.5404192],[139.2590487,35.5412197],[139.257934,35.5417638],[139.2578353,35.5417527],[139.2575615,35.5418907],[139.2575745,35.5419049],[139.2574203,35.5419949],[139.2573586,35.542114],[139.257427,35.5421954],[139.2576028,35.5424041],[139.2577179,35.542538],[139.2571897,35.542778],[139.2572541,35.5429391],[139.2577045,35.5428313],[139.2575887,35.5431746],[139.2574351,35.5434445],[139.2565376,35.5443435],[139.2565132,35.5444631],[139.2565365,35.5446032],[139.2566637,35.544725],[139.2567814,35.5448011],[139.2560436,35.5457306],[139.2558225,35.5459015],[139.2557493,35.5460757],[139.2557667,35.5462491],[139.2558799,35.5464608],[139.2560468,35.546508],[139.257345,35.5465547],[139.2572945,35.5472227],[139.2573106,35.547671],[139.257346,35.5479928],[139.2572747,35.5483756],[139.2569421,35.548847],[139.2561911,35.5488819],[139.2555152,35.5485415],[139.2543028,35.5483756],[139.2535732,35.5483582],[139.2528437,35.5479653],[139.252318,35.5478693],[139.2516635,35.5472234],[139.2511056,35.5468393]]]}}
