{"type":"Feature","id":"attraction-large-industrial-complex-W551626979","properties":{"id":"attraction-large-industrial-complex-W551626979","kind":"attraction","name":"トヨタ自動車","shortName":"トヨタ自動車","context":"日本","subtype":"industrial-complex","subtypeLabel":"工業地帯・大規模工場","statusLabel":"","aliases":[],"osmType":"way","osmId":551626979,"osmDate":null,"officialAreaKm2":null,"areaSourceLabel":"","areaSourceUrl":"","boundarySourceLabel":"© OpenStreetMap contributors","boundarySourceUrl":"https://www.openstreetmap.org/copyright","geometryFile":"attractions/large-industrial-complex-W551626979.geojson"},"geometry":{"type":"Polygon","coordinates":[[[136.8851777,35.0458709],[136.8834021,35.0458534],[136.8833994,35.0456887],[136.8812322,35.0456909],[136.8812295,35.0458775],[136.880567,35.0458622],[136.8791964,35.0473927],[136.8808942,35.0516965],[136.8810605,35.0516525],[136.8814548,35.0527131],[136.8837177,35.0522562],[136.8849101,35.0520822],[136.8861332,35.0519939],[136.8880297,35.0519261],[136.8895217,35.0518462],[136.8904211,35.0517542],[136.8908569,35.0517292],[136.8920108,35.0516512],[136.893146,35.0515159],[136.8959661,35.0514486],[136.896054,35.0514127],[136.8960975,35.0513423],[136.8960629,35.0501466],[136.8960033,35.0500782],[136.8958825,35.0500405],[136.8892323,35.0500969],[136.8877679,35.0501891],[136.8851098,35.0501365],[136.8851142,35.0492374],[136.8851777,35.0458709]]]}}
