{"type":"Feature","id":"attraction-large-park-W47310613","properties":{"id":"attraction-large-park-W47310613","kind":"attraction","name":"金岡公園","shortName":"金岡公園","context":"大阪府・堺市","subtype":"large-park","subtypeLabel":"大型都市公園・広域公園","statusLabel":"著名な公園","aliases":["Kanaoka Park"],"osmType":"way","osmId":47310613,"osmDate":null,"officialAreaKm2":null,"areaSourceLabel":"","areaSourceUrl":"","boundarySourceLabel":"© OpenStreetMap contributors","boundarySourceUrl":"https://www.openstreetmap.org/copyright","geometryFile":"attractions/large-park-W47310613.geojson"},"geometry":{"type":"Polygon","coordinates":[[[135.5056086,34.5686996],[135.5057403,34.5686956],[135.5058595,34.5686931],[135.5058582,34.5686717],[135.5058256,34.5674282],[135.5058606,34.5674265],[135.5061442,34.5674185],[135.5062542,34.5674167],[135.5063066,34.5686675],[135.5063343,34.5686662],[135.5100438,34.5685464],[135.5099802,34.569039],[135.509974,34.5691764],[135.5091828,34.574415],[135.5090979,34.5744459],[135.5089174,34.5744943],[135.5085202,34.5745135],[135.5084553,34.5745166],[135.5084264,34.5734388],[135.5076857,34.5734448],[135.5076655,34.5718592],[135.5065489,34.5718971],[135.5065421,34.5716141],[135.505425,34.5716214],[135.5054058,34.5710413],[135.5056769,34.5710328],[135.5056086,34.5686996]]]}}
