{"type":"Feature","id":"attraction-large-industrial-complex-W609028310","properties":{"id":"attraction-large-industrial-complex-W609028310","kind":"attraction","name":"日産テクニカルセンター","shortName":"日産テクニカルセンター","context":"日本","subtype":"industrial-complex","subtypeLabel":"工業地帯・大規模工場","statusLabel":"","aliases":[],"osmType":"way","osmId":609028310,"osmDate":null,"officialAreaKm2":null,"areaSourceLabel":"","areaSourceUrl":"","boundarySourceLabel":"© OpenStreetMap contributors","boundarySourceUrl":"https://www.openstreetmap.org/copyright","geometryFile":"attractions/large-industrial-complex-W609028310.geojson"},"geometry":{"type":"Polygon","coordinates":[[[139.3207135,35.4187227],[139.3214888,35.4191384],[139.3216134,35.4199427],[139.3220794,35.4211245],[139.3221651,35.421399],[139.3231123,35.4225917],[139.3227278,35.4236435],[139.3216819,35.4264771],[139.3239849,35.4275508],[139.324415,35.4271699],[139.3247638,35.4275396],[139.326857,35.428135],[139.3262004,35.4286885],[139.3253848,35.4294405],[139.324991,35.4296883],[139.3246927,35.4299539],[139.3245733,35.4301134],[139.3245266,35.4301303],[139.3234693,35.4300192],[139.3220701,35.429917],[139.3219076,35.4298835],[139.3217369,35.4298091],[139.3207049,35.429099],[139.3204902,35.428961],[139.3203601,35.4288884],[139.3201804,35.4288261],[139.3200089,35.4287898],[139.3196694,35.4287495],[139.3191133,35.4287984],[139.3189474,35.428783],[139.3187806,35.4286883],[139.3187057,35.428573],[139.3186755,35.4284399],[139.3190237,35.4262958],[139.3190053,35.4258657],[139.3188843,35.4256331],[139.3187049,35.4253924],[139.3184853,35.4252337],[139.3181424,35.4250699],[139.3178196,35.4250173],[139.3157427,35.424995],[139.3150176,35.4249983],[139.3148302,35.4250261],[139.3146678,35.4250984],[139.3145398,35.4252256],[139.3143618,35.4254959],[139.314244,35.4256317],[139.3141333,35.4257158],[139.3140304,35.4257713],[139.3138828,35.4257967],[139.3133267,35.4258078],[139.3132422,35.425828],[139.3131461,35.4258611],[139.3130285,35.4259125],[139.3129325,35.4259734],[139.3128687,35.4260494],[139.3127805,35.4263109],[139.312776,35.4264591],[139.3127471,35.4265778],[139.3126853,35.4267027],[139.3121129,35.4272692],[139.3120833,35.4273001],[139.3119642,35.4274244],[139.3118407,35.4275532],[139.3117678,35.4277324],[139.3117729,35.427851],[139.311904,35.428156],[139.3119292,35.4282621],[139.311921,35.4284281],[139.3116459,35.4291979],[139.3115108,35.4293797],[139.3112183,35.4295698],[139.3108497,35.4297159],[139.3107665,35.4297343],[139.3101861,35.429142],[139.3096431,35.4289833],[139.3095459,35.4289927],[139.3093227,35.4292062],[139.3088252,35.4298545],[139.3087255,35.4298994],[139.3085438,35.4299022],[139.3084149,35.4298707],[139.3083668,35.4299268],[139.3082555,35.4298682],[139.3081003,35.4297449],[139.3080493,35.4296158],[139.3078661,35.4287259],[139.3077095,35.428475],[139.307468,35.4283136],[139.3073072,35.4281068],[139.307158,35.4278572],[139.3066643,35.4280524],[139.3068412,35.4285245],[139.3067724,35.42881],[139.3064552,35.4288495],[139.3061309,35.4285595],[139.305457,35.4284628],[139.3051786,35.4280031],[139.3058271,35.4277988],[139.3063509,35.4276502],[139.3066031,35.4274874],[139.3064421,35.427235],[139.3065642,35.4271825],[139.3067211,35.4273585],[139.3070832,35.427118],[139.3071241,35.4271591],[139.3073018,35.427047],[139.3072897,35.4269486],[139.3076411,35.4267181],[139.3085919,35.4260733],[139.3087978,35.4257884],[139.3092414,35.4256272],[139.3093537,35.4256362],[139.3102529,35.4252847],[139.3111086,35.4249237],[139.31154,35.4247815],[139.3116068,35.4247583],[139.3121243,35.4245786],[139.3122786,35.4246373],[139.3123103,35.4246295],[139.312461,35.4245923],[139.3122666,35.4241642],[139.3122717,35.42404],[139.3127171,35.4235419],[139.3128877,35.423454],[139.3132211,35.4233878],[139.3134106,35.4232845],[139.3138585,35.4226919],[139.3140561,35.422421],[139.3141307,35.4222982],[139.3141645,35.4222112],[139.3141909,35.4221012],[139.3141993,35.4220028],[139.3141972,35.4219297],[139.3141961,35.4218902],[139.3142165,35.4218789],[139.3142343,35.4218639],[139.3142465,35.4218469],[139.3142558,35.4218082],[139.3142564,35.4217889],[139.3141998,35.4215553],[139.3141242,35.421565],[139.3140945,35.4214965],[139.3140391,35.4214766],[139.3152582,35.420621],[139.3155672,35.4202102],[139.3162217,35.4202766],[139.3166092,35.4204927],[139.316811,35.4205968],[139.3170122,35.4206523],[139.3171439,35.4206282],[139.3179255,35.4199171],[139.3178358,35.4194702],[139.3199372,35.4187219],[139.3207135,35.4187227]]]}}
