{"type":"Feature","id":"attraction-large-park-W411075903","properties":{"id":"attraction-large-park-W411075903","kind":"attraction","name":"網走運動公園","shortName":"網走運動公園","context":"北海道・網走市","subtype":"large-park","subtypeLabel":"大型都市公園・広域公園","statusLabel":"著名な公園","aliases":["Abashiri Sports Park"],"osmType":"way","osmId":411075903,"osmDate":null,"officialAreaKm2":null,"areaSourceLabel":"","areaSourceUrl":"","boundarySourceLabel":"© OpenStreetMap contributors","boundarySourceUrl":"https://www.openstreetmap.org/copyright","geometryFile":"attractions/large-park-W411075903.geojson"},"geometry":{"type":"Polygon","coordinates":[[[144.2711695,44.0081975],[144.2717086,44.0076901],[144.2721257,44.007584],[144.272398,44.0076139],[144.2728338,44.0072888],[144.2726501,44.007204],[144.2727493,44.0071364],[144.2738785,44.0063609],[144.2695012,44.0038741],[144.2694032,44.0038781],[144.2684043,44.0048274],[144.2682955,44.0049439],[144.2682312,44.0050355],[144.268148,44.0051889],[144.2680836,44.005272],[144.2680166,44.0053403],[144.2678167,44.005484],[144.2678195,44.005539],[144.2690862,44.0066348],[144.2691573,44.0066964],[144.2692649,44.0067838],[144.2696424,44.0070907],[144.2701007,44.0074567],[144.2707377,44.0079081],[144.2711695,44.0081975]]]}}
