{"type":"Feature","id":"attraction-large-park-W233973634","properties":{"id":"attraction-large-park-W233973634","kind":"attraction","name":"ANA SPORTS PARK 浦添(浦添運動公園)","shortName":"ANA SPORTS PARK 浦添(浦添運動公園)","context":"日本","subtype":"large-park","subtypeLabel":"大型都市公園・広域公園","statusLabel":"著名な公園","aliases":["ANA SPORTS PARK Urasoe (Urasoe Sports Park)"],"osmType":"way","osmId":233973634,"osmDate":null,"officialAreaKm2":null,"areaSourceLabel":"","areaSourceUrl":"","boundarySourceLabel":"© OpenStreetMap contributors","boundarySourceUrl":"https://www.openstreetmap.org/copyright","geometryFile":"attractions/large-park-W233973634.geojson"},"geometry":{"type":"Polygon","coordinates":[[[127.7213142,26.2525371],[127.7215085,26.2526994],[127.7221215,26.2531799],[127.7222076,26.2532424],[127.722322,26.2533255],[127.722436,26.2531896],[127.7224675,26.2530115],[127.7226821,26.2530843],[127.7228933,26.2529123],[127.7229718,26.2528408],[127.7230543,26.2527608],[127.7231153,26.2526898],[127.7231361,26.252676],[127.7232735,26.2526573],[127.7233345,26.2526411],[127.7235753,26.2526507],[127.7236283,26.2526303],[127.7239005,26.2525016],[127.7240232,26.2524883],[127.7242606,26.2525016],[127.7243451,26.2524974],[127.7244155,26.2524679],[127.724677,26.2522785],[127.72473,26.2522586],[127.7248681,26.2522869],[127.7249365,26.2523145],[127.7250344,26.2523212],[127.7250974,26.2523747],[127.7251377,26.2523705],[127.7253187,26.2524745],[127.725375,26.2524769],[127.7254146,26.2524228],[127.7255138,26.2522821],[127.725597,26.2521287],[127.7256654,26.2519928],[127.7257315,26.2518461],[127.7258049,26.2516398],[127.7258909,26.2513797],[127.7258074,26.2512329],[127.7257333,26.2510642],[127.7258211,26.2509349],[127.7258716,26.2507948],[127.7258314,26.2507966],[127.72583,26.250609],[127.7257589,26.2504959],[127.7256966,26.2505374],[127.7256778,26.2505585],[127.7256235,26.2505152],[127.7255732,26.2505134],[127.725537,26.2503588],[127.7252574,26.2501026],[127.7252815,26.2500437],[127.7254639,26.2498097],[127.7255584,26.249758],[127.7254666,26.249562],[127.7256845,26.2494832],[127.7256711,26.2493214],[127.7252624,26.2493503],[127.7251041,26.2493647],[127.7249968,26.2493851],[127.7248078,26.2494363],[127.7247494,26.2493388],[127.7247782,26.2491921],[127.7245241,26.2492456],[127.7244322,26.2492811],[127.7244014,26.2493136],[127.7243504,26.2494561],[127.7242579,26.249583],[127.72416,26.2496311],[127.724046,26.2495421],[127.7239166,26.2494128],[127.7238636,26.2492931],[127.7238214,26.2492372],[127.7237363,26.2491362],[127.7235987,26.2489587],[127.723531,26.2489942],[127.7234713,26.2490309],[127.723413,26.2490748],[127.7234351,26.2490977],[127.7233855,26.249147],[127.7227927,26.249684],[127.721917,26.2504665],[127.7217011,26.2506601],[127.7214004,26.2509305],[127.721235,26.2511124],[127.7211463,26.2512237],[127.7210902,26.2513142],[127.7210413,26.2514209],[127.720999,26.2515508],[127.7209645,26.2517107],[127.7209454,26.2519272],[127.7209601,26.2520818],[127.7210171,26.2521991],[127.7211056,26.2523187],[127.7211586,26.2523759],[127.721284,26.252495],[127.7213142,26.2525371]]]}}
