{"type":"Feature","id":"attraction-large-park-W469061098","properties":{"id":"attraction-large-park-W469061098","kind":"attraction","name":"つくも水郷公園","shortName":"つくも水郷公園","context":"日本","subtype":"large-park","subtypeLabel":"大型都市公園・広域公園","statusLabel":"著名な公園","aliases":[],"osmType":"way","osmId":469061098,"osmDate":null,"officialAreaKm2":null,"areaSourceLabel":"","areaSourceUrl":"","boundarySourceLabel":"© OpenStreetMap contributors","boundarySourceUrl":"https://www.openstreetmap.org/copyright","geometryFile":"attractions/large-park-W469061098.geojson"},"geometry":{"type":"Polygon","coordinates":[[[142.4118713,44.1906847],[142.4119403,44.1907133],[142.4116912,44.1908212],[142.4113417,44.1909403],[142.4109995,44.1910373],[142.4106682,44.191079],[142.4103688,44.1910988],[142.4100652,44.1911042],[142.4098282,44.1910792],[142.4095098,44.1910281],[142.4091347,44.190922],[142.4088125,44.1908127],[142.4082436,44.1905988],[142.407283,44.1902661],[142.4065975,44.190027],[142.4059698,44.1898268],[142.4054813,44.1896927],[142.4050441,44.1895966],[142.404627,44.1895159],[142.4042077,44.1894458],[142.4036743,44.189378],[142.4029375,44.1892871],[142.401836,44.189278],[142.401399,44.189301],[142.401057,44.189328],[142.400555,44.189375],[142.3993374,44.1895753],[142.398365,44.189741],[142.398261,44.189747],[142.3983134,44.189697],[142.3985107,44.1895432],[142.4032535,44.1861412],[142.4033405,44.186122],[142.4040664,44.1864558],[142.404498,44.1865271],[142.4056598,44.1868232],[142.4078947,44.1876796],[142.4077812,44.1878647],[142.4080114,44.1880683],[142.4082261,44.188251],[142.4108247,44.1900098],[142.4118713,44.1906847]]]}}
