{"type":"Feature","id":"attraction-large-park-R16692839","properties":{"id":"attraction-large-park-R16692839","kind":"attraction","name":"南公園","shortName":"南公園","context":"日本","subtype":"large-park","subtypeLabel":"大型都市公園・広域公園","statusLabel":"著名な公園","aliases":["Minami Park"],"osmType":"relation","osmId":16692839,"osmDate":null,"officialAreaKm2":null,"areaSourceLabel":"","areaSourceUrl":"","boundarySourceLabel":"© OpenStreetMap contributors","boundarySourceUrl":"https://www.openstreetmap.org/copyright","geometryFile":"attractions/large-park-R16692839.geojson"},"geometry":{"type":"MultiPolygon","coordinates":[[[[130.3910449,33.5725732],[130.3911146,33.5725621],[130.3914151,33.572314],[130.3916296,33.5723118],[130.3919327,33.5723162],[130.3920239,33.5723341],[130.392158,33.572381],[130.3922304,33.57239],[130.3924021,33.572352],[130.3924853,33.572314],[130.3924853,33.5722626],[130.3929412,33.5721263],[130.392952,33.5719989],[130.3929546,33.5718112],[130.3929332,33.5716436],[130.3928581,33.5713754],[130.3926408,33.5709485],[130.3927213,33.5709508],[130.3928071,33.5706133],[130.3929305,33.5705776],[130.3930297,33.5706021],[130.3931665,33.5708256],[130.3937083,33.5707385],[130.393652,33.5703384],[130.3935045,33.570258],[130.3935689,33.5701596],[130.3940061,33.570106],[130.3941563,33.5697305],[130.393998,33.569659],[130.3940839,33.5695138],[130.3942126,33.5695071],[130.3945479,33.569364],[130.3945827,33.5693998],[130.3947598,33.569335],[130.3949717,33.5693037],[130.3950226,33.5692992],[130.3950655,33.5691852],[130.3948081,33.5691651],[130.3939685,33.5695249],[130.3936869,33.5693931],[130.3931075,33.5695696],[130.3929064,33.569221],[130.3928209,33.5692089],[130.3925765,33.5691741],[130.3926462,33.5689528],[130.3925899,33.5689394],[130.3925443,33.5690355],[130.3924853,33.569031],[130.3924718,33.5690556],[130.3922573,33.5691048],[130.3920481,33.5692501],[130.3918791,33.569221],[130.3918496,33.5693082],[130.3917966,33.5693702],[130.3913272,33.5695132],[130.3913366,33.5695422],[130.3913195,33.5695739],[130.3913654,33.5695769],[130.3913661,33.5695828],[130.3914821,33.5695965],[130.391576,33.5695962],[130.3916652,33.5695873],[130.3917255,33.5695699],[130.3920758,33.5694355],[130.3920977,33.5694274],[130.3921409,33.5694219],[130.3921946,33.5694216],[130.3922247,33.569418],[130.3926837,33.5692545],[130.3927117,33.5692496],[130.3927857,33.5692366],[130.3928146,33.5692382],[130.3928688,33.5692411],[130.3931585,33.5697261],[130.3932416,33.5697484],[130.3933543,33.5698445],[130.3933945,33.5699339],[130.3933248,33.57003],[130.393078,33.5700591],[130.3929412,33.5700948],[130.3928839,33.570096],[130.392458,33.5705124],[130.3925014,33.5711698],[130.3923414,33.5713124],[130.3921791,33.571432],[130.3919887,33.5716343],[130.3915179,33.5717136],[130.3914767,33.5716145],[130.3913641,33.5715251],[130.3912873,33.5713437],[130.3910851,33.5713821],[130.3910476,33.5713866],[130.390998,33.5713899],[130.3908847,33.5714123],[130.3907526,33.5714313],[130.3906801,33.5714402],[130.390597,33.5714234],[130.3904991,33.5714525],[130.3902765,33.5714536],[130.3901759,33.5714648],[130.3899801,33.5715162],[130.3898258,33.571552],[130.3897038,33.5715609],[130.3896287,33.5715229],[130.3895978,33.5714972],[130.389563,33.5714603],[130.3894825,33.5713228],[130.3894289,33.5713005],[130.3893578,33.5712905],[130.3891942,33.5713195],[130.3890842,33.5713195],[130.3888965,33.5713095],[130.3888187,33.5713016],[130.3887114,33.5712815],[130.388588,33.5712379],[130.3885304,33.5712133],[130.388478,33.5712055],[130.3884191,33.5711798],[130.3883131,33.5711418],[130.3881964,33.571134],[130.3878611,33.5711296],[130.3876077,33.5711485],[130.387538,33.5711497],[130.3874789,33.5711608],[130.3874011,33.571181],[130.3873381,33.5712256],[130.3872992,33.5712648],[130.3872644,33.5713273],[130.3872523,33.5713776],[130.3872467,33.5715171],[130.3872563,33.5717162],[130.3872241,33.5719307],[130.3871879,33.5720346],[130.3871423,33.5720838],[130.3870612,33.5721458],[130.3869639,33.5721838],[130.3869056,33.5722025],[130.3869146,33.5722159],[130.3867668,33.5722693],[130.386689,33.5723095],[130.3866434,33.5723609],[130.3865817,33.5724704],[130.3865442,33.5727297],[130.3864771,33.5729509],[130.3863759,33.5731364],[130.38629,33.5731556],[130.3861598,33.5731691],[130.3860631,33.5732075],[130.3858982,33.573271],[130.3857539,33.5733279],[130.3856397,33.5733731],[130.3855642,33.5734166],[130.3855003,33.5734702],[130.3854408,33.5735328],[130.3853968,33.5736202],[130.3853795,33.5736819],[130.385678,33.5738812],[130.385779,33.574],[130.3859573,33.5742989],[130.3861188,33.5748689],[130.3861637,33.5749166],[130.386973,33.5749445],[130.3875707,33.5749478],[130.3874642,33.5753957],[130.387461,33.5755398],[130.3875247,33.5755731],[130.3875767,33.5755877],[130.3877047,33.5755845],[130.3877803,33.5755629],[130.3879675,33.5755295],[130.3880215,33.5755301],[130.3881025,33.5755164],[130.3883648,33.5755248],[130.3887113,33.5757116],[130.3887401,33.5757909],[130.3887772,33.5758929],[130.3887843,33.5759699],[130.3887999,33.5760284],[130.3888561,33.5761373],[130.3888884,33.576145],[130.3889429,33.5761067],[130.3891377,33.5761262],[130.3892733,33.5759274],[130.3893359,33.5758115],[130.3895638,33.5757453],[130.3895858,33.5757376],[130.389626,33.575722],[130.3897255,33.5757121],[130.3897614,33.5756939],[130.3897902,33.5757245],[130.3898682,33.5757357],[130.3899646,33.5757616],[130.390028,33.5757995],[130.3903227,33.5758801],[130.3903644,33.5759324],[130.3904736,33.5761439],[130.3906208,33.5763588],[130.3908283,33.5766384],[130.3909103,33.5766883],[130.3909908,33.5767004],[130.3909576,33.5766293],[130.3909831,33.5764081],[130.3910079,33.5763914],[130.3911579,33.5763909],[130.3911738,33.5763886],[130.3909287,33.5762247],[130.3908401,33.5761495],[130.390874,33.5761004],[130.3909287,33.5759986],[130.3907257,33.5757264],[130.3905065,33.5756291],[130.3904759,33.5755756],[130.3904314,33.5755232],[130.3903789,33.5754595],[130.3903269,33.5753616],[130.3903649,33.5752982],[130.3904924,33.5753063],[130.3905165,33.575275],[130.3908518,33.5750761],[130.390947,33.5749175],[130.3910221,33.5748862],[130.3909993,33.5748605],[130.3910597,33.574827],[130.3912742,33.5748963],[130.3913775,33.5748314],[130.3913587,33.5746437],[130.3912367,33.5745488],[130.3913333,33.574085],[130.3912461,33.5738381],[130.3910637,33.5734347],[130.3910328,33.5734258],[130.3907391,33.5734012],[130.3907204,33.5733912],[130.3906761,33.5733331],[130.3906412,33.5732716],[130.3906922,33.5732325],[130.3909658,33.5731208],[130.3911093,33.5731006],[130.3912836,33.5730481],[130.3913091,33.5730325],[130.3913265,33.5730045],[130.3910449,33.5725732]]],[[[130.3851762,33.573885],[130.385246,33.5736157],[130.385301,33.5734604],[130.3854096,33.5733565],[130.3855209,33.5732884],[130.3852366,33.5730124],[130.3850877,33.5729598],[130.3848933,33.5729587],[130.3846546,33.5729833],[130.384452,33.5730582],[130.3841758,33.5732593],[130.3846934,33.573599],[130.3847364,33.5737297],[130.3848986,33.573818],[130.3850274,33.5738001],[130.3851762,33.573885]]]]}}
