{"type":"Feature","id":"attraction-large-park-W438451896","properties":{"id":"attraction-large-park-W438451896","kind":"attraction","name":"昭和の森","shortName":"昭和の森","context":"日本","subtype":"large-park","subtypeLabel":"大型都市公園・広域公園","statusLabel":"","aliases":[],"osmType":"way","osmId":438451896,"osmDate":null,"officialAreaKm2":null,"areaSourceLabel":"","areaSourceUrl":"","boundarySourceLabel":"© OpenStreetMap contributors","boundarySourceUrl":"https://www.openstreetmap.org/copyright","geometryFile":"attractions/large-park-W438451896.geojson"},"geometry":{"type":"Polygon","coordinates":[[[137.1980166,35.1765883],[137.2035634,35.1764392],[137.2045183,35.1757377],[137.2051084,35.1745801],[137.2057092,35.1740363],[137.206471,35.1734049],[137.2069323,35.1732032],[137.2072863,35.172677],[137.2074124,35.1721596],[137.2075438,35.1720763],[137.2077155,35.1720302],[137.2079918,35.1720456],[137.2081742,35.172028],[137.2082815,35.1718153],[137.2084638,35.1714185],[137.2086596,35.1711686],[137.2093248,35.1702608],[137.2099578,35.1686471],[137.2097325,35.1681297],[137.2086972,35.1673798],[137.2071308,35.1674631],[137.205736,35.1667571],[137.2031289,35.1657134],[137.2010153,35.1646389],[137.1997976,35.163547],[137.1993256,35.1633496],[137.197383,35.1628771],[137.1963986,35.1629626],[137.1959333,35.1632394],[137.1945834,35.1639592],[137.1926629,35.1645732],[137.1931887,35.1665817],[137.1932638,35.1685813],[137.1930063,35.1693356],[137.1942723,35.1694321],[137.195152,35.169739],[137.1953022,35.1707827],[137.1946692,35.1717035],[137.1951842,35.1724051],[137.1949696,35.1732032],[137.1946692,35.1744134],[137.1945834,35.175457],[137.1956563,35.1763428],[137.1980166,35.1765883]]]}}
