{"type":"Feature","id":"attraction-large-park-W1514023795","properties":{"id":"attraction-large-park-W1514023795","kind":"attraction","name":"長居公園","shortName":"長居公園","context":"日本","subtype":"large-park","subtypeLabel":"大型都市公園・広域公園","statusLabel":"","aliases":["Nagai Park"],"osmType":"way","osmId":1514023795,"osmDate":null,"officialAreaKm2":null,"areaSourceLabel":"","areaSourceUrl":"","boundarySourceLabel":"© OpenStreetMap contributors","boundarySourceUrl":"https://www.openstreetmap.org/copyright","geometryFile":"attractions/large-park-W1514023795.geojson"},"geometry":{"type":"Polygon","coordinates":[[[135.516106,34.6163369],[135.5143384,34.6136028],[135.5139238,34.6095289],[135.5141035,34.609463],[135.5266683,34.6094454],[135.5268249,34.6096519],[135.5266785,34.6154905],[135.5199443,34.6149723],[135.5200198,34.6148481],[135.5198829,34.6147752],[135.5194328,34.6152244],[135.5194907,34.6153262],[135.5186599,34.6160751],[135.516106,34.6163369]]]}}
