{"type":"Feature","id":"attraction-large-park-W430678144","properties":{"id":"attraction-large-park-W430678144","kind":"attraction","name":"かみゆうべつチューリップ公園","shortName":"かみゆうべつチューリップ公園","context":"日本","subtype":"large-park","subtypeLabel":"大型都市公園・広域公園","statusLabel":"著名な公園","aliases":[],"osmType":"way","osmId":430678144,"osmDate":null,"officialAreaKm2":null,"areaSourceLabel":"","areaSourceUrl":"","boundarySourceLabel":"© OpenStreetMap contributors","boundarySourceUrl":"https://www.openstreetmap.org/copyright","geometryFile":"attractions/large-park-W430678144.geojson"},"geometry":{"type":"Polygon","coordinates":[[[143.5780298,44.1608854],[143.5767958,44.1588427],[143.5776638,44.1585865],[143.577753,44.1587156],[143.578373,44.1585186],[143.5792839,44.1582114],[143.5787321,44.1573157],[143.5822491,44.1561834],[143.5833808,44.1580403],[143.5833859,44.1581422],[143.5833554,44.1583134],[143.5832235,44.1584808],[143.5829654,44.158637],[143.579929,44.159607],[143.5804779,44.1604906],[143.5787422,44.1610549],[143.5785191,44.1607302],[143.5780298,44.1608854]]]}}
