{"type":"Feature","id":"attraction-large-park-W163799829","properties":{"id":"attraction-large-park-W163799829","kind":"attraction","name":"武蔵野の森公園","shortName":"武蔵野の森公園","context":"日本","subtype":"large-park","subtypeLabel":"大型都市公園・広域公園","statusLabel":"","aliases":["Musashino Forest Park"],"osmType":"way","osmId":163799829,"osmDate":null,"officialAreaKm2":null,"areaSourceLabel":"","areaSourceUrl":"","boundarySourceLabel":"© OpenStreetMap contributors","boundarySourceUrl":"https://www.openstreetmap.org/copyright","geometryFile":"attractions/large-park-W163799829.geojson"},"geometry":{"type":"Polygon","coordinates":[[[139.5209413,35.6778028],[139.5210186,35.6776139],[139.5211003,35.6774565],[139.5213194,35.6769129],[139.5217535,35.6758223],[139.524589,35.6683789],[139.5254344,35.6662448],[139.5262919,35.66644],[139.5264421,35.666002],[139.5280186,35.6663962],[139.528782,35.6660219],[139.5292574,35.6645483],[139.532129,35.6647189],[139.5331875,35.6643511],[139.5332121,35.6649977],[139.5331318,35.6656261],[139.5331325,35.6666906],[139.5347322,35.666656],[139.5351257,35.6673735],[139.5350487,35.6699912],[139.5334885,35.6699875],[139.5330606,35.6701129],[139.5329413,35.6700008],[139.5328072,35.6699387],[139.5316089,35.6696451],[139.5315063,35.6696658],[139.5306473,35.6694506],[139.530585,35.6693863],[139.5304696,35.6693585],[139.5316661,35.6660271],[139.5291249,35.6654117],[139.5248549,35.6769724],[139.5266306,35.6774145],[139.5271486,35.677181],[139.5274844,35.6771435],[139.5276367,35.6772179],[139.5286355,35.6759762],[139.5289768,35.6754994],[139.5290098,35.6761674],[139.529,35.6778856],[139.5214157,35.6778053],[139.5209413,35.6778028]]]}}
