{"type":"Feature","id":"attraction-large-park-W452365655","properties":{"id":"attraction-large-park-W452365655","kind":"attraction","name":"千本松牧場","shortName":"千本松牧場","context":"日本","subtype":"large-park","subtypeLabel":"大型都市公園・広域公園","statusLabel":"","aliases":[],"osmType":"way","osmId":452365655,"osmDate":null,"officialAreaKm2":null,"areaSourceLabel":"","areaSourceUrl":"","boundarySourceLabel":"© OpenStreetMap contributors","boundarySourceUrl":"https://www.openstreetmap.org/copyright","geometryFile":"attractions/large-park-W452365655.geojson"},"geometry":{"type":"Polygon","coordinates":[[[139.9292213,36.925745],[139.9345535,36.9218768],[139.9350041,36.921345],[139.9369031,36.9240983],[139.9410123,36.9275719],[139.9430293,36.9299218],[139.9424714,36.9306765],[139.9411196,36.9327948],[139.9345106,36.9302992],[139.9344892,36.9277949],[139.9292213,36.925745]]]}}
