{"type":"Feature","id":"attraction-large-park-R3502023","properties":{"id":"attraction-large-park-R3502023","kind":"attraction","name":"可美公園","shortName":"可美公園","context":"日本","subtype":"large-park","subtypeLabel":"大型都市公園・広域公園","statusLabel":"著名な公園","aliases":["Kami Park"],"osmType":"relation","osmId":3502023,"osmDate":null,"officialAreaKm2":null,"areaSourceLabel":"","areaSourceUrl":"","boundarySourceLabel":"© OpenStreetMap contributors","boundarySourceUrl":"https://www.openstreetmap.org/copyright","geometryFile":"attractions/large-park-R3502023.geojson"},"geometry":{"type":"MultiPolygon","coordinates":[[[[137.6988284,34.685851],[137.697115,34.6859764],[137.6970035,34.6859816],[137.6968911,34.6859775],[137.6967799,34.685964],[137.6967325,34.6859541],[137.6966709,34.6859413],[137.6965661,34.6859098],[137.6963551,34.6858432],[137.6961011,34.685763],[137.6958327,34.6856783],[137.6957756,34.6856603],[137.6955979,34.6856042],[137.695499,34.6855769],[137.6953978,34.6855593],[137.6952944,34.6855514],[137.6952446,34.685551],[137.6952125,34.6855507],[137.6952135,34.6855773],[137.6952146,34.6856049],[137.6952018,34.6860286],[137.6951965,34.6862036],[137.6951905,34.6864041],[137.6951897,34.6864311],[137.695183,34.6866516],[137.6951787,34.686795],[137.6951763,34.6868746],[137.6951729,34.6869879],[137.695155,34.6875782],[137.6951816,34.6876027],[137.6952778,34.6876099],[137.6952969,34.6874366],[137.6953943,34.6874438],[137.6953866,34.6875135],[137.6954459,34.687518],[137.695435,34.6876172],[137.6954345,34.6876216],[137.6957752,34.687647],[137.6959666,34.6876612],[137.6960144,34.6876648],[137.6960443,34.687667],[137.6961578,34.6876755],[137.6962219,34.6876803],[137.6963107,34.6876869],[137.6964259,34.6876955],[137.696448,34.6876971],[137.6965404,34.687704],[137.6974812,34.6877741],[137.6977728,34.6877959],[137.6983833,34.6877578],[137.6983978,34.6877569],[137.6984551,34.6877533],[137.6985204,34.6877493],[137.6989807,34.6877206],[137.6989501,34.6873453],[137.6989431,34.6872594],[137.698938,34.6871958],[137.6989358,34.687169],[137.6989064,34.6868083],[137.6989042,34.6867814],[137.698899,34.686718],[137.6988917,34.6866284],[137.6988419,34.6860168],[137.6988324,34.6859004],[137.6988284,34.685851]]],[[[137.6930402,34.6866308],[137.6927623,34.6866455],[137.6924785,34.6866606],[137.6920894,34.6866812],[137.6920726,34.6864013],[137.6920688,34.6863382],[137.69153,34.686417],[137.6907857,34.6864471],[137.6906939,34.6864464],[137.6906655,34.6864462],[137.6906434,34.686446],[137.6900818,34.6864415],[137.6900687,34.6864414],[137.6900241,34.686441],[137.6900115,34.6864409],[137.6900111,34.6864309],[137.6900008,34.6861934],[137.6899983,34.6861872],[137.6899902,34.6861854],[137.6899517,34.6861866],[137.6899266,34.6861873],[137.6899252,34.6861663],[137.6899036,34.6858302],[137.6899023,34.6858097],[137.6899291,34.6858086],[137.6899683,34.6858069],[137.6903022,34.6857928],[137.6906777,34.685777],[137.6907342,34.6857746],[137.6920799,34.6857097],[137.6928694,34.6856716],[137.6929663,34.6856669],[137.6929653,34.6856515],[137.6929816,34.6856464],[137.6930941,34.6856407],[137.6950621,34.6855402],[137.6951001,34.6855383],[137.6951084,34.6855444],[137.6951096,34.6855737],[137.6951108,34.6856052],[137.6951082,34.6856904],[137.6950982,34.6860222],[137.6950963,34.6860859],[137.6950957,34.6861038],[137.6950861,34.6864228],[137.6950515,34.6875677],[137.6950511,34.6875794],[137.695012,34.6876081],[137.6949978,34.687607],[137.6943578,34.6875593],[137.6943561,34.6875412],[137.6943119,34.6875379],[137.6941553,34.6875262],[137.6941077,34.6875227],[137.6939755,34.6875128],[137.6939279,34.6875093],[137.6931211,34.6874491],[137.6930921,34.6874244],[137.6930402,34.6866308]]]]}}
