{"type":"Feature","id":"attraction-large-park-W477693026","properties":{"id":"attraction-large-park-W477693026","kind":"attraction","name":"カムイの杜公園","shortName":"カムイの杜公園","context":"日本","subtype":"large-park","subtypeLabel":"大型都市公園・広域公園","statusLabel":"著名な公園","aliases":[],"osmType":"way","osmId":477693026,"osmDate":null,"officialAreaKm2":null,"areaSourceLabel":"","areaSourceUrl":"","boundarySourceLabel":"© OpenStreetMap contributors","boundarySourceUrl":"https://www.openstreetmap.org/copyright","geometryFile":"attractions/large-park-W477693026.geojson"},"geometry":{"type":"Polygon","coordinates":[[[142.3179733,43.7430113],[142.3184008,43.743168],[142.3192598,43.7434572],[142.3192229,43.7442231],[142.3191934,43.7446135],[142.3192276,43.7448243],[142.319292,43.74505],[142.3194462,43.7452932],[142.3194871,43.7453615],[142.3191974,43.7457122],[142.3188313,43.7461472],[142.3182694,43.7465531],[142.3178349,43.7470182],[142.3173414,43.7477525],[142.3169471,43.748388],[142.3164562,43.7491108],[142.3164207,43.749057],[142.3163443,43.7489824],[142.3162383,43.748962],[142.3160626,43.7489572],[142.3159902,43.7489805],[142.3156214,43.7488216],[142.315372,43.7486666],[142.3151111,43.7485895],[142.314914,43.7485246],[142.3146565,43.7484074],[142.3145874,43.7483701],[142.3145324,43.7481822],[142.3146115,43.7481395],[142.3146035,43.7478663],[142.3145143,43.7463032],[142.3144613,43.7452699],[142.3144493,43.7449386],[142.3144171,43.7448485],[142.3144218,43.7440031],[142.3143836,43.7436277],[142.3143715,43.7432605],[142.3144318,43.7432431],[142.3145056,43.7432334],[142.3147188,43.7432314],[142.3148462,43.7432188],[142.3149703,43.7431699],[142.3150414,43.7431195],[142.3151795,43.7429577],[142.3154437,43.7433937],[142.3155631,43.7435342],[142.3158682,43.7436025],[142.3161042,43.7440908],[142.3161334,43.7440577],[142.3162121,43.7439185],[142.3163765,43.7436281],[142.3166502,43.7437107],[142.3174845,43.7439632],[142.3177635,43.7435369],[142.3179259,43.7431301],[142.31796,43.7430447],[142.3179733,43.7430113]]]}}
