{"type":"Feature","id":"attraction-large-park-W40126719","properties":{"id":"attraction-large-park-W40126719","kind":"attraction","name":"平塚市総合公園","shortName":"平塚市総合公園","context":"日本","subtype":"large-park","subtypeLabel":"大型都市公園・広域公園","statusLabel":"著名な公園","aliases":[],"osmType":"way","osmId":40126719,"osmDate":null,"officialAreaKm2":null,"areaSourceLabel":"","areaSourceUrl":"","boundarySourceLabel":"© OpenStreetMap contributors","boundarySourceUrl":"https://www.openstreetmap.org/copyright","geometryFile":"attractions/large-park-W40126719.geojson"},"geometry":{"type":"Polygon","coordinates":[[[139.3374968,35.3422161],[139.3400857,35.3424165],[139.3399301,35.3438151],[139.3398286,35.344775],[139.3417514,35.345005],[139.3443481,35.3453802],[139.3443764,35.3453623],[139.3454445,35.3406646],[139.3398774,35.3398211],[139.3386973,35.3396552],[139.3384254,35.3407246],[139.3372935,35.3404768],[139.3373243,35.3406197],[139.3372748,35.3411716],[139.3373414,35.3415363],[139.3374172,35.3418758],[139.3374968,35.3422161]]]}}
