{"type":"Feature","id":"attraction-large-park-R17887722","properties":{"id":"attraction-large-park-R17887722","kind":"attraction","name":"高清水公園","shortName":"高清水公園","context":"日本","subtype":"large-park","subtypeLabel":"大型都市公園・広域公園","statusLabel":"著名な公園","aliases":["Takashimizu Park"],"osmType":"relation","osmId":17887722,"osmDate":null,"officialAreaKm2":null,"areaSourceLabel":"","areaSourceUrl":"","boundarySourceLabel":"© OpenStreetMap contributors","boundarySourceUrl":"https://www.openstreetmap.org/copyright","geometryFile":"attractions/large-park-R17887722.geojson"},"geometry":{"type":"Polygon","coordinates":[[[140.0788191,39.7426874],[140.0789074,39.7427325],[140.079294,39.7430251],[140.0793789,39.743115],[140.0794274,39.7432259],[140.0794904,39.743272],[140.0798262,39.7432647],[140.0798939,39.7432002],[140.0799073,39.7431104],[140.0799301,39.7428095],[140.079993,39.7426873],[140.0800565,39.7425924],[140.0805425,39.7422476],[140.0812461,39.7419234],[140.0813966,39.7418516],[140.0813953,39.7418234],[140.0813496,39.7417493],[140.0813536,39.7417302],[140.0814026,39.7417009],[140.0820729,39.7415304],[140.082127,39.7415303],[140.0821712,39.7415316],[140.08223,39.7415909],[140.082262,39.7416058],[140.0827673,39.7414589],[140.0828722,39.7413793],[140.083097,39.7413118],[140.0831877,39.7413309],[140.0832189,39.7413856],[140.0830505,39.7415198],[140.0831055,39.741652],[140.0834354,39.7419067],[140.0840285,39.7423295],[140.0843556,39.7425134],[140.0844905,39.7426047],[140.0846722,39.7425756],[140.0855527,39.7427354],[140.0861766,39.7426934],[140.0862948,39.742761],[140.0869605,39.7426177],[140.087556,39.7427598],[140.0876889,39.7428329],[140.0877916,39.7428266],[140.088283,39.7427261],[140.0884983,39.7426751],[140.0885393,39.7425907],[140.0883503,39.7420325],[140.0880946,39.7413899],[140.0880933,39.7412585],[140.0880529,39.741191],[140.0879478,39.7411623],[140.087697,39.7411798],[140.0874863,39.7411989],[140.0874082,39.7411629],[140.0873728,39.7409343],[140.0874534,39.7408707],[140.0876834,39.7408513],[140.0877326,39.7408145],[140.0877221,39.7406904],[140.0877321,39.7406364],[140.0878197,39.740511],[140.0877989,39.7404273],[140.0877617,39.7403846],[140.0876134,39.7402835],[140.0874428,39.740275],[140.0873105,39.740374],[140.0870758,39.740548],[140.0869169,39.7407116],[140.0868725,39.740812],[140.0868024,39.7408561],[140.0866312,39.7408565],[140.0864937,39.7407793],[140.0859631,39.7408808],[140.0858332,39.7408145],[140.0857277,39.7406481],[140.085706,39.7405185],[140.085634,39.7404514],[140.0856054,39.7404053],[140.0855443,39.7403843],[140.085468,39.7403167],[140.0854429,39.740215],[140.0854846,39.7401554],[140.0859368,39.739934],[140.0860117,39.7398538],[140.0860382,39.7397595],[140.0860023,39.739683],[140.085936,39.7396237],[140.0858683,39.7395655],[140.0858359,39.73953],[140.0857491,39.7395347],[140.0856146,39.7395339],[140.0854607,39.7394951],[140.0853203,39.7394949],[140.0852475,39.7394239],[140.0851982,39.7393139],[140.0851903,39.7390022],[140.085181,39.7388049],[140.0851268,39.7386933],[140.0849005,39.7386308],[140.0847122,39.7385794],[140.084606,39.7385502],[140.0844356,39.7384371],[140.0842019,39.7384544],[140.0837512,39.7384217],[140.0837063,39.7385058],[140.0836729,39.7385219],[140.0835586,39.7385542],[140.0832534,39.7385364],[140.0830957,39.7384372],[140.0829738,39.7383301],[140.0829016,39.7382899],[140.0827682,39.7381711],[140.0826902,39.7381887],[140.082616,39.7382672],[140.082488,39.7383849],[140.0824366,39.7384221],[140.082362,39.7385055],[140.0822859,39.7385856],[140.0822654,39.7386375],[140.0822805,39.7386882],[140.0822767,39.738696],[140.0820283,39.7388671],[140.0816435,39.7390528],[140.0814247,39.7391521],[140.0812998,39.7391906],[140.0811042,39.7392306],[140.0809488,39.7391786],[140.0809087,39.7390453],[140.0808978,39.7389467],[140.0808388,39.7389218],[140.0807682,39.73892],[140.08058,39.7390369],[140.0803946,39.7392209],[140.0802947,39.7392889],[140.0802092,39.7393716],[140.0801645,39.7394548],[140.0801389,39.7395158],[140.0801092,39.739625],[140.0800741,39.7396756],[140.0800203,39.7397295],[140.0799561,39.7397742],[140.0798556,39.7398104],[140.0797483,39.7398423],[140.0795904,39.7398497],[140.0792731,39.7397326],[140.0789847,39.7400763],[140.077862,39.7414227],[140.0778451,39.7414761],[140.0778837,39.741531],[140.0783052,39.7418032],[140.0784628,39.741924],[140.0785668,39.7420848],[140.0785831,39.742301],[140.0785759,39.7425471],[140.0786071,39.7426295],[140.0788191,39.7426874]],[[140.0794761,39.7405441],[140.079652,39.7405451],[140.0796527,39.7404623],[140.0794769,39.7404614],[140.0794761,39.7405441]],[[140.0791044,39.7403773],[140.0793384,39.7403786],[140.0793397,39.7402333],[140.0791057,39.740232],[140.0791044,39.7403773]],[[140.0795453,39.7400113],[140.0795436,39.7401995],[140.0796472,39.7402],[140.0796489,39.7400119],[140.0795453,39.7400113]],[[140.079782,39.7402738],[140.0803828,39.7402758],[140.0806014,39.7402892],[140.0808603,39.7403326],[140.0809273,39.7403336],[140.0812063,39.7403181],[140.0814584,39.7402831],[140.0816515,39.7402459],[140.0817856,39.7402191],[140.0819707,39.7402006],[140.0818956,39.7400881],[140.0816971,39.7401139],[140.0814892,39.7401593],[140.0812666,39.7401882],[140.0810869,39.7402057],[140.0809032,39.7402171],[140.0806577,39.7401933],[140.0805853,39.740183],[140.080407,39.7401706],[140.0802112,39.7401717],[140.0797813,39.7401696],[140.079782,39.7402738]],[[140.0820847,39.7401129],[140.0821437,39.740213],[140.0828056,39.7401424],[140.0827868,39.7400381],[140.0820847,39.7401129]],[[140.0829146,39.7401336],[140.0837922,39.7400761],[140.08378,39.7399666],[140.0829025,39.7400242],[140.0829146,39.7401336]],[[140.0825682,39.7402702],[140.0826352,39.7402681],[140.0826399,39.7402624],[140.0826392,39.7402361],[140.0826426,39.7402294],[140.0827378,39.7401753],[140.0827412,39.740165],[140.0827338,39.7401567],[140.082607,39.7401701],[140.0825574,39.7402036],[140.0825541,39.740215],[140.0825574,39.7402635],[140.0825682,39.7402702]],[[140.0843842,39.7388998],[140.0844436,39.7388994],[140.0844432,39.7388641],[140.0843838,39.7388645],[140.0843842,39.7388998]],[[140.0842593,39.7385474],[140.0843193,39.7385574],[140.0843367,39.738495],[140.0842767,39.7384851],[140.0842593,39.7385474]],[[140.083792,39.7388325],[140.0838355,39.738704],[140.0840041,39.7387378],[140.0839605,39.7388663],[140.083792,39.7388325]],[[140.0836451,39.7388481],[140.083743,39.7388481],[140.083743,39.7387785],[140.0836451,39.7387785],[140.0836451,39.7388481]],[[140.0832166,39.7390136],[140.0834902,39.7390229],[140.0834991,39.7388679],[140.0832255,39.7388586],[140.0832166,39.7390136]],[[140.0829798,39.738829],[140.0830727,39.738828],[140.0830713,39.7387496],[140.0829784,39.7387506],[140.0829798,39.738829]],[[140.0838254,39.7390084],[140.0839703,39.739026],[140.0839895,39.7389319],[140.0838447,39.7389144],[140.0838254,39.7390084]],[[140.0836913,39.7391064],[140.0836846,39.7390456],[140.0836103,39.7390504],[140.083617,39.7391112],[140.0836913,39.7391064]],[[140.0833775,39.7391817],[140.0834741,39.7391848],[140.083478,39.7391125],[140.0833814,39.7391094],[140.0833775,39.7391817]],[[140.0832474,39.738666],[140.0834365,39.7386702],[140.0834386,39.7386127],[140.0832495,39.7386086],[140.0832474,39.738666]]]}}
