{"type":"Feature","id":"attraction-large-military-base-W372736247","properties":{"id":"attraction-large-military-base-W372736247","kind":"attraction","name":"陸上自衛隊出雲駐屯地","shortName":"陸上自衛隊出雲駐屯地","context":"日本","subtype":"military-base","subtypeLabel":"基地・駐屯地・演習場","statusLabel":"","aliases":[],"osmType":"way","osmId":372736247,"osmDate":null,"officialAreaKm2":null,"areaSourceLabel":"","areaSourceUrl":"","boundarySourceLabel":"© OpenStreetMap contributors","boundarySourceUrl":"https://www.openstreetmap.org/copyright","geometryFile":"attractions/large-military-base-W372736247.geojson"},"geometry":{"type":"Polygon","coordinates":[[[132.7074007,35.3708249],[132.7078073,35.3696328],[132.706939,35.3693602],[132.707729,35.3676968],[132.7084397,35.3672968],[132.7089572,35.3671086],[132.7092141,35.3669082],[132.709588,35.3668185],[132.7099888,35.3667958],[132.71092,35.3670491],[132.712419,35.3675311],[132.7110606,35.370252],[132.7103046,35.3700261],[132.7102185,35.370213],[132.7098221,35.3702444],[132.7096269,35.3701766],[132.7093208,35.3708566],[132.7091115,35.3713218],[132.7074007,35.3708249]]]}}
