{"type":"Feature","id":"attraction-large-large-port-W1538964642","properties":{"id":"attraction-large-large-port-W1538964642","kind":"attraction","name":"白糠漁港","shortName":"白糠漁港","context":"日本","subtype":"large-port","subtypeLabel":"港湾・埠頭","statusLabel":"","aliases":["Shiranuka Fishing Port"],"osmType":"way","osmId":1538964642,"osmDate":null,"officialAreaKm2":null,"areaSourceLabel":"","areaSourceUrl":"","boundarySourceLabel":"© OpenStreetMap contributors","boundarySourceUrl":"https://www.openstreetmap.org/copyright","geometryFile":"attractions/large-large-port-W1538964642.geojson"},"geometry":{"type":"Polygon","coordinates":[[[144.0836765,42.9505124],[144.0837201,42.9505448],[144.0843706,42.9511242],[144.0844502,42.9511408],[144.0863919,42.951545],[144.0888369,42.9514816],[144.0888549,42.9523092],[144.0889219,42.9523091],[144.0889296,42.9524925],[144.0889308,42.9525221],[144.0889336,42.952783],[144.0883163,42.9527899],[144.0883257,42.9530617],[144.0871312,42.9530998],[144.0870153,42.9533456],[144.0867977,42.953356],[144.086748,42.9530877],[144.0854849,42.9531517],[144.0853004,42.9531552],[144.0844181,42.9533145],[144.0835622,42.9533461],[144.0829389,42.9537143],[144.0823569,42.9536786],[144.0811591,42.9535549],[144.0806867,42.9534476],[144.0806975,42.9530532],[144.0807045,42.9527981],[144.0807053,42.9527791],[144.0814383,42.9527876],[144.0814685,42.9517971],[144.0819678,42.9518003],[144.0824849,42.9514218],[144.0824733,42.951413],[144.0836765,42.9505124]]]}}
