{"type":"Feature","id":"attraction-large-park-W453322804","properties":{"id":"attraction-large-park-W453322804","kind":"attraction","name":"岡山県立青少年農林文化センター・三徳園","shortName":"岡山県立青少年農林文化センター・三徳園","context":"日本","subtype":"large-park","subtypeLabel":"大型都市公園・広域公園","statusLabel":"著名な公園","aliases":[],"osmType":"way","osmId":453322804,"osmDate":null,"officialAreaKm2":null,"areaSourceLabel":"","areaSourceUrl":"","boundarySourceLabel":"© OpenStreetMap contributors","boundarySourceUrl":"https://www.openstreetmap.org/copyright","geometryFile":"attractions/large-park-W453322804.geojson"},"geometry":{"type":"Polygon","coordinates":[[[134.0483231,34.6955842],[134.0481273,34.6953372],[134.0480817,34.695238],[134.0481058,34.6951696],[134.0479851,34.6950946],[134.0479529,34.6950241],[134.0479395,34.6948542],[134.0478993,34.6947021],[134.0478269,34.6946293],[134.0476257,34.6944926],[134.0473977,34.6943294],[134.0473494,34.6942368],[134.0473804,34.6941868],[134.0476443,34.693906],[134.0478588,34.693648],[134.0479527,34.6936304],[134.0482826,34.6936745],[134.0487172,34.6935842],[134.0490229,34.6932753],[134.0490873,34.6930879],[134.0491034,34.6927438],[134.0492777,34.6927151],[134.049275,34.6923954],[134.0493101,34.6923269],[134.0496052,34.6923931],[134.0498948,34.6925783],[134.0499217,34.6928033],[134.0498305,34.6930106],[134.0499646,34.6930944],[134.049986,34.6932929],[134.0499217,34.6936281],[134.0500933,34.6939148],[134.0503294,34.6941177],[134.0505225,34.694272],[134.0507317,34.6944926],[134.0508014,34.6946955],[134.0508604,34.6948278],[134.0511394,34.6949336],[134.0513057,34.6949469],[134.0514613,34.6950174],[134.0516651,34.6950527],[134.0517885,34.6951189],[134.0519065,34.6952291],[134.0519119,34.6953526],[134.0518582,34.6955335],[134.0519387,34.6957099],[134.0520513,34.6957937],[134.0522713,34.6959084],[134.0523732,34.6960451],[134.0524677,34.6961877],[134.0523591,34.6962766],[134.0521296,34.6962126],[134.0519248,34.6963272],[134.0515848,34.6966539],[134.0514827,34.6967472],[134.0515927,34.6968354],[134.0509543,34.6974969],[134.0507746,34.6975013],[134.0505574,34.6976866],[134.0503642,34.6978476],[134.0502382,34.6979027],[134.0502006,34.6977924],[134.0502891,34.6976491],[134.0502462,34.6974837],[134.0501899,34.6973271],[134.0500665,34.6971794],[134.0499458,34.6970669],[134.0498922,34.6969677],[134.0499324,34.6968596],[134.0499584,34.696726],[134.0499107,34.6966516],[134.0497393,34.6966383],[134.0496132,34.6965589],[134.0494174,34.6964839],[134.0492672,34.6964663],[134.0491921,34.6964663],[134.0490043,34.6963516],[134.0489722,34.6962325],[134.0489614,34.6961642],[134.0487576,34.6960407],[134.0486637,34.6958973],[134.0485993,34.695765],[134.0484652,34.6956746],[134.0483231,34.6955842]]]}}
