{"type":"Feature","id":"attraction-large-industrial-complex-W551638437","properties":{"id":"attraction-large-industrial-complex-W551638437","kind":"attraction","name":"東レ 東海工場","shortName":"東レ 東海工場","context":"日本","subtype":"industrial-complex","subtypeLabel":"工業地帯・大規模工場","statusLabel":"","aliases":[],"osmType":"way","osmId":551638437,"osmDate":null,"officialAreaKm2":null,"areaSourceLabel":"","areaSourceUrl":"","boundarySourceLabel":"© OpenStreetMap contributors","boundarySourceUrl":"https://www.openstreetmap.org/copyright","geometryFile":"attractions/large-industrial-complex-W551638437.geojson"},"geometry":{"type":"Polygon","coordinates":[[[136.8826567,35.0564459],[136.8825167,35.0560687],[136.8814667,35.0533498],[136.8816882,35.0532728],[136.8816398,35.0531371],[136.8843084,35.0525498],[136.8851507,35.052431],[136.8913477,35.0522449],[136.8930196,35.0522411],[136.8966949,35.0520997],[136.8969056,35.0558824],[136.8926279,35.056043],[136.8926653,35.0571248],[136.8912028,35.0571863],[136.8911202,35.0561359],[136.8826567,35.0564459]]]}}
