{"type":"Feature","id":"attraction-large-industrial-complex-W561833266","properties":{"id":"attraction-large-industrial-complex-W561833266","kind":"attraction","name":"スズキ湖西工場","shortName":"スズキ湖西工場","context":"日本","subtype":"industrial-complex","subtypeLabel":"工業地帯・大規模工場","statusLabel":"","aliases":[],"osmType":"way","osmId":561833266,"osmDate":null,"officialAreaKm2":null,"areaSourceLabel":"","areaSourceUrl":"","boundarySourceLabel":"© OpenStreetMap contributors","boundarySourceUrl":"https://www.openstreetmap.org/copyright","geometryFile":"attractions/large-industrial-complex-W561833266.geojson"},"geometry":{"type":"Polygon","coordinates":[[[137.5025865,34.6985651],[137.5022741,34.6999525],[137.5028648,34.7005747],[137.502711,34.7009643],[137.5028587,34.7013791],[137.5032955,34.7020098],[137.5032442,34.7026215],[137.5047709,34.7054483],[137.5044366,34.7060324],[137.5046765,34.7066159],[137.5047411,34.7069632],[137.5055998,34.7078351],[137.5058914,34.7079941],[137.5062822,34.7080463],[137.5088592,34.7088218],[137.5104594,34.7085752],[137.5141889,34.7077665],[137.5134789,34.7031972],[137.5136121,34.7024986],[137.5137449,34.7023037],[137.5138257,34.7021861],[137.5138103,34.702082],[137.5133537,34.7013317],[137.513305,34.7011928],[137.5127433,34.6976198],[137.5126641,34.6973915],[137.5125632,34.697169],[137.5124073,34.6969579],[137.5122468,34.6967882],[137.5120449,34.6966373],[137.5118844,34.6965242],[137.5116964,34.6964262],[137.5114991,34.6963356],[137.5112515,34.6962791],[137.511013,34.6962225],[137.5107607,34.6961848],[137.510485,34.696155],[137.510169,34.6961245],[137.5098159,34.6960905],[137.5095361,34.6960868],[137.509238,34.6960943],[137.5089536,34.6961207],[137.5086371,34.6961735],[137.5066236,34.6965355],[137.5063346,34.6966222],[137.5060411,34.6967316],[137.5057109,34.6968862],[137.5047936,34.6973689],[137.5025865,34.6985651]]]}}
