{"type":"Feature","id":"attraction-large-large-port-W567598331","properties":{"id":"attraction-large-large-port-W567598331","kind":"attraction","name":"夢洲コンテナ埠頭C-12","shortName":"夢洲コンテナ埠頭C-12","context":"日本","subtype":"large-port","subtypeLabel":"港湾・埠頭","statusLabel":"","aliases":[],"osmType":"way","osmId":567598331,"osmDate":null,"officialAreaKm2":null,"areaSourceLabel":"","areaSourceUrl":"","boundarySourceLabel":"© OpenStreetMap contributors","boundarySourceUrl":"https://www.openstreetmap.org/copyright","geometryFile":"attractions/large-large-port-W567598331.geojson"},"geometry":{"type":"Polygon","coordinates":[[[135.3896187,34.6477894],[135.3900267,34.6482237],[135.3902145,34.6482314],[135.3908598,34.6478203],[135.390985,34.6477785],[135.3911169,34.6477543],[135.3912518,34.6477481],[135.3913862,34.6477603],[135.3915163,34.6477904],[135.3916386,34.6478377],[135.3917498,34.6479008],[135.3928743,34.6490275],[135.3954656,34.6516731],[135.399662,34.6488487],[135.3945179,34.643617],[135.3920397,34.6452845],[135.3897755,34.6467665],[135.3896987,34.6468264],[135.3896307,34.6468931],[135.3895724,34.6469658],[135.3895245,34.6470435],[135.3894878,34.6471251],[135.3894627,34.6472097],[135.3894494,34.6472961],[135.3894483,34.6473832],[135.3894592,34.6474698],[135.3894821,34.6475548],[135.3895166,34.6476371],[135.3895624,34.6477157],[135.3896187,34.6477894]]]}}
