{"type":"Feature","id":"attraction-large-industrial-complex-W1178660022","properties":{"id":"attraction-large-industrial-complex-W1178660022","kind":"attraction","name":"彩の国資源循環工場","shortName":"彩の国資源循環工場","context":"日本","subtype":"industrial-complex","subtypeLabel":"工業地帯・大規模工場","statusLabel":"","aliases":[],"osmType":"way","osmId":1178660022,"osmDate":null,"officialAreaKm2":null,"areaSourceLabel":"","areaSourceUrl":"","boundarySourceLabel":"© OpenStreetMap contributors","boundarySourceUrl":"https://www.openstreetmap.org/copyright","geometryFile":"attractions/large-industrial-complex-W1178660022.geojson"},"geometry":{"type":"Polygon","coordinates":[[[139.2198229,36.0918066],[139.2202359,36.0918695],[139.2208783,36.0917481],[139.2207952,36.0916137],[139.2203231,36.0911727],[139.2197719,36.0906568],[139.2195252,36.0904476],[139.2194112,36.0902699],[139.2194206,36.0899936],[139.2194742,36.089637],[139.2195252,36.0891602],[139.2194983,36.0889434],[139.2194527,36.088835],[139.2188948,36.0885229],[139.2173204,36.0877339],[139.2168886,36.0875909],[139.2165882,36.0876277],[139.2159176,36.0879247],[139.2155448,36.0880872],[139.2143512,36.088369],[139.2142305,36.0880721],[139.2143109,36.0875519],[139.2139408,36.0874478],[139.2128625,36.087864],[139.2129135,36.0881956],[139.2133561,36.0883907],[139.2137504,36.0885988],[139.2131871,36.0890865],[139.2127204,36.0894246],[139.2119157,36.0897281],[139.2109233,36.0900835],[139.2102313,36.0904823],[139.2097217,36.0909028],[139.2104512,36.0913363],[139.2101347,36.0919519],[139.2098665,36.0920646],[139.2092603,36.0920386],[139.2088634,36.0916874],[139.2088687,36.0905127],[139.2074847,36.0904737],[139.2046845,36.0906731],[139.2039657,36.091061],[139.2036639,36.0915509],[139.2041695,36.0921903],[139.2042768,36.0927928],[139.2040864,36.0927668],[139.2035767,36.093326],[139.2035982,36.094271],[139.2039442,36.0947348],[139.2039335,36.0960135],[139.2061275,36.0960135],[139.2060953,36.094375],[139.2075384,36.094349],[139.2075062,36.0935861],[139.2095768,36.0934734],[139.2096573,36.0925977],[139.2100757,36.0925414],[139.2104405,36.0921643],[139.2109555,36.0923572],[139.2112693,36.0925219],[139.2114839,36.0927343],[139.2116931,36.0930984],[139.211854,36.0933672],[139.2120525,36.0935839],[139.2123047,36.0937291],[139.2130262,36.0940466],[139.213289,36.0941127],[139.2134365,36.0941019],[139.2136538,36.0939307],[139.2140776,36.0934907],[139.214209,36.0934604],[139.2143673,36.0935102],[139.2144638,36.0936186],[139.2152363,36.0944704],[139.2153811,36.0952874],[139.2155904,36.095903],[139.2158666,36.0964405],[139.2165318,36.0977213],[139.2167839,36.0976021],[139.217838,36.0991192],[139.2180446,36.0989003],[139.2182216,36.0986272],[139.2183664,36.0983758],[139.218522,36.0982241],[139.2186776,36.0981201],[139.2189243,36.0980616],[139.2191711,36.0979142],[139.2194997,36.0972261],[139.2195614,36.0970755],[139.2196579,36.0970408],[139.2199731,36.0969584],[139.2201474,36.096772],[139.2204183,36.0967374],[139.2207456,36.0967265],[139.2210326,36.0966095],[139.2210835,36.09646],[139.2207724,36.0961479],[139.2208797,36.0959701],[139.2209199,36.0957664],[139.2209199,36.0955757],[139.2209065,36.0954023],[139.2208073,36.0951942],[139.2196029,36.0937356],[139.2194447,36.0935124],[139.2193723,36.0933086],[139.2193803,36.0931959],[139.2196928,36.0919724],[139.219733,36.091928],[139.2198041,36.0918727],[139.2198229,36.0918066]]]}}
