{"type":"Feature","id":"attraction-large-park-W552582904","properties":{"id":"attraction-large-park-W552582904","kind":"attraction","name":"風越公園","shortName":"風越公園","context":"日本","subtype":"large-park","subtypeLabel":"大型都市公園・広域公園","statusLabel":"著名な公園","aliases":["Kazakoshi Park"],"osmType":"way","osmId":552582904,"osmDate":null,"officialAreaKm2":null,"areaSourceLabel":"","areaSourceUrl":"","boundarySourceLabel":"© OpenStreetMap contributors","boundarySourceUrl":"https://www.openstreetmap.org/copyright","geometryFile":"attractions/large-park-W552582904.geojson"},"geometry":{"type":"Polygon","coordinates":[[[138.5993353,36.324095],[138.5992364,36.3240983],[138.5977491,36.324098],[138.5969908,36.3241704],[138.5963777,36.3242289],[138.5963216,36.324035],[138.5961438,36.3233816],[138.5960139,36.323301],[138.5959962,36.3232962],[138.59542,36.3232123],[138.5953496,36.3228396],[138.594278,36.3228604],[138.5942524,36.3222533],[138.5937277,36.322249],[138.5934007,36.3220429],[138.5934314,36.3217785],[138.5934238,36.3214476],[138.5943878,36.3214568],[138.5948619,36.3212712],[138.5953375,36.3211216],[138.5953855,36.321108],[138.5955825,36.3210522],[138.5960777,36.3209119],[138.5963545,36.3208103],[138.5972207,36.3205599],[138.5972598,36.3205486],[138.5974304,36.3204993],[138.5976977,36.3204088],[138.5981274,36.3203332],[138.5981123,36.3209406],[138.5981826,36.3210867],[138.5983904,36.3215183],[138.5985136,36.3219507],[138.5986125,36.3225227],[138.5987161,36.323129],[138.5987317,36.3233572],[138.5993025,36.3233559],[138.5993353,36.324095]]]}}
