{"type":"Feature","id":"attraction-large-park-W763351858","properties":{"id":"attraction-large-park-W763351858","kind":"attraction","name":"中台運動公園","shortName":"中台運動公園","context":"日本","subtype":"large-park","subtypeLabel":"大型都市公園・広域公園","statusLabel":"著名な公園","aliases":["Nakadai Sports Park"],"osmType":"way","osmId":763351858,"osmDate":null,"officialAreaKm2":null,"areaSourceLabel":"","areaSourceUrl":"","boundarySourceLabel":"© OpenStreetMap contributors","boundarySourceUrl":"https://www.openstreetmap.org/copyright","geometryFile":"attractions/large-park-W763351858.geojson"},"geometry":{"type":"Polygon","coordinates":[[[140.3033681,35.7793198],[140.3034267,35.7792784],[140.3034975,35.7792494],[140.3052818,35.7791701],[140.3076252,35.7789128],[140.3082515,35.7787963],[140.3085379,35.7787755],[140.3086325,35.7788075],[140.3087681,35.778904],[140.3085915,35.7790116],[140.3085427,35.7790788],[140.3085903,35.7791413],[140.3083378,35.7796953],[140.3082541,35.7796703],[140.3081517,35.7800063],[140.3090325,35.7801857],[140.3089687,35.7807482],[140.3090056,35.7809391],[140.3090618,35.7811308],[140.30914,35.7812789],[140.3092102,35.7814456],[140.3092362,35.7814891],[140.3091864,35.781536],[140.307557,35.7819003],[140.3070976,35.7820324],[140.3065395,35.7822902],[140.3062267,35.7824857],[140.3062102,35.7824982],[140.305745,35.7828583],[140.3054941,35.7830599],[140.3048212,35.7836622],[140.3047579,35.7836922],[140.304689,35.7836892],[140.3046411,35.7836592],[140.3034997,35.7820162],[140.3033374,35.7817061],[140.3032381,35.7814563],[140.303147,35.7811926],[140.303092,35.7808064],[140.3030947,35.7804517],[140.3031443,35.7800394],[140.303256,35.7796152],[140.3033681,35.7793198]]]}}
