{"type":"Feature","id":"attraction-large-park-W169335819","properties":{"id":"attraction-large-park-W169335819","kind":"attraction","name":"星観緑地","shortName":"星観緑地","context":"日本","subtype":"large-park","subtypeLabel":"大型都市公園・広域公園","statusLabel":"著名な公園","aliases":[],"osmType":"way","osmId":169335819,"osmDate":null,"officialAreaKm2":null,"areaSourceLabel":"","areaSourceUrl":"","boundarySourceLabel":"© OpenStreetMap contributors","boundarySourceUrl":"https://www.openstreetmap.org/copyright","geometryFile":"attractions/large-park-W169335819.geojson"},"geometry":{"type":"Polygon","coordinates":[[[141.189668,43.1399854],[141.1888354,43.1400013],[141.1886466,43.1400152],[141.1879595,43.1400659],[141.1879168,43.140069],[141.1871776,43.1401664],[141.1871414,43.1400134],[141.1870193,43.1394967],[141.1868989,43.138883],[141.1869844,43.1386316],[141.1870784,43.1384163],[141.1870569,43.1378155],[141.1880067,43.1372057],[141.1880442,43.1370256],[141.1880151,43.136568],[141.1879959,43.1359668],[141.1879664,43.1356281],[141.1879182,43.1354676],[141.1879045,43.1354159],[141.1886558,43.1351975],[141.1890065,43.1351023],[141.1892871,43.1350445],[141.1893455,43.1350325],[141.189368,43.1350279],[141.1896975,43.1349858],[141.1900075,43.134957],[141.1900325,43.1349546],[141.1901939,43.1352376],[141.1903282,43.1355651],[141.1903123,43.135625],[141.1903321,43.1356754],[141.190386,43.1357243],[141.1908525,43.136875],[141.1909344,43.1369503],[141.1913803,43.1369694],[141.1914434,43.1371991],[141.1914678,43.1375233],[141.1912795,43.1376992],[141.1915078,43.1378181],[141.1917879,43.1378252],[141.1917852,43.1379721],[141.1916241,43.1379683],[141.1913285,43.1380876],[141.1912884,43.1385745],[141.1910356,43.1385725],[141.1905706,43.1387921],[141.1902055,43.1391199],[141.189668,43.1399854]]]}}
