{"type":"Feature","id":"attraction-large-park-R8314534","properties":{"id":"attraction-large-park-R8314534","kind":"attraction","name":"播磨中央公園","shortName":"播磨中央公園","context":"日本","subtype":"large-park","subtypeLabel":"大型都市公園・広域公園","statusLabel":"","aliases":["Harima Central Park"],"osmType":"relation","osmId":8314534,"osmDate":null,"officialAreaKm2":null,"areaSourceLabel":"","areaSourceUrl":"","boundarySourceLabel":"© OpenStreetMap contributors","boundarySourceUrl":"https://www.openstreetmap.org/copyright","geometryFile":"attractions/large-park-R8314534.geojson"},"geometry":{"type":"Polygon","coordinates":[[[134.9377869,34.9421242],[134.9375783,34.9421124],[134.9370939,34.9421862],[134.9368458,34.9422354],[134.9364979,34.9423697],[134.9363246,34.942413],[134.936175,34.9424582],[134.9360951,34.9425449],[134.9360478,34.9426709],[134.9360951,34.9428402],[134.9361817,34.9430351],[134.9361699,34.9431454],[134.9361453,34.9432133],[134.9360577,34.9433107],[134.9359553,34.9433698],[134.9358072,34.9433964],[134.9356686,34.9433937],[134.9355252,34.9433499],[134.9354027,34.9432874],[134.9353359,34.9431858],[134.9352969,34.9430981],[134.9353235,34.9429259],[134.9353349,34.9427781],[134.9355916,34.9424841],[134.9357547,34.94232],[134.9358904,34.942226],[134.935973,34.9421742],[134.9359605,34.9421081],[134.9359583,34.9420086],[134.935872,34.9418359],[134.9357602,34.9415896],[134.9355159,34.94125],[134.9354654,34.9412003],[134.9352588,34.9413296],[134.9351471,34.9414192],[134.9349377,34.9416144],[134.9348823,34.9416838],[134.9347963,34.9417895],[134.934606,34.942009],[134.934421,34.9422153],[134.9343068,34.9423275],[134.9341174,34.9424535],[134.9339047,34.9425823],[134.9337978,34.942631],[134.933541,34.9427472],[134.9333264,34.9428328],[134.9333018,34.9428446],[134.9332885,34.942838],[134.9333313,34.9427673],[134.9333743,34.9426937],[134.9334057,34.9426415],[134.9334125,34.9426119],[134.9334058,34.9425725],[134.9335016,34.942399],[134.9336081,34.9422466],[134.9336067,34.9422285],[134.9336959,34.9420992],[134.9337786,34.9418935],[134.9338565,34.9416811],[134.9339059,34.9414894],[134.9339444,34.9413057],[134.9339585,34.9411759],[134.933971,34.941077],[134.9339745,34.9408506],[134.9339979,34.9406575],[134.9340105,34.9406373],[134.9340327,34.9398101],[134.9339979,34.9396194],[134.9339219,34.9392481],[134.9339216,34.9389442],[134.9339093,34.9388169],[134.9338437,34.9386811],[134.9338151,34.9385501],[134.9337807,34.9383907],[134.9337246,34.9382549],[134.9337068,34.9381732],[134.9336208,34.9378603],[134.9336228,34.9377077],[134.9336165,34.9373594],[134.9335922,34.9372167],[134.9335573,34.9369763],[134.9335385,34.9368846],[134.9335163,34.9367704],[134.933551,34.9364796],[134.9335505,34.9364671],[134.9335424,34.9364525],[134.9335409,34.9364382],[134.9335547,34.9364242],[134.9335675,34.9363623],[134.9336146,34.9362313],[134.9336417,34.9361046],[134.933658,34.9360194],[134.93372,34.9359593],[134.9338411,34.9358629],[134.9338756,34.9358146],[134.9338869,34.9357029],[134.9338741,34.9355414],[134.9338018,34.9353946],[134.9337684,34.9353139],[134.9337664,34.9352863],[134.9337949,34.9352466],[134.9338464,34.9352104],[134.9338178,34.9351721],[134.9337963,34.9351401],[134.9337719,34.9350858],[134.9337642,34.9350288],[134.9337673,34.9349844],[134.9337847,34.9348981],[134.9338195,34.9347278],[134.9338807,34.9345538],[134.9339301,34.934381],[134.933947,34.9342611],[134.9339372,34.934145],[134.9338913,34.9340416],[134.9337242,34.9338151],[134.9335323,34.9335711],[134.9334223,34.9334486],[134.9333876,34.9333018],[134.9332337,34.9330852],[134.9330663,34.9328607],[134.9329944,34.9328014],[134.932896,34.9327483],[134.9328025,34.9327364],[134.9327355,34.9327118],[134.9325864,34.9326593],[134.9323679,34.9325874],[134.9321966,34.9325372],[134.9321639,34.9325371],[134.9321041,34.9325657],[134.9320665,34.9325803],[134.9320178,34.9324434],[134.9326442,34.9321051],[134.9329356,34.9319653],[134.9333489,34.9317994],[134.9341906,34.9314973],[134.9351808,34.9311437],[134.9353062,34.9310982],[134.9353884,34.9311287],[134.9354823,34.931192],[134.9355713,34.931282],[134.9355943,34.9313782],[134.9355697,34.931486],[134.9354711,34.9315829],[134.9354261,34.9317461],[134.9358038,34.931925],[134.9360444,34.932285],[134.9360001,34.9323125],[134.9360992,34.9324608],[134.9361366,34.9325937],[134.9362006,34.9327177],[134.9362854,34.932822],[134.9364035,34.9329017],[134.9365689,34.9329529],[134.9369005,34.9329772],[134.9379372,34.9330686],[134.9379414,34.9330171],[134.938395,34.9330477],[134.9384995,34.9330565],[134.9385894,34.9330321],[134.9386778,34.9330022],[134.9387384,34.9329674],[134.9387892,34.9329124],[134.938858,34.9328002],[134.9389033,34.9328121],[134.9389299,34.9328682],[134.9389397,34.9329351],[134.9389762,34.9329558],[134.9391465,34.9329512],[134.9393264,34.9329674],[134.9394629,34.9329779],[134.9396785,34.9330357],[134.9397857,34.9330503],[134.9399322,34.9330364],[134.9401981,34.9329499],[134.9404382,34.9328389],[134.9404647,34.9327547],[134.9405309,34.9326914],[134.9406441,34.9326323],[134.9407505,34.9326087],[134.9407947,34.9326077],[134.9410636,34.9325939],[134.9411335,34.9326077],[134.9411808,34.932652],[134.9412731,34.9327562],[134.9413345,34.932835],[134.941342,34.9328446],[134.941682,34.9327733],[134.9423857,34.9336132],[134.9430683,34.9343214],[134.9431762,34.9344217],[134.9436117,34.9347968],[134.9440599,34.9351657],[134.9441295,34.9352165],[134.9442485,34.935346],[134.9445306,34.9355618],[134.94502,34.9359504],[134.9450165,34.9359677],[134.9449636,34.9359988],[134.9446022,34.9363061],[134.9445692,34.9363365],[134.944519,34.9363453],[134.9444796,34.936365],[134.9443819,34.9365258],[134.9442977,34.9366365],[134.9441837,34.9367604],[134.9441099,34.9368085],[134.9439964,34.9368405],[134.9437711,34.9369031],[134.9436639,34.9369574],[134.9432196,34.9372351],[134.9430164,34.937405],[134.9430247,34.9374593],[134.9431612,34.9375748],[134.9432572,34.9375637],[134.9434591,34.9374899],[134.9445048,34.9383078],[134.9445591,34.9382591],[134.9446939,34.9383924],[134.9447349,34.9384113],[134.9448078,34.9383849],[134.9449131,34.9383609],[134.9450481,34.9383184],[134.9450818,34.9383107],[134.9452255,34.9382459],[134.945323,34.9381889],[134.9456444,34.938061],[134.9461206,34.9379773],[134.9462308,34.9380469],[134.9463494,34.9382248],[134.9465016,34.9384988],[134.9466826,34.9387112],[134.9467425,34.9387761],[134.9469547,34.9388929],[134.9472513,34.9390723],[134.9474224,34.9391849],[134.9475582,34.9392594],[134.9476789,34.9393081],[134.9477791,34.9393457],[134.9479036,34.9394015],[134.9481086,34.9395451],[134.9480515,34.9396032],[134.9479898,34.9397764],[134.9475173,34.9404379],[134.947362,34.9406551],[134.9472007,34.9409198],[134.9469604,34.9407843],[134.9467054,34.9406118],[134.9465991,34.9406161],[134.9463211,34.9408546],[134.9462599,34.9409645],[134.9462563,34.941012],[134.9463952,34.9411075],[134.9464897,34.9411901],[134.9465822,34.9412925],[134.9466726,34.9414948],[134.9466647,34.9416917],[134.9466844,34.9417823],[134.9467583,34.9419228],[134.946846,34.94203],[134.9469003,34.9420703],[134.9471244,34.9421177],[134.947265,34.942133],[134.9472437,34.9423116],[134.9470708,34.9426785],[134.9468675,34.9426075],[134.9467729,34.9428776],[134.9464064,34.942778],[134.9461859,34.9427111],[134.945675,34.9425866],[134.9454354,34.9425548],[134.9450554,34.9425351],[134.9443209,34.9425278],[134.9439612,34.9425261],[134.9437436,34.9424847],[134.9435063,34.9423829],[134.9434451,34.9424942],[134.9433086,34.9426947],[134.9429674,34.9425934],[134.9427154,34.9425216],[134.9425634,34.942485],[134.9423666,34.942418],[134.9421864,34.9423925],[134.9420934,34.9423932],[134.941989,34.9424078],[134.9418373,34.9424592],[134.9417096,34.9425355],[134.9415731,34.9426747],[134.9415076,34.9427359],[134.9414258,34.9428201],[134.9413444,34.9428522],[134.9413931,34.9430516],[134.9415156,34.9430523],[134.941636,34.9430606],[134.9417279,34.9430871],[134.9417941,34.9431356],[134.9418532,34.9431868],[134.9418891,34.9432483],[134.9419088,34.9433132],[134.9419033,34.9434008],[134.9418669,34.9434934],[134.9418059,34.9435758],[134.9417045,34.9436467],[134.941544,34.9436644],[134.9415022,34.9436593],[134.9414135,34.9436522],[134.9413513,34.9436361],[134.9412588,34.9435947],[134.9411721,34.9434924],[134.941106,34.9433538],[134.9409893,34.9432136],[134.9409197,34.9431537],[134.9407153,34.9431195],[134.94054,34.943151],[134.9403063,34.9431853],[134.9400891,34.9432465],[134.9398705,34.9433426],[134.9397995,34.9433468],[134.9397073,34.9433284],[134.9396276,34.9432831],[134.9395903,34.9431985],[134.9395834,34.9430971],[134.9395573,34.942998],[134.9395141,34.9429172],[134.9394097,34.9428685],[134.9392999,34.9428606],[134.9391158,34.942901],[134.9388465,34.9430033],[134.9387283,34.9430467],[134.9385732,34.9430809],[134.9384817,34.9430641],[134.9384226,34.9430317],[134.9383626,34.9429592],[134.9383517,34.9428726],[134.9383645,34.9428116],[134.9383427,34.9425729],[134.9383132,34.9424607],[134.9382374,34.9423642],[134.9380732,34.9422259],[134.9379334,34.9421698],[134.9377869,34.9421242]]]}}
