{"type":"Feature","id":"attraction-large-park-R8251664","properties":{"id":"attraction-large-park-R8251664","kind":"attraction","name":"神戸市立農業公園","shortName":"神戸市立農業公園","context":"日本","subtype":"large-park","subtypeLabel":"大型都市公園・広域公園","statusLabel":"著名な公園","aliases":[],"osmType":"relation","osmId":8251664,"osmDate":null,"officialAreaKm2":null,"areaSourceLabel":"","areaSourceUrl":"","boundarySourceLabel":"© OpenStreetMap contributors","boundarySourceUrl":"https://www.openstreetmap.org/copyright","geometryFile":"attractions/large-park-R8251664.geojson"},"geometry":{"type":"Polygon","coordinates":[[[135.0362713,34.7340653],[135.0367022,34.7342535],[135.0369496,34.7343108],[135.0371076,34.7343051],[135.0375606,34.7340304],[135.0378961,34.7340921],[135.0380904,34.7341502],[135.0386464,34.7343727],[135.0390741,34.7347066],[135.0391843,34.7350035],[135.0393704,34.7350771],[135.0394474,34.7350456],[135.0395562,34.7347779],[135.0397864,34.7347779],[135.0400403,34.7347047],[135.0402304,34.7345946],[135.0406232,34.7343801],[135.0411175,34.7345206],[135.0418927,34.7347824],[135.042348,34.7348375],[135.0427859,34.7339232],[135.0430291,34.7333933],[135.0428885,34.7333301],[135.042563,34.7331839],[135.0423772,34.7329678],[135.0422787,34.7327433],[135.0420414,34.732466],[135.0417734,34.7323027],[135.0409271,34.7318608],[135.0404783,34.731509],[135.0404283,34.7312213],[135.0401623,34.7310965],[135.0398963,34.7310137],[135.0393141,34.7309624],[135.0387319,34.7309636],[135.0384362,34.730947],[135.0381915,34.7309723],[135.0381831,34.7310676],[135.0383025,34.731499],[135.0385348,34.7321569],[135.0387924,34.7323508],[135.038588,34.732495],[135.0382924,34.7326566],[135.0379363,34.732711],[135.0369061,34.7332281],[135.0363719,34.7334908],[135.0362019,34.733951],[135.0362713,34.7340653]],[[135.0402839,34.7336539],[135.040415,34.7339747],[135.0416827,34.7346015],[135.0418396,34.7346152],[135.0421351,34.7341281],[135.0421713,34.7339361],[135.0421954,34.7337076],[135.0422813,34.7335502],[135.0422857,34.7334982],[135.042274,34.7334629],[135.0414797,34.7331994],[135.0413611,34.7331541],[135.0412141,34.7334753],[135.0410396,34.7336196],[135.0406781,34.7334106],[135.0404463,34.7333898],[135.040309,34.7333941],[135.0402932,34.7335183],[135.0402496,34.7335635],[135.0402839,34.7336539]]]}}
