{"type":"Feature","id":"attraction-large-park-W476016288","properties":{"id":"attraction-large-park-W476016288","kind":"attraction","name":"千波公園","shortName":"千波公園","context":"日本","subtype":"large-park","subtypeLabel":"大型都市公園・広域公園","statusLabel":"","aliases":["Semba Park"],"osmType":"way","osmId":476016288,"osmDate":null,"officialAreaKm2":null,"areaSourceLabel":"","areaSourceUrl":"","boundarySourceLabel":"© OpenStreetMap contributors","boundarySourceUrl":"https://www.openstreetmap.org/copyright","geometryFile":"attractions/large-park-W476016288.geojson"},"geometry":{"type":"Polygon","coordinates":[[[140.4526882,36.367669],[140.452619,36.3678979],[140.4523554,36.3680666],[140.4522202,36.3679414],[140.4519091,36.3682358],[140.4520626,36.3683524],[140.452679,36.368821],[140.4527407,36.3688829],[140.4525514,36.3691659],[140.4517809,36.3689972],[140.4512503,36.3685964],[140.4513755,36.3688987],[140.4514511,36.3690441],[140.4520887,36.3691923],[140.452335,36.369235],[140.4526367,36.3694083],[140.45305,36.3700083],[140.4531958,36.3703865],[140.4532932,36.3705801],[140.4533494,36.3706583],[140.4530184,36.3707395],[140.4526977,36.3708804],[140.4526539,36.370925],[140.4526302,36.3709734],[140.452625,36.3710002],[140.4526295,36.3710573],[140.4528402,36.3713093],[140.452918,36.3713777],[140.452977,36.3714319],[140.4530987,36.3715658],[140.4531436,36.3716598],[140.4532094,36.3717577],[140.453317,36.371891],[140.4534044,36.3719782],[140.4535104,36.3720731],[140.453635,36.3721645],[140.453804,36.3722681],[140.4538912,36.37232],[140.4540387,36.372375],[140.4543337,36.3724539],[140.4546703,36.3725176],[140.4547468,36.3724981],[140.4550821,36.3725791],[140.4552269,36.3725867],[140.4553463,36.3725878],[140.4555032,36.3725845],[140.4558747,36.372496],[140.4562099,36.3724549],[140.456796,36.3724031],[140.4572399,36.372388],[140.4572528,36.3725573],[140.4564245,36.3726493],[140.4563829,36.3726763],[140.4563548,36.3727033],[140.4563528,36.3727362],[140.4563709,36.3727638],[140.4564044,36.3727881],[140.4564728,36.3728005],[140.4580298,36.3727508],[140.460881,36.3726018],[140.4613772,36.3725413],[140.461632,36.3724787],[140.4617983,36.3723988],[140.4619619,36.3722843],[140.4620478,36.3721958],[140.4622301,36.372064],[140.4624206,36.3719949],[140.462662,36.3719582],[140.4628685,36.3719129],[140.463244,36.3718222],[140.4649794,36.3713362],[140.4653388,36.3712002],[140.4668301,36.3707984],[140.467396,36.3706322],[140.4676402,36.3705328],[140.4680639,36.3703255],[140.4683349,36.3701657],[140.4687345,36.3698309],[140.4680881,36.3679498],[140.4678906,36.3677816],[140.4675221,36.3678342],[140.4674336,36.3678366],[140.4669709,36.367889],[140.4667617,36.3678807],[140.4666786,36.3678547],[140.4662588,36.367601],[140.4656379,36.3672154],[140.4655239,36.3671463],[140.4653195,36.3672717],[140.4651859,36.3674422],[140.4647572,36.3675738],[140.4648017,36.3677809],[140.4648365,36.3678548],[140.4649994,36.3682713],[140.4650451,36.3685146],[140.4650572,36.3686971],[140.4650626,36.3688374],[140.46508,36.3688893],[140.4652825,36.3690567],[140.4652608,36.3690802],[140.4651953,36.3691193],[140.4650867,36.3691603],[140.4649405,36.369197],[140.4648091,36.3692154],[140.4646012,36.3692327],[140.4644537,36.3692219],[140.4642002,36.3691582],[140.4635101,36.3689504],[140.4632058,36.3688513],[140.4628229,36.3686906],[140.4624568,36.3685254],[140.4622779,36.3684578],[140.4620984,36.3684164],[140.4619067,36.3683823],[140.4617073,36.3683825],[140.461475,36.3683736],[140.4614664,36.3682212],[140.4614951,36.3680898],[140.4615314,36.367956],[140.461135,36.3677999],[140.4612424,36.367345],[140.4608935,36.3670824],[140.4598778,36.3667457],[140.4597437,36.3666436],[140.4596208,36.3666386],[140.4595748,36.3667349],[140.4593454,36.3667813],[140.459273,36.3667262],[140.4589815,36.3667712],[140.458979,36.3668692],[140.4585397,36.3670107],[140.4582558,36.3669999],[140.4582558,36.3669073],[140.458026,36.3669291],[140.4580666,36.3671795],[140.4578368,36.3672284],[140.457661,36.367125],[140.457411,36.3671414],[140.4572825,36.3671414],[140.4556334,36.3670543],[140.45514,36.3671849],[140.4543753,36.3675319],[140.4541369,36.3675182],[140.4539601,36.36747],[140.4542278,36.3668979],[140.4538161,36.3667792],[140.4534888,36.3667144],[140.4534084,36.3667576],[140.4533105,36.366723],[140.4530857,36.3668248],[140.4528923,36.3666615],[140.4525943,36.3667943],[140.4524066,36.3668569],[140.452815,36.3670325],[140.452788,36.3672176],[140.4537072,36.3676405],[140.4536033,36.367834],[140.4532504,36.3682531],[140.4528826,36.3680285],[140.4530033,36.3679087],[140.4526882,36.367669]]]}}
