{"type":"Feature","id":"attraction-large-park-R10737865","properties":{"id":"attraction-large-park-R10737865","kind":"attraction","name":"秋田ふるさと村","shortName":"秋田ふるさと村","context":"秋田県・横手市","subtype":"large-park","subtypeLabel":"大型都市公園・広域公園","statusLabel":"著名な公園","aliases":["Akita Furusato-mura","かまくらんど","秋田県ふるさと村"],"osmType":"relation","osmId":10737865,"osmDate":null,"officialAreaKm2":null,"areaSourceLabel":"","areaSourceUrl":"","boundarySourceLabel":"© OpenStreetMap contributors","boundarySourceUrl":"https://www.openstreetmap.org/copyright","geometryFile":"attractions/large-park-R10737865.geojson"},"geometry":{"type":"Polygon","coordinates":[[[140.5433174,39.2931858],[140.5438739,39.2935075],[140.5437296,39.2936495],[140.543713,39.294232],[140.5445718,39.2947559],[140.5447778,39.2947779],[140.5449847,39.2949041],[140.5452847,39.2950872],[140.5454028,39.2951204],[140.5454484,39.2950851],[140.5455428,39.294868],[140.5455803,39.2947787],[140.5455905,39.2947177],[140.5455771,39.2946471],[140.5456778,39.2946742],[140.5466836,39.2946887],[140.5467775,39.2949502],[140.547331,39.2949368],[140.5482299,39.294915],[140.5489256,39.2942428],[140.5496415,39.2942689],[140.5495944,39.2940423],[140.5495885,39.2936627],[140.5495535,39.293097],[140.5494591,39.292288],[140.5493656,39.2921911],[140.5492095,39.2921532],[140.5490319,39.2920893],[140.5488152,39.2919953],[140.548549,39.291824],[140.5481093,39.2914361],[140.5480569,39.2913966],[140.5479958,39.2913652],[140.5479336,39.2913352],[140.5478727,39.2913192],[140.5478147,39.2913135],[140.5477341,39.2913103],[140.5475381,39.2913197],[140.5471094,39.2913581],[140.5469165,39.2913656],[140.5468643,39.291366],[140.5468087,39.291363],[140.5467471,39.2913558],[140.5466633,39.2913438],[140.5465809,39.2913241],[140.5462051,39.2911907],[140.5457244,39.2910238],[140.5455581,39.2909952],[140.5453794,39.2910095],[140.5445623,39.291247],[140.5437341,39.2915198],[140.5436058,39.2916331],[140.5435293,39.2917514],[140.5435132,39.2918656],[140.543652,39.2924406],[140.5435923,39.2927997],[140.5433174,39.2931858]]]}}
