{"type":"Feature","id":"attraction-large-park-W475690524","properties":{"id":"attraction-large-park-W475690524","kind":"attraction","name":"猪名川運動公園","shortName":"猪名川運動公園","context":"日本","subtype":"large-park","subtypeLabel":"大型都市公園・広域公園","statusLabel":"著名な公園","aliases":[],"osmType":"way","osmId":475690524,"osmDate":null,"officialAreaKm2":null,"areaSourceLabel":"","areaSourceUrl":"","boundarySourceLabel":"© OpenStreetMap contributors","boundarySourceUrl":"https://www.openstreetmap.org/copyright","geometryFile":"attractions/large-park-W475690524.geojson"},"geometry":{"type":"Polygon","coordinates":[[[135.4202628,34.8087976],[135.4207,34.8089607],[135.4210434,34.8090906],[135.4210486,34.8092689],[135.4209414,34.8095597],[135.420877,34.8096918],[135.4206946,34.8100001],[135.4205497,34.8102644],[135.4200455,34.8110615],[135.4196378,34.8117838],[135.4195198,34.8119513],[135.4193321,34.8122904],[135.418919,34.8131933],[135.4186696,34.813768],[135.4179856,34.8153954],[135.4177656,34.8159151],[135.4175672,34.8163819],[135.417374,34.8170073],[135.4173526,34.8172804],[135.4174089,34.8178903],[135.4175135,34.8184034],[135.4175994,34.8189847],[135.417712,34.8195396],[135.417948,34.820231],[135.4181465,34.8207771],[135.4183396,34.8213011],[135.4185381,34.8218868],[135.4186669,34.8222436],[135.418801,34.8224373],[135.418742,34.8224241],[135.4185489,34.8222171],[135.4184845,34.8221202],[135.4183504,34.8221709],[135.4181036,34.8219155],[135.4178435,34.8216315],[135.4175994,34.8212505],[135.4170388,34.8204511],[135.416776,34.8200879],[135.4166901,34.819969],[135.4166204,34.8198434],[135.4164595,34.8193172],[135.4163762,34.8189362],[135.4162663,34.8185003],[135.4162556,34.8182536],[135.4162502,34.8179189],[135.4162529,34.8174433],[135.4162446,34.8168066],[135.4163146,34.8165008],[135.4164541,34.8159085],[135.4166284,34.8153954],[135.4167705,34.8149594],[135.4170415,34.8142459],[135.4173526,34.8135302],[135.4176932,34.8126603],[135.4178783,34.8122045],[135.4180178,34.8119138],[135.4183262,34.8114932],[135.4185945,34.8111233],[135.4191496,34.8103216],[135.419434,34.8099186],[135.4200697,34.809051],[135.4202628,34.8087976]]]}}
