{"type":"Feature","id":"attraction-large-park-W194623390","properties":{"id":"attraction-large-park-W194623390","kind":"attraction","name":"町田市立 野津田公園","shortName":"町田市立 野津田公園","context":"日本","subtype":"large-park","subtypeLabel":"大型都市公園・広域公園","statusLabel":"著名な公園","aliases":["Nozuta Park"],"osmType":"way","osmId":194623390,"osmDate":null,"officialAreaKm2":null,"areaSourceLabel":"","areaSourceUrl":"","boundarySourceLabel":"© OpenStreetMap contributors","boundarySourceUrl":"https://www.openstreetmap.org/copyright","geometryFile":"attractions/large-park-W194623390.geojson"},"geometry":{"type":"Polygon","coordinates":[[[139.4472225,35.5932739],[139.4473453,35.593051],[139.4475532,35.5931143],[139.4476452,35.5931165],[139.4476917,35.5931177],[139.4477386,35.5931155],[139.4478082,35.5931124],[139.4477301,35.5930308],[139.4473801,35.5924976],[139.4473808,35.5924016],[139.4474819,35.5923295],[139.4474564,35.5922801],[139.4471657,35.5921112],[139.447252,35.5920663],[139.4472814,35.5920291],[139.4473155,35.5919422],[139.4474121,35.5918132],[139.4475514,35.5917076],[139.4477593,35.5915749],[139.4479416,35.5915036],[139.4480936,35.5915051],[139.4483231,35.5915351],[139.4483159,35.5914887],[139.4481412,35.5914605],[139.4481203,35.5913526],[139.4478034,35.5913561],[139.4476302,35.5913573],[139.4474853,35.5913367],[139.447444,35.5912938],[139.4474673,35.5912304],[139.4475903,35.5912003],[139.4476872,35.5909412],[139.4477686,35.5909009],[139.4478068,35.5907955],[139.4477505,35.5899829],[139.4476369,35.589793],[139.4471676,35.5898206],[139.4465438,35.5896194],[139.445675,35.5892282],[139.4447246,35.5890394],[139.4445488,35.5894683],[139.4442846,35.5896201],[139.4439121,35.5894554],[139.443792,35.5896897],[139.4437796,35.5897133],[139.4437495,35.5896925],[139.4437227,35.589686],[139.4436891,35.5896914],[139.4436227,35.5897481],[139.4434909,35.5898229],[139.4432652,35.5898966],[139.4432471,35.5899093],[139.4432411,35.5901933],[139.4432135,35.590235],[139.4431666,35.5902819],[139.4431148,35.5903246],[139.4430836,35.5903698],[139.4430709,35.5904218],[139.443065,35.5905505],[139.4429068,35.5908253],[139.4428304,35.590926],[139.4427326,35.5909648],[139.4425795,35.5909685],[139.4424063,35.5909211],[139.4422704,35.5908231],[139.4420825,35.591054],[139.4419885,35.5914661],[139.4419482,35.5915977],[139.441904,35.5917068],[139.4418449,35.5917911],[139.4417702,35.591848],[139.4416843,35.5918952],[139.4415104,35.5920732],[139.4414867,35.5921139],[139.4414806,35.5922181],[139.4413935,35.5922033],[139.4412904,35.5921761],[139.4411993,35.5921267],[139.441117,35.5920339],[139.4408129,35.5915812],[139.4404163,35.5916011],[139.4385834,35.5914869],[139.4385804,35.5913329],[139.4386388,35.5911294],[139.4380467,35.5911792],[139.4380149,35.5911043],[139.4380054,35.5910429],[139.4376578,35.5910813],[139.4375697,35.5909988],[139.437237,35.5909535],[139.4364554,35.5906712],[139.4364301,35.5903803],[139.4364755,35.5900441],[139.436528,35.5898837],[139.4363192,35.5898514],[139.4361425,35.5900995],[139.436095,35.5901472],[139.4360096,35.5902283],[139.4357807,35.5904384],[139.4357428,35.5904907],[139.4357141,35.5905429],[139.4356619,35.5908243],[139.4355925,35.590965],[139.4353496,35.591361],[139.4353624,35.5913978],[139.4356202,35.5916384],[139.4361234,35.592158],[139.4367051,35.5924087],[139.4366591,35.5924909],[139.4365424,35.5925339],[139.4361628,35.5923759],[139.436139,35.5925919],[139.4361428,35.5927306],[139.4361704,35.5928355],[139.4362192,35.5929364],[139.4362999,35.5930204],[139.4367888,35.5933643],[139.4368684,35.5934304],[139.4372393,35.5932082],[139.4372513,35.5932562],[139.4374611,35.5934642],[139.4376032,35.5934613],[139.4375401,35.5936],[139.4375508,35.5936036],[139.4375002,35.5936801],[139.4375525,35.5938978],[139.4374581,35.5939737],[139.4374705,35.5939866],[139.4374914,35.5940394],[139.4374925,35.5940753],[139.437492,35.5940881],[139.4376015,35.5940223],[139.4378267,35.5938585],[139.4377059,35.5937252],[139.4379858,35.5935362],[139.4379966,35.5934532],[139.4380281,35.5934135],[139.4380543,35.5934346],[139.4381545,35.5934872],[139.4383114,35.5935273],[139.4382563,35.5935784],[139.4382161,35.5935852],[139.4381781,35.5935998],[139.4378291,35.5938826],[139.4376138,35.5940423],[139.4374904,35.5941162],[139.4374813,35.5943046],[139.4374818,35.5944632],[139.4374851,35.5945071],[139.4378135,35.5944768],[139.4380508,35.5942062],[139.4383183,35.5940666],[139.438819,35.5939774],[139.4388137,35.5941002],[139.4388233,35.5941879],[139.4388482,35.5942531],[139.4388966,35.5943118],[139.4389693,35.5943705],[139.4391542,35.5944436],[139.439277,35.5944681],[139.4395717,35.594508],[139.4397123,35.5945148],[139.4399215,35.594502],[139.4401291,35.5945204],[139.4404198,35.5939833],[139.4404386,35.5939489],[139.4405782,35.5939669],[139.4410153,35.5941384],[139.440983,35.5941833],[139.4412081,35.5943042],[139.441325,35.5941565],[139.4416068,35.5942342],[139.441956,35.5943443],[139.441797,35.5946036],[139.4418389,35.5946196],[139.4416967,35.5949894],[139.4418003,35.5950186],[139.4414685,35.5954165],[139.4415464,35.5954594],[139.4416054,35.5955227],[139.4416157,35.5955971],[139.4415786,35.5956868],[139.4415584,35.5957301],[139.4415532,35.5957738],[139.4415613,35.5958164],[139.4415888,35.5958636],[139.4416678,35.5959683],[139.4417623,35.5960803],[139.4419005,35.5962042],[139.4420574,35.5963018],[139.4421972,35.5963752],[139.4423359,35.5962033],[139.4425056,35.5960391],[139.4429577,35.5962904],[139.4429141,35.5963971],[139.4429305,35.5964462],[139.4429688,35.5964763],[139.4432393,35.5963472],[139.4431969,35.5962921],[139.4432125,35.5962464],[139.4430215,35.5961392],[139.4430936,35.5960615],[139.4426034,35.595774],[139.4426911,35.5955687],[139.4428415,35.5953622],[139.4430206,35.595177],[139.443091,35.5951245],[139.4430614,35.5950853],[139.443059,35.5950431],[139.4430769,35.5950119],[139.4431701,35.5949638],[139.4431439,35.5949102],[139.443047,35.5949599],[139.442957,35.5949684],[139.4428437,35.5949074],[139.4427032,35.5947514],[139.4428065,35.5946805],[139.4429871,35.5946224],[139.4432153,35.5945777],[139.4433515,35.5944977],[139.4435504,35.5945815],[139.4440612,35.5944389],[139.4441459,35.5943246],[139.4445548,35.5944386],[139.4446402,35.5943736],[139.44474,35.5942982],[139.4447975,35.5943248],[139.4450896,35.5943382],[139.4451884,35.5942588],[139.4452851,35.5942403],[139.4454398,35.5942561],[139.4455576,35.5942879],[139.4456527,35.5942592],[139.445755,35.5942198],[139.4462101,35.594163],[139.4464273,35.5941201],[139.4468175,35.5939471],[139.4467227,35.5938085],[139.4469493,35.5937074],[139.4472225,35.5932739]]]}}
