{"type":"Feature","id":"attraction-large-park-W471883737","properties":{"id":"attraction-large-park-W471883737","kind":"attraction","name":"国営越後丘陵公園","shortName":"国営越後丘陵公園","context":"日本","subtype":"large-park","subtypeLabel":"大型都市公園・広域公園","statusLabel":"","aliases":[],"osmType":"way","osmId":471883737,"osmDate":null,"officialAreaKm2":null,"areaSourceLabel":"","areaSourceUrl":"","boundarySourceLabel":"© OpenStreetMap contributors","boundarySourceUrl":"https://www.openstreetmap.org/copyright","geometryFile":"attractions/large-park-W471883737.geojson"},"geometry":{"type":"Polygon","coordinates":[[[138.7520848,37.4312063],[138.7522456,37.4310837],[138.7522553,37.4309033],[138.7524029,37.4308049],[138.7525743,37.4294494],[138.7525865,37.4292993],[138.7526074,37.4291008],[138.7526678,37.4288439],[138.7527442,37.4286141],[138.7528378,37.4284168],[138.7529235,37.428268],[138.7531744,37.4278782],[138.7535089,37.42752],[138.753985,37.4270254],[138.7543038,37.4267447],[138.7551237,37.4260949],[138.7546714,37.4254772],[138.7547086,37.4250412],[138.7542351,37.4242843],[138.7541437,37.4240474],[138.7543458,37.423769],[138.7544382,37.4231882],[138.7545021,37.4225289],[138.7528456,37.4208944],[138.7523218,37.4190617],[138.7514205,37.4187884],[138.7509952,37.4185338],[138.7500868,37.4176916],[138.7504175,37.4172144],[138.7519104,37.4157473],[138.7560897,37.4149207],[138.7585093,37.4150527],[138.7606248,37.4155212],[138.7625306,37.4147666],[138.7648344,37.4158616],[138.7661333,37.4159266],[138.767105,37.4151666],[138.7666346,37.414146],[138.7646131,37.4073509],[138.7568268,37.405754],[138.7535078,37.4047514],[138.7441093,37.4104784],[138.7412984,37.4103761],[138.7397105,37.4134269],[138.7339813,37.4144325],[138.7339813,37.4179432],[138.7387449,37.4187954],[138.7379081,37.4226979],[138.7388093,37.4309112],[138.7406443,37.4314386],[138.7420274,37.4317166],[138.7437393,37.4316851],[138.7438952,37.4315542],[138.744247,37.4315321],[138.7442439,37.4312541],[138.7444261,37.4312546],[138.7445726,37.4312553],[138.7460701,37.4312442],[138.7482456,37.4312497],[138.7496445,37.4312162],[138.7520848,37.4312063]]]}}
