{"type":"Feature","id":"attraction-large-park-W395998646","properties":{"id":"attraction-large-park-W395998646","kind":"attraction","name":"城ヶ島公園","shortName":"城ヶ島公園","context":"日本","subtype":"large-park","subtypeLabel":"大型都市公園・広域公園","statusLabel":"著名な公園","aliases":["Jogashima Island Park"],"osmType":"way","osmId":395998646,"osmDate":null,"officialAreaKm2":null,"areaSourceLabel":"","areaSourceUrl":"","boundarySourceLabel":"© OpenStreetMap contributors","boundarySourceUrl":"https://www.openstreetmap.org/copyright","geometryFile":"attractions/large-park-W395998646.geojson"},"geometry":{"type":"Polygon","coordinates":[[[139.6217506,35.1355222],[139.6218136,35.1354773],[139.6218766,35.1354016],[139.6219249,35.1353226],[139.6220054,35.1351691],[139.6220858,35.1349958],[139.6221663,35.1348203],[139.6222039,35.1347425],[139.6222079,35.1346876],[139.6221998,35.1346087],[139.6223326,35.1345911],[139.6223983,35.1346558],[139.6224707,35.1346788],[139.6231232,35.1347044],[139.623262,35.1347052],[139.6233746,35.1346832],[139.6234632,35.1346492],[139.6235315,35.1345977],[139.6234873,35.1345593],[139.6236947,35.1343875],[139.6237354,35.1344299],[139.623832,35.1343498],[139.6238454,35.1343027],[139.6238401,35.1342455],[139.6233706,35.1336575],[139.6233724,35.1334226],[139.6234628,35.1333192],[139.6254786,35.1319914],[139.6282347,35.1306126],[139.6285578,35.1302328],[139.6281539,35.129758],[139.6264983,35.1300511],[139.6253877,35.1304846],[139.624469,35.1307447],[139.6235705,35.1308933],[139.6232979,35.1312318],[139.6231162,35.1319006],[139.6226215,35.1322474],[139.6220713,35.1332175],[139.6215514,35.133395],[139.6207639,35.1334817],[139.6205469,35.1335725],[139.6206125,35.1343858],[139.6211274,35.1345839],[139.621511,35.1355623],[139.6217506,35.1355222]]]}}
