{"type":"Feature","id":"attraction-large-industrial-complex-W617818934","properties":{"id":"attraction-large-industrial-complex-W617818934","kind":"attraction","name":"厚木流通団地","shortName":"厚木流通団地","context":"日本","subtype":"industrial-complex","subtypeLabel":"工業地帯・大規模工場","statusLabel":"","aliases":[],"osmType":"way","osmId":617818934,"osmDate":null,"officialAreaKm2":null,"areaSourceLabel":"","areaSourceUrl":"","boundarySourceLabel":"© OpenStreetMap contributors","boundarySourceUrl":"https://www.openstreetmap.org/copyright","geometryFile":"attractions/large-industrial-complex-W617818934.geojson"},"geometry":{"type":"Polygon","coordinates":[[[139.355606,35.4253214],[139.3557527,35.4259248],[139.3558573,35.4261739],[139.3561759,35.4266273],[139.3570262,35.4264787],[139.3572,35.426512],[139.3569443,35.4272605],[139.3566627,35.4274895],[139.3559785,35.4281935],[139.3546849,35.4295672],[139.3551006,35.4300638],[139.356574,35.4315878],[139.3566207,35.4315688],[139.3565785,35.4311239],[139.3565477,35.4311257],[139.3565426,35.4310636],[139.356572,35.4310619],[139.3564642,35.4299192],[139.3567575,35.4286262],[139.3580326,35.4285462],[139.3579855,35.4280236],[139.3595866,35.4279299],[139.3595562,35.4274295],[139.3599672,35.427401],[139.3600699,35.4269234],[139.3601197,35.4269305],[139.3601397,35.4272468],[139.3603338,35.4272406],[139.3603507,35.4273837],[139.3609646,35.4273421],[139.3609957,35.4276989],[139.3610075,35.4276983],[139.3611431,35.4276915],[139.3611996,35.4276887],[139.3612104,35.4278004],[139.3617773,35.4273347],[139.3618327,35.4272569],[139.3618435,35.4273419],[139.3618811,35.4278057],[139.3631638,35.427756],[139.3632563,35.4287213],[139.3645308,35.4286477],[139.3646366,35.429514],[139.3652348,35.4294762],[139.3652337,35.429486],[139.3653484,35.4294799],[139.3654007,35.4299566],[139.3653001,35.4299634],[139.3653174,35.430129],[139.3654984,35.4301207],[139.3656305,35.4296602],[139.3657626,35.4295426],[139.3657667,35.4292461],[139.3664517,35.429208],[139.3664519,35.4291104],[139.367111,35.4290724],[139.3671949,35.429708],[139.3668163,35.4298963],[139.3669473,35.4314072],[139.366987,35.4314514],[139.368143,35.4311918],[139.3684091,35.4313848],[139.3677918,35.4321917],[139.3676613,35.4323929],[139.3674065,35.4331192],[139.3673971,35.4331947],[139.3677016,35.4338071],[139.3712263,35.4345379],[139.3712479,35.4345236],[139.3712414,35.4336391],[139.3711974,35.4318687],[139.3711739,35.4311067],[139.371196,35.4310275],[139.3711954,35.430975],[139.3712005,35.4308943],[139.371171,35.4296093],[139.3711087,35.429419],[139.3710983,35.4293037],[139.3711411,35.4290701],[139.371134,35.4288543],[139.3710896,35.4288087],[139.3708838,35.4287068],[139.370883,35.4284928],[139.3708965,35.428482],[139.3711148,35.4284787],[139.3711108,35.4282843],[139.3710618,35.4280266],[139.3710046,35.4278851],[139.3709445,35.4276698],[139.3708931,35.4274062],[139.3708635,35.4272288],[139.3706527,35.4266674],[139.3703976,35.4259912],[139.3703941,35.42594],[139.3703654,35.4258536],[139.3696328,35.4259035],[139.3696306,35.4263695],[139.3695961,35.4265172],[139.3695832,35.4268711],[139.369718,35.4268908],[139.369442,35.4286513],[139.3694041,35.4290731],[139.3690718,35.4290793],[139.3683068,35.4290908],[139.3682548,35.4284576],[139.3675194,35.4285085],[139.367541,35.4288317],[139.3670379,35.4288576],[139.366807,35.4264613],[139.366224,35.4265039],[139.366213,35.426495],[139.3662012,35.4263034],[139.3659902,35.4263147],[139.3659775,35.426155],[139.3659339,35.4261449],[139.3659287,35.426014],[139.3659517,35.4259909],[139.3661504,35.4259821],[139.366068,35.425163],[139.3653621,35.4251998],[139.3652657,35.4238316],[139.3641116,35.4230992],[139.3641021,35.4229791],[139.3640868,35.422787],[139.3640692,35.4225649],[139.3640649,35.4225113],[139.3643381,35.422496],[139.3643661,35.4223533],[139.3648144,35.4214076],[139.3644525,35.4214229],[139.3643194,35.4196266],[139.3642367,35.4187114],[139.3645112,35.4186786],[139.3645388,35.4186344],[139.3643122,35.4179502],[139.3649282,35.417919],[139.3649,35.4175335],[139.3645738,35.4175469],[139.3645596,35.417467],[139.3643376,35.4174793],[139.364185,35.4175392],[139.3635283,35.4157958],[139.3634502,35.415563],[139.3630589,35.4154952],[139.3631074,35.4153128],[139.3633777,35.415363],[139.3632541,35.4150063],[139.363195,35.4149269],[139.3630936,35.4149006],[139.3630462,35.4149173],[139.3628564,35.4146863],[139.3629231,35.4144442],[139.3629187,35.4143247],[139.3628736,35.4141591],[139.3628144,35.414006],[139.3627524,35.4139804],[139.3626861,35.4139771],[139.3626188,35.4139796],[139.362441,35.4143441],[139.3623489,35.4143111],[139.3619544,35.4141816],[139.3612728,35.4153894],[139.3611588,35.4154497],[139.3609493,35.415864],[139.3608075,35.4161553],[139.3607706,35.4162155],[139.3606196,35.4163486],[139.3588973,35.4191859],[139.3577635,35.4191307],[139.3568761,35.4191734],[139.3559703,35.4193089],[139.3554974,35.4193407],[139.3551665,35.4193752],[139.354802,35.4193665],[139.354786,35.4215274],[139.3553617,35.4215249],[139.3553751,35.4225238],[139.3554046,35.4232538],[139.3550116,35.4233347],[139.3547382,35.4234671],[139.3546556,35.4234943],[139.3543957,35.4236222],[139.3536881,35.423854],[139.3537753,35.4241238],[139.3529795,35.4242612],[139.3530623,35.4245888],[139.3536475,35.424483],[139.3536878,35.4246166],[139.354079,35.4245919],[139.3540369,35.4244469],[139.3542584,35.4244139],[139.3543001,35.4245853],[139.3551339,35.4245179],[139.3550734,35.424289],[139.3553768,35.4242592],[139.355606,35.4253214]]]}}
