{"type":"Feature","id":"attraction-large-industrial-complex-W618355300","properties":{"id":"attraction-large-industrial-complex-W618355300","kind":"attraction","name":"デンカ株式会社 青海工場","shortName":"デンカ株式会社 青海工場","context":"日本","subtype":"industrial-complex","subtypeLabel":"工業地帯・大規模工場","statusLabel":"","aliases":["Denka"],"osmType":"way","osmId":618355300,"osmDate":null,"officialAreaKm2":null,"areaSourceLabel":"","areaSourceUrl":"","boundarySourceLabel":"© OpenStreetMap contributors","boundarySourceUrl":"https://www.openstreetmap.org/copyright","geometryFile":"attractions/large-industrial-complex-W618355300.geojson"},"geometry":{"type":"Polygon","coordinates":[[[137.7827865,37.011523],[137.7850825,37.0125553],[137.7858657,37.0121013],[137.7875876,37.0138318],[137.789095,37.015528],[137.7905595,37.0162476],[137.791627,37.0176825],[137.7935785,37.0176572],[137.7936479,37.0174296],[137.7936969,37.0172932],[137.793766,37.0169121],[137.7937828,37.0168165],[137.7937885,37.0167808],[137.793837,37.0164775],[137.793923,37.0159392],[137.7939525,37.015588],[137.7949583,37.0146157],[137.7962002,37.0135983],[137.7940732,37.0134656],[137.7933436,37.0136883],[137.7926785,37.0124097],[137.7920844,37.0117586],[137.7915385,37.0109361],[137.7909793,37.010194],[137.7900445,37.0092098],[137.7897549,37.0087515],[137.7896127,37.0083424],[137.7889904,37.0084495],[137.7880222,37.0084559],[137.7873892,37.0078733],[137.785871,37.0073207],[137.7851146,37.006541],[137.7849591,37.0053159],[137.7835456,37.0035573],[137.7834248,37.0017044],[137.7830601,37.0009633],[137.7824056,37.0002692],[137.7813542,37.0006505],[137.7820086,37.0018329],[137.7820945,37.0030882],[137.7823841,37.0037865],[137.7827436,37.0037908],[137.7826899,37.0052987],[137.7823037,37.0055086],[137.7816653,37.0063611],[137.7815312,37.0071451],[137.7804047,37.0083188],[137.7809626,37.0115444],[137.7827865,37.011523]]]}}
