{"type":"Feature","id":"attraction-large-park-W352750861","properties":{"id":"attraction-large-park-W352750861","kind":"attraction","name":"新潟県スポーツ公園","shortName":"新潟県スポーツ公園","context":"日本","subtype":"large-park","subtypeLabel":"大型都市公園・広域公園","statusLabel":"著名な公園","aliases":[],"osmType":"way","osmId":352750861,"osmDate":null,"officialAreaKm2":null,"areaSourceLabel":"","areaSourceUrl":"","boundarySourceLabel":"© OpenStreetMap contributors","boundarySourceUrl":"https://www.openstreetmap.org/copyright","geometryFile":"attractions/large-park-W352750861.geojson"},"geometry":{"type":"Polygon","coordinates":[[[139.0538966,37.8832362],[139.0545481,37.8834863],[139.0546954,37.8834088],[139.0562706,37.8838737],[139.0581627,37.88082],[139.0584171,37.8807707],[139.0613177,37.8812497],[139.0630163,37.88162],[139.0642569,37.8820744],[139.0644131,37.8821483],[139.0644978,37.8823385],[139.0636009,37.8836875],[139.0625701,37.8855295],[139.0626459,37.8856563],[139.0657072,37.886896],[139.0646406,37.8885618],[139.063177,37.8879349],[139.0622247,37.889317],[139.0623554,37.889376],[139.0623321,37.8894176],[139.0622864,37.8894992],[139.0620733,37.8894089],[139.0619311,37.8893244],[139.0616614,37.8891161],[139.0615903,37.8890206],[139.0614908,37.8889192],[139.0614697,37.8888853],[139.0613561,37.8887614],[139.0611078,37.8884347],[139.06098,37.8882544],[139.0609372,37.8882094],[139.0607314,37.8878717],[139.0605467,37.8874833],[139.0602628,37.887027],[139.059922,37.8865878],[139.0598153,37.8864075],[139.05956,37.8862611],[139.0593808,37.8861061],[139.0593514,37.8860644],[139.0593752,37.8859928],[139.0594724,37.8858581],[139.0594702,37.8857882],[139.0593924,37.8858359],[139.059239,37.8860047],[139.0591042,37.8860183],[139.0590092,37.8860381],[139.0587292,37.8859795],[139.0585161,37.885957],[139.05836,37.885895],[139.0581539,37.8857825],[139.0579125,37.8857092],[139.0577067,37.8856756],[139.0568617,37.8855908],[139.0557611,37.8855853],[139.0556192,37.8855683],[139.0553992,37.8855122],[139.0552358,37.8854503],[139.0549233,37.8852811],[139.05476,37.8851686],[139.0546678,37.8850842],[139.0544972,37.8848589],[139.0542914,37.8846561],[139.0539433,37.8843745],[139.0538372,37.884262],[139.0534322,37.8837833],[139.0537771,37.8833769],[139.0538966,37.8832362]]]}}
