{"type":"Feature","id":"attraction-large-park-W127846861","properties":{"id":"attraction-large-park-W127846861","kind":"attraction","name":"見沼自然公園","shortName":"見沼自然公園","context":"日本","subtype":"large-park","subtypeLabel":"大型都市公園・広域公園","statusLabel":"著名な公園","aliases":["Minuma Nature Park"],"osmType":"way","osmId":127846861,"osmDate":null,"officialAreaKm2":null,"areaSourceLabel":"","areaSourceUrl":"","boundarySourceLabel":"© OpenStreetMap contributors","boundarySourceUrl":"https://www.openstreetmap.org/copyright","geometryFile":"attractions/large-park-W127846861.geojson"},"geometry":{"type":"Polygon","coordinates":[[[139.6982173,35.9025922],[139.6997706,35.9033019],[139.6989195,35.9042438],[139.6979918,35.9060142],[139.6980435,35.9062607],[139.6978414,35.9071151],[139.6977357,35.9071337],[139.6973327,35.9071215],[139.6971172,35.9070459],[139.6968951,35.9069476],[139.6966866,35.906467],[139.6964157,35.9062926],[139.6959286,35.9063276],[139.6956869,35.9063962],[139.6950314,35.9069478],[139.6948585,35.9072174],[139.6944003,35.9070016],[139.6941529,35.9072187],[139.6941482,35.9073257],[139.6939078,35.9071537],[139.6941805,35.9069653],[139.6940355,35.9063289],[139.6943337,35.9060671],[139.6948753,35.9056035],[139.6955818,35.9049294],[139.6962882,35.9042829],[139.6972847,35.9034094],[139.6980848,35.9027429],[139.6982173,35.9025922]]]}}
