{"type":"Feature","id":"attraction-large-park-W463154767","properties":{"id":"attraction-large-park-W463154767","kind":"attraction","name":"中央緑地公園","shortName":"中央緑地公園","context":"日本","subtype":"large-park","subtypeLabel":"大型都市公園・広域公園","statusLabel":"著名な公園","aliases":[],"osmType":"way","osmId":463154767,"osmDate":null,"officialAreaKm2":null,"areaSourceLabel":"","areaSourceUrl":"","boundarySourceLabel":"© OpenStreetMap contributors","boundarySourceUrl":"https://www.openstreetmap.org/copyright","geometryFile":"attractions/large-park-W463154767.geojson"},"geometry":{"type":"Polygon","coordinates":[[[136.6129011,34.9541259],[136.6118656,34.9527598],[136.6111567,34.9531002],[136.6109615,34.9529661],[136.6107225,34.9527499],[136.6101234,34.9522002],[136.6111562,34.9517024],[136.6099556,34.9500348],[136.6108676,34.9496106],[136.6119028,34.9495298],[136.6123958,34.9496409],[136.6133201,34.9497419],[136.6140596,34.949853],[136.6145895,34.9499944],[136.6151071,34.9501561],[136.6155631,34.9503278],[136.6161547,34.9505904],[136.6170667,34.9509137],[136.617572,34.9509642],[136.6182991,34.9508733],[136.6188537,34.9506813],[136.6201108,34.9518834],[136.6196178,34.9531158],[136.6178061,34.9527117],[136.6168449,34.952843],[136.6160931,34.9527622],[136.6150085,34.9528935],[136.6141705,34.9532976],[136.6134803,34.9537521],[136.6129011,34.9541259]]]}}
