{"type":"Feature","id":"attraction-large-park-W278031768","properties":{"id":"attraction-large-park-W278031768","kind":"attraction","name":"須賀川 牡丹園","shortName":"須賀川 牡丹園","context":"日本","subtype":"large-park","subtypeLabel":"大型都市公園・広域公園","statusLabel":"著名な公園","aliases":[],"osmType":"way","osmId":278031768,"osmDate":null,"officialAreaKm2":null,"areaSourceLabel":"","areaSourceUrl":"","boundarySourceLabel":"© OpenStreetMap contributors","boundarySourceUrl":"https://www.openstreetmap.org/copyright","geometryFile":"attractions/large-park-W278031768.geojson"},"geometry":{"type":"Polygon","coordinates":[[[140.3907921,37.2750645],[140.387975,37.2749722],[140.3878546,37.2749018],[140.3878122,37.2742456],[140.3879031,37.2729932],[140.3876988,37.2715328],[140.3882934,37.2715328],[140.3893127,37.2717807],[140.3902045,37.2718708],[140.3906576,37.2719947],[140.3916485,37.2723552],[140.3915054,37.2737022],[140.3913891,37.2739807],[140.3909948,37.2740088],[140.3908595,37.2741212],[140.3907301,37.2748048],[140.3908595,37.2750155],[140.3907921,37.2750645]]]}}
