{"type":"Feature","id":"attraction-large-park-R6197592","properties":{"id":"attraction-large-park-R6197592","kind":"attraction","name":"名護城公園","shortName":"名護城公園","context":"日本","subtype":"large-park","subtypeLabel":"大型都市公園・広域公園","statusLabel":"","aliases":["Nago Castle Site Park"],"osmType":"relation","osmId":6197592,"osmDate":null,"officialAreaKm2":null,"areaSourceLabel":"","areaSourceUrl":"","boundarySourceLabel":"© OpenStreetMap contributors","boundarySourceUrl":"https://www.openstreetmap.org/copyright","geometryFile":"attractions/large-park-R6197592.geojson"},"geometry":{"type":"Polygon","coordinates":[[[127.990416,26.5879169],[127.9903855,26.5879907],[127.9906453,26.5881484],[127.9912647,26.5888172],[127.9908524,26.5894642],[127.9914298,26.5899281],[127.9917139,26.5903203],[127.9918659,26.5905952],[127.9921368,26.5908183],[127.9923251,26.5910319],[127.9919518,26.5913589],[127.9921871,26.5915784],[127.992281,26.5916672],[127.9924267,26.5918072],[127.9922627,26.5920165],[127.9924088,26.592518],[127.9927289,26.5926798],[127.9934803,26.5924994],[127.9935129,26.5924916],[127.9932452,26.5929148],[127.993001,26.5934217],[127.9932539,26.5939828],[127.9933496,26.5941158],[127.9934946,26.594176],[127.9935539,26.5944815],[127.9938262,26.5946197],[127.9940279,26.5951043],[127.9937123,26.5954387],[127.9936441,26.5958191],[127.9943407,26.596851],[127.9950281,26.5973911],[127.9953284,26.5972997],[127.9952321,26.5969278],[127.99505,26.5969043],[127.9950071,26.5964246],[127.9948354,26.5960697],[127.9945135,26.5959545],[127.9944049,26.5957531],[127.994995,26.59503],[127.9952609,26.5948966],[127.9958169,26.5941587],[127.9969085,26.5935564],[127.9972075,26.5929925],[127.9995492,26.5909016],[128.0002066,26.5886937],[128.0004616,26.5859982],[127.9999919,26.5853023],[127.9986709,26.5856595],[127.9977141,26.5853131],[127.9972708,26.5854587],[127.9970102,26.5860333],[127.99667,26.5856794],[127.9959083,26.5860631],[127.9955094,26.5860638],[127.9955201,26.5865519],[127.995071,26.5865831],[127.9947437,26.5860974],[127.9945886,26.5861399],[127.9948032,26.58661],[127.9940415,26.5868115],[127.9939556,26.5866316],[127.9943499,26.5863822],[127.9942775,26.5862286],[127.9935382,26.5866076],[127.9942047,26.587188],[127.9941882,26.587405],[127.9935235,26.5872668],[127.9931437,26.5869947],[127.9921185,26.587238],[127.9915003,26.5875833],[127.9914372,26.58765],[127.9911462,26.5878195],[127.9910468,26.5878118],[127.9908129,26.5877334],[127.9906399,26.5876771],[127.9904964,26.5876855],[127.9902363,26.5876747],[127.9902953,26.587857],[127.9903664,26.5878846],[127.990416,26.5879169]]]}}
