{"type":"Feature","id":"attraction-large-airport-W57007579","properties":{"id":"attraction-large-airport-W57007579","kind":"attraction","name":"富山空港","shortName":"富山空港","context":"富山県・富山市","subtype":"airport","subtypeLabel":"空港・飛行場","statusLabel":"","aliases":["Toyama Airport"],"osmType":"way","osmId":57007579,"osmDate":null,"officialAreaKm2":null,"areaSourceLabel":"","areaSourceUrl":"","boundarySourceLabel":"© OpenStreetMap contributors","boundarySourceUrl":"https://www.openstreetmap.org/copyright","geometryFile":"attractions/large-airport-W57007579.geojson"},"geometry":{"type":"Polygon","coordinates":[[[137.1848416,36.6363496],[137.1854166,36.636531],[137.1854223,36.6368695],[137.1854337,36.636975],[137.1862021,36.6396908],[137.1869027,36.6395543],[137.1869659,36.6395502],[137.1870182,36.6395609],[137.1870612,36.6395867],[137.1870826,36.6396266],[137.1872122,36.6400124],[137.187313,36.6400286],[137.1886648,36.63975],[137.1887514,36.6398074],[137.1888938,36.6405839],[137.1895451,36.6405827],[137.1900816,36.6405827],[137.1913342,36.6405741],[137.1913589,36.6416181],[137.190211,36.641627],[137.1903785,36.6440792],[137.1902877,36.6441047],[137.1902969,36.6444661],[137.1900001,36.6444745],[137.1892542,36.6446546],[137.1892329,36.6451085],[137.1890968,36.6455249],[137.1888985,36.6458792],[137.1885878,36.6466084],[137.1884428,36.6471072],[137.1884471,36.6474829],[137.1885203,36.6478282],[137.188778,36.6487404],[137.1889581,36.6493437],[137.1892806,36.6504137],[137.1898098,36.651758],[137.1902696,36.6528005],[137.1907094,36.6537526],[137.1912888,36.6549177],[137.1915839,36.6556798],[137.1917297,36.6561925],[137.1917558,36.6568696],[137.191751,36.6574115],[137.1917215,36.6578806],[137.1916657,36.6584164],[137.192402,36.6596049],[137.1917796,36.6605392],[137.1919648,36.6612971],[137.1905,36.661602],[137.187821,36.65383],[137.187197,36.65239],[137.186061,36.650094],[137.185274,36.648443],[137.183926,36.645161],[137.183738,36.644456],[137.183576,36.643218],[137.183389,36.64196],[137.183364,36.641164],[137.183427,36.640147],[137.183539,36.638919],[137.183876,36.638104],[137.184325,36.637167],[137.1848416,36.6363496]]]}}
