{"type":"Feature","id":"attraction-large-airport-W1146980650","properties":{"id":"attraction-large-airport-W1146980650","kind":"attraction","name":"朝日航洋札幌航空支社石狩基地","shortName":"朝日航洋札幌航空支社石狩基地","context":"日本","subtype":"airport","subtypeLabel":"空港・飛行場","statusLabel":"","aliases":["Aero Asahi Ishikari Helipad","朝日航洋"],"osmType":"way","osmId":1146980650,"osmDate":null,"officialAreaKm2":null,"areaSourceLabel":"","areaSourceUrl":"","boundarySourceLabel":"© OpenStreetMap contributors","boundarySourceUrl":"https://www.openstreetmap.org/copyright","geometryFile":"attractions/large-airport-W1146980650.geojson"},"geometry":{"type":"Polygon","coordinates":[[[141.3178856,43.2109316],[141.3183542,43.2108432],[141.3178494,43.2095759],[141.3165305,43.2098621],[141.3178856,43.2109316]]]}}
