{"type":"Feature","id":"attraction-large-park-W475775268","properties":{"id":"attraction-large-park-W475775268","kind":"attraction","name":"国営備北丘陵公園 いこいの森","shortName":"国営備北丘陵公園 いこいの森","context":"日本","subtype":"large-park","subtypeLabel":"大型都市公園・広域公園","statusLabel":"","aliases":[],"osmType":"way","osmId":475775268,"osmDate":null,"officialAreaKm2":null,"areaSourceLabel":"","areaSourceUrl":"","boundarySourceLabel":"© OpenStreetMap contributors","boundarySourceUrl":"https://www.openstreetmap.org/copyright","geometryFile":"attractions/large-park-W475775268.geojson"},"geometry":{"type":"Polygon","coordinates":[[[132.9849021,34.8388974],[132.9849866,34.8387449],[132.985075,34.8386116],[132.9851653,34.838512],[132.985198,34.8384695],[132.9852289,34.8383363],[132.9852378,34.8382976],[132.9852361,34.8381858],[132.9852003,34.838091],[132.9851767,34.8380402],[132.9851128,34.8379631],[132.9850451,34.8378705],[132.9849475,34.8377778],[132.9848671,34.837718],[132.9847996,34.8376397],[132.9847794,34.8375823],[132.984739,34.8374258],[132.9847164,34.8372946],[132.9846658,34.837183],[132.9845772,34.8370358],[132.9845383,34.8369807],[132.9845155,34.8369323],[132.9844927,34.8367969],[132.9844914,34.8367342],[132.9845041,34.8366362],[132.9845685,34.8365768],[132.9846262,34.8365019],[132.9847053,34.8364447],[132.984767,34.8364028],[132.9848394,34.8363588],[132.9848971,34.8363379],[132.9849762,34.8363225],[132.9850527,34.8363126],[132.985121,34.8362972],[132.9851801,34.836274],[132.9852364,34.8362377],[132.985286,34.836186],[132.9853423,34.8361243],[132.9853437,34.8360891],[132.9853557,34.8359901],[132.9853651,34.8359515],[132.9853906,34.8359185],[132.9854496,34.83588],[132.9855167,34.8358503],[132.9855703,34.8358161],[132.9856199,34.8357435],[132.9856508,34.835684],[132.9856642,34.8356213],[132.9856763,34.8355266],[132.9857259,34.8353934],[132.985805,34.8352757],[132.9858855,34.8351733],[132.9859566,34.8351083],[132.9860129,34.835061],[132.986096,34.8349939],[132.9861872,34.8349212],[132.986265,34.8348838],[132.9863951,34.8348541],[132.9864461,34.8348309],[132.9864863,34.8348012],[132.9865292,34.8347363],[132.9866311,34.8346273],[132.9866848,34.8345007],[132.9867438,34.8343884],[132.9868028,34.8343059],[132.9868645,34.8342167],[132.986945,34.8341429],[132.9870214,34.8341011],[132.9870683,34.8340835],[132.987122,34.8340791],[132.987236,34.8340791],[132.9873111,34.834089],[132.9874532,34.8341154],[132.9875967,34.8341286],[132.9876611,34.8341209],[132.9876919,34.8341],[132.9877,34.8340681],[132.987704,34.8339943],[132.9876839,34.8338611],[132.9876638,34.83375],[132.9876678,34.8335992],[132.9876866,34.8335111],[132.9877523,34.8333801],[132.9877925,34.8332821],[132.9878448,34.8332271],[132.9879132,34.8331692],[132.9880595,34.8330619],[132.9881642,34.8330245],[132.9882875,34.8329717],[132.98836,34.8329166],[132.9884404,34.8327845],[132.9885021,34.8326326],[132.9885799,34.8325225],[132.9887167,34.8324653],[132.9889054,34.8323931],[132.9888047,34.832219],[132.9887377,34.8321134],[132.9888449,34.8319857],[132.9890247,34.8319394],[132.9891158,34.8319042],[132.9892982,34.8316664],[132.9895342,34.8315806],[132.9897569,34.8314969],[132.9893653,34.8313736],[132.9894993,34.8310456],[132.9892848,34.8309553],[132.9892049,34.8309153],[132.9890868,34.8308889],[132.9888181,34.8308783],[132.9886362,34.8307458],[132.9882554,34.8305983],[132.9879925,34.8304618],[132.987853,34.8303341],[132.9878101,34.8301888],[132.9875446,34.8300787],[132.9875553,34.8299686],[132.9878047,34.8300149],[132.9879442,34.8300413],[132.988014,34.8300193],[132.9880059,34.8298519],[132.9882661,34.8297528],[132.988419,34.8297176],[132.9886174,34.8297066],[132.9888669,34.8297176],[132.9893953,34.8297661],[132.9896045,34.8299466],[132.98998,34.8300523],[132.9905594,34.830202],[132.991187,34.8303341],[132.991482,34.8298938],[132.9921633,34.8292949],[132.9916323,34.8288413],[132.9914789,34.8287074],[132.9912482,34.8284255],[132.991039,34.8281789],[132.9907761,34.8278179],[132.9904221,34.8272982],[132.9901163,34.8269416],[132.9895638,34.8261797],[132.9893492,34.8259067],[132.9891292,34.8256337],[132.988714,34.8253273],[132.9885142,34.8251247],[132.9883533,34.824975],[132.9881494,34.8249376],[132.9879107,34.8249222],[132.9878168,34.8248737],[132.987621,34.8249288],[132.9872723,34.8250235],[132.9869639,34.8251181],[132.9869317,34.8253207],[132.9867313,34.8255016],[132.9864846,34.8258847],[132.986329,34.8261886],[132.9860983,34.8263647],[132.985975,34.8266465],[132.9857658,34.8271529],[132.9856155,34.8274083],[132.9853688,34.827514],[132.9851596,34.8275184],[132.9849021,34.8274436],[132.9847143,34.8273423],[132.9845266,34.8271749],[132.9844086,34.8269239],[132.9843656,34.826739],[132.9840384,34.8265893],[132.9837434,34.8264352],[132.9831855,34.8261886],[132.9828573,34.8261515],[132.9826437,34.8261577],[132.9825793,34.8261797],[132.9826437,34.8263207],[132.9827831,34.8264616],[132.9828851,34.8266069],[132.9827885,34.8266729],[132.9825847,34.8266862],[132.9824774,34.8266333],[132.9823862,34.8265981],[132.9822467,34.826532],[132.9821126,34.8264043],[132.9820053,34.8262656],[132.9818175,34.8260389],[132.9813375,34.8259178],[132.9810826,34.8259815],[132.9809351,34.8260256],[132.980817,34.8260741],[132.9806455,34.8261247],[132.980514,34.8261643],[132.9803209,34.8262568],[132.9801739,34.8263335],[132.9800237,34.8263996],[132.9801256,34.8265845],[132.9801438,34.8271001],[132.9801385,34.827285],[132.9800902,34.8274788],[132.9800902,34.827721],[132.9801438,34.8278883],[132.9802672,34.8280028],[132.9805247,34.8280953],[132.9807447,34.8282714],[132.9808412,34.8283859],[132.980868,34.8286677],[132.98075,34.8289892],[132.9806052,34.8292974],[132.9805408,34.8295792],[132.9805086,34.8298567],[132.9805462,34.8301253],[132.9806427,34.8303058],[132.9809592,34.8305524],[132.9812972,34.8309223],[132.9815386,34.8310015],[132.981898,34.831116],[132.9822682,34.8310676],[132.9828153,34.8309311],[132.9836736,34.8307021],[132.984194,34.8306096],[132.9844032,34.8309003],[132.9846339,34.8311601],[132.9843871,34.8312657],[132.9840491,34.8313318],[132.9836683,34.8315828],[132.9834215,34.8317765],[132.9832123,34.8320143],[132.9831747,34.8322917],[132.9830138,34.8323666],[132.9829441,34.8324018],[132.9826919,34.8325955],[132.9823915,34.8326131],[132.9820911,34.8326087],[132.9817103,34.8327408],[132.9814903,34.8328333],[132.9813133,34.832983],[132.9810719,34.8331944],[132.9809539,34.8334101],[132.9809324,34.8337492],[132.981029,34.8341234],[132.9810987,34.8343568],[132.9813938,34.8345021],[132.9817317,34.8347795],[132.9822038,34.8349116],[132.9823486,34.8353783],[132.9824559,34.8356513],[132.9823754,34.8357878],[132.9822628,34.8360916],[132.9823218,34.836303],[132.9825042,34.8365495],[132.9826866,34.8367345],[132.9828103,34.8369059],[132.983105,34.836959],[132.983328,34.8369895],[132.9835627,34.8370336],[132.9836177,34.8371403],[132.983674,34.837224],[132.9837813,34.8372625],[132.9837518,34.8373836],[132.983733,34.8374497],[132.9837169,34.8374805],[132.9837035,34.8375696],[132.9836579,34.8376467],[132.9835989,34.8377612],[132.9835292,34.8378745],[132.9835301,34.8380168],[132.9837648,34.8381941],[132.9839862,34.8383636],[132.9841377,34.8384824],[132.9844005,34.8386387],[132.9846405,34.8387807],[132.9849021,34.8388974]]]}}
