{"type":"Feature","id":"attraction-large-airport-W930450813","properties":{"id":"attraction-large-airport-W930450813","kind":"attraction","name":"豊頃滑空場","shortName":"豊頃滑空場","context":"日本","subtype":"airport","subtypeLabel":"空港・飛行場","statusLabel":"","aliases":["Toyokoro Gliderport (historical)"],"osmType":"way","osmId":930450813,"osmDate":null,"officialAreaKm2":null,"areaSourceLabel":"","areaSourceUrl":"","boundarySourceLabel":"© OpenStreetMap contributors","boundarySourceUrl":"https://www.openstreetmap.org/copyright","geometryFile":"attractions/large-airport-W930450813.geojson"},"geometry":{"type":"Polygon","coordinates":[[[143.5096714,42.8030859],[143.5145733,42.7980198],[143.5133908,42.79732],[143.5085652,42.8024701],[143.5096714,42.8030859]]]}}
