{"type":"Feature","id":"attraction-large-park-W435971231","properties":{"id":"attraction-large-park-W435971231","kind":"attraction","name":"北海道立オホーツク公園","shortName":"北海道立オホーツク公園","context":"北海道・網走市","subtype":"large-park","subtypeLabel":"大型都市公園・広域公園","statusLabel":"","aliases":["Hokkaido Okhotsk Park"],"osmType":"way","osmId":435971231,"osmDate":null,"officialAreaKm2":null,"areaSourceLabel":"","areaSourceUrl":"","boundarySourceLabel":"© OpenStreetMap contributors","boundarySourceUrl":"https://www.openstreetmap.org/copyright","geometryFile":"attractions/large-park-W435971231.geojson"},"geometry":{"type":"Polygon","coordinates":[[[144.2376232,43.9896152],[144.2376421,43.9898103],[144.2376791,43.9900096],[144.2377318,43.9902956],[144.2378185,43.9907442],[144.2378682,43.9909984],[144.2379668,43.9913951],[144.238046,43.9916803],[144.2380843,43.991847],[144.238085,43.9920074],[144.2380872,43.9921361],[144.2380674,43.9922512],[144.2380381,43.992377],[144.237995,43.9924852],[144.2379326,43.9926396],[144.2378688,43.9927969],[144.2378234,43.9929208],[144.237785,43.9931035],[144.2377616,43.9933164],[144.2377834,43.9935722],[144.2378285,43.9936962],[144.2378726,43.9937915],[144.2379035,43.9938704],[144.2379695,43.9939829],[144.2380282,43.9940577],[144.2381455,43.9941632],[144.2382461,43.9942907],[144.2383571,43.9943762],[144.2384907,43.9944581],[144.238614,43.9945298],[144.2387599,43.9945963],[144.2389627,43.9946677],[144.2392433,43.994778],[144.2394666,43.9948702],[144.2396126,43.994947],[144.2397214,43.9950067],[144.2398276,43.9950899],[144.2399454,43.9951798],[144.2400467,43.9952641],[144.2402101,43.9955112],[144.2403296,43.9957478],[144.2404442,43.9959636],[144.2409988,43.9968935],[144.2413376,43.997552],[144.2418171,43.9983246],[144.2420361,43.9982634],[144.2421955,43.9982108],[144.2424155,43.9981992],[144.2427547,43.9982247],[144.2429393,43.9982704],[144.2430476,43.9983524],[144.2431728,43.99844],[144.2433806,43.9985415],[144.2435726,43.9986248],[144.2436989,43.9986704],[144.2438126,43.9986864],[144.2439618,43.9986812],[144.2440731,43.9986615],[144.2441796,43.9986448],[144.2442748,43.9986102],[144.2443727,43.9985652],[144.2444486,43.9985083],[144.24451,43.9984314],[144.2445457,43.9983455],[144.2445727,43.9982633],[144.244588,43.9981245],[144.2445684,43.9980055],[144.2445516,43.9978743],[144.2442082,43.9971982],[144.2438417,43.9964354],[144.2437597,43.9962278],[144.2437003,43.9960446],[144.2436843,43.9958941],[144.2436547,43.9956961],[144.2436399,43.9949151],[144.2437806,43.9945628],[144.243945,43.9941766],[144.2440254,43.9940049],[144.2444633,43.9932303],[144.2446829,43.9928269],[144.2447819,43.992605],[144.244819,43.9924778],[144.2448325,43.9923794],[144.2448439,43.9922664],[144.2448374,43.9921792],[144.2448197,43.9920589],[144.2447756,43.9919412],[144.2447242,43.9917874],[144.2446656,43.9916708],[144.2444181,43.9911796],[144.2442786,43.990853],[144.2442456,43.9905824],[144.2443136,43.9903276],[144.2444423,43.9901115],[144.2447213,43.9898259],[144.2449039,43.9895649],[144.2450364,43.9893833],[144.2451237,43.9891642],[144.2447054,43.9878628],[144.244684,43.9875502],[144.244743,43.987087],[144.2451078,43.9862688],[144.2454565,43.9853694],[144.2454532,43.9851098],[144.2453572,43.9848696],[144.2452365,43.9845743],[144.2449093,43.9838757],[144.2447805,43.9835746],[144.2447859,43.9833083],[144.2448932,43.9830342],[144.2451024,43.982683],[144.2457461,43.9819071],[144.246127,43.9813976],[144.241358,43.9823857],[144.2373401,43.9848792],[144.2374515,43.9852556],[144.2375901,43.9855578],[144.237741,43.9858651],[144.2380831,43.9866171],[144.238126,43.9867831],[144.2381515,43.9869953],[144.2381605,43.9871937],[144.2381471,43.9873483],[144.2381239,43.9874569],[144.2380931,43.9875977],[144.2380298,43.9877748],[144.2380101,43.98791],[144.2378951,43.9882177],[144.2378002,43.9885182],[144.2377296,43.9887407],[144.2376822,43.9889116],[144.2376347,43.9890763],[144.2376151,43.9892558],[144.2376084,43.989432],[144.2376232,43.9896152]]]}}
