{"type":"Feature","id":"attraction-large-industrial-complex-W615204117","properties":{"id":"attraction-large-industrial-complex-W615204117","kind":"attraction","name":"石原産業株式会社","shortName":"石原産業株式会社","context":"日本","subtype":"industrial-complex","subtypeLabel":"工業地帯・大規模工場","statusLabel":"","aliases":[],"osmType":"way","osmId":615204117,"osmDate":null,"officialAreaKm2":null,"areaSourceLabel":"","areaSourceUrl":"","boundarySourceLabel":"© OpenStreetMap contributors","boundarySourceUrl":"https://www.openstreetmap.org/copyright","geometryFile":"attractions/large-industrial-complex-W615204117.geojson"},"geometry":{"type":"Polygon","coordinates":[[[136.6439205,34.9360339],[136.6441378,34.9360691],[136.6441807,34.9358008],[136.644178,34.9354358],[136.644052,34.9351654],[136.6438776,34.9349059],[136.6436282,34.9346849],[136.643771,34.9346189],[136.6440912,34.9345679],[136.6445878,34.9346532],[136.646126,34.9350792],[136.6468069,34.9352426],[136.6478369,34.9355667],[136.6471124,34.9375709],[136.6479358,34.9378018],[136.6488746,34.9374126],[136.6487914,34.9382987],[136.6493869,34.9392068],[136.6504651,34.9409031],[136.650492,34.9412802],[136.6510063,34.9416974],[136.6538462,34.946292],[136.6481893,34.9468034],[136.6479861,34.946705],[136.6472646,34.9459589],[136.6465499,34.9447271],[136.6459197,34.9449972],[136.6449961,34.9439818],[136.6440522,34.9432431],[136.6429113,34.9393142],[136.6428074,34.9385955],[136.6439205,34.9360339]]]}}
