{"type":"Feature","id":"attraction-large-park-W220316971","properties":{"id":"attraction-large-park-W220316971","kind":"attraction","name":"本門寺公園","shortName":"本門寺公園","context":"日本","subtype":"large-park","subtypeLabel":"大型都市公園・広域公園","statusLabel":"著名な公園","aliases":[],"osmType":"way","osmId":220316971,"osmDate":null,"officialAreaKm2":null,"areaSourceLabel":"","areaSourceUrl":"","boundarySourceLabel":"© OpenStreetMap contributors","boundarySourceUrl":"https://www.openstreetmap.org/copyright","geometryFile":"attractions/large-park-W220316971.geojson"},"geometry":{"type":"Polygon","coordinates":[[[139.7078986,35.5801103],[139.7082942,35.579585],[139.7084082,35.5794073],[139.7082091,35.5792957],[139.7082077,35.5792441],[139.7082665,35.5791828],[139.7083072,35.5791438],[139.7083144,35.5791217],[139.7083525,35.5791006],[139.7084313,35.5788415],[139.7075696,35.5784003],[139.7075801,35.5783084],[139.7069712,35.5782414],[139.7068324,35.578205],[139.7067128,35.5781929],[139.7065903,35.5782113],[139.7064402,35.578212],[139.7064228,35.5781593],[139.7064101,35.5780818],[139.7064511,35.5780067],[139.7064849,35.5779424],[139.7064911,35.5778233],[139.7064704,35.57763],[139.7062398,35.5776705],[139.7059468,35.5776944],[139.7058197,35.5776901],[139.7053923,35.5776948],[139.7053695,35.5776852],[139.7051361,35.5776913],[139.7050603,35.5777003],[139.7050064,35.5777016],[139.7049965,35.5776524],[139.704299,35.5777414],[139.7043066,35.5777893],[139.7042916,35.5778626],[139.7042294,35.5779924],[139.7040595,35.5783514],[139.7040693,35.5785344],[139.7041406,35.5787293],[139.7043388,35.5789127],[139.7045714,35.5791022],[139.7046598,35.5791807],[139.7046913,35.5792648],[139.7047177,35.5794901],[139.7047442,35.5795146],[139.7047457,35.5796083],[139.704728,35.5802497],[139.7047037,35.5803624],[139.7046364,35.5805133],[139.7045933,35.5806014],[139.7045681,35.580684],[139.7045948,35.5810581],[139.7045741,35.5811757],[139.7045178,35.5813073],[139.7045311,35.5814022],[139.7044952,35.5815381],[139.7045075,35.5815955],[139.7046856,35.5816121],[139.7052965,35.5816703],[139.7064173,35.5817472],[139.7063448,35.5815899],[139.7063108,35.5814406],[139.7062954,35.5811809],[139.7063424,35.5810776],[139.7064397,35.5809208],[139.7067542,35.580902],[139.7068336,35.580893],[139.7071212,35.5807973],[139.7072524,35.5807425],[139.7074565,35.5805689],[139.7076331,35.5805023],[139.7077922,35.580534],[139.7080206,35.5801959],[139.7078986,35.5801103]]]}}
