{"type":"Feature","id":"attraction-large-park-R4202655","properties":{"id":"attraction-large-park-R4202655","kind":"attraction","name":"笛吹川 フルーツ公園","shortName":"笛吹川 フルーツ公園","context":"山梨県・山梨市","subtype":"large-park","subtypeLabel":"大型都市公園・広域公園","statusLabel":"著名な公園","aliases":["Fuefukigawa Fruits Park"],"osmType":"relation","osmId":4202655,"osmDate":null,"officialAreaKm2":null,"areaSourceLabel":"","areaSourceUrl":"","boundarySourceLabel":"© OpenStreetMap contributors","boundarySourceUrl":"https://www.openstreetmap.org/copyright","geometryFile":"attractions/large-park-R4202655.geojson"},"geometry":{"type":"Polygon","coordinates":[[[138.6658743,35.7036832],[138.6659253,35.7035089],[138.6659816,35.7032868],[138.6660004,35.703082],[138.6660728,35.7029012],[138.6662203,35.702703],[138.6663893,35.7026072],[138.6668426,35.7023632],[138.6671028,35.7022914],[138.6673415,35.7022565],[138.6676526,35.7022739],[138.668409,35.7023066],[138.6690742,35.7023763],[138.6696428,35.7024329],[138.6699781,35.7024787],[138.6701873,35.7024634],[138.6703536,35.7023829],[138.6704904,35.702226],[138.6705601,35.7021171],[138.6705843,35.7019821],[138.6705521,35.7018405],[138.6704716,35.7017142],[138.6703402,35.7016183],[138.6699861,35.7014245],[138.6697367,35.7012568],[138.669447,35.7011174],[138.6689696,35.7008865],[138.6687228,35.7007384],[138.6685887,35.700599],[138.6684492,35.7004269],[138.6683285,35.7002112],[138.6681247,35.6999542],[138.6678082,35.6997843],[138.6675185,35.6996384],[138.66721,35.6994968],[138.6669096,35.7000109],[138.6665663,35.6998562],[138.6663008,35.6997887],[138.6660486,35.6997669],[138.6657777,35.6997429],[138.6652252,35.6997255],[138.6649382,35.700074],[138.6647692,35.7002853],[138.6645171,35.7006164],[138.6643293,35.7008952],[138.6640424,35.7011827],[138.663817,35.7013809],[138.6633423,35.7017708],[138.6628488,35.7021955],[138.6625913,35.7023872],[138.662079,35.7026464],[138.6616713,35.7028381],[138.6612475,35.7029949],[138.6606333,35.7032127],[138.6605823,35.7032236],[138.6605769,35.7032998],[138.6609605,35.7035873],[138.6613092,35.7038269],[138.6613736,35.7039206],[138.6609873,35.7041885],[138.6611134,35.7047853],[138.6625752,35.7058394],[138.6629024,35.7056129],[138.6629909,35.7057371],[138.6635327,35.7054822],[138.6635032,35.7052579],[138.6636266,35.7051599],[138.6637017,35.7043366],[138.6639733,35.7039873],[138.6640879,35.70384],[138.6648712,35.7037921],[138.6658743,35.7036832]]]}}
