{"type":"Feature","id":"attraction-large-military-base-W421436595","properties":{"id":"attraction-large-military-base-W421436595","kind":"attraction","name":"泡瀬通信施設","shortName":"泡瀬通信施設","context":"日本","subtype":"military-base","subtypeLabel":"基地・駐屯地・演習場","statusLabel":"","aliases":["Awase Communication Station"],"osmType":"way","osmId":421436595,"osmDate":null,"officialAreaKm2":null,"areaSourceLabel":"","areaSourceUrl":"","boundarySourceLabel":"© OpenStreetMap contributors","boundarySourceUrl":"https://www.openstreetmap.org/copyright","geometryFile":"attractions/large-military-base-W421436595.geojson"},"geometry":{"type":"Polygon","coordinates":[[[127.8371887,26.3152796],[127.8383354,26.3174025],[127.8411745,26.3197285],[127.8414883,26.3195639],[127.8416546,26.3198584],[127.8419067,26.3197706],[127.842065,26.3197646],[127.8421414,26.3197862],[127.8422809,26.319791],[127.8435496,26.3195266],[127.8449765,26.3194761],[127.8461808,26.3193198],[127.8464678,26.3195458],[127.8475608,26.3183137],[127.8476105,26.3182331],[127.847652,26.3181394],[127.8476775,26.31803],[127.8476936,26.3177451],[127.8477057,26.317667],[127.8477379,26.3175804],[127.8477969,26.3174842],[127.8478358,26.3173881],[127.8478747,26.3171873],[127.8478747,26.3171176],[127.8474965,26.3154563],[127.8474656,26.3153962],[127.8474227,26.3153589],[127.8473731,26.3153397],[127.8473208,26.3153373],[127.8472658,26.3153505],[127.8469936,26.3154419],[127.8469305,26.3154527],[127.8468608,26.3154575],[127.845741,26.3152976],[127.8456431,26.3152964],[127.8451187,26.3153817],[127.8450369,26.3153854],[127.8446238,26.3152748],[127.8445434,26.3152351],[127.8444763,26.3151786],[127.8444253,26.3151149],[127.8442416,26.3145078],[127.8440901,26.3143924],[127.8439922,26.314366],[127.8438272,26.3143611],[127.8435791,26.3144513],[127.8434705,26.3144765],[127.8431579,26.3144884],[127.8427316,26.3145046],[127.8423627,26.3145186],[127.8419549,26.3144904],[127.841719,26.3144741],[127.8411855,26.3144166],[127.8411061,26.314408],[127.8403484,26.3142938],[127.8398696,26.3141363],[127.8391467,26.3142349],[127.8387015,26.3143587],[127.8376769,26.3145859],[127.8373,26.3151822],[127.8371887,26.3152796]]]}}
