{"type":"Feature","id":"attraction-large-large-port-W1353446769","properties":{"id":"attraction-large-large-port-W1353446769","kind":"attraction","name":"白老港臨港地区","shortName":"白老港臨港地区","context":"日本","subtype":"large-port","subtypeLabel":"港湾・埠頭","statusLabel":"","aliases":[],"osmType":"way","osmId":1353446769,"osmDate":null,"officialAreaKm2":null,"areaSourceLabel":"","areaSourceUrl":"","boundarySourceLabel":"© OpenStreetMap contributors","boundarySourceUrl":"https://www.openstreetmap.org/copyright","geometryFile":"attractions/large-large-port-W1353446769.geojson"},"geometry":{"type":"Polygon","coordinates":[[[141.3149598,42.5206665],[141.3188758,42.5229913],[141.3181248,42.523695],[141.3208392,42.5252507],[141.3208513,42.5253229],[141.3205455,42.5255699],[141.3200118,42.5252635],[141.3195786,42.5256698],[141.3135221,42.5220266],[141.3149598,42.5206665]]]}}
