{"type":"Feature","id":"attraction-large-park-W262631872","properties":{"id":"attraction-large-park-W262631872","kind":"attraction","name":"関西文化学術研究都市記念公園","shortName":"関西文化学術研究都市記念公園","context":"日本","subtype":"large-park","subtypeLabel":"大型都市公園・広域公園","statusLabel":"著名な公園","aliases":["関西文化学術研究都市 記念公園","Keihanna Commemorative Park","けいはんな記念公園"],"osmType":"way","osmId":262631872,"osmDate":null,"officialAreaKm2":null,"areaSourceLabel":"","areaSourceUrl":"","boundarySourceLabel":"© OpenStreetMap contributors","boundarySourceUrl":"https://www.openstreetmap.org/copyright","geometryFile":"attractions/large-park-W262631872.geojson"},"geometry":{"type":"Polygon","coordinates":[[[135.7720887,34.7495499],[135.7719687,34.7494384],[135.7719533,34.74672],[135.7737533,34.7467216],[135.7737787,34.7455466],[135.7737903,34.7450068],[135.7738336,34.744989],[135.7738821,34.7449818],[135.77394,34.7449868],[135.7740091,34.745001],[135.7740665,34.7450122],[135.7741215,34.7450369],[135.7741769,34.7450499],[135.7742201,34.7450439],[135.7742779,34.7450489],[135.7743335,34.7450547],[135.7744267,34.7450384],[135.7744984,34.7450465],[135.7745874,34.7450702],[135.7746452,34.7450746],[135.774701,34.7450664],[135.7747449,34.7450606],[135.7747963,34.7450789],[135.7749042,34.7450836],[135.7749249,34.7450544],[135.7749898,34.7450516],[135.7750259,34.7450673],[135.7750538,34.7450988],[135.7751252,34.745119],[135.7751381,34.7451445],[135.7752129,34.7451561],[135.7752469,34.7451613],[135.7752655,34.7451433],[135.7752912,34.7451184],[135.7753316,34.7451086],[135.7753994,34.7451125],[135.7754726,34.7451331],[135.775572,34.7451829],[135.7756642,34.7452184],[135.7757628,34.7452252],[135.7758325,34.7452324],[135.7758964,34.7452319],[135.7759461,34.745263],[135.7759883,34.7452803],[135.7759972,34.7453019],[135.7761027,34.7453259],[135.7761504,34.7453367],[135.7761885,34.7453293],[135.7762241,34.7453305],[135.7763263,34.7453477],[135.7764579,34.7453758],[135.7765911,34.7454319],[135.7766727,34.745448],[135.7767735,34.7454845],[135.776897,34.745504],[135.7769697,34.7455323],[135.7770735,34.7455762],[135.7771132,34.7456039],[135.7771457,34.7456211],[135.7772199,34.7456574],[135.7773292,34.7456745],[135.7773705,34.7456844],[135.7774542,34.7457043],[135.7775489,34.745727],[135.7775612,34.7457299],[135.777657,34.7457501],[135.7777268,34.7457875],[135.7777988,34.7458408],[135.7778785,34.7459054],[135.7780146,34.7459597],[135.7781662,34.7459886],[135.7782535,34.7460207],[135.7783526,34.7460805],[135.7784362,34.7461297],[135.7785332,34.7461618],[135.7786362,34.7462025],[135.7788084,34.7462988],[135.7789368,34.7463825],[135.7794461,34.7466361],[135.7795961,34.7467108],[135.7795124,34.7467928],[135.778445,34.7482867],[135.7781241,34.7487185],[135.7778969,34.7486797],[135.7769087,34.7486752],[135.7768098,34.7487648],[135.7767956,34.7488939],[135.7766299,34.7488992],[135.7765326,34.749094],[135.7763542,34.7490993],[135.7761032,34.7488926],[135.7760797,34.7493705],[135.7755227,34.7493791],[135.7755216,34.7495378],[135.7725365,34.7495483],[135.7720887,34.7495499]]]}}
