{"type":"Feature","id":"attraction-large-airport-W57011413","properties":{"id":"attraction-large-airport-W57011413","kind":"attraction","name":"徳之島子宝空港","shortName":"徳之島子宝空港","context":"日本","subtype":"airport","subtypeLabel":"空港・飛行場","statusLabel":"","aliases":["徳之島空港"],"osmType":"way","osmId":57011413,"osmDate":null,"officialAreaKm2":null,"areaSourceLabel":"","areaSourceUrl":"","boundarySourceLabel":"© OpenStreetMap contributors","boundarySourceUrl":"https://www.openstreetmap.org/copyright","geometryFile":"attractions/large-airport-W57011413.geojson"},"geometry":{"type":"Polygon","coordinates":[[[128.879889,27.83675],[128.880044,27.833034],[128.879954,27.833024],[128.879678,27.830238],[128.879904,27.830222],[128.879757,27.829026],[128.879458,27.826334],[128.880819,27.826298],[128.880945,27.824291],[128.882565,27.824316],[128.8826,27.825139],[128.881959,27.825206],[128.881788,27.827095],[128.881673,27.829231],[128.881839,27.8297],[128.882171,27.829859],[128.883042,27.830728],[128.883256,27.830563],[128.8837637,27.8317429],[128.8848187,27.8345045],[128.8847957,27.8345058],[128.8844719,27.8345236],[128.8834352,27.8345984],[128.8834365,27.8346233],[128.8834962,27.8357412],[128.882173,27.835766],[128.882319,27.837131],[128.8832,27.846288],[128.881576,27.846415],[128.881207,27.843867],[128.881013,27.842902],[128.880743,27.84026],[128.880619,27.838939],[128.880496,27.837628],[128.880125,27.837087],[128.879889,27.83675]]]}}
