{"type":"Feature","id":"attraction-large-park-W471883705","properties":{"id":"attraction-large-park-W471883705","kind":"attraction","name":"悠久山公園","shortName":"悠久山公園","context":"新潟県・長岡市","subtype":"large-park","subtypeLabel":"大型都市公園・広域公園","statusLabel":"著名な公園","aliases":[],"osmType":"way","osmId":471883705,"osmDate":null,"officialAreaKm2":null,"areaSourceLabel":"","areaSourceUrl":"","boundarySourceLabel":"© OpenStreetMap contributors","boundarySourceUrl":"https://www.openstreetmap.org/copyright","geometryFile":"attractions/large-park-W471883705.geojson"},"geometry":{"type":"Polygon","coordinates":[[[138.8774415,37.4344705],[138.8774599,37.4336506],[138.8775504,37.4329827],[138.8776854,37.4323379],[138.8777073,37.4321009],[138.8777259,37.4317486],[138.878185,37.4317304],[138.8788433,37.4315887],[138.8793397,37.4315432],[138.8797323,37.4311965],[138.8797491,37.4304416],[138.8794712,37.430292],[138.8781217,37.4303299],[138.8782505,37.4293671],[138.8798836,37.4278988],[138.880226,37.4284385],[138.8802734,37.4287537],[138.8807861,37.4291721],[138.8810829,37.4289322],[138.8819416,37.4276911],[138.8840393,37.427648],[138.8846165,37.4283157],[138.8855499,37.4280364],[138.8860951,37.4293343],[138.8864778,37.4300137],[138.8857356,37.4306394],[138.8849714,37.4313444],[138.8848706,37.4315228],[138.8848266,37.4315692],[138.8845217,37.4317297],[138.8844417,37.4317385],[138.8843677,37.4317226],[138.8840857,37.4316221],[138.8839775,37.4316151],[138.8834511,37.4316785],[138.883672,37.4321474],[138.8837152,37.432309],[138.8837429,37.4324685],[138.8837463,37.4329335],[138.8837575,37.4330689],[138.883783,37.4331902],[138.8838603,37.4335422],[138.8839958,37.4339017],[138.8839837,37.4340484],[138.8839197,37.4341217],[138.8837316,37.4341616],[138.8827403,37.4341564],[138.8820902,37.4342135],[138.8818583,37.4342221],[138.8816195,37.4342247],[138.881208,37.4342237],[138.8810875,37.4342274],[138.8808916,37.4342595],[138.8806453,37.4343576],[138.8791914,37.4347789],[138.879042,37.4347908],[138.8788952,37.4347752],[138.8780589,37.4346102],[138.8775432,37.4345674],[138.8774415,37.4344705]]]}}
