{"type":"Feature","id":"attraction-large-park-W481619502","properties":{"id":"attraction-large-park-W481619502","kind":"attraction","name":"Balcom BMW 広島総合グランド","shortName":"Balcom BMW 広島総合グランド","context":"日本","subtype":"large-park","subtypeLabel":"大型都市公園・広域公園","statusLabel":"著名な公園","aliases":["広島県総合グランド"],"osmType":"way","osmId":481619502,"osmDate":null,"officialAreaKm2":null,"areaSourceLabel":"","areaSourceUrl":"","boundarySourceLabel":"© OpenStreetMap contributors","boundarySourceUrl":"https://www.openstreetmap.org/copyright","geometryFile":"attractions/large-park-W481619502.geojson"},"geometry":{"type":"Polygon","coordinates":[[[132.4228504,34.3744716],[132.4228209,34.374471],[132.4227364,34.3745054],[132.4226291,34.3745552],[132.4224789,34.3746194],[132.4223422,34.3746858],[132.4221946,34.3747555],[132.4220511,34.3748264],[132.4219063,34.374895],[132.4217695,34.3749636],[132.4216555,34.3750156],[132.4214919,34.3750898],[132.4213725,34.3751407],[132.4212163,34.3752168],[132.4210963,34.3752749],[132.4209099,34.3753607],[132.4208227,34.3753989],[132.4207422,34.375441],[132.4206765,34.3754753],[132.4206671,34.3755284],[132.4207395,34.3756291],[132.4208267,34.375762],[132.4209018,34.3758693],[132.4209823,34.3759977],[132.4210601,34.3761184],[132.4211258,34.3762114],[132.4212196,34.3763353],[132.4213028,34.3764538],[132.4213833,34.3765766],[132.4214745,34.3767117],[132.4215589,34.3768356],[132.4216394,34.3769496],[132.4216917,34.3770315],[132.421795,34.377181],[132.421964,34.3774389],[132.422141,34.3777001],[132.4222751,34.3778971],[132.4224333,34.3781362],[132.4225701,34.3783553],[132.4227096,34.3785502],[132.4227633,34.3786188],[132.4228357,34.3786365],[132.4228679,34.3786326],[132.4229993,34.3785751],[132.4231227,34.3785131],[132.4232487,34.3784533],[132.4233802,34.378388],[132.4235384,34.3783127],[132.4237074,34.3782353],[132.4238871,34.3781522],[132.4240346,34.3780858],[132.4242251,34.3780028],[132.4242794,34.3779763],[132.4242482,34.3779353],[132.4242488,34.3778244],[132.4243364,34.3777823],[132.4244309,34.3777374],[132.4245335,34.3776904],[132.4245905,34.3776993],[132.4246757,34.3776575],[132.424842,34.3775811],[132.4250297,34.3774948],[132.4252443,34.3773918],[132.4253684,34.3773329],[132.4254528,34.3772933],[132.4254636,34.3772277],[132.4253757,34.3771251],[132.4252926,34.3770598],[132.4252175,34.3769756],[132.4251437,34.376896],[132.4251089,34.3768528],[132.4250887,34.3768152],[132.4250472,34.3767554],[132.4249747,34.3766834],[132.4248849,34.3765849],[132.4248004,34.3764853],[132.4246864,34.3763713],[132.4245965,34.3762783],[132.4244852,34.3761632],[132.4244021,34.3760769],[132.4243551,34.3760193],[132.4242613,34.3759197],[132.4241191,34.3757736],[132.4240091,34.375654],[132.4238925,34.3755334],[132.4238107,34.3754448],[132.42369,34.3753142],[132.4235746,34.375198],[132.4234445,34.3750574],[132.4233305,34.3749401],[132.4231428,34.3747442],[132.423014,34.3746047],[132.4229456,34.374525],[132.4229001,34.3744796],[132.4228504,34.3744716]]]}}
