{"type":"Feature","id":"attraction-large-park-W471506689","properties":{"id":"attraction-large-park-W471506689","kind":"attraction","name":"阿見町総合運動公園","shortName":"阿見町総合運動公園","context":"日本","subtype":"large-park","subtypeLabel":"大型都市公園・広域公園","statusLabel":"著名な公園","aliases":[],"osmType":"way","osmId":471506689,"osmDate":null,"officialAreaKm2":null,"areaSourceLabel":"","areaSourceUrl":"","boundarySourceLabel":"© OpenStreetMap contributors","boundarySourceUrl":"https://www.openstreetmap.org/copyright","geometryFile":"attractions/large-park-W471506689.geojson"},"geometry":{"type":"Polygon","coordinates":[[[140.2295095,36.0066351],[140.2292079,36.0063833],[140.2290748,36.0062682],[140.2289727,36.0061798],[140.2283084,36.0056174],[140.2279881,36.0053462],[140.2276193,36.0035559],[140.2283669,36.0032171],[140.2289152,36.0037655],[140.2292225,36.0036623],[140.2299696,36.0034114],[140.2297734,36.002989],[140.2294258,36.0025386],[140.2291236,36.002147],[140.2294436,36.0018461],[140.2300119,36.0020477],[140.2312181,36.0016283],[140.2323446,36.0014348],[140.2334612,36.0006363],[140.2343783,36.0011041],[140.2349113,36.0015917],[140.234405,36.0018356],[140.2338817,36.0023556],[140.233149,36.0036433],[140.2331017,36.0037273],[140.2328134,36.0041306],[140.2317494,36.0050562],[140.2315459,36.0052211],[140.230183,36.0062352],[140.2295095,36.0066351]]]}}
