{"type":"Feature","id":"attraction-large-industrial-complex-W942736122","properties":{"id":"attraction-large-industrial-complex-W942736122","kind":"attraction","name":"日本製紙 白老工場","shortName":"日本製紙 白老工場","context":"北海道・白老町","subtype":"industrial-complex","subtypeLabel":"工業地帯・大規模工場","statusLabel":"","aliases":[],"osmType":"way","osmId":942736122,"osmDate":null,"officialAreaKm2":null,"areaSourceLabel":"","areaSourceUrl":"","boundarySourceLabel":"© OpenStreetMap contributors","boundarySourceUrl":"https://www.openstreetmap.org/copyright","geometryFile":"attractions/large-industrial-complex-W942736122.geojson"},"geometry":{"type":"Polygon","coordinates":[[[141.2821358,42.506844],[141.2798882,42.5088134],[141.2777263,42.510751],[141.2776726,42.5108579],[141.278885,42.5124435],[141.2800223,42.5134005],[141.2802368,42.5137326],[141.2803656,42.5141122],[141.2803388,42.5145353],[141.2801188,42.5149861],[141.2812507,42.5156504],[141.2849522,42.5177935],[141.2892598,42.5206323],[141.2921834,42.5179714],[141.2936962,42.5189045],[141.2962389,42.5167022],[141.2967002,42.5167219],[141.296888,42.5164926],[141.2970704,42.5162119],[141.2919581,42.5129892],[141.2870765,42.5099128],[141.2821358,42.506844]]]}}
