{"type":"Feature","id":"attraction-large-park-W159349324","properties":{"id":"attraction-large-park-W159349324","kind":"attraction","name":"まつぶし緑の丘公園","shortName":"まつぶし緑の丘公園","context":"日本","subtype":"large-park","subtypeLabel":"大型都市公園・広域公園","statusLabel":"著名な公園","aliases":[],"osmType":"way","osmId":159349324,"osmDate":null,"officialAreaKm2":null,"areaSourceLabel":"","areaSourceUrl":"","boundarySourceLabel":"© OpenStreetMap contributors","boundarySourceUrl":"https://www.openstreetmap.org/copyright","geometryFile":"attractions/large-park-W159349324.geojson"},"geometry":{"type":"Polygon","coordinates":[[[139.8075849,35.9495198],[139.8073503,35.9485801],[139.8076378,35.9465756],[139.8079176,35.9449629],[139.8091985,35.944109],[139.8094888,35.94393],[139.8098861,35.9436621],[139.8102407,35.9434716],[139.8105928,35.9433131],[139.8110059,35.9431741],[139.8115747,35.9430336],[139.8120502,35.9428972],[139.8120841,35.9429113],[139.8119707,35.9455446],[139.8119604,35.9493149],[139.8119546,35.9495907],[139.8075849,35.9495198]]]}}
