{"type":"Feature","id":"attraction-large-industrial-complex-W211273736","properties":{"id":"attraction-large-industrial-complex-W211273736","kind":"attraction","name":"ダイハツ九州","shortName":"ダイハツ九州","context":"日本","subtype":"industrial-complex","subtypeLabel":"工業地帯・大規模工場","statusLabel":"","aliases":["Daihatsu Motor Kyushu"],"osmType":"way","osmId":211273736,"osmDate":null,"officialAreaKm2":null,"areaSourceLabel":"","areaSourceUrl":"","boundarySourceLabel":"© OpenStreetMap contributors","boundarySourceUrl":"https://www.openstreetmap.org/copyright","geometryFile":"attractions/large-industrial-complex-W211273736.geojson"},"geometry":{"type":"Polygon","coordinates":[[[131.2592194,33.5963015],[131.2679741,33.5924229],[131.2653005,33.5844838],[131.2644122,33.5846652],[131.2642491,33.5843765],[131.2617171,33.5851273],[131.2612021,33.5851094],[131.2608802,33.5842693],[131.2603009,33.5839296],[131.2595413,33.582967],[131.2542498,33.5840011],[131.254679,33.5851988],[131.2538421,33.5862356],[131.2541425,33.5872902],[131.2541211,33.587898],[131.2548077,33.589328],[131.2555802,33.5899536],[131.2558591,33.5916159],[131.2563655,33.5925123],[131.2575672,33.5928877],[131.2582195,33.5934033],[131.2585199,33.5952801],[131.2592194,33.5963015]]]}}
