{"type":"Feature","id":"attraction-large-park-W161639770","properties":{"id":"attraction-large-park-W161639770","kind":"attraction","name":"かさだ広場","shortName":"かさだ広場","context":"日本","subtype":"large-park","subtypeLabel":"大型都市公園・広域公園","statusLabel":"著名な公園","aliases":[],"osmType":"way","osmId":161639770,"osmDate":null,"officialAreaKm2":null,"areaSourceLabel":"","areaSourceUrl":"","boundarySourceLabel":"© OpenStreetMap contributors","boundarySourceUrl":"https://www.openstreetmap.org/copyright","geometryFile":"attractions/large-park-W161639770.geojson"},"geometry":{"type":"Polygon","coordinates":[[[136.8182993,35.375745],[136.8188811,35.3741361],[136.8190206,35.3737512],[136.8190961,35.3735681],[136.8194045,35.3735656],[136.8199986,35.37357],[136.8200456,35.3735146],[136.8202143,35.3734474],[136.8209692,35.3733219],[136.8214105,35.373215],[136.8217221,35.3731241],[136.8218578,35.37304],[136.8219781,35.37295],[136.8231113,35.3719584],[136.8233905,35.3717088],[136.8234919,35.3716492],[136.8235825,35.371596],[136.8236935,35.371564],[136.8238304,35.3715618],[136.8239982,35.3715816],[136.8257819,35.3722872],[136.8260903,35.3723865],[136.8265669,35.3724037],[136.8269716,35.3725539],[136.8273417,35.3726503],[136.8276149,35.3727892],[136.8278685,35.372849],[136.8280985,35.3731018],[136.82811,35.3733435],[136.8281545,35.3736498],[136.8282283,35.3739418],[136.8281462,35.3742041],[136.8279496,35.3744644],[136.8276599,35.3746267],[136.8271747,35.3747747],[136.826757,35.3748955],[136.8263934,35.3750691],[136.8260259,35.3752909],[136.8257142,35.3753021],[136.8255002,35.3752321],[136.8253157,35.3751066],[136.8252046,35.3749076],[136.825063,35.3746644],[136.8248146,35.3745511],[136.8245968,35.3745769],[136.8243849,35.3746136],[136.8239703,35.374733],[136.8236972,35.3748643],[136.8231892,35.375072],[136.8228083,35.3750362],[136.8223347,35.3751267],[136.8219527,35.3752181],[136.821073,35.3754381],[136.8205081,35.3757203],[136.820036,35.3759521],[136.8197168,35.3760374],[136.8194191,35.3760124],[136.8190339,35.3759355],[136.8187314,35.3758593],[136.8182993,35.375745]]]}}
