{"type":"Feature","id":"attraction-large-industrial-complex-W462838688","properties":{"id":"attraction-large-industrial-complex-W462838688","kind":"attraction","name":"日本曹達","shortName":"日本曹達","context":"日本","subtype":"industrial-complex","subtypeLabel":"工業地帯・大規模工場","statusLabel":"","aliases":[],"osmType":"way","osmId":462838688,"osmDate":null,"officialAreaKm2":null,"areaSourceLabel":"","areaSourceUrl":"","boundarySourceLabel":"© OpenStreetMap contributors","boundarySourceUrl":"https://www.openstreetmap.org/copyright","geometryFile":"attractions/large-industrial-complex-W462838688.geojson"},"geometry":{"type":"Polygon","coordinates":[[[138.2291119,36.9874811],[138.228566,36.9878496],[138.2274368,36.9885973],[138.2266322,36.9893536],[138.2261098,36.9899829],[138.2258603,36.9898287],[138.2256136,36.9897558],[138.225434,36.9897493],[138.2250683,36.9901838],[138.2248927,36.9904434],[138.2247529,36.9911414],[138.2248446,36.9914018],[138.2249123,36.9916211],[138.2253293,36.9920739],[138.2256002,36.9922088],[138.2259719,36.9925944],[138.2262568,36.9928121],[138.2266328,36.9928708],[138.2268969,36.9928233],[138.2272604,36.9928412],[138.2276432,36.993181],[138.2275931,36.99331],[138.2277796,36.9935039],[138.2275743,36.9938306],[138.227803,36.9940504],[138.2275173,36.9943795],[138.2281583,36.9953885],[138.2285633,36.99529],[138.2291829,36.9953221],[138.2294485,36.995697],[138.2295343,36.9960312],[138.2298669,36.9965367],[138.2302531,36.9971216],[138.2306394,36.9975007],[138.230972,36.9976443],[138.2314172,36.9977235],[138.2321736,36.9973851],[138.2329729,36.9972437],[138.2332921,36.9974557],[138.2342309,36.9971323],[138.2345366,36.9971044],[138.2353627,36.9979634],[138.2360601,36.997625],[138.2369613,36.9982591],[138.2371625,36.9982269],[138.237597,36.9975264],[138.2371786,36.9970487],[138.2369721,36.9965217],[138.2367763,36.9958577],[138.2364517,36.9952107],[138.236036,36.9947844],[138.2354566,36.9936554],[138.2351187,36.9931027],[138.2346815,36.9925436],[138.2339439,36.9919737],[138.2334289,36.991361],[138.2326779,36.9908018],[138.2326054,36.9902941],[138.2322862,36.9896578],[138.232069,36.9893643],[138.2321656,36.9890022],[138.2321387,36.988713],[138.2320851,36.9884816],[138.2319483,36.988066],[138.2319027,36.9879332],[138.2312402,36.9878528],[138.2311195,36.9878389],[138.2310095,36.9878507],[138.2308754,36.9878732],[138.2304704,36.9880446],[138.2300707,36.9882063],[138.2297422,36.9879524],[138.2291119,36.9874811]]]}}
