{"type":"Feature","id":"attraction-large-park-W477692958","properties":{"id":"attraction-large-park-W477692958","kind":"attraction","name":"忠和公園","shortName":"忠和公園","context":"日本","subtype":"large-park","subtypeLabel":"大型都市公園・広域公園","statusLabel":"著名な公園","aliases":["Chuwa Park"],"osmType":"way","osmId":477692958,"osmDate":null,"officialAreaKm2":null,"areaSourceLabel":"","areaSourceUrl":"","boundarySourceLabel":"© OpenStreetMap contributors","boundarySourceUrl":"https://www.openstreetmap.org/copyright","geometryFile":"attractions/large-park-W477692958.geojson"},"geometry":{"type":"Polygon","coordinates":[[[142.3148738,43.7818154],[142.3140923,43.7816914],[142.3139748,43.7816728],[142.3138854,43.7816586],[142.3129587,43.7815153],[142.3130084,43.78195],[142.3129735,43.7821727],[142.312952,43.7822773],[142.312922,43.7823631],[142.3128823,43.7824767],[142.3127844,43.7827275],[142.3126852,43.782955],[142.3124706,43.7832813],[142.3124709,43.783314],[142.3142144,43.7834108],[142.3141393,43.7841825],[142.3148111,43.7842232],[142.3148413,43.7846216],[142.3149462,43.7859584],[142.3149554,43.7860755],[142.3149701,43.7861466],[142.3150049,43.7862191],[142.3153416,43.7861659],[142.3157126,43.7860956],[142.3161556,43.7859713],[142.3166397,43.7858076],[142.3171064,43.7856091],[142.3173259,43.7854958],[142.3176208,43.7853436],[142.3179439,43.7851431],[142.3182642,43.7849444],[142.3186461,43.7846191],[142.3190896,43.7842412],[142.3193234,43.784042],[142.3192116,43.7839136],[142.3185176,43.7832218],[142.3175742,43.7822889],[142.3174685,43.7822189],[142.3156882,43.7819367],[142.3148738,43.7818154]]]}}
