{"type":"Feature","id":"attraction-large-park-W438040760","properties":{"id":"attraction-large-park-W438040760","kind":"attraction","name":"恩賜箱根公園","shortName":"恩賜箱根公園","context":"日本","subtype":"large-park","subtypeLabel":"大型都市公園・広域公園","statusLabel":"著名な公園","aliases":["Onshi Hakone Park"],"osmType":"way","osmId":438040760,"osmDate":null,"officialAreaKm2":null,"areaSourceLabel":"","areaSourceUrl":"","boundarySourceLabel":"© OpenStreetMap contributors","boundarySourceUrl":"https://www.openstreetmap.org/copyright","geometryFile":"attractions/large-park-W438040760.geojson"},"geometry":{"type":"Polygon","coordinates":[[[139.0237071,35.1961528],[139.023391,35.195853],[139.023327,35.195566],[139.023335,35.195377],[139.023637,35.195019],[139.023828,35.19496],[139.0242758,35.1949448],[139.0247704,35.194985],[139.0250828,35.1949115],[139.0251947,35.1947439],[139.0253653,35.1943767],[139.0256703,35.1941959],[139.0263233,35.1937683],[139.026472,35.194007],[139.0267482,35.1943688],[139.026917,35.194646],[139.0273987,35.1952411],[139.0274847,35.1956626],[139.0275335,35.1961722],[139.0278885,35.1970249],[139.0278312,35.1973986],[139.0276499,35.1977645],[139.0273271,35.1980968],[139.0272501,35.198511],[139.027068,35.198791],[139.026845,35.198901],[139.026702,35.198921],[139.026528,35.198895],[139.0257278,35.1982172],[139.025463,35.197976],[139.025217,35.197696],[139.0250029,35.197357],[139.0250166,35.1969031],[139.0246529,35.1966267],[139.0244541,35.1963989],[139.0241792,35.1962497],[139.0237071,35.1961528]]]}}
