{"type":"Feature","id":"attraction-large-park-W99985295","properties":{"id":"attraction-large-park-W99985295","kind":"attraction","name":"山田池公園","shortName":"山田池公園","context":"日本","subtype":"large-park","subtypeLabel":"大型都市公園・広域公園","statusLabel":"","aliases":["Yamadaike Park"],"osmType":"way","osmId":99985295,"osmDate":null,"officialAreaKm2":null,"areaSourceLabel":"","areaSourceUrl":"","boundarySourceLabel":"© OpenStreetMap contributors","boundarySourceUrl":"https://www.openstreetmap.org/copyright","geometryFile":"attractions/large-park-W99985295.geojson"},"geometry":{"type":"Polygon","coordinates":[[[135.6881539,34.8274003],[135.6877396,34.8273316],[135.6876177,34.8265926],[135.6869141,34.8237638],[135.6867859,34.8234307],[135.6866531,34.8230938],[135.6860091,34.8218681],[135.6859669,34.8216595],[135.6859762,34.8214586],[135.6860633,34.8211681],[135.6861937,34.8208026],[135.6864288,34.8206899],[135.6867919,34.8203851],[135.6903078,34.8170941],[135.6905611,34.8169041],[135.6924523,34.8158238],[135.6929111,34.8156358],[135.6943029,34.8152347],[135.6944253,34.8154813],[135.6961683,34.8184249],[135.6954617,34.819136],[135.6958889,34.819915],[135.6961138,34.8203101],[135.6961151,34.8204058],[135.6960913,34.8205261],[135.6959053,34.821044],[135.6958985,34.821049],[135.6958996,34.8210985],[135.695912,34.8211595],[135.6959556,34.8212949],[135.6959987,34.8214112],[135.6958986,34.8214542],[135.6959386,34.821563],[135.6960218,34.8216174],[135.6960771,34.8219614],[135.6952485,34.8222459],[135.6950112,34.8225077],[135.6953055,34.8234421],[135.695347,34.8234661],[135.695404,34.8234548],[135.6954225,34.8234358],[135.6954842,34.8234383],[135.695498,34.8234636],[135.6955011,34.8235471],[135.6954087,34.8236305],[135.6953686,34.8236369],[135.6953563,34.823609],[135.6952669,34.8236027],[135.6951884,34.8236242],[135.6949876,34.8240039],[135.6948233,34.8243198],[135.6948063,34.8243539],[135.6948048,34.8243906],[135.6949434,34.8244652],[135.694965,34.8245145],[135.6949325,34.8245384],[135.6949219,34.8245461],[135.6948125,34.8245638],[135.6947971,34.8246258],[135.6947201,34.8246473],[135.6945752,34.8245588],[135.6938202,34.8243758],[135.6931287,34.8241731],[135.692567,34.8241506],[135.6918377,34.8245435],[135.6923847,34.8250861],[135.6919052,34.8254402],[135.6914781,34.8253146],[135.6908829,34.8255507],[135.6904831,34.8259107],[135.6898207,34.8264374],[135.6896569,34.8266287],[135.6899993,34.8270771],[135.6897108,34.8272226],[135.6891247,34.82699],[135.6888199,34.827084],[135.6885196,34.8273133],[135.6881539,34.8274003]]]}}
