{"type":"Feature","id":"attraction-large-park-W475771498","properties":{"id":"attraction-large-park-W475771498","kind":"attraction","name":"国営備北丘陵公園 備北オートビレッジ","shortName":"国営備北丘陵公園 備北オートビレッジ","context":"日本","subtype":"large-park","subtypeLabel":"大型都市公園・広域公園","statusLabel":"","aliases":[],"osmType":"way","osmId":475771498,"osmDate":null,"officialAreaKm2":null,"areaSourceLabel":"","areaSourceUrl":"","boundarySourceLabel":"© OpenStreetMap contributors","boundarySourceUrl":"https://www.openstreetmap.org/copyright","geometryFile":"attractions/large-park-W475771498.geojson"},"geometry":{"type":"Polygon","coordinates":[[[132.9942541,34.8386341],[132.9943518,34.8384967],[132.9945441,34.8383056],[132.9946703,34.8381458],[132.9947751,34.8380281],[132.9948676,34.8379226],[132.994984,34.8377931],[132.9950571,34.8377061],[132.9951548,34.837589],[132.9951514,34.8375168],[132.9951055,34.837464],[132.9950455,34.8373887],[132.9950155,34.8373118],[132.9950127,34.8372334],[132.9949998,34.8371359],[132.9949814,34.8369667],[132.995002,34.8368546],[132.9949876,34.8367367],[132.9949808,34.8366651],[132.9949711,34.8365628],[132.9950346,34.8363665],[132.9949059,34.8363423],[132.9948281,34.8363247],[132.9948335,34.836208],[132.9948504,34.8360035],[132.9948558,34.8359353],[132.9948335,34.8358227],[132.9947879,34.8357104],[132.9947423,34.8355695],[132.994702,34.8354374],[132.9946243,34.8351865],[132.9946699,34.8351138],[132.9943909,34.8350676],[132.9940503,34.8350081],[132.9937802,34.8349645],[132.9936265,34.8349377],[132.9933797,34.8349003],[132.9932268,34.8348628],[132.9929157,34.8346889],[132.9928513,34.8346647],[132.9927226,34.8346933],[132.9927475,34.8345901],[132.9926998,34.8342288],[132.992689,34.8340681],[132.9927588,34.8338897],[132.992791,34.8338325],[132.9929251,34.8337092],[132.9930136,34.8336277],[132.9927481,34.833456],[132.9924316,34.8333063],[132.9922867,34.8332403],[132.9922331,34.8332359],[132.9921848,34.8332689],[132.9921177,34.8332799],[132.9919032,34.8331456],[132.9917878,34.833084],[132.9917503,34.833117],[132.9916939,34.8331764],[132.9916913,34.8332601],[132.9916564,34.8333878],[132.9916564,34.8334252],[132.9915437,34.8335727],[132.9914391,34.8337048],[132.9913721,34.8337951],[132.9912889,34.8338347],[132.9910636,34.8337598],[132.9910931,34.8335903],[132.9908651,34.8334274],[132.9906559,34.8332755],[132.9906532,34.8332315],[132.9907552,34.8331434],[132.9908464,34.8330862],[132.9909644,34.8330509],[132.991069,34.8330245],[132.9911334,34.8329827],[132.9910958,34.8329012],[132.9909563,34.8327911],[132.9908303,34.8326987],[132.990723,34.8326172],[132.9905406,34.8325005],[132.9903582,34.8324103],[132.9903582,34.8322539],[132.9903394,34.8321042],[132.9902509,34.8320008],[132.9900283,34.8320184],[132.9896689,34.8320932],[132.9893175,34.8322209],[132.9889054,34.8323931],[132.9887167,34.8324653],[132.9885799,34.8325225],[132.9885021,34.8326326],[132.9884404,34.8327845],[132.98836,34.8329166],[132.9882875,34.8329717],[132.9881642,34.8330245],[132.9880595,34.8330619],[132.9879132,34.8331692],[132.9878448,34.8332271],[132.9877925,34.8332821],[132.9877523,34.8333801],[132.9876866,34.8335111],[132.9876678,34.8335992],[132.9876638,34.83375],[132.9876839,34.8338611],[132.987704,34.8339943],[132.9877,34.8340681],[132.9876919,34.8341],[132.9876611,34.8341209],[132.9875967,34.8341286],[132.9874532,34.8341154],[132.9873111,34.834089],[132.987236,34.8340791],[132.987122,34.8340791],[132.9870683,34.8340835],[132.9870214,34.8341011],[132.986945,34.8341429],[132.9868645,34.8342167],[132.9868028,34.8343059],[132.9867438,34.8343884],[132.9866848,34.8345007],[132.9866311,34.8346273],[132.9865292,34.8347363],[132.9864863,34.8348012],[132.9864461,34.8348309],[132.9863951,34.8348541],[132.986265,34.8348838],[132.9861872,34.8349212],[132.986096,34.8349939],[132.9860129,34.835061],[132.9859566,34.8351083],[132.9858855,34.8351733],[132.985805,34.8352757],[132.9857259,34.8353934],[132.9856763,34.8355266],[132.9856642,34.8356213],[132.9856508,34.835684],[132.9856199,34.8357435],[132.9855703,34.8358161],[132.9855167,34.8358503],[132.9854496,34.83588],[132.9853906,34.8359185],[132.9853651,34.8359515],[132.9853557,34.8359901],[132.9853437,34.8360891],[132.9853423,34.8361243],[132.985286,34.836186],[132.9852364,34.8362377],[132.9851801,34.836274],[132.985121,34.8362972],[132.9850527,34.8363126],[132.9849762,34.8363225],[132.9848971,34.8363379],[132.9848394,34.8363588],[132.984767,34.8364028],[132.9847053,34.8364447],[132.9846262,34.8365019],[132.9845685,34.8365768],[132.9845041,34.8366362],[132.9844914,34.8367342],[132.9844927,34.8367969],[132.9845155,34.8369323],[132.9845383,34.8369807],[132.9845772,34.8370358],[132.9846658,34.837183],[132.9847164,34.8372946],[132.984739,34.8374258],[132.9847794,34.8375823],[132.9847996,34.8376397],[132.9848671,34.837718],[132.9849475,34.8377778],[132.9850451,34.8378705],[132.9851128,34.8379631],[132.9851767,34.8380402],[132.9852003,34.838091],[132.9852361,34.8381858],[132.9852378,34.8382976],[132.9852289,34.8383363],[132.985198,34.8384695],[132.9851653,34.838512],[132.985075,34.8386116],[132.9849866,34.8387449],[132.9849021,34.8388974],[132.9851435,34.8389624],[132.9853151,34.839024],[132.9855673,34.8390724],[132.9858314,34.8391209],[132.9862218,34.8391803],[132.986734,34.8392222],[132.9871578,34.8392508],[132.9873294,34.8392772],[132.9876862,34.8393278],[132.98798,34.8393509],[132.9881771,34.839352],[132.9885458,34.839374],[132.9889227,34.8393773],[132.9893653,34.8393553],[132.9898937,34.8394147],[132.9903402,34.8395215],[132.9905388,34.8395787],[132.9908875,34.8397241],[132.9913515,34.8399377],[132.9916666,34.8401038],[132.9919737,34.8402524],[132.9923037,34.8404737],[132.9925598,34.8406453],[132.9928239,34.8408016],[132.992997,34.8409117],[132.9933383,34.8410966],[132.9934796,34.8409388],[132.9936447,34.8407564],[132.9937534,34.8406442],[132.9937953,34.8405791],[132.9938565,34.8404927],[132.9938906,34.840432],[132.9939652,34.8403231],[132.9940022,34.8402646],[132.9940289,34.8401432],[132.9940484,34.840055],[132.9940729,34.8399072],[132.9940994,34.839832],[132.9941541,34.8397724],[132.9942353,34.8396902],[132.9942071,34.8396798],[132.9941454,34.8396418],[132.9940765,34.8396368],[132.9939835,34.839623],[132.9938936,34.839569],[132.9938439,34.8395086],[132.9938064,34.8393734],[132.993762,34.8392687],[132.9937383,34.8391847],[132.993689,34.8390874],[132.9936622,34.8389858],[132.9936456,34.8389411],[132.9936601,34.8388641],[132.9936868,34.8388258],[132.9937254,34.838771],[132.993815,34.8387388],[132.9939005,34.838729],[132.9940214,34.8387428],[132.9941181,34.8387378],[132.9941545,34.838713],[132.9941932,34.8386918],[132.9942541,34.8386341]]]}}
