{"type":"Feature","id":"attraction-large-park-R15467897","properties":{"id":"attraction-large-park-R15467897","kind":"attraction","name":"東部緑地","shortName":"東部緑地","context":"日本","subtype":"large-park","subtypeLabel":"大型都市公園・広域公園","statusLabel":"","aliases":[],"osmType":"relation","osmId":15467897,"osmDate":null,"officialAreaKm2":null,"areaSourceLabel":"","areaSourceUrl":"","boundarySourceLabel":"© OpenStreetMap contributors","boundarySourceUrl":"https://www.openstreetmap.org/copyright","geometryFile":"attractions/large-park-R15467897.geojson"},"geometry":{"type":"MultiPolygon","coordinates":[[[[141.4855333,43.0051725],[141.4858804,43.0090097],[141.4823692,43.0104788],[141.4814693,43.0107455],[141.481291,43.0104698],[141.4808811,43.0092395],[141.479781,43.0057601],[141.4791637,43.0038999],[141.4790307,43.0034854],[141.4788973,43.0031837],[141.4786178,43.0027343],[141.4783746,43.0023782],[141.4778902,43.0018714],[141.4764541,43.0003008],[141.476481,43.000171],[141.4795541,42.9988306],[141.4818993,43.0001722],[141.4836504,43.0012859],[141.4855333,43.0051725]]],[[[141.4793492,43.0139507],[141.4788516,43.0131878],[141.4787082,43.0128706],[141.4786175,43.0124757],[141.478503,43.0112433],[141.4792875,43.0110403],[141.4798836,43.0108564],[141.4810349,43.0105843],[141.4814437,43.011158],[141.4823135,43.0118588],[141.4823906,43.0119209],[141.4839542,43.0130682],[141.4829473,43.0138772],[141.4811556,43.0132026],[141.4805119,43.0135987],[141.4794144,43.0139828],[141.4793492,43.0139507]]]]}}
