{"type":"Feature","id":"attraction-large-large-port-W432566943","properties":{"id":"attraction-large-large-port-W432566943","kind":"attraction","name":"王子製紙 苫小牧港チップヤード","shortName":"王子製紙 苫小牧港チップヤード","context":"日本","subtype":"large-port","subtypeLabel":"港湾・埠頭","statusLabel":"","aliases":[],"osmType":"way","osmId":432566943,"osmDate":null,"officialAreaKm2":null,"areaSourceLabel":"","areaSourceUrl":"","boundarySourceLabel":"© OpenStreetMap contributors","boundarySourceUrl":"https://www.openstreetmap.org/copyright","geometryFile":"attractions/large-large-port-W432566943.geojson"},"geometry":{"type":"Polygon","coordinates":[[[141.6150591,42.6313511],[141.6195711,42.6316855],[141.6195993,42.6314536],[141.6201948,42.6315],[141.6202545,42.6315622],[141.6199608,42.6339835],[141.6198488,42.6340258],[141.619171,42.633797],[141.6186619,42.6337606],[141.6186726,42.6336844],[141.6145186,42.6333689],[141.6145662,42.6329941],[141.6145754,42.6329212],[141.6145826,42.6328646],[141.6148174,42.6328807],[141.614854,42.6325923],[141.6149804,42.6318291],[141.6150591,42.6313511]]]}}
