{"type":"Feature","id":"attraction-large-large-port-W589991969","properties":{"id":"attraction-large-large-port-W589991969","kind":"attraction","name":"南港火力発電所","shortName":"南港火力発電所","context":"日本","subtype":"large-port","subtypeLabel":"港湾・埠頭","statusLabel":"","aliases":["Nanko Thermal Power Plant","関西電力株式会社"],"osmType":"way","osmId":589991969,"osmDate":null,"officialAreaKm2":null,"areaSourceLabel":"","areaSourceUrl":"","boundarySourceLabel":"© OpenStreetMap contributors","boundarySourceUrl":"https://www.openstreetmap.org/copyright","geometryFile":"attractions/large-large-port-W589991969.geojson"},"geometry":{"type":"Polygon","coordinates":[[[135.4110754,34.6156477],[135.4085393,34.614829],[135.4060932,34.6148195],[135.4044331,34.6148299],[135.4040152,34.6148313],[135.4035902,34.6148321],[135.4035488,34.6148817],[135.402113,34.6148722],[135.401174,34.6173945],[135.4013089,34.6175104],[135.401243,34.6176764],[135.4016417,34.6181492],[135.401465,34.618626],[135.4013925,34.6186986],[135.4007647,34.6188659],[135.4007621,34.6188682],[135.4007078,34.6190351],[135.4005045,34.6190821],[135.3999549,34.6204853],[135.4021235,34.6204886],[135.4035943,34.6195896],[135.4037835,34.6197103],[135.4044422,34.6197127],[135.4048136,34.6193098],[135.4056112,34.6193249],[135.4059692,34.6196969],[135.4071705,34.6196979],[135.4071709,34.6190326],[135.4081309,34.619029],[135.4081203,34.618272],[135.4118457,34.6182884],[135.4116973,34.6177093],[135.4110754,34.6156477]]]}}
