{"type":"Feature","id":"attraction-large-park-W164139709","properties":{"id":"attraction-large-park-W164139709","kind":"attraction","name":"辻堂海浜公園","shortName":"辻堂海浜公園","context":"日本","subtype":"large-park","subtypeLabel":"大型都市公園・広域公園","statusLabel":"著名な公園","aliases":[],"osmType":"way","osmId":164139709,"osmDate":null,"officialAreaKm2":null,"areaSourceLabel":"","areaSourceUrl":"","boundarySourceLabel":"© OpenStreetMap contributors","boundarySourceUrl":"https://www.openstreetmap.org/copyright","geometryFile":"attractions/large-park-W164139709.geojson"},"geometry":{"type":"Polygon","coordinates":[[[139.4515771,35.3204965],[139.4535512,35.3201718],[139.4535243,35.3200691],[139.4534074,35.3196234],[139.4533738,35.3195641],[139.4510201,35.3199303],[139.4508298,35.3199603],[139.4503351,35.3200382],[139.4501384,35.3200763],[139.4499786,35.3200457],[139.4473836,35.3205038],[139.4471616,35.3203349],[139.4470493,35.3198062],[139.4476534,35.3197238],[139.4476369,35.3196469],[139.4473956,35.3196712],[139.4472456,35.3196588],[139.4467418,35.3197152],[139.4466482,35.3197727],[139.4465856,35.3198602],[139.4466214,35.3198804],[139.4467453,35.320369],[139.444651,35.320678],[139.4443589,35.3207063],[139.4443364,35.3207419],[139.4443972,35.3214243],[139.4444114,35.322755],[139.4444615,35.3227979],[139.4460187,35.3227727],[139.4475601,35.3227497],[139.447792,35.3227286],[139.4479179,35.3227211],[139.4488113,35.3226447],[139.4522125,35.3224077],[139.452243,35.3224021],[139.4522645,35.3223901],[139.4522899,35.3223567],[139.4522885,35.3223235],[139.452216,35.3220504],[139.4521437,35.3217176],[139.4518856,35.3211366],[139.4515988,35.320557],[139.4515771,35.3204965]]]}}
