{"type":"Feature","id":"attraction-large-park-W618024305","properties":{"id":"attraction-large-park-W618024305","kind":"attraction","name":"くりはま花の国","shortName":"くりはま花の国","context":"日本","subtype":"large-park","subtypeLabel":"大型都市公園・広域公園","statusLabel":"","aliases":["Kurihama Flower Park"],"osmType":"way","osmId":618024305,"osmDate":null,"officialAreaKm2":null,"areaSourceLabel":"","areaSourceUrl":"","boundarySourceLabel":"© OpenStreetMap contributors","boundarySourceUrl":"https://www.openstreetmap.org/copyright","geometryFile":"attractions/large-park-W618024305.geojson"},"geometry":{"type":"Polygon","coordinates":[[[139.699665,35.2243768],[139.6998189,35.2243992],[139.6999705,35.2244224],[139.7003977,35.2244625],[139.7010283,35.2242346],[139.7011901,35.2242569],[139.7020912,35.2238839],[139.7021282,35.2233161],[139.7026359,35.2233753],[139.7026865,35.223486],[139.7029303,35.2236487],[139.7035301,35.2239769],[139.7039015,35.2240535],[139.7040233,35.2241566],[139.7042644,35.2241801],[139.7054893,35.223634],[139.7058652,35.2233558],[139.7063813,35.2230383],[139.7066185,35.2227947],[139.7060089,35.2214869],[139.7056129,35.22088],[139.7048231,35.2205144],[139.7050023,35.2202169],[139.7052424,35.2201528],[139.7061092,35.2205238],[139.7064249,35.2202606],[139.7068346,35.2204113],[139.7067095,35.2209855],[139.7067698,35.2210837],[139.707931,35.2220537],[139.7080147,35.2222576],[139.7082041,35.2223694],[139.7087612,35.2221797],[139.7091031,35.2220491],[139.7093976,35.2221704],[139.7094022,35.2222599],[139.7095508,35.2222671],[139.7096282,35.2222708],[139.7099251,35.2221952],[139.7099999,35.2221762],[139.7102598,35.2222263],[139.7105827,35.2219733],[139.7107025,35.2218623],[139.7109222,35.2214985],[139.7109892,35.2212214],[139.7110177,35.2210442],[139.7109944,35.2209228],[139.7108081,35.2205142],[139.7106624,35.2200552],[139.7106697,35.2197221],[139.7108796,35.2193196],[139.7110448,35.2191557],[139.7105208,35.2188913],[139.7098671,35.2185558],[139.7092723,35.2184021],[139.7089858,35.2188064],[139.7081432,35.2185003],[139.7073632,35.2181756],[139.7062717,35.2178866],[139.705912,35.2179707],[139.7053739,35.2184407],[139.7051162,35.2186071],[139.7042998,35.2187075],[139.7035858,35.2186851],[139.7020704,35.2184833],[139.7014673,35.218271],[139.7006547,35.2180611],[139.6995505,35.2182809],[139.6990233,35.2184901],[139.6986402,35.2188584],[139.6985475,35.2194477],[139.698542,35.2202184],[139.69848,35.2205373],[139.6981273,35.2208904],[139.6979348,35.2211266],[139.6980033,35.2213164],[139.6985245,35.2216543],[139.6986729,35.2222031],[139.6986971,35.2230151],[139.6987073,35.2232504],[139.6988209,35.2235515],[139.6991039,35.2238619],[139.6995208,35.2241334],[139.699665,35.2243768]]]}}
