{"type":"Feature","id":"attraction-large-park-W48391095","properties":{"id":"attraction-large-park-W48391095","kind":"attraction","name":"大泉緑地","shortName":"大泉緑地","context":"日本","subtype":"large-park","subtypeLabel":"大型都市公園・広域公園","statusLabel":"","aliases":["Oizumi Ryokuchi Park"],"osmType":"way","osmId":48391095,"osmDate":null,"officialAreaKm2":null,"areaSourceLabel":"","areaSourceUrl":"","boundarySourceLabel":"© OpenStreetMap contributors","boundarySourceUrl":"https://www.openstreetmap.org/copyright","geometryFile":"attractions/large-park-W48391095.geojson"},"geometry":{"type":"Polygon","coordinates":[[[135.5236096,34.5608548],[135.5236569,34.5607702],[135.5242538,34.5604911],[135.5249851,34.5602173],[135.5250213,34.5602031],[135.5257008,34.5599952],[135.5257217,34.5599881],[135.5257673,34.5599725],[135.5258081,34.5599751],[135.525931,34.5599775],[135.5260925,34.5599808],[135.5262379,34.5599787],[135.5266607,34.5599806],[135.5267649,34.5599811],[135.5273011,34.5599823],[135.5276993,34.5599102],[135.5279332,34.5599105],[135.5283391,34.5600026],[135.5294586,34.5599842],[135.5318313,34.5598791],[135.5318589,34.5608415],[135.5321919,34.5608059],[135.5328677,34.5607918],[135.533118,34.560781],[135.53329,34.5607664],[135.533266,34.5612657],[135.5332001,34.5617714],[135.5327931,34.5648534],[135.5327829,34.5649304],[135.5327036,34.5655902],[135.5322389,34.5660652],[135.5320056,34.5665366],[135.5318496,34.5667769],[135.5318423,34.5667885],[135.5318259,34.5668061],[135.5317824,34.5668492],[135.5317293,34.5668818],[135.5316181,34.566922],[135.5314268,34.566963],[135.5313092,34.5669645],[135.5310865,34.5669579],[135.5310387,34.5669621],[135.5309989,34.5669871],[135.5309715,34.5670094],[135.530951,34.5670101],[135.5309388,34.5670108],[135.5308669,34.5688808],[135.5308584,34.5696912],[135.530845,34.5699345],[135.5307751,34.5701824],[135.5307915,34.5707048],[135.530789,34.570751],[135.5307867,34.5707944],[135.5307736,34.5708839],[135.5307463,34.5709571],[135.5307155,34.5710364],[135.5306839,34.5711185],[135.5306011,34.5712915],[135.5305511,34.5713654],[135.5305044,34.5714227],[135.5304983,34.5714302],[135.530444,34.5714971],[135.5303616,34.571541],[135.5302545,34.5715924],[135.5301334,34.5716277],[135.5296347,34.5716356],[135.5295941,34.5716363],[135.5295608,34.5716368],[135.5295227,34.5716374],[135.5286865,34.5716407],[135.5282005,34.5716426],[135.5274904,34.5716454],[135.5265857,34.571649],[135.5263687,34.5716499],[135.5259628,34.5713708],[135.5256734,34.5711718],[135.5249352,34.5706994],[135.5247875,34.5705973],[135.5246588,34.570498],[135.5245197,34.5703788],[135.5243997,34.5702624],[135.524233,34.5700767],[135.524074,34.5698556],[135.5240479,34.5698176],[135.5239211,34.5695298],[135.5238174,34.5691347],[135.5238046,34.5690726],[135.523756,34.5688364],[135.523703,34.568509],[135.5237077,34.5681817],[135.5237075,34.5681339],[135.5237074,34.5680875],[135.5237056,34.5672708],[135.523691,34.566881],[135.5236801,34.5666868],[135.5236532,34.566258],[135.5236505,34.5661895],[135.5236494,34.5661625],[135.5236465,34.5660641],[135.5236416,34.5659686],[135.5236405,34.5659412],[135.5236379,34.5658748],[135.5235815,34.5641385],[135.5235642,34.5628185],[135.5235641,34.562789],[135.5235639,34.5627423],[135.5235626,34.5627119],[135.5235801,34.5617103],[135.5236096,34.5608548]]]}}
