{"type":"Feature","id":"attraction-large-industrial-complex-W590813381","properties":{"id":"attraction-large-industrial-complex-W590813381","kind":"attraction","name":"トヨタ自動車 田原工場","shortName":"トヨタ自動車 田原工場","context":"日本","subtype":"industrial-complex","subtypeLabel":"工業地帯・大規模工場","statusLabel":"","aliases":[],"osmType":"way","osmId":590813381,"osmDate":null,"officialAreaKm2":null,"areaSourceLabel":"","areaSourceUrl":"","boundarySourceLabel":"© OpenStreetMap contributors","boundarySourceUrl":"https://www.openstreetmap.org/copyright","geometryFile":"attractions/large-industrial-complex-W590813381.geojson"},"geometry":{"type":"Polygon","coordinates":[[[137.2998494,34.7075485],[137.2916526,34.7076896],[137.2920495,34.710997],[137.2907326,34.7131754],[137.2904107,34.7134134],[137.2901773,34.7135237],[137.2899601,34.7135721],[137.2869265,34.7134222],[137.286842,34.7134476],[137.2867937,34.7134983],[137.2867602,34.7135589],[137.2867414,34.7218795],[137.2883018,34.7276234],[137.2881092,34.7276621],[137.2886477,34.7302485],[137.2956458,34.7289761],[137.2967737,34.7287616],[137.3009147,34.7280707],[137.3009598,34.7186122],[137.3007694,34.7186166],[137.3007665,34.7179949],[137.3002624,34.7179905],[137.3002249,34.707544],[137.2998494,34.7075485]]]}}
