{"type":"Feature","id":"attraction-large-industrial-complex-R19165524","properties":{"id":"attraction-large-industrial-complex-R19165524","kind":"attraction","name":"プロテリアル 安来工場","shortName":"プロテリアル 安来工場","context":"日本","subtype":"industrial-complex","subtypeLabel":"工業地帯・大規模工場","statusLabel":"","aliases":[],"osmType":"relation","osmId":19165524,"osmDate":null,"officialAreaKm2":null,"areaSourceLabel":"","areaSourceUrl":"","boundarySourceLabel":"© OpenStreetMap contributors","boundarySourceUrl":"https://www.openstreetmap.org/copyright","geometryFile":"attractions/large-industrial-complex-R19165524.geojson"},"geometry":{"type":"Polygon","coordinates":[[[133.2484376,35.4344636],[133.2482928,35.4344584],[133.2482416,35.4344045],[133.246876,35.4343641],[133.2468003,35.4348983],[133.2460791,35.4348765],[133.2457763,35.4382999],[133.2455161,35.4431752],[133.2455859,35.4432866],[133.2463235,35.4433413],[133.2468384,35.4433609],[133.2523102,35.4435314],[133.2528064,35.4434833],[133.253155,35.4433544],[133.2534125,35.4431118],[133.2535869,35.4428234],[133.2538497,35.438525],[133.2521868,35.4384573],[133.2522109,35.4378869],[133.2502368,35.4378126],[133.2503005,35.4361462],[133.2501649,35.4361431],[133.2501738,35.4360347],[133.2503045,35.4360431],[133.250336,35.4350624],[133.2502519,35.4349752],[133.250214,35.4345818],[133.2500878,35.4339605],[133.2500711,35.4339302],[133.2497957,35.4339072],[133.2497957,35.4338874],[133.2485888,35.4337841],[133.2485414,35.4337945],[133.2485158,35.4338133],[133.2485055,35.4338509],[133.2484376,35.4344636]]]}}
