{"type":"Feature","id":"attraction-large-industrial-complex-W746347943","properties":{"id":"attraction-large-industrial-complex-W746347943","kind":"attraction","name":"ENEOS喜入基地","shortName":"ENEOS喜入基地","context":"日本","subtype":"industrial-complex","subtypeLabel":"工業地帯・大規模工場","statusLabel":"","aliases":[],"osmType":"way","osmId":746347943,"osmDate":null,"officialAreaKm2":null,"areaSourceLabel":"","areaSourceUrl":"","boundarySourceLabel":"© OpenStreetMap contributors","boundarySourceUrl":"https://www.openstreetmap.org/copyright","geometryFile":"attractions/large-industrial-complex-W746347943.geojson"},"geometry":{"type":"Polygon","coordinates":[[[130.5477594,31.3797711],[130.5475136,31.379789],[130.5472898,31.3798705],[130.5469072,31.3801614],[130.5419353,31.3864826],[130.5415633,31.3863209],[130.5412103,31.3871445],[130.5408077,31.3878541],[130.5406352,31.3883027],[130.5410816,31.3885864],[130.5395334,31.3904487],[130.5393765,31.3903224],[130.5390539,31.3907494],[130.542541,31.3927381],[130.5426801,31.3926446],[130.5493864,31.3963908],[130.549977,31.3962555],[130.5519335,31.3937234],[130.5557403,31.3888538],[130.5580024,31.3860188],[130.5579151,31.3855134],[130.5480192,31.3798357],[130.5477594,31.3797711]]]}}
