{"type":"Feature","id":"attraction-large-airport-W930450811","properties":{"id":"attraction-large-airport-W930450811","kind":"attraction","name":"ホープランド飛行場","shortName":"ホープランド飛行場","context":"日本","subtype":"airport","subtypeLabel":"空港・飛行場","statusLabel":"","aliases":["Hopeland Airfield"],"osmType":"way","osmId":930450811,"osmDate":null,"officialAreaKm2":null,"areaSourceLabel":"","areaSourceUrl":"","boundarySourceLabel":"© OpenStreetMap contributors","boundarySourceUrl":"https://www.openstreetmap.org/copyright","geometryFile":"attractions/large-airport-W930450811.geojson"},"geometry":{"type":"Polygon","coordinates":[[[143.309073,42.8582289],[143.3092214,42.8580608],[143.3135844,42.860399],[143.3138946,42.8600875],[143.31554,42.8609328],[143.3153175,42.8611503],[143.3145555,42.8607499],[143.3142655,42.8607351],[143.3138677,42.8607301],[143.3135102,42.8606412],[143.309073,42.8582289]]]}}
