{"type":"Feature","id":"attraction-large-park-W749319554","properties":{"id":"attraction-large-park-W749319554","kind":"attraction","name":"神之池緑地","shortName":"神之池緑地","context":"日本","subtype":"large-park","subtypeLabel":"大型都市公園・広域公園","statusLabel":"","aliases":[],"osmType":"way","osmId":749319554,"osmDate":null,"officialAreaKm2":null,"areaSourceLabel":"","areaSourceUrl":"","boundarySourceLabel":"© OpenStreetMap contributors","boundarySourceUrl":"https://www.openstreetmap.org/copyright","geometryFile":"attractions/large-park-W749319554.geojson"},"geometry":{"type":"Polygon","coordinates":[[[140.6688362,35.8875452],[140.6709207,35.8866531],[140.6714115,35.8864445],[140.6714893,35.8864489],[140.6716154,35.8865445],[140.6717334,35.886564],[140.6720472,35.8864293],[140.6721946,35.8863857],[140.6745282,35.8856948],[140.6754679,35.8856171],[140.6756372,35.8856031],[140.6756575,35.8856014],[140.6771193,35.8855405],[140.6798605,35.8851776],[140.6800697,35.885421],[140.6811265,35.8853754],[140.681274,35.8854579],[140.6815717,35.8857383],[140.6804425,35.886488],[140.6799678,35.8867683],[140.679139,35.8871942],[140.6774331,35.8879635],[140.6755287,35.888937],[140.6754053,35.8890238],[140.6740455,35.8896432],[140.6723932,35.8904363],[140.6699873,35.8915793],[140.6655053,35.8937327],[140.6648397,35.8940783],[140.6656984,35.8944695],[140.6647704,35.8956744],[140.6639603,35.8968047],[140.6635312,35.8973688],[140.6607041,35.8960011],[140.6613881,35.8927375],[140.6612486,35.8916814],[140.661393,35.891548],[140.6618416,35.8917616],[140.6622533,35.8914628],[140.6633378,35.8908396],[140.6650177,35.8899445],[140.6660096,35.8893783],[140.6674547,35.8886722],[140.6671781,35.8882372],[140.6676507,35.8880237],[140.6678727,35.8879378],[140.6688362,35.8875452]]]}}
