{"type":"Feature","id":"attraction-large-park-W579803461","properties":{"id":"attraction-large-park-W579803461","kind":"attraction","name":"見晴公園","shortName":"見晴公園","context":"北海道・函館市","subtype":"large-park","subtypeLabel":"大型都市公園・広域公園","statusLabel":"著名な公園","aliases":["Miharashi Park","旧岩船氏庭園(香雪園)"],"osmType":"way","osmId":579803461,"osmDate":null,"officialAreaKm2":null,"areaSourceLabel":"","areaSourceUrl":"","boundarySourceLabel":"© OpenStreetMap contributors","boundarySourceUrl":"https://www.openstreetmap.org/copyright","geometryFile":"attractions/large-park-W579803461.geojson"},"geometry":{"type":"Polygon","coordinates":[[[140.8028547,41.7913514],[140.8030097,41.7913494],[140.8032165,41.7913595],[140.8033929,41.791381],[140.8036825,41.791436],[140.8048738,41.7917185],[140.8050197,41.7917499],[140.8052804,41.7917868],[140.8055343,41.7918077],[140.805631,41.7919675],[140.8056878,41.7920392],[140.8057621,41.79218],[140.805777,41.7923744],[140.8058064,41.7924416],[140.8059341,41.7925444],[140.8060668,41.7927129],[140.8060619,41.7927165],[140.8060286,41.7929139],[140.8059862,41.7929521],[140.8057424,41.7929938],[140.8058394,41.7933062],[140.806078,41.7933951],[140.8061202,41.7934934],[140.8059097,41.7937037],[140.8059627,41.7938478],[140.8066203,41.7941883],[140.8066151,41.7942897],[140.8064634,41.7944118],[140.8062346,41.7944642],[140.8059965,41.794463],[140.805835,41.7945594],[140.8058353,41.7948442],[140.8060278,41.7955667],[140.8058605,41.7953829],[140.8055145,41.7951657],[140.8054115,41.7950658],[140.8052196,41.7949378],[140.8050528,41.7947405],[140.8049592,41.7946604],[140.8044172,41.7943957],[140.8042255,41.7944717],[140.8037363,41.794599],[140.8023636,41.7947363],[140.8019962,41.7945427],[140.8016417,41.7943974],[140.800706,41.7941489],[140.8007854,41.7937879],[140.8008326,41.7937239],[140.800933,41.7932848],[140.7996403,41.7931209],[140.7988431,41.7929032],[140.7988032,41.7928584],[140.7999452,41.7925485],[140.8017272,41.7919583],[140.8017951,41.7919111],[140.801975,41.7914124],[140.8028547,41.7913514]]]}}
