{"type":"Feature","id":"attraction-large-industrial-complex-W392308366","properties":{"id":"attraction-large-industrial-complex-W392308366","kind":"attraction","name":"信越化学工業 直江津工場","shortName":"信越化学工業 直江津工場","context":"日本","subtype":"industrial-complex","subtypeLabel":"工業地帯・大規模工場","statusLabel":"","aliases":["Shin-Etsu Chemical, Naoetsu Plant"],"osmType":"way","osmId":392308366,"osmDate":null,"officialAreaKm2":null,"areaSourceLabel":"","areaSourceUrl":"","boundarySourceLabel":"© OpenStreetMap contributors","boundarySourceUrl":"https://www.openstreetmap.org/copyright","geometryFile":"attractions/large-industrial-complex-W392308366.geojson"},"geometry":{"type":"Polygon","coordinates":[[[138.2619947,37.186247],[138.2621227,37.1864305],[138.2627715,37.1875362],[138.2630269,37.1878238],[138.26333,37.1880774],[138.2637659,37.1882931],[138.2640362,37.1884267],[138.2648863,37.1887528],[138.2663601,37.1893821],[138.2672945,37.1897408],[138.2676003,37.1898079],[138.2679254,37.1898271],[138.2683179,37.1898674],[138.2686984,37.1898329],[138.2689778,37.1897696],[138.2692547,37.1896602],[138.2695027,37.189501],[138.2697267,37.1893303],[138.269876,37.1891691],[138.269994,37.1890251],[138.2701313,37.1887547],[138.2701794,37.1885494],[138.2701963,37.1884094],[138.2701939,37.1882444],[138.2701698,37.1880411],[138.2700662,37.1876094],[138.2698977,37.1870147],[138.2697821,37.1869801],[138.26964,37.1868804],[138.2695774,37.1868286],[138.2691091,37.1861461],[138.2683781,37.1852746],[138.2681783,37.1850674],[138.2679543,37.1849216],[138.2677592,37.1847969],[138.2674365,37.1845801],[138.2672367,37.1843997],[138.2669477,37.1840678],[138.2667695,37.1840083],[138.2664661,37.1835709],[138.2662951,37.1830375],[138.2659868,37.1830318],[138.2659315,37.1829934],[138.265982,37.182224],[138.2665592,37.1822341],[138.2662598,37.1818575],[138.2661849,37.1817599],[138.2662667,37.1817609],[138.2658818,37.1814735],[138.2659194,37.1814393],[138.265572,37.1812246],[138.265609,37.1811849],[138.2655439,37.1811444],[138.2655801,37.1811027],[138.265131,37.1807673],[138.2646918,37.1804364],[138.2644577,37.1803048],[138.2642779,37.180218],[138.2641126,37.1801533],[138.2639117,37.1801713],[138.2633057,37.1800464],[138.2627191,37.1799295],[138.2621295,37.1798203],[138.2617922,37.1797695],[138.2607964,37.179937],[138.2607663,37.1799425],[138.26085,37.1815398],[138.260909,37.1818154],[138.2608956,37.1835656],[138.2620731,37.1836169],[138.262061,37.1844962],[138.2620905,37.1862517],[138.2619947,37.186247]]]}}
