{"type":"Feature","id":"attraction-large-park-W591206073","properties":{"id":"attraction-large-park-W591206073","kind":"attraction","name":"愛知こどもの国　あさひが丘","shortName":"愛知こどもの国　あさひが丘","context":"日本","subtype":"large-park","subtypeLabel":"大型都市公園・広域公園","statusLabel":"","aliases":[],"osmType":"way","osmId":591206073,"osmDate":null,"officialAreaKm2":null,"areaSourceLabel":"","areaSourceUrl":"","boundarySourceLabel":"© OpenStreetMap contributors","boundarySourceUrl":"https://www.openstreetmap.org/copyright","geometryFile":"attractions/large-park-W591206073.geojson"},"geometry":{"type":"Polygon","coordinates":[[[137.1636643,34.7922641],[137.1635078,34.7918603],[137.1633638,34.7914888],[137.1636147,34.7911165],[137.163944,34.7910373],[137.1643315,34.7907832],[137.1646728,34.790731],[137.1648356,34.7911592],[137.1651059,34.7912341],[137.1658771,34.7910054],[137.1660334,34.7906936],[137.1676339,34.7911011],[137.1685781,34.7912597],[137.1692295,34.7916006],[137.1691272,34.7924272],[137.1694485,34.7925471],[137.1698928,34.7929068],[137.1693322,34.7935352],[137.169317,34.7943718],[137.1688715,34.7951454],[137.1688102,34.795553],[137.1692174,34.79607],[137.1700163,34.7965806],[137.1699653,34.7971871],[137.1699603,34.7983613],[137.1699442,34.7987532],[137.1696663,34.7991007],[137.1690741,34.7993565],[137.1686128,34.7993646],[137.1683974,34.7997763],[137.1680179,34.7996707],[137.1679511,34.7992582],[137.1671161,34.7993253],[137.1668175,34.7992504],[137.1665189,34.798999],[137.16594,34.7989147],[137.1657217,34.7983727],[137.1651961,34.7980073],[137.1646519,34.798084],[137.1643931,34.798578],[137.1637713,34.7986165],[137.161023,34.7971897],[137.1610786,34.7962359],[137.1608265,34.795413],[137.1599709,34.7944201],[137.1590971,34.7938943],[137.1587749,34.7932787],[137.1590126,34.792834],[137.1592309,34.7925951],[137.1593858,34.7924257],[137.1595724,34.7924683],[137.1598998,34.7930897],[137.1602343,34.7933332],[137.1610534,34.793487],[137.1618868,34.7935099],[137.1627326,34.7936271],[137.1629054,34.7930948],[137.1638326,34.7927774],[137.1636643,34.7922641]]]}}
