{"type":"Feature","id":"attraction-large-airport-W278762830","properties":{"id":"attraction-large-airport-W278762830","kind":"attraction","name":"笠岡ふれあい空港","shortName":"笠岡ふれあい空港","context":"日本","subtype":"airport","subtypeLabel":"空港・飛行場","statusLabel":"","aliases":[],"osmType":"way","osmId":278762830,"osmDate":null,"officialAreaKm2":null,"areaSourceLabel":"","areaSourceUrl":"","boundarySourceLabel":"© OpenStreetMap contributors","boundarySourceUrl":"https://www.openstreetmap.org/copyright","geometryFile":"attractions/large-airport-W278762830.geojson"},"geometry":{"type":"Polygon","coordinates":[[[133.4908936,34.4798625],[133.4909776,34.4798293],[133.4910153,34.4798145],[133.4915498,34.4796038],[133.4906176,34.4779733],[133.4906135,34.4779662],[133.4905844,34.4779153],[133.4887391,34.4746876],[133.4886848,34.4745928],[133.4886726,34.4745714],[133.4886603,34.4745499],[133.4891801,34.4743484],[133.4893538,34.4742792],[133.4892169,34.47404],[133.4890472,34.4737654],[133.4889915,34.4736511],[133.4888193,34.473719],[133.4881916,34.47399],[133.4880852,34.4738086],[133.4870861,34.4721062],[133.4866404,34.4722758],[133.4865696,34.4723027],[133.4864619,34.4723437],[133.4908936,34.4798625]]]}}
