{"type":"Feature","id":"attraction-large-park-W341113361","properties":{"id":"attraction-large-park-W341113361","kind":"attraction","name":"天王川公園","shortName":"天王川公園","context":"日本","subtype":"large-park","subtypeLabel":"大型都市公園・広域公園","statusLabel":"著名な公園","aliases":[],"osmType":"way","osmId":341113361,"osmDate":null,"officialAreaKm2":null,"areaSourceLabel":"","areaSourceUrl":"","boundarySourceLabel":"© OpenStreetMap contributors","boundarySourceUrl":"https://www.openstreetmap.org/copyright","geometryFile":"attractions/large-park-W341113361.geojson"},"geometry":{"type":"Polygon","coordinates":[[[136.7205967,35.1737876],[136.7206544,35.1739347],[136.7206927,35.1740249],[136.720716,35.1741198],[136.7207745,35.1743216],[136.7208819,35.1747701],[136.7209361,35.1751742],[136.7209657,35.1754417],[136.7210471,35.1760115],[136.721078,35.1765463],[136.7210626,35.1765956],[136.7210673,35.1766192],[136.7211796,35.176636],[136.7214201,35.1767373],[136.7217807,35.1768577],[136.7218489,35.1768792],[136.7218993,35.1768855],[136.7219398,35.1768793],[136.722161,35.1768028],[136.7222977,35.1767537],[136.7223887,35.1767026],[136.7224015,35.1766746],[136.7224756,35.1764336],[136.7225955,35.176041],[136.7226326,35.1760052],[136.7227809,35.1755199],[136.7228471,35.1752902],[136.7228563,35.1752185],[136.7229839,35.1748056],[136.7230223,35.1747275],[136.7230243,35.174671],[136.7231002,35.1746485],[136.7232573,35.1746102],[136.7233921,35.1745871],[136.7235336,35.1745666],[136.7236378,35.1745343],[136.7237024,35.1745134],[136.7237802,35.1744756],[136.7239018,35.174395],[136.7240713,35.1742729],[136.7242386,35.1741353],[136.7243135,35.1740605],[136.7243763,35.1739817],[136.7243724,35.1739657],[136.7243543,35.1739191],[136.724343,35.1738958],[136.7243123,35.1738681],[136.7242487,35.1738242],[136.7241777,35.1738051],[136.7241026,35.173809],[136.7240448,35.1738166],[136.7239829,35.1738295],[136.7233202,35.1740193],[136.7232625,35.1740361],[136.7231512,35.1740375],[136.7230654,35.1740189],[136.7229625,35.1739749],[136.7223643,35.1734512],[136.7219437,35.1731444],[136.7215517,35.1728875],[136.7213966,35.1727703],[136.7212538,35.1726279],[136.7211257,35.1724436],[136.7209503,35.1721996],[136.720904,35.1720861],[136.7208457,35.1718147],[136.7206206,35.1718414],[136.7204794,35.1713534],[136.720668,35.1713114],[136.7206193,35.1711278],[136.7205354,35.17086],[136.7204823,35.1707199],[136.7203836,35.1704088],[136.7203445,35.1702703],[136.7202785,35.1700179],[136.7201026,35.169561],[136.7200577,35.1695356],[136.7197761,35.1695635],[136.7199673,35.1703303],[136.7199594,35.1710308],[136.7199308,35.1711856],[136.7199288,35.1716288],[136.7199638,35.1716301],[136.7199575,35.1720021],[136.7198769,35.1722928],[136.7198258,35.1723555],[136.7197585,35.1725376],[136.7197103,35.1726678],[136.71967,35.1726492],[136.719649,35.1727014],[136.7196675,35.1727407],[136.7198309,35.1728727],[136.720073,35.1730682],[136.7202582,35.1732177],[136.7203888,35.1733098],[136.7204272,35.1734446],[136.7205967,35.1737876]]]}}
