{"type":"Feature","id":"attraction-large-park-W312888383","properties":{"id":"attraction-large-park-W312888383","kind":"attraction","name":"三溪園","shortName":"三溪園","context":"日本","subtype":"large-park","subtypeLabel":"大型都市公園・広域公園","statusLabel":"著名な公園","aliases":["Sankei Garden"],"osmType":"way","osmId":312888383,"osmDate":null,"officialAreaKm2":null,"areaSourceLabel":"","areaSourceUrl":"","boundarySourceLabel":"© OpenStreetMap contributors","boundarySourceUrl":"https://www.openstreetmap.org/copyright","geometryFile":"attractions/large-park-W312888383.geojson"},"geometry":{"type":"Polygon","coordinates":[[[139.6569553,35.4185566],[139.6567839,35.4182792],[139.6565486,35.4180787],[139.6561222,35.4181105],[139.6558323,35.4179254],[139.6559055,35.4172927],[139.655135,35.4168753],[139.6551658,35.4167557],[139.6559045,35.4165285],[139.6564181,35.4161427],[139.6575309,35.4157268],[139.6581167,35.4156512],[139.6581537,35.4153416],[139.6585194,35.4150279],[139.6594305,35.4147255],[139.6606665,35.4145282],[139.6607498,35.4146278],[139.6606102,35.4149839],[139.6606463,35.4151636],[139.6607885,35.4154626],[139.6608312,35.4157516],[139.661233,35.4159775],[139.661459,35.4161351],[139.6614854,35.4165371],[139.6618888,35.4168187],[139.6619585,35.4168475],[139.6624184,35.4166355],[139.6623849,35.4164332],[139.6627324,35.4162922],[139.662975,35.4163677],[139.6630769,35.416807],[139.6631033,35.4170463],[139.6631714,35.4172336],[139.663008,35.4174819],[139.6627512,35.4176474],[139.6625957,35.4182298],[139.662404,35.4182227],[139.6623785,35.4183038],[139.6622963,35.4183903],[139.6621553,35.4184658],[139.6618675,35.418395],[139.6617266,35.4182982],[139.6615471,35.4179802],[139.6614439,35.4178972],[139.6613325,35.4179254],[139.6613311,35.41795],[139.6613297,35.4179745],[139.6613696,35.4179847],[139.6614029,35.4180134],[139.6612765,35.4180462],[139.6611656,35.4180867],[139.6610765,35.4181438],[139.6609914,35.4182389],[139.6607283,35.418518],[139.6603721,35.4185906],[139.6601506,35.4184566],[139.6598164,35.4184387],[139.6597399,35.4186133],[139.6598197,35.4191945],[139.6600479,35.4194217],[139.6600916,35.4195443],[139.6599778,35.419571],[139.6599327,35.4195433],[139.6597235,35.4195788],[139.6597299,35.419629],[139.6595616,35.4196685],[139.6591144,35.4192286],[139.6589051,35.4191029],[139.6584079,35.4188454],[139.6584166,35.4186824],[139.6576369,35.4183571],[139.6571574,35.4185775],[139.6569553,35.4185566]]]}}
