{"type":"Feature","id":"attraction-large-park-W554500495","properties":{"id":"attraction-large-park-W554500495","kind":"attraction","name":"根城","shortName":"根城","context":"日本","subtype":"large-park","subtypeLabel":"大型都市公園・広域公園","statusLabel":"著名な公園","aliases":["Historic Nejo Plaza"],"osmType":"way","osmId":554500495,"osmDate":null,"officialAreaKm2":null,"areaSourceLabel":"","areaSourceUrl":"","boundarySourceLabel":"© OpenStreetMap contributors","boundarySourceUrl":"https://www.openstreetmap.org/copyright","geometryFile":"attractions/large-park-W554500495.geojson"},"geometry":{"type":"Polygon","coordinates":[[[141.464636,40.5080169],[141.4646374,40.5079338],[141.4646863,40.5076106],[141.4646843,40.5075971],[141.4646575,40.5075616],[141.4646354,40.5075377],[141.4645787,40.5075096],[141.4645895,40.5074793],[141.4637024,40.5072229],[141.4630276,40.5070244],[141.4625707,40.5068861],[141.4624038,40.5068181],[141.4622415,40.5067339],[141.4621376,40.5066525],[141.4619428,40.5065033],[141.4618326,40.5063895],[141.4616832,40.5061847],[141.4615744,40.5060022],[141.4615075,40.5057626],[141.4614777,40.5056207],[141.4614,40.5054606],[141.4613268,40.5053328],[141.4611854,40.505172],[141.4610653,40.5050555],[141.4609056,40.5049476],[141.4607025,40.5048287],[141.4605752,40.5047753],[141.4602365,40.5046825],[141.4601995,40.5047133],[141.4599151,40.5051507],[141.4598119,40.5053689],[141.4597466,40.505441],[141.4596549,40.5054912],[141.4594724,40.5055871],[141.4591078,40.5057819],[141.4585928,40.5060368],[141.4584656,40.5061499],[141.4583876,40.5062447],[141.4583592,40.506305],[141.458821,40.5065781],[141.4590088,40.5066862],[141.4594446,40.5070197],[141.4594996,40.5071145],[141.4596297,40.5072165],[141.4598604,40.5073185],[141.4601124,40.5074143],[141.4603258,40.5073052],[141.460485,40.5074174],[141.461006,40.5077986],[141.461436,40.5081068],[141.4616775,40.5083208],[141.4617708,40.508347],[141.4620387,40.5084898],[141.462616,40.5087948],[141.463075,40.5090406],[141.463075,40.5090513],[141.4635318,40.5092884],[141.4639653,40.5095175],[141.4641707,40.5092807],[141.4643665,40.5093771],[141.4645267,40.5091875],[141.4646226,40.5092074],[141.4646816,40.5089866],[141.4647607,40.5086644],[141.4647165,40.5086572],[141.4648104,40.5082932],[141.4647333,40.5082295],[141.4646836,40.508153],[141.4646545,40.5080894],[141.464636,40.5080169]]]}}
