{"type":"Feature","id":"attraction-large-park-R7002668","properties":{"id":"attraction-large-park-R7002668","kind":"attraction","name":"熊谷運動公園","shortName":"熊谷運動公園","context":"日本","subtype":"large-park","subtypeLabel":"大型都市公園・広域公園","statusLabel":"著名な公園","aliases":["熊谷さくら運動公園"],"osmType":"relation","osmId":7002668,"osmDate":null,"officialAreaKm2":null,"areaSourceLabel":"","areaSourceUrl":"","boundarySourceLabel":"© OpenStreetMap contributors","boundarySourceUrl":"https://www.openstreetmap.org/copyright","geometryFile":"attractions/large-park-R7002668.geojson"},"geometry":{"type":"MultiPolygon","coordinates":[[[[139.3432945,36.153759],[139.3433096,36.1536905],[139.3433626,36.1533602],[139.3433626,36.1532833],[139.3433641,36.1529602],[139.3432529,36.1526371],[139.343265,36.1525971],[139.3441327,36.152537],[139.3444509,36.1525137],[139.3449592,36.1524766],[139.344996,36.1524982],[139.3457229,36.1524419],[139.3457683,36.152439],[139.3458801,36.1524319],[139.3459952,36.1524246],[139.3468494,36.1523629],[139.348497,36.1522346],[139.3485399,36.1522519],[139.3487143,36.1533369],[139.3487679,36.1536964],[139.3486727,36.1538989],[139.3486298,36.1540635],[139.3483983,36.1540686],[139.3480357,36.1540765],[139.348035,36.1542319],[139.3473161,36.1541864],[139.3472779,36.1542151],[139.3474318,36.1543472],[139.3475099,36.1544144],[139.3475059,36.1544382],[139.3471572,36.1544057],[139.3470085,36.1543876],[139.3467562,36.154357],[139.3460843,36.1542898],[139.3458371,36.1542625],[139.3458008,36.1542585],[139.3456936,36.1542466],[139.3456337,36.15424],[139.34559,36.1542354],[139.3452902,36.1542039],[139.3450262,36.1541761],[139.3444482,36.1541122],[139.3443438,36.1540875],[139.3441407,36.1540393],[139.3439962,36.154005],[139.3435805,36.1538708],[139.3433136,36.1537971],[139.3432945,36.153759]]],[[[139.3480073,36.1548747],[139.3480601,36.1546778],[139.3479166,36.1546594],[139.3477018,36.1546061],[139.3476068,36.1545825],[139.3474513,36.1545662],[139.3472031,36.1545399],[139.3466701,36.1544834],[139.3465192,36.1544683],[139.3464015,36.1544564],[139.3459258,36.1544087],[139.3455965,36.1543684],[139.3455449,36.1543621],[139.3449454,36.1542999],[139.3447577,36.1542777],[139.3443996,36.1542289],[139.3439372,36.1541144],[139.3435872,36.1540277],[139.3434642,36.1539973],[139.3434303,36.1539889],[139.3432549,36.1539409],[139.3431731,36.1541666],[139.3431736,36.1541853],[139.3430707,36.1544812],[139.3430379,36.1545756],[139.3428991,36.1548384],[139.3428297,36.1550184],[139.3427991,36.1551086],[139.3427639,36.1552126],[139.3427461,36.15529],[139.3427616,36.1554535],[139.3427321,36.1556895],[139.3427361,36.1558585],[139.3427763,36.156049],[139.3428313,36.1561465],[139.3429426,36.1562537],[139.34248,36.1564735],[139.342549,36.1565195],[139.3427301,36.1568465],[139.3428856,36.1570934],[139.3430305,36.157271],[139.3434509,36.1577285],[139.3434965,36.1578108],[139.3434948,36.1578787],[139.3443102,36.1578863],[139.3452839,36.157908],[139.3455494,36.1579177],[139.3472258,36.1579599],[139.3485645,36.1579891],[139.3489652,36.1579978],[139.3490041,36.1579816],[139.3493085,36.1574207],[139.349337,36.1573722],[139.3493498,36.1573306],[139.3493632,36.157179],[139.349166,36.1564632],[139.3492016,36.1563338],[139.3489696,36.1562461],[139.3488046,36.1561671],[139.3483875,36.1559007],[139.3484083,36.1558298],[139.3486551,36.1554183],[139.3487235,36.1553457],[139.3488241,36.1551476],[139.3488549,36.1551032],[139.3488616,36.1550718],[139.3488401,36.1550425],[139.3486363,36.1550566],[139.3480536,36.1548881],[139.3480073,36.1548747]]]]}}
