{"type":"Feature","id":"attraction-large-park-W482181730","properties":{"id":"attraction-large-park-W482181730","kind":"attraction","name":"皇子山総合運動公園","shortName":"皇子山総合運動公園","context":"滋賀・大津","subtype":"large-park","subtypeLabel":"大型都市公園・広域公園","statusLabel":"著名な公園","aliases":["Ojiyama Sports Park"],"osmType":"way","osmId":482181730,"osmDate":null,"officialAreaKm2":null,"areaSourceLabel":"","areaSourceUrl":"","boundarySourceLabel":"© OpenStreetMap contributors","boundarySourceUrl":"https://www.openstreetmap.org/copyright","geometryFile":"attractions/large-park-W482181730.geojson"},"geometry":{"type":"Polygon","coordinates":[[[135.8555933,35.0159008],[135.8578387,35.0159116],[135.8578295,35.0162835],[135.8578496,35.0166976],[135.8578925,35.017088],[135.8580038,35.0180914],[135.8580276,35.0183423],[135.858103,35.0191677],[135.8581077,35.0207394],[135.8581057,35.0208284],[135.8580816,35.02183],[135.8579032,35.0219542],[135.8573279,35.0219201],[135.8569242,35.0219157],[135.8563019,35.0219321],[135.855917,35.0219706],[135.8555726,35.0219971],[135.8554925,35.0186576],[135.8554762,35.0179097],[135.8554805,35.0177278],[135.8555933,35.0159008]]]}}
