{"type":"Feature","id":"attraction-large-industrial-complex-R11816417","properties":{"id":"attraction-large-industrial-complex-R11816417","kind":"attraction","name":"ソフトバンク 八雲ソーラーパーク","shortName":"ソフトバンク 八雲ソーラーパーク","context":"日本","subtype":"industrial-complex","subtypeLabel":"工業地帯・大規模工場","statusLabel":"","aliases":["SoftBank Yakumo Solar Park","Hokkaido Yakumo Solar Park LLC"],"osmType":"relation","osmId":11816417,"osmDate":null,"officialAreaKm2":null,"areaSourceLabel":"","areaSourceUrl":"","boundarySourceLabel":"© OpenStreetMap contributors","boundarySourceUrl":"https://www.openstreetmap.org/copyright","geometryFile":"attractions/large-industrial-complex-R11816417.geojson"},"geometry":{"type":"MultiPolygon","coordinates":[[[[140.2688402,42.3125447],[140.2732122,42.3123146],[140.2718925,42.3038804],[140.2680194,42.3098734],[140.2677734,42.3100071],[140.2688402,42.3125447]]],[[[140.2708253,42.2896598],[140.2709176,42.2920024],[140.2710404,42.2958831],[140.2711429,42.2984861],[140.2712558,42.3007622],[140.2713222,42.303042],[140.271638,42.3030304],[140.2716938,42.3031192],[140.2717014,42.3034681],[140.2707419,42.3053175],[140.2704764,42.3058299],[140.2683019,42.3089246],[140.2674364,42.3089208],[140.267295,42.3088509],[140.2634703,42.2986049],[140.2634797,42.2961252],[140.263584,42.2960523],[140.264198,42.2959765],[140.2654896,42.2903548],[140.2657795,42.2903182],[140.270063,42.2896524],[140.2708253,42.2896598]]]]}}
