{"type":"Feature","id":"attraction-large-park-W544259575","properties":{"id":"attraction-large-park-W544259575","kind":"attraction","name":"御勅使南公園","shortName":"御勅使南公園","context":"日本","subtype":"large-park","subtypeLabel":"大型都市公園・広域公園","statusLabel":"著名な公園","aliases":[],"osmType":"way","osmId":544259575,"osmDate":null,"officialAreaKm2":null,"areaSourceLabel":"","areaSourceUrl":"","boundarySourceLabel":"© OpenStreetMap contributors","boundarySourceUrl":"https://www.openstreetmap.org/copyright","geometryFile":"attractions/large-park-W544259575.geojson"},"geometry":{"type":"Polygon","coordinates":[[[138.4401169,35.6647281],[138.440159,35.6644587],[138.440682,35.664546],[138.4407894,35.6647205],[138.4421437,35.665024],[138.4426341,35.6650999],[138.4429843,35.6648078],[138.4433019,35.6643752],[138.4435354,35.6638744],[138.4445922,35.6640168],[138.4445422,35.6642464],[138.4445142,35.6646315],[138.4443767,35.6652109],[138.446076,35.6656138],[138.447751,35.6660036],[138.4486859,35.666276],[138.4493609,35.6664726],[138.4508245,35.6668161],[138.4529955,35.6673577],[138.4550607,35.667873],[138.4566625,35.6682099],[138.4582968,35.66819],[138.458744,35.6672653],[138.4598092,35.6677475],[138.4616305,35.669062],[138.4627689,35.6699736],[138.4642162,35.6708323],[138.464704,35.6711295],[138.4641105,35.6711427],[138.4635006,35.6709908],[138.4631673,35.6719816],[138.4600857,35.6711031],[138.4585652,35.6707002],[138.4588985,35.6697754],[138.4561665,35.669062],[138.4544753,35.6686062],[138.4530605,35.6682165],[138.4522193,35.667943],[138.4515432,35.6677701],[138.448556,35.6671133],[138.4471249,35.6668095],[138.445393,35.6663405],[138.4440108,35.6659243],[138.4419293,35.6653165],[138.4402218,35.6648079],[138.4401169,35.6647281]]]}}
