{"type":"Feature","id":"attraction-large-park-W551450228","properties":{"id":"attraction-large-park-W551450228","kind":"attraction","name":"各務原公園","shortName":"各務原公園","context":"日本","subtype":"large-park","subtypeLabel":"大型都市公園・広域公園","statusLabel":"著名な公園","aliases":[],"osmType":"way","osmId":551450228,"osmDate":null,"officialAreaKm2":null,"areaSourceLabel":"","areaSourceUrl":"","boundarySourceLabel":"© OpenStreetMap contributors","boundarySourceUrl":"https://www.openstreetmap.org/copyright","geometryFile":"attractions/large-park-W551450228.geojson"},"geometry":{"type":"Polygon","coordinates":[[[136.9342897,35.4226097],[136.9356205,35.4242799],[136.9356052,35.4250652],[136.9352381,35.4260499],[136.9343662,35.4261745],[136.9344274,35.4279562],[136.9337849,35.4277325],[136.9323777,35.427234],[136.9322247,35.4261496],[136.9300833,35.4253643],[136.9310163,35.4248159],[136.9319647,35.4248284],[136.9334637,35.4231581],[136.9342897,35.4226097]]]}}
