{"type":"Feature","id":"attraction-large-industrial-complex-W936582569","properties":{"id":"attraction-large-industrial-complex-W936582569","kind":"attraction","name":"スバル研究実験センター美深試験場","shortName":"スバル研究実験センター美深試験場","context":"北海道・美深町","subtype":"industrial-complex","subtypeLabel":"工業地帯・大規模工場","statusLabel":"","aliases":["SUBARU"],"osmType":"way","osmId":936582569,"osmDate":null,"officialAreaKm2":null,"areaSourceLabel":"","areaSourceUrl":"","boundarySourceLabel":"© OpenStreetMap contributors","boundarySourceUrl":"https://www.openstreetmap.org/copyright","geometryFile":"attractions/large-industrial-complex-W936582569.geojson"},"geometry":{"type":"Polygon","coordinates":[[[142.5669247,44.5429852],[142.5684482,44.5421479],[142.5685896,44.5420545],[142.569623,44.5413718],[142.5697464,44.5404082],[142.5704867,44.5396244],[142.5709641,44.5394944],[142.57164,44.5392688],[142.5723696,44.53855],[142.5732279,44.5379382],[142.5738153,44.537921],[142.5748774,44.5382231],[142.575143,44.538225],[142.5759879,44.5379038],[142.5811002,44.5370798],[142.581768,44.5367987],[142.5829804,44.5356669],[142.5843,44.5331125],[142.5846004,44.5306269],[142.5832057,44.5259688],[142.5867462,44.5243396],[142.5857592,44.522412],[142.5872719,44.520186],[142.5890314,44.5187249],[142.5911987,44.52001],[142.5922072,44.5206908],[142.5924539,44.5212722],[142.5935912,44.522106],[142.5935912,44.5224579],[142.5956511,44.5240183],[142.5957262,44.5245155],[142.5975287,44.5257088],[142.5982046,44.526053],[142.5982538,44.5264496],[142.5984192,44.5277816],[142.5998461,44.5296096],[142.600286,44.5306957],[142.6036656,44.5330513],[142.6037085,44.5335255],[142.6000714,44.5353916],[142.6002109,44.5371429],[142.5983441,44.537877],[142.5937199,44.5411577],[142.5934437,44.5409684],[142.5928429,44.5408747],[142.591601,44.5408441],[142.5901043,44.5417006],[142.5880015,44.542947],[142.5837421,44.5449886],[142.5818431,44.5450804],[142.579397,44.5449504],[142.5786137,44.544591],[142.5773907,44.5447898],[142.5743866,44.5442852],[142.5731635,44.5440175],[142.570889,44.5438531],[142.5691509,44.5437499],[142.5689954,44.5436084],[142.5685018,44.5435358],[142.5681961,44.5433255],[142.5669247,44.5429852]]]}}
