{"type":"Feature","id":"attraction-large-park-R7011065","properties":{"id":"attraction-large-park-R7011065","kind":"attraction","name":"府民の森 緑の文化園 むろいけ園地","shortName":"府民の森 緑の文化園 むろいけ園地","context":"日本","subtype":"large-park","subtypeLabel":"大型都市公園・広域公園","statusLabel":"","aliases":[],"osmType":"relation","osmId":7011065,"osmDate":null,"officialAreaKm2":null,"areaSourceLabel":"","areaSourceUrl":"","boundarySourceLabel":"© OpenStreetMap contributors","boundarySourceUrl":"https://www.openstreetmap.org/copyright","geometryFile":"attractions/large-park-R7011065.geojson"},"geometry":{"type":"Polygon","coordinates":[[[135.6717215,34.7328818],[135.671704,34.7329457],[135.6716169,34.7331298],[135.6715873,34.7332378],[135.6715364,34.7333656],[135.6714814,34.7334648],[135.6714546,34.7335728],[135.671417,34.7336587],[135.6713889,34.7337371],[135.6713567,34.7338307],[135.6713326,34.7338968],[135.6712816,34.7340082],[135.6712467,34.7340765],[135.6711716,34.7341801],[135.6711354,34.7342186],[135.6710362,34.7342969],[135.6709122,34.734422],[135.6707505,34.7345956],[135.6705682,34.7347432],[135.6704554,34.7348138],[135.6703106,34.7348491],[135.6702194,34.734805],[135.6701175,34.7347279],[135.6700156,34.7346177],[135.6699566,34.7345273],[135.6698922,34.7344193],[135.6698144,34.7342914],[135.6697286,34.7341283],[135.6696696,34.73406],[135.6696106,34.7339916],[135.6695381,34.7339145],[135.6694523,34.7338528],[135.6693719,34.7337911],[135.6692914,34.7337403],[135.6691868,34.7336742],[135.6690902,34.7336323],[135.668991,34.733597],[135.6688998,34.7335574],[135.668822,34.7335222],[135.6687174,34.7335001],[135.6685833,34.7334626],[135.6684545,34.7334251],[135.6683419,34.7333899],[135.6682453,34.7333479],[135.6681836,34.7333083],[135.6681005,34.7332576],[135.668012,34.7331981],[135.6679176,34.7331452],[135.6678452,34.7330791],[135.6677164,34.7329909],[135.6676038,34.7329071],[135.6675153,34.7328454],[135.6674348,34.7327925],[135.6673436,34.7327308],[135.6672336,34.7326316],[135.6671022,34.7325501],[135.6670057,34.7324509],[135.6669198,34.7323803],[135.6668394,34.7323164],[135.6667348,34.7322503],[135.6667084,34.7321819],[135.6667218,34.7320188],[135.6667272,34.7317212],[135.6666468,34.7315427],[135.6665233,34.7314325],[135.6662551,34.7312671],[135.6659467,34.731093],[135.6656275,34.7309453],[135.6654049,34.7308637],[135.6652493,34.7308329],[135.6652118,34.7308637],[135.6652359,34.7309783],[135.6653271,34.73119],[135.6653807,34.7312583],[135.6653861,34.7313399],[135.6653673,34.7313883],[135.6652793,34.7315047],[135.6651962,34.7316237],[135.6651425,34.7317229],[135.6650594,34.7318485],[135.6649011,34.7321042],[135.6647992,34.7322277],[135.6647241,34.7322894],[135.6646731,34.7323203],[135.6646329,34.7322916],[135.6646141,34.7322167],[135.6645846,34.7321307],[135.6645015,34.731908],[135.6644505,34.7317802],[135.6643808,34.7315928],[135.6643164,34.7314363],[135.664185,34.7310572],[135.6641313,34.73085],[135.6641045,34.7307486],[135.6640884,34.7306935],[135.6642815,34.7305436],[135.664362,34.7304642],[135.6644398,34.7303187],[135.6644398,34.7302195],[135.6643915,34.7301776],[135.6642654,34.7301269],[135.6641845,34.7300591],[135.6641362,34.7299996],[135.6640879,34.7298894],[135.6640585,34.7297374],[135.6640235,34.7296315],[135.6640047,34.7294948],[135.6639779,34.7294045],[135.6639592,34.7293163],[135.663943,34.7292017],[135.6639297,34.729065],[135.6638921,34.7288578],[135.6638921,34.7288136],[135.664045,34.7286726],[135.6642649,34.7285977],[135.6643723,34.7285844],[135.6644688,34.7286814],[135.6645975,34.7287674],[135.6647129,34.7288622],[135.6648014,34.7289349],[135.6649757,34.7289393],[135.6651367,34.7289459],[135.6652305,34.7289327],[135.6653137,34.728838],[135.665327,34.7288005],[135.6653674,34.7287454],[135.6653566,34.7286881],[135.665319,34.7286615],[135.6652439,34.7286197],[135.6651876,34.7285976],[135.6650401,34.7285469],[135.6649435,34.7284985],[135.6648899,34.728472],[135.6646834,34.7284257],[135.6645814,34.728397],[135.6645224,34.7282714],[135.6644581,34.7281546],[135.6644312,34.7280532],[135.6644607,34.7279451],[135.66456,34.7278129],[135.6646297,34.72776],[135.6646512,34.7276013],[135.6647129,34.7275858],[135.6646887,34.7274976],[135.6646485,34.7274359],[135.6645734,34.7273918],[135.6645734,34.7272794],[135.6647048,34.7271714],[135.6647987,34.7271449],[135.6649382,34.7270788],[135.6650321,34.7269642],[135.6649542,34.726995],[135.6648819,34.7270304],[135.6648201,34.7270545],[135.664737,34.7270853],[135.6646941,34.7270877],[135.664627,34.7271229],[135.664568,34.7271471],[135.6644232,34.7272221],[135.664324,34.7272683],[135.6642068,34.7273081],[135.6640807,34.727372],[135.6639949,34.7273786],[135.6639386,34.7273411],[135.6638688,34.7272794],[135.6637749,34.7272838],[135.6636998,34.7273081],[135.6635577,34.7273522],[135.663378,34.727383],[135.6631983,34.7273985],[135.6630159,34.7273764],[135.6628603,34.727361],[135.6627342,34.7273566],[135.662602,34.7273588],[135.6625027,34.7273345],[135.6624115,34.7273455],[135.6623579,34.7274205],[135.6622962,34.7274646],[135.6622238,34.7274646],[135.6621058,34.7274183],[135.6619904,34.7273742],[135.6619153,34.7273125],[135.6618456,34.7272816],[135.6618067,34.727232],[135.6617624,34.7272],[135.6617611,34.7271769],[135.6618161,34.7271339],[135.6617732,34.7270921],[135.6617276,34.7270666],[135.6616042,34.7269995],[135.6615251,34.7269675],[135.6614365,34.7269223],[135.6613856,34.7269124],[135.6613454,34.7268925],[135.661171,34.7266754],[135.661112,34.7266545],[135.6609081,34.7266027],[135.6607754,34.7266842],[135.660585,34.7268473],[135.6604414,34.726844],[135.660357,34.7266974],[135.6605098,34.7265233],[135.6606719,34.7262619],[135.6608049,34.7261331],[135.6608478,34.7259964],[135.6609926,34.7257782],[135.661049,34.7256327],[135.6611884,34.7255026],[135.6612555,34.7253483],[135.6613386,34.7252072],[135.6614138,34.7249779],[135.6614406,34.7249206],[135.6614942,34.7247928],[135.6615693,34.7245988],[135.6616605,34.7244312],[135.6617678,34.7242483],[135.6617919,34.7241226],[135.6618349,34.7239165],[135.661867,34.7238239],[135.6620065,34.7236475],[135.6620548,34.7235373],[135.6620548,34.7233697],[135.6620816,34.7232154],[135.6621353,34.7230302],[135.6622157,34.7228142],[135.6623659,34.7226334],[135.6624196,34.7225717],[135.6625376,34.7224042],[135.6625966,34.7222278],[135.6628112,34.7219897],[135.6629399,34.7219368],[135.6630311,34.7218762],[135.6630606,34.7218541],[135.6630874,34.7218144],[135.663133,34.7217902],[135.6632403,34.7218034],[135.6633181,34.7218166],[135.6633584,34.72181],[135.663412,34.721788],[135.6634925,34.721788],[135.6635273,34.7218166],[135.6635461,34.7218585],[135.6636132,34.721885],[135.6636856,34.7219423],[135.6637714,34.7219313],[135.6638707,34.7219643],[135.6639726,34.7219864],[135.6640933,34.722004],[135.6641537,34.7219801],[135.6642328,34.7219533],[135.664281,34.721971],[135.6642801,34.7220099],[135.6643481,34.7219798],[135.6644125,34.7219599],[135.6644768,34.7219423],[135.6645385,34.7219577],[135.6645358,34.7219952],[135.6645358,34.7220305],[135.664568,34.7220658],[135.664678,34.7220746],[135.6647585,34.7220768],[135.6648899,34.7220503],[135.6650213,34.7220525],[135.6650991,34.7220327],[135.6652037,34.7220062],[135.6652869,34.7219886],[135.6653888,34.7219379],[135.6654666,34.7218872],[135.6655444,34.7218255],[135.665657,34.7217814],[135.6657697,34.7217395],[135.6659065,34.7216932],[135.6660003,34.7216403],[135.6660808,34.7215918],[135.6661774,34.72153],[135.6662417,34.7215036],[135.6663249,34.7214529],[135.6664375,34.7213956],[135.6665046,34.7213515],[135.6665985,34.7213184],[135.6666655,34.7213228],[135.6667728,34.7213272],[135.6668318,34.7213162],[135.6669123,34.7213162],[135.6670035,34.7213162],[135.6670813,34.7213162],[135.667151,34.7213118],[135.6672744,34.7213096],[135.66732,34.7212919],[135.6674165,34.7212765],[135.6675855,34.7212611],[135.6676901,34.7213294],[135.6677357,34.7214595],[135.6678215,34.7215344],[135.6679235,34.7215499],[135.6679932,34.7216248],[135.6680549,34.7217152],[135.6681059,34.7217946],[135.6681836,34.7218585],[135.6682695,34.7219092],[135.6683151,34.7219776],[135.6684036,34.7221253],[135.6684572,34.722209],[135.6685967,34.7223612],[135.6686986,34.7224317],[135.6687603,34.722489],[135.6688006,34.7225419],[135.6689481,34.7225111],[135.66905,34.7224978],[135.6691439,34.7224493],[135.6692914,34.7224383],[135.6693772,34.7224339],[135.6695087,34.7224471],[135.6695945,34.7224736],[135.6697688,34.7225662],[135.6698922,34.7226103],[135.669978,34.7226213],[135.6700585,34.7225552],[135.6701765,34.722575],[135.670316,34.7226037],[135.6703911,34.7228021],[135.6704984,34.7228484],[135.6706271,34.7228836],[135.6707371,34.7229255],[135.6708766,34.7229454],[135.6710456,34.722963],[135.6711743,34.7229961],[135.6712119,34.7230468],[135.6713245,34.7230512],[135.6714533,34.7230732],[135.6716705,34.7231085],[135.6717644,34.7231702],[135.6718046,34.7232209],[135.6719307,34.7232584],[135.6720273,34.7232606],[135.6721426,34.723254],[135.6722606,34.7232716],[135.6724001,34.723265],[135.672502,34.7232694],[135.6726388,34.7232849],[135.6726898,34.7233378],[135.6726978,34.7233929],[135.6728266,34.7233775],[135.6729419,34.7233179],[135.6730089,34.723351],[135.6730948,34.7233378],[135.6732262,34.7232981],[135.6733764,34.7233047],[135.6734676,34.7233312],[135.6735722,34.7233422],[135.6736929,34.7233532],[135.6737868,34.7233708],[135.673878,34.7234216],[135.6739745,34.723437],[135.6740148,34.7234414],[135.674106,34.7234723],[135.6741811,34.7234921],[135.6742508,34.7235362],[135.6743259,34.7235582],[135.6744117,34.7235803],[135.6744493,34.72362],[135.6745163,34.7236486],[135.6745995,34.7236751],[135.6747041,34.7236067],[135.6748087,34.7236067],[135.6748865,34.7236618],[135.6749294,34.7236949],[135.6750126,34.7236376],[135.6750608,34.7236133],[135.6750957,34.7235979],[135.6750635,34.7235516],[135.6751225,34.7234877],[135.6752486,34.7235252],[135.6753746,34.7235604],[135.6755517,34.7236883],[135.6756616,34.723739],[135.6756107,34.7239154],[135.6755705,34.7239903],[135.675557,34.7240697],[135.6755061,34.7241468],[135.6754068,34.7242042],[135.6753559,34.7243386],[135.6753344,34.724418],[135.6752218,34.72444],[135.6751386,34.7244599],[135.6750286,34.7244863],[135.6749401,34.724504],[135.6748677,34.7245348],[135.6747577,34.7245767],[135.6746558,34.7246032],[135.6745941,34.7246451],[135.6745566,34.7246869],[135.6744707,34.7247663],[135.6743795,34.7248655],[135.6743098,34.7249912],[135.6742508,34.7250926],[135.6741891,34.7252182],[135.6741489,34.7253417],[135.6741033,34.7254255],[135.6740094,34.7256966],[135.6739558,34.725809],[135.6739209,34.7259082],[135.6738485,34.725981],[135.6737653,34.7260648],[135.6736661,34.7261375],[135.6735481,34.7262235],[135.6734193,34.7263491],[135.6733174,34.7264109],[135.6732047,34.7265012],[135.6730948,34.726585],[135.6730304,34.7266622],[135.6729124,34.7267217],[135.6730626,34.7269333],[135.6730224,34.7270171],[135.6729531,34.7271133],[135.6729553,34.7272375],[135.6729499,34.7273389],[135.6729902,34.7275638],[135.6730492,34.727685],[135.6730545,34.7277798],[135.673076,34.7278768],[135.6730626,34.728073],[135.6730492,34.7281347],[135.6729231,34.72817],[135.6727139,34.7281898],[135.6725878,34.7282163],[135.6723518,34.7283089],[135.6721882,34.7284323],[135.6720728,34.7285558],[135.6720004,34.7286792],[135.671979,34.7288886],[135.6720058,34.729001],[135.6720568,34.7292016],[135.6721131,34.7294],[135.672164,34.7295676],[135.6721587,34.7297946],[135.6721292,34.7299533],[135.672105,34.7300878],[135.6720755,34.7302068],[135.6720782,34.7303744],[135.6720353,34.7304758],[135.6720031,34.7305706],[135.6719307,34.7306499],[135.6718663,34.7307271],[135.6718556,34.7308307],[135.6718502,34.7310291],[135.6718502,34.7311591],[135.6717805,34.7312671],[135.6718046,34.7313796],[135.671818,34.7314721],[135.6718422,34.7317124],[135.6718502,34.7318601],[135.6718931,34.7320276],[135.6719119,34.7321996],[135.6719401,34.7323781],[135.6719588,34.7324586],[135.6719682,34.7325545],[135.6719655,34.7326614],[135.6719575,34.7327451],[135.6719186,34.7328752],[135.6717215,34.7328818]]]}}
