{"type":"Feature","id":"attraction-large-industrial-complex-W551847921","properties":{"id":"attraction-large-industrial-complex-W551847921","kind":"attraction","name":"YKK","shortName":"YKK","context":"日本","subtype":"industrial-complex","subtypeLabel":"工業地帯・大規模工場","statusLabel":"","aliases":[],"osmType":"way","osmId":551847921,"osmDate":null,"officialAreaKm2":null,"areaSourceLabel":"","areaSourceUrl":"","boundarySourceLabel":"© OpenStreetMap contributors","boundarySourceUrl":"https://www.openstreetmap.org/copyright","geometryFile":"attractions/large-industrial-complex-W551847921.geojson"},"geometry":{"type":"Polygon","coordinates":[[[137.4269902,36.9060316],[137.437102,36.9054343],[137.4367146,36.901295],[137.435301,36.9014095],[137.4352346,36.9013425],[137.4351264,36.9003432],[137.4329798,36.9004939],[137.4324807,36.9005581],[137.4324585,36.900313],[137.4323669,36.8993022],[137.4323623,36.8992511],[137.4322713,36.8982471],[137.4320613,36.8982751],[137.4316798,36.8984459],[137.4316203,36.8983395],[137.4312669,36.8983376],[137.4311092,36.8983367],[137.4310497,36.8975249],[137.4310847,36.897315],[137.4304407,36.8972422],[137.4287291,36.8969651],[137.4276196,36.8967636],[137.4274446,36.8968364],[137.4271156,36.9007831],[137.4270943,36.9017688],[137.4269902,36.9060316]]]}}
