{"type":"Feature","id":"attraction-large-park-W200927863","properties":{"id":"attraction-large-park-W200927863","kind":"attraction","name":"南公園","shortName":"南公園","context":"愛知県・岡崎市","subtype":"large-park","subtypeLabel":"大型都市公園・広域公園","statusLabel":"著名な公園","aliases":[],"osmType":"way","osmId":200927863,"osmDate":null,"officialAreaKm2":null,"areaSourceLabel":"","areaSourceUrl":"","boundarySourceLabel":"© OpenStreetMap contributors","boundarySourceUrl":"https://www.openstreetmap.org/copyright","geometryFile":"attractions/large-park-W200927863.geojson"},"geometry":{"type":"Polygon","coordinates":[[[137.1667214,34.9157758],[137.1665548,34.9168529],[137.1664916,34.9178826],[137.1663613,34.9180397],[137.1657625,34.9177944],[137.1655468,34.9178402],[137.1644618,34.9174897],[137.1633005,34.9171253],[137.163008,34.9169957],[137.1627754,34.916776],[137.1627029,34.9166118],[137.1625778,34.9160827],[137.1625883,34.9158138],[137.1625396,34.9156086],[137.1626631,34.9151119],[137.1628914,34.9148224],[137.1632803,34.9144226],[137.1637954,34.9143741],[137.1644724,34.9143213],[137.1644489,34.9140725],[137.1647427,34.9141796],[137.1649717,34.9143903],[137.1651063,34.9143645],[137.1650647,34.9137813],[137.1656751,34.9135751],[137.1662237,34.9134846],[137.1663225,34.9134282],[137.166696,34.913324],[137.1669191,34.9133822],[137.1668471,34.9141042],[137.1667478,34.9151488],[137.1673493,34.9151773],[137.1673012,34.9157789],[137.1667214,34.9157758]]]}}
