{"type":"Feature","id":"attraction-large-park-R16512136","properties":{"id":"attraction-large-park-R16512136","kind":"attraction","name":"海岸公園","shortName":"海岸公園","context":"日本","subtype":"large-park","subtypeLabel":"大型都市公園・広域公園","statusLabel":"","aliases":["Kaigan Park"],"osmType":"relation","osmId":16512136,"osmDate":null,"officialAreaKm2":null,"areaSourceLabel":"","areaSourceUrl":"","boundarySourceLabel":"© OpenStreetMap contributors","boundarySourceUrl":"https://www.openstreetmap.org/copyright","geometryFile":"attractions/large-park-R16512136.geojson"},"geometry":{"type":"MultiPolygon","coordinates":[[[[140.9821472,38.2267241],[140.9818275,38.2262465],[140.9815646,38.2260543],[140.9812918,38.2258703],[140.9812888,38.225782],[140.9814778,38.2256081],[140.9821794,38.2249626],[140.9822028,38.224941],[140.982223,38.2249225],[140.9828445,38.2243568],[140.983118,38.224099],[140.9834696,38.2237657],[140.9838781,38.2235506],[140.9844939,38.2233152],[140.9848018,38.2233827],[140.9849517,38.2233782],[140.985191,38.2232842],[140.9838772,38.221428],[140.9824737,38.2193604],[140.981304,38.2176432],[140.9798413,38.2153156],[140.9786398,38.2136898],[140.9778123,38.2124729],[140.9763532,38.2131221],[140.9779808,38.2158037],[140.9786592,38.2163888],[140.9788629,38.2168556],[140.9787467,38.2173521],[140.9783839,38.2176356],[140.9777323,38.217641],[140.9765771,38.2163929],[140.9758013,38.2153319],[140.9749023,38.2146776],[140.9741118,38.2133965],[140.9726217,38.2112466],[140.9717843,38.210574],[140.9714646,38.2101726],[140.9752484,38.2089554],[140.9749889,38.2085315],[140.9712542,38.2098431],[140.9698764,38.207517],[140.9696356,38.2074924],[140.9684511,38.2078871],[140.9681902,38.2076008],[140.9673834,38.2067196],[140.966927,38.2060676],[140.9660636,38.2045369],[140.9670645,38.2041432],[140.9669904,38.2039659],[140.9673289,38.2038594],[140.9664341,38.2024435],[140.9663802,38.2022002],[140.9664889,38.2019442],[140.9659827,38.2010041],[140.9656695,38.2007938],[140.9652911,38.2002819],[140.9653114,38.1999872],[140.9650515,38.1994132],[140.9648104,38.1992007],[140.9645412,38.1987941],[140.9645552,38.198699],[140.9643968,38.1980989],[140.9640935,38.1975926],[140.963868,38.1971085],[140.9629739,38.1953183],[140.9623403,38.1942914],[140.9618886,38.1944281],[140.961437,38.1936545],[140.9603797,38.1935194],[140.9596411,38.1933943],[140.959399,38.1931202],[140.9594086,38.1930055],[140.9595796,38.1929081],[140.9594802,38.1926181],[140.959579,38.1922948],[140.9591404,38.1915279],[140.9592556,38.1914964],[140.9590383,38.1911345],[140.9588269,38.1911921],[140.958581,38.1908869],[140.9582232,38.1904202],[140.9581781,38.1903072],[140.9581649,38.1902066],[140.9582124,38.1901244],[140.9578007,38.1897012],[140.9575421,38.189195],[140.9580134,38.1889631],[140.9579621,38.1886198],[140.9579107,38.1883155],[140.957044,38.1865681],[140.9569054,38.1863599],[140.9563097,38.1852758],[140.9559095,38.1843548],[140.9553695,38.1835398],[140.9553483,38.1834825],[140.9563333,38.1829395],[140.9561773,38.1828543],[140.9560058,38.182568],[140.9559004,38.1825146],[140.9557173,38.1821628],[140.9562718,38.1818837],[140.9562935,38.1818216],[140.956374,38.1818139],[140.9572716,38.1820776],[140.9574447,38.1822793],[140.957449,38.1824654],[140.9574629,38.1825941],[140.9577745,38.1832905],[140.9582809,38.1831356],[140.958201,38.182946],[140.9580895,38.1828804],[140.9579822,38.1827423],[140.957825,38.1824286],[140.9578814,38.1823776],[140.9579164,38.1822553],[140.957926,38.1821606],[140.9578006,38.1819734],[140.9575472,38.1818724],[140.9560994,38.1815803],[140.9557542,38.1815644],[140.9552979,38.1817451],[140.9550747,38.1813626],[140.9615421,38.1788784],[140.9656144,38.1868722],[140.9721083,38.1974093],[140.9756132,38.2028123],[140.97889,38.2073975],[140.9831486,38.2133757],[140.9840156,38.2142513],[140.9829956,38.2146419],[140.9879523,38.2218504],[140.9889752,38.2214299],[140.9916217,38.2253587],[140.9938044,38.2283612],[140.9964744,38.2314211],[140.9992256,38.2351252],[141.0033207,38.2398518],[141.009693,38.247221],[141.0096588,38.2472356],[141.0099872,38.2476335],[141.010087,38.2477544],[141.0131282,38.2514392],[141.0115154,38.2515742],[141.0100895,38.2516512],[141.0092184,38.2517225],[141.0086638,38.2509738],[141.0048395,38.2466851],[141.002886,38.2460068],[141.0012022,38.2437792],[141.0008032,38.2431608],[141.0000538,38.2424476],[141.0004579,38.243197],[141.0007762,38.2438791],[141.0015654,38.2457228],[141.000659,38.2459462],[141.0002008,38.2462196],[140.9993758,38.2465533],[140.9989593,38.2463129],[140.9981589,38.2456079],[140.9978298,38.2451303],[140.9971735,38.2441772],[140.996639,38.2436379],[140.9961876,38.2428816],[140.9960827,38.2427157],[140.9959479,38.2425545],[140.9956234,38.2425378],[140.9954038,38.2421217],[140.995289,38.2421446],[140.994934,38.2423428],[140.9946466,38.2423998],[140.9945094,38.2423514],[140.9943789,38.2421073],[140.9943129,38.2420316],[140.994178,38.2420444],[140.9939121,38.242095],[140.9937871,38.2421161],[140.9937434,38.2420824],[140.9937373,38.2420318],[140.9939218,38.2415645],[140.9934547,38.2411449],[140.9935412,38.2407775],[140.9926849,38.239796],[140.9924728,38.2393042],[140.9923002,38.2389039],[140.9916259,38.2372011],[140.9911103,38.2363969],[140.9905945,38.2358648],[140.9903287,38.235488],[140.9900792,38.2350091],[140.9897846,38.2341653],[140.9888322,38.2328809],[140.9882439,38.2320874],[140.9844321,38.2273857],[140.9831694,38.2279592],[140.9828981,38.2275036],[140.9821472,38.2267241]]],[[[140.9828513,38.2239665],[140.9827185,38.2238509],[140.9824901,38.2236567],[140.9822915,38.223596],[140.9822003,38.2235307],[140.9821397,38.2233242],[140.9822032,38.2231179],[140.9823562,38.2229608],[140.9835635,38.2229788],[140.9837315,38.2230046],[140.9838712,38.2230408],[140.9838849,38.2230463],[140.9839158,38.2230586],[140.9839689,38.2230783],[140.9841332,38.2231438],[140.984124,38.2231587],[140.984077,38.2232345],[140.9840115,38.2232614],[140.9838105,38.2233438],[140.9837935,38.2233507],[140.9837556,38.2233663],[140.9837081,38.2233857],[140.9834403,38.2235192],[140.9834144,38.2235321],[140.9833145,38.223623],[140.9832044,38.2237233],[140.9831736,38.2237512],[140.9831031,38.2238154],[140.9829266,38.2239761],[140.9828757,38.2239505],[140.9828513,38.2239665]]],[[[140.9839045,38.2229608],[140.983914,38.2229456],[140.9839504,38.2228868],[140.9839708,38.2228872],[140.9842345,38.2228866],[140.9842517,38.2228592],[140.984533,38.2229649],[140.9845505,38.2229712],[140.9844828,38.2230757],[140.9843123,38.2231363],[140.984299,38.2231303],[140.9841813,38.2230797],[140.9839599,38.2229846],[140.9839045,38.2229608]]]]}}
