{"type":"Feature","id":"attraction-large-park-R14979947","properties":{"id":"attraction-large-park-R14979947","kind":"attraction","name":"木曽三川公園センター","shortName":"木曽三川公園センター","context":"日本","subtype":"large-park","subtypeLabel":"大型都市公園・広域公園","statusLabel":"著名な公園","aliases":[],"osmType":"relation","osmId":14979947,"osmDate":null,"officialAreaKm2":null,"areaSourceLabel":"","areaSourceUrl":"","boundarySourceLabel":"© OpenStreetMap contributors","boundarySourceUrl":"https://www.openstreetmap.org/copyright","geometryFile":"attractions/large-park-R14979947.geojson"},"geometry":{"type":"Polygon","coordinates":[[[136.6659196,35.148728],[136.6662202,35.1488159],[136.666513,35.1488714],[136.6668981,35.1489207],[136.667107,35.1489516],[136.6672706,35.1489928],[136.6682621,35.1491142],[136.6693818,35.1492507],[136.6691589,35.1482444],[136.6691754,35.148236],[136.669194,35.1482266],[136.6690599,35.1477972],[136.669143,35.1476737],[136.6691581,35.1476161],[136.6691128,35.1475111],[136.6689391,35.1472066],[136.6689014,35.1470913],[136.6688007,35.1470008],[136.6687227,35.1469],[136.668695,35.146795],[136.6686195,35.1463773],[136.6685893,35.1462106],[136.6685365,35.1456591],[136.6684559,35.1453977],[136.6684268,35.1452798],[136.6684157,35.1452351],[136.6683326,35.1450335],[136.6682898,35.1448915],[136.6682168,35.1448318],[136.6681262,35.1448297],[136.6678167,35.1449182],[136.667535,35.1450109],[136.6671861,35.1452176],[136.6670611,35.1453628],[136.6668957,35.1456565],[136.6667741,35.1459935],[136.6667175,35.1461698],[136.6664632,35.1466383],[136.666318,35.1467791],[136.6661703,35.1468829],[136.6660051,35.1469576],[136.6658331,35.1471132],[136.6656478,35.1473136],[136.6655181,35.1474811],[136.6649886,35.1482336],[136.6650685,35.148269],[136.6652996,35.1484177],[136.66562,35.1486008],[136.6659196,35.148728]]]}}
