{"type":"Feature","id":"attraction-large-park-W494435606","properties":{"id":"attraction-large-park-W494435606","kind":"attraction","name":"八菅山いこいの森","shortName":"八菅山いこいの森","context":"日本","subtype":"large-park","subtypeLabel":"大型都市公園・広域公園","statusLabel":"","aliases":[],"osmType":"way","osmId":494435606,"osmDate":null,"officialAreaKm2":null,"areaSourceLabel":"","areaSourceUrl":"","boundarySourceLabel":"© OpenStreetMap contributors","boundarySourceUrl":"https://www.openstreetmap.org/copyright","geometryFile":"attractions/large-park-W494435606.geojson"},"geometry":{"type":"Polygon","coordinates":[[[139.3247522,35.5114072],[139.3242465,35.5110613],[139.3241475,35.5105088],[139.3238816,35.5103894],[139.3225764,35.5105789],[139.3223511,35.5105396],[139.3217596,35.510222],[139.3214743,35.5102385],[139.3212608,35.5104153],[139.321038,35.5104093],[139.3206164,35.5102287],[139.3198746,35.5103857],[139.3192583,35.510778],[139.3189172,35.5115201],[139.3189889,35.5117925],[139.3189041,35.5120014],[139.3183736,35.5124107],[139.3177934,35.513649],[139.3178338,35.5137452],[139.3180556,35.5138562],[139.3183475,35.5138839],[139.3186842,35.5134998],[139.3189357,35.5133734],[139.319765,35.5136493],[139.3198177,35.5138392],[139.3195469,35.5143332],[139.3194692,35.5147979],[139.3191467,35.5154769],[139.3191115,35.5159429],[139.318863,35.5164016],[139.318267,35.5167485],[139.3179396,35.5171098],[139.3173622,35.5174005],[139.3160352,35.5176276],[139.3157746,35.5177729],[139.3153987,35.5177806],[139.3149965,35.5179677],[139.3150773,35.518449],[139.3155418,35.5190104],[139.3157956,35.5190537],[139.3167915,35.5204575],[139.3172549,35.5211595],[139.3169284,35.5217724],[139.3169871,35.5218063],[139.3174042,35.5217602],[139.3177491,35.5217127],[139.3182378,35.5215869],[139.3189412,35.5212787],[139.3193215,35.5211569],[139.3201287,35.520994],[139.3206012,35.5208951],[139.3206681,35.5208727],[139.320635,35.5206834],[139.3208747,35.5204731],[139.3212312,35.5201639],[139.321586,35.5200668],[139.3219257,35.5198661],[139.3219904,35.5196247],[139.3225011,35.5186289],[139.3231518,35.5180836],[139.3234335,35.5178919],[139.323548,35.5177546],[139.3239771,35.5174026],[139.3243902,35.5171546],[139.324537,35.5169653],[139.3249762,35.5154997],[139.3245931,35.5149625],[139.3240724,35.5147707],[139.324064,35.5140926],[139.3242606,35.5137465],[139.3248227,35.5136988],[139.3248845,35.513175],[139.3251361,35.513153],[139.325185,35.5127078],[139.3252854,35.5126645],[139.3253444,35.5124518],[139.3250634,35.5117532],[139.3249429,35.5117704],[139.3247522,35.5114072]]]}}
