{"type":"Feature","id":"attraction-large-industrial-complex-W806438309","properties":{"id":"attraction-large-industrial-complex-W806438309","kind":"attraction","name":"ESR川西ディストリビューションセンター","shortName":"ESR川西ディストリビューションセンター","context":"日本","subtype":"industrial-complex","subtypeLabel":"工業地帯・大規模工場","statusLabel":"","aliases":[],"osmType":"way","osmId":806438309,"osmDate":null,"officialAreaKm2":null,"areaSourceLabel":"","areaSourceUrl":"","boundarySourceLabel":"© OpenStreetMap contributors","boundarySourceUrl":"https://www.openstreetmap.org/copyright","geometryFile":"attractions/large-industrial-complex-W806438309.geojson"},"geometry":{"type":"Polygon","coordinates":[[[135.4243684,34.8772749],[135.4256304,34.8789187],[135.4258983,34.8791361],[135.4261946,34.8792434],[135.4264949,34.8792049],[135.4268366,34.8789999],[135.4270989,34.8786524],[135.4273725,34.8787844],[135.4293787,34.8790793],[135.4306785,34.8789663],[135.4310846,34.8787492],[135.4315245,34.8787228],[135.4318913,34.8786528],[135.4320595,34.878387],[135.4320786,34.8779191],[135.4334772,34.8775082],[135.4338929,34.8766778],[135.4336958,34.8758822],[135.4326564,34.8759106],[135.4324579,34.8757346],[135.4307306,34.8721214],[135.4311383,34.8719277],[135.4311007,34.8717913],[135.4306555,34.8713027],[135.4302639,34.8707306],[135.4305723,34.8703279],[135.4306099,34.8697975],[135.4304731,34.8695819],[135.4295504,34.869386],[135.4290783,34.8695863],[135.4286331,34.8696281],[135.4281342,34.8697997],[135.4279652,34.8700858],[135.4283327,34.8703807],[135.426946,34.8703719],[135.4268977,34.8702222],[135.4262057,34.8699736],[135.4260474,34.8697887],[135.4258999,34.8706338],[135.4251382,34.8707108],[135.42465,34.8713974],[135.4240277,34.8720289],[135.4243335,34.8721016],[135.4252723,34.8716592],[135.425562,34.8716328],[135.4257524,34.8719695],[135.4256424,34.8722754],[135.4244542,34.8730764],[135.4241431,34.8743835],[135.4239737,34.8746696],[135.4237493,34.8750007],[135.4236563,34.8754976],[135.4232843,34.8758798],[135.4244303,34.8765251],[135.4242787,34.8767545],[135.4245654,34.8769211],[135.4243684,34.8772749]]]}}
