{"type":"Feature","id":"attraction-large-park-W577639516","properties":{"id":"attraction-large-park-W577639516","kind":"attraction","name":"佐賀県立森林公園","shortName":"佐賀県立森林公園","context":"日本","subtype":"large-park","subtypeLabel":"大型都市公園・広域公園","statusLabel":"著名な公園","aliases":["Saga Prefectural Shinrin Park"],"osmType":"way","osmId":577639516,"osmDate":null,"officialAreaKm2":null,"areaSourceLabel":"","areaSourceUrl":"","boundarySourceLabel":"© OpenStreetMap contributors","boundarySourceUrl":"https://www.openstreetmap.org/copyright","geometryFile":"attractions/large-park-W577639516.geojson"},"geometry":{"type":"Polygon","coordinates":[[[130.2493847,33.2352853],[130.24942,33.2352948],[130.2494879,33.2354049],[130.2495983,33.2356657],[130.249872,33.2365571],[130.2499306,33.2367262],[130.2501692,33.2374144],[130.2502761,33.2376769],[130.2504267,33.2378586],[130.2506424,33.2380131],[130.2520829,33.2387267],[130.2522506,33.2388098],[130.2524281,33.2388283],[130.2528843,33.239052],[130.2530776,33.2391722],[130.2532202,33.2397761],[130.2532231,33.2397884],[130.2531958,33.2398814],[130.253153,33.2400917],[130.2531062,33.2402177],[130.2530419,33.2404006],[130.2530001,33.2407859],[130.252992,33.2408497],[130.2528392,33.2408958],[130.2526997,33.2410916],[130.2526233,33.2412027],[130.2525602,33.2413323],[130.2524183,33.241476],[130.2521729,33.241674],[130.252171,33.2417089],[130.2520574,33.2417938],[130.2519898,33.2418562],[130.2518684,33.2418349],[130.2515869,33.2419552],[130.2513811,33.242072],[130.2509016,33.2422225],[130.2506378,33.242379],[130.2506623,33.2424684],[130.2505481,33.2424915],[130.2505154,33.2424894],[130.2504997,33.2424779],[130.2503596,33.2424909],[130.2500356,33.2425171],[130.2496017,33.242631],[130.2489273,33.2428128],[130.2488941,33.2428098],[130.2486704,33.2428687],[130.24864,33.2428889],[130.2485766,33.2429312],[130.248384,33.243],[130.2477328,33.2430754],[130.247269,33.2431644],[130.2467497,33.2433082],[130.2467449,33.2433091],[130.2464239,33.2433706],[130.2459188,33.243442],[130.2454588,33.2434942],[130.245408,33.2435031],[130.2453224,33.2435182],[130.245189,33.2435417],[130.2450111,33.2434783],[130.244911,33.2436794],[130.2448313,33.2436698],[130.2448175,33.2433991],[130.2448189,33.2432025],[130.2448299,33.2431004],[130.2448367,33.2430196],[130.244855,33.2429035],[130.2449129,33.2425986],[130.2450003,33.2423577],[130.2450582,33.2422316],[130.245077,33.2421907],[130.2450995,33.2421419],[130.2451558,33.2420195],[130.2455332,33.2412355],[130.2455643,33.2411773],[130.2456049,33.2410991],[130.2456241,33.2410621],[130.2459907,33.2403791],[130.2464091,33.2397589],[130.2468291,33.2392131],[130.2468758,33.2391525],[130.2469598,33.2390434],[130.2473218,33.2385731],[130.2473256,33.2385388],[130.2473305,33.238495],[130.2474179,33.2383849],[130.2475857,33.2381733],[130.2478178,33.2378806],[130.2487325,33.2365262],[130.2489296,33.2361709],[130.2491147,33.2358592],[130.2492118,33.2356957],[130.2493629,33.2353304],[130.2493847,33.2352853]]]}}
