{"type":"Feature","id":"attraction-large-airport-W57009243","properties":{"id":"attraction-large-airport-W57009243","kind":"attraction","name":"神津島空港","shortName":"神津島空港","context":"日本","subtype":"airport","subtypeLabel":"空港・飛行場","statusLabel":"","aliases":["Kozushima Airport","東京都"],"osmType":"way","osmId":57009243,"osmDate":null,"officialAreaKm2":null,"areaSourceLabel":"","areaSourceUrl":"","boundarySourceLabel":"© OpenStreetMap contributors","boundarySourceUrl":"https://www.openstreetmap.org/copyright","geometryFile":"attractions/large-airport-W57009243.geojson"},"geometry":{"type":"Polygon","coordinates":[[[139.1371546,34.1874928],[139.137563,34.1873706],[139.1377852,34.1877524],[139.1382,34.1875871],[139.1387826,34.1875219],[139.1390728,34.1877874],[139.139291,34.18826],[139.139376,34.188578],[139.1395261,34.188737],[139.1398025,34.188865],[139.137841,34.1893007],[139.137718,34.1889269],[139.136846,34.189411],[139.136558,34.18964],[139.136202,34.190033],[139.136028,34.190197],[139.136063,34.190698],[139.135894,34.190897],[139.135721,34.191072],[139.135466,34.191321],[139.135007,34.191448],[139.134598,34.191448],[139.134126,34.191427],[139.133423,34.191342],[139.1332664,34.1909403],[139.1333904,34.1905618],[139.1330771,34.1906175],[139.1328769,34.1905183],[139.1322997,34.1904844],[139.1318568,34.1909156],[139.1313981,34.190826],[139.1308433,34.1909781],[139.1308752,34.1912257],[139.1311509,34.1914296],[139.1309825,34.1915649],[139.130758,34.1916074],[139.1306176,34.1917311],[139.1301312,34.1919167],[139.1300364,34.1919647],[139.1298748,34.1919713],[139.1295119,34.1920425],[139.1292538,34.1920769],[139.1290244,34.1918456],[139.1286953,34.1917525],[139.1284036,34.1917059],[139.1281627,34.1915958],[139.1279745,34.1916375],[139.127833,34.1915863],[139.1270641,34.191507],[139.1268843,34.1913531],[139.1265641,34.1912611],[139.126299,34.1911295],[139.1259251,34.1913345],[139.1257182,34.1910775],[139.1264754,34.1906685],[139.126943,34.1898429],[139.1273129,34.1897915],[139.1277704,34.1895244],[139.1284452,34.1892693],[139.1293216,34.1894699],[139.130418,34.1895126],[139.1309278,34.1894909],[139.1315255,34.1890645],[139.1317992,34.1889181],[139.1320553,34.1888811],[139.1321253,34.1890386],[139.1326498,34.1891918],[139.1339799,34.188899],[139.133833,34.188401],[139.1345935,34.1882362],[139.1349937,34.1882074],[139.1355996,34.188109],[139.1355455,34.1879188],[139.1359282,34.1878183],[139.1360699,34.1878969],[139.1363176,34.187869],[139.1363852,34.188064],[139.1370693,34.1879099],[139.1371546,34.1874928]]]}}
