{"type":"Feature","id":"attraction-large-industrial-complex-W604385821","properties":{"id":"attraction-large-industrial-complex-W604385821","kind":"attraction","name":"日本製紙 秋田工場","shortName":"日本製紙 秋田工場","context":"日本","subtype":"industrial-complex","subtypeLabel":"工業地帯・大規模工場","statusLabel":"","aliases":[],"osmType":"way","osmId":604385821,"osmDate":null,"officialAreaKm2":null,"areaSourceLabel":"","areaSourceUrl":"","boundarySourceLabel":"© OpenStreetMap contributors","boundarySourceUrl":"https://www.openstreetmap.org/copyright","geometryFile":"attractions/large-industrial-complex-W604385821.geojson"},"geometry":{"type":"Polygon","coordinates":[[[140.0570021,39.7398922],[140.0587993,39.7401584],[140.0586845,39.7406167],[140.0602256,39.740845],[140.0602395,39.7407894],[140.0617027,39.7410061],[140.0614968,39.741828],[140.0613761,39.7423096],[140.0639327,39.7427683],[140.0638442,39.7431194],[140.0637316,39.7434561],[140.0636109,39.7437441],[140.0634258,39.7440032],[140.062935,39.7445613],[140.0625273,39.7450287],[140.0612817,39.7463376],[140.0608991,39.746826],[140.0604253,39.7473639],[140.0597298,39.7481325],[140.0593919,39.7484634],[140.0591116,39.7485998],[140.0588957,39.7486248],[140.0584746,39.7486562],[140.0572163,39.7486638],[140.0559451,39.749178],[140.0544615,39.7488853],[140.0550797,39.7463168],[140.0555174,39.7448772],[140.0551934,39.7448235],[140.0550924,39.7447491],[140.0552982,39.7438084],[140.0560907,39.7409412],[140.0567201,39.7409998],[140.0570021,39.7398922]]]}}
