{"type":"Feature","id":"attraction-large-park-W232874102","properties":{"id":"attraction-large-park-W232874102","kind":"attraction","name":"市民四季の森","shortName":"市民四季の森","context":"愛知県・小牧市","subtype":"large-park","subtypeLabel":"大型都市公園・広域公園","statusLabel":"著名な公園","aliases":[],"osmType":"way","osmId":232874102,"osmDate":null,"officialAreaKm2":null,"areaSourceLabel":"","areaSourceUrl":"","boundarySourceLabel":"© OpenStreetMap contributors","boundarySourceUrl":"https://www.openstreetmap.org/copyright","geometryFile":"attractions/large-park-W232874102.geojson"},"geometry":{"type":"Polygon","coordinates":[[[137.0046941,35.3085869],[137.0044403,35.3087396],[137.0043287,35.3088074],[137.0041157,35.3088818],[137.0040031,35.308895],[137.0038569,35.3088797],[137.0037683,35.308876],[137.003637,35.3089092],[137.0033714,35.3090646],[137.0033068,35.3091312],[137.0032507,35.3092178],[137.0032279,35.3093043],[137.0032287,35.309483],[137.0032507,35.3099762],[137.0033357,35.3104729],[137.0033001,35.3105258],[137.003299,35.3106187],[137.0031649,35.3110192],[137.0023956,35.3115233],[137.0025305,35.3117092],[137.0017835,35.3121902],[137.0012949,35.3124522],[137.0010406,35.3125272],[137.0007927,35.3126732],[137.0007638,35.3130707],[137.0009799,35.3133299],[137.0014818,35.3133612],[137.0015939,35.3133837],[137.0018098,35.3134023],[137.0020224,35.3134847],[137.0026112,35.3135805],[137.0033153,35.3134888],[137.0034575,35.3134951],[137.0036654,35.3135192],[137.0041959,35.3135996],[137.0045083,35.313676],[137.0048656,35.3137683],[137.0052122,35.3138597],[137.0053382,35.3139077],[137.0055115,35.3139779],[137.0056274,35.3140175],[137.0058165,35.3140357],[137.005894,35.3140068],[137.0063395,35.3136857],[137.0067108,35.3135406],[137.0072464,35.3134575],[137.0075911,35.3135306],[137.0078681,35.3131745],[137.0081059,35.3128968],[137.008107,35.3128348],[137.008133,35.3126963],[137.0081779,35.3125978],[137.0083139,35.3123704],[137.0084541,35.3121726],[137.0085581,35.3120829],[137.0086839,35.3120194],[137.0087875,35.3119921],[137.0088851,35.311985],[137.0090487,35.3120042],[137.0091215,35.3117324],[137.0091596,35.3114988],[137.0091762,35.3112628],[137.0091787,35.3111864],[137.009165,35.3106581],[137.0091272,35.3101763],[137.0091113,35.3101601],[137.0085253,35.3099927],[137.0080867,35.3099236],[137.007209,35.3096671],[137.0070957,35.3096479],[137.0066672,35.3095965],[137.0065673,35.3095735],[137.0062601,35.3094694],[137.0061857,35.3094378],[137.0058136,35.3091992],[137.0054381,35.3089803],[137.0051315,35.3088261],[137.0046941,35.3085869]]]}}
