{"type":"Feature","id":"attraction-large-park-W43061149","properties":{"id":"attraction-large-park-W43061149","kind":"attraction","name":"朝宮公園","shortName":"朝宮公園","context":"日本","subtype":"large-park","subtypeLabel":"大型都市公園・広域公園","statusLabel":"著名な公園","aliases":[],"osmType":"way","osmId":43061149,"osmDate":null,"officialAreaKm2":null,"areaSourceLabel":"","areaSourceUrl":"","boundarySourceLabel":"© OpenStreetMap contributors","boundarySourceUrl":"https://www.openstreetmap.org/copyright","geometryFile":"attractions/large-park-W43061149.geojson"},"geometry":{"type":"Polygon","coordinates":[[[136.9590458,35.252605],[136.9592472,35.2526842],[136.9593255,35.2527314],[136.9594142,35.2528988],[136.9594797,35.2530019],[136.9602844,35.2538277],[136.9613261,35.2548623],[136.9618634,35.2554301],[136.9605397,35.2567943],[136.9592089,35.2581657],[136.9591672,35.2582087],[136.9591292,35.2582099],[136.9574614,35.2571744],[136.9572347,35.2570473],[136.9572318,35.2570212],[136.9577605,35.2562786],[136.9575457,35.2561722],[136.9575392,35.2561493],[136.9576947,35.2559139],[136.9577891,35.2556985],[136.9578503,35.2554791],[136.9581065,35.2539273],[136.9583283,35.2525631],[136.9583532,35.2525474],[136.9590458,35.252605]]]}}
