{"type":"Feature","id":"attraction-large-park-W123421352","properties":{"id":"attraction-large-park-W123421352","kind":"attraction","name":"岸根公園","shortName":"岸根公園","context":"日本","subtype":"large-park","subtypeLabel":"大型都市公園・広域公園","statusLabel":"著名な公園","aliases":["Kishine park"],"osmType":"way","osmId":123421352,"osmDate":null,"officialAreaKm2":null,"areaSourceLabel":"","areaSourceUrl":"","boundarySourceLabel":"© OpenStreetMap contributors","boundarySourceUrl":"https://www.openstreetmap.org/copyright","geometryFile":"attractions/large-park-W123421352.geojson"},"geometry":{"type":"Polygon","coordinates":[[[139.6191102,35.4951057],[139.6162098,35.4938856],[139.6154958,35.4935772],[139.61497,35.4932738],[139.6140879,35.4927674],[139.6133195,35.4923967],[139.6118266,35.4944289],[139.6116695,35.4945602],[139.6105115,35.4961717],[139.6107438,35.4962779],[139.6110068,35.4963979],[139.6110654,35.4964246],[139.6120045,35.495759],[139.6125298,35.4950175],[139.6128866,35.4951779],[139.6130799,35.4952808],[139.6132412,35.4952236],[139.6133666,35.4952369],[139.6145086,35.4953576],[139.6151103,35.4954221],[139.6151144,35.4954223],[139.6157352,35.4954593],[139.6159916,35.4955233],[139.6165376,35.4959341],[139.6166461,35.4959718],[139.6168672,35.4960048],[139.616963,35.4960384],[139.6170721,35.4961071],[139.6175053,35.4964676],[139.6179065,35.496209],[139.6186283,35.4955474],[139.6191102,35.4951057]]]}}
