{"type":"Feature","id":"attraction-large-park-R20731933","properties":{"id":"attraction-large-park-R20731933","kind":"attraction","name":"石川河川公園","shortName":"石川河川公園","context":"日本","subtype":"large-park","subtypeLabel":"大型都市公園・広域公園","statusLabel":"著名な公園","aliases":[],"osmType":"relation","osmId":20731933,"osmDate":null,"officialAreaKm2":null,"areaSourceLabel":"","areaSourceUrl":"","boundarySourceLabel":"© OpenStreetMap contributors","boundarySourceUrl":"https://www.openstreetmap.org/copyright","geometryFile":"attractions/large-park-R20731933.geojson"},"geometry":{"type":"MultiPolygon","coordinates":[[[[135.6205079,34.5565261],[135.6206884,34.5557957],[135.6177433,34.5524077],[135.6168774,34.5507436],[135.6167148,34.5500906],[135.6167229,34.5494678],[135.6168937,34.5488852],[135.6161741,34.5490492],[135.6162757,34.5503384],[135.6167676,34.5514668],[135.6174181,34.552622],[135.6178612,34.5532716],[135.6182326,34.5537867],[135.6198553,34.5555414],[135.6205079,34.5565261]]],[[[135.6213955,34.5462956],[135.6212211,34.5464834],[135.6210602,34.5466579],[135.6209154,34.5468192],[135.6208108,34.5469142],[135.6206793,34.5470246],[135.6205586,34.5471285],[135.6204996,34.5470865],[135.6203601,34.5470335],[135.6202314,34.5469893],[135.6200088,34.546934],[135.6197593,34.5468722],[135.6194857,34.546839],[135.6192578,34.5467993],[135.6190244,34.5467507],[135.6188823,34.546722],[135.6187481,34.5466667],[135.6185738,34.5465916],[135.6184155,34.5465055],[135.6182519,34.5463928],[135.6181178,34.5462956],[135.6179998,34.5461829],[135.6178952,34.5461056],[135.6179462,34.5459509],[135.6180347,34.5457786],[135.618091,34.5456416],[135.6181527,34.5454693],[135.618201,34.5453058],[135.6182519,34.5451202],[135.6182761,34.5449678],[135.6183378,34.5448176],[135.6189312,34.5449381],[135.6188498,34.5452191],[135.619378,34.5453162],[135.6194938,34.5449479],[135.6199632,34.5448794],[135.6201751,34.5450959],[135.6204272,34.5453566],[135.6207088,34.5456284],[135.6213955,34.5462956]]],[[[135.6214471,34.558938],[135.6221604,34.5585425],[135.6222843,34.5591675],[135.6222907,34.5598532],[135.6222872,34.5608215],[135.622354,34.5612503],[135.6224088,34.5616337],[135.6224837,34.5620325],[135.6225434,34.5624335],[135.6225965,34.5627484],[135.6226024,34.5628815],[135.6226116,34.5629293],[135.6226158,34.5630206],[135.6226798,34.5633845],[135.6227068,34.5634851],[135.6227262,34.5635879],[135.6227533,34.5636885],[135.6227621,34.5637675],[135.6227563,34.5637867],[135.6227727,34.563837],[135.6227979,34.5643521],[135.6228086,34.5649286],[135.6228057,34.5651239],[135.6227912,34.5654033],[135.6227553,34.5657316],[135.6227272,34.5659416],[135.6226622,34.5663011],[135.6226021,34.5665569],[135.6225827,34.5666783],[135.6225489,34.5669652],[135.6225376,34.5670174],[135.6225013,34.5673755],[135.6224855,34.5676776],[135.6224877,34.5678772],[135.6225172,34.5682331],[135.622601,34.5686918],[135.6227414,34.5692644],[135.622909,34.5696511],[135.6222137,34.56986],[135.6222114,34.569403],[135.6221888,34.568996],[135.6222318,34.5687629],[135.6221888,34.5680896],[135.6221695,34.5675484],[135.6221533,34.5671324],[135.6220961,34.566249],[135.6220388,34.5653565],[135.6220195,34.5650729],[135.6219605,34.5642166],[135.6219302,34.5635283],[135.6218865,34.5626337],[135.6218688,34.5622268],[135.6218647,34.5618699],[135.62182,34.5608009],[135.6217726,34.5603182],[135.6216704,34.5597788],[135.6215325,34.5592475],[135.6214471,34.558938]]],[[[135.6183927,34.543647],[135.6182767,34.5442332],[135.6181959,34.5446929],[135.6181554,34.5448217],[135.6179317,34.5455411],[135.6175407,34.546769],[135.6170862,34.548223],[135.616946,34.5487608],[135.6161821,34.5488798],[135.6162104,34.5485897],[135.6164616,34.5475567],[135.6166544,34.5469701],[135.6166358,34.5469241],[135.6176224,34.5444144],[135.6179508,34.5436253],[135.6179691,34.543601],[135.6183927,34.543647]]],[[[135.6208623,34.5558775],[135.6207088,34.5567152],[135.6207263,34.5568886],[135.6209733,34.5575191],[135.6211926,34.5581512],[135.6213606,34.5586593],[135.6220663,34.5582706],[135.6219026,34.5577866],[135.621812,34.5575883],[135.6217331,34.5573151],[135.6217111,34.5571512],[135.6217024,34.5567216],[135.6214934,34.5564676],[135.6208623,34.5558775]]],[[[135.6157408,34.5474073],[135.6149467,34.5472263],[135.6152863,34.5463256],[135.6155694,34.5457626],[135.616349,34.5443046],[135.6167092,34.5434232],[135.6171774,34.541809],[135.6175201,34.5406151],[135.6177594,34.5395872],[135.6178211,34.5388682],[135.6180202,34.5367505],[135.6187357,34.5368965],[135.618656,34.5377591],[135.6184553,34.5400515],[135.6181903,34.5411753],[135.6178378,34.5421103],[135.6172279,34.5436659],[135.6168677,34.5445351],[135.6164453,34.5455778],[135.6157408,34.5474073]]],[[[135.6184078,34.5150856],[135.6183847,34.5148509],[135.6183774,34.514377],[135.6183392,34.5142437],[135.6182797,34.5139179],[135.617042,34.5140031],[135.6171301,34.5151021],[135.6184078,34.5150856]]]]}}
