{"type":"Feature","id":"attraction-large-park-W1256455063","properties":{"id":"attraction-large-park-W1256455063","kind":"attraction","name":"宮城県総合運動公園","shortName":"宮城県総合運動公園","context":"日本","subtype":"large-park","subtypeLabel":"大型都市公園・広域公園","statusLabel":"","aliases":["Miyagi Sports Park","グランディ・21"],"osmType":"way","osmId":1256455063,"osmDate":null,"officialAreaKm2":null,"areaSourceLabel":"","areaSourceUrl":"","boundarySourceLabel":"© OpenStreetMap contributors","boundarySourceUrl":"https://www.openstreetmap.org/copyright","geometryFile":"attractions/large-park-W1256455063.geojson"},"geometry":{"type":"Polygon","coordinates":[[[140.9482925,38.3265544],[140.9491064,38.3280843],[140.9504733,38.3306921],[140.9504371,38.3307394],[140.9505243,38.3309025],[140.9505994,38.3309319],[140.9511401,38.3319649],[140.9515846,38.3327983],[140.95159,38.3328084],[140.9516269,38.3328621],[140.9516947,38.3329607],[140.9520908,38.3334089],[140.9525081,38.333751],[140.9529025,38.3339782],[140.9533308,38.3341715],[140.9539131,38.3343358],[140.9543783,38.334418],[140.9551598,38.3345026],[140.9551917,38.3345275],[140.9552271,38.3345706],[140.9552288,38.3346025],[140.9554111,38.3346164],[140.95542,38.3345636],[140.955466,38.3345275],[140.9555208,38.3345275],[140.9567757,38.3345982],[140.9574595,38.3346548],[140.9569725,38.335118],[140.9570255,38.3355868],[140.9571176,38.3358345],[140.9575042,38.3357846],[140.9575818,38.3360918],[140.9573305,38.3367828],[140.9574805,38.3371037],[140.9580225,38.3373021],[140.9579924,38.3375353],[140.9574237,38.3380343],[140.9574996,38.3384176],[140.9573855,38.3387147],[140.957138,38.3390956],[140.9572799,38.3394237],[140.9569866,38.3395541],[140.9567272,38.3397068],[140.9562991,38.3404517],[140.9561865,38.3409267],[140.9559071,38.3410739],[140.9558849,38.3410369],[140.9557764,38.3410755],[140.9557128,38.3410934],[140.9557443,38.3411356],[140.9555596,38.3411902],[140.9551382,38.3411146],[140.9549766,38.3410307],[140.9545143,38.3411582],[140.953131,38.34119],[140.9530467,38.3411662],[140.952754,38.3407661],[140.9519281,38.3404655],[140.9518263,38.3405138],[140.9515238,38.3405495],[140.9512512,38.3407338],[140.9509857,38.3404017],[140.9503521,38.3403172],[140.9498146,38.3405406],[140.949588,38.3403133],[140.9492659,38.3401935],[140.9490357,38.3402625],[140.9488907,38.3402135],[140.9486678,38.3403227],[140.9485546,38.3399915],[140.9482278,38.3395093],[140.9480703,38.3396051],[140.9480929,38.3397846],[140.947981,38.3400084],[140.9476309,38.3402451],[140.9475128,38.3402997],[140.9473745,38.3403126],[140.9472687,38.3402395],[140.9471794,38.3402265],[140.9471507,38.340286],[140.947154,38.3403408],[140.9468673,38.3402537],[140.9458673,38.3398544],[140.9458139,38.3396895],[140.9453178,38.3396061],[140.9449087,38.3396661],[140.9448559,38.339751],[140.9449965,38.3402431],[140.9451043,38.3403359],[140.9449693,38.3404694],[140.9448862,38.3404824],[140.9447468,38.3404722],[140.9446422,38.3404287],[140.9444689,38.3401839],[140.9442532,38.3398928],[140.9440577,38.3397157],[140.9437959,38.3396036],[140.9436901,38.33915],[140.9433209,38.3389538],[140.9431341,38.3388824],[140.9429808,38.3388141],[140.9426684,38.3387754],[140.9425593,38.3386787],[140.9428385,38.3386013],[140.9426156,38.3385148],[140.9425199,38.338524],[140.9424647,38.3385659],[140.9424766,38.3386273],[140.9423169,38.3386267],[140.942213,38.3384873],[140.9423144,38.3380492],[140.9421256,38.3378773],[140.9424116,38.3377956],[140.9429186,38.3373642],[140.9432148,38.3372563],[140.9434637,38.3371309],[140.9436959,38.3366816],[140.9443747,38.3364072],[140.9446381,38.3364998],[140.9448195,38.3366275],[140.9449554,38.3365246],[140.9446726,38.3362634],[140.9449009,38.3361449],[140.9446473,38.3354998],[140.9452827,38.3353347],[140.9453087,38.3350393],[140.9453533,38.3345535],[140.9451531,38.3342485],[140.9448835,38.3338069],[140.9445567,38.3335059],[140.9444728,38.333366],[140.9442863,38.3331375],[140.9443148,38.3327024],[140.9444771,38.3325216],[140.9445618,38.3294355],[140.9482925,38.3265544]]]}}
