{"type":"Feature","id":"attraction-large-park-W377970287","properties":{"id":"attraction-large-park-W377970287","kind":"attraction","name":"小真木原公園","shortName":"小真木原公園","context":"日本","subtype":"large-park","subtypeLabel":"大型都市公園・広域公園","statusLabel":"著名な公園","aliases":["Komagihara Park"],"osmType":"way","osmId":377970287,"osmDate":null,"officialAreaKm2":null,"areaSourceLabel":"","areaSourceUrl":"","boundarySourceLabel":"© OpenStreetMap contributors","boundarySourceUrl":"https://www.openstreetmap.org/copyright","geometryFile":"attractions/large-park-W377970287.geojson"},"geometry":{"type":"Polygon","coordinates":[[[139.8120347,38.7152638],[139.8123437,38.7151052],[139.8120734,38.7148492],[139.8131994,38.7142562],[139.8126571,38.7137081],[139.8128912,38.7135879],[139.8121888,38.712732],[139.81448,38.7115381],[139.8163246,38.7105724],[139.8163885,38.710544],[139.8164942,38.7107026],[139.8166283,38.7109976],[139.8166568,38.7111499],[139.8166243,38.7114068],[139.8168235,38.7117494],[139.8168438,38.7119049],[139.8170837,38.7119556],[139.8174618,38.7120921],[139.8186279,38.7130621],[139.8187881,38.7129888],[139.8188743,38.7137487],[139.8187398,38.7137597],[139.8187221,38.713594],[139.8183186,38.7136465],[139.8183505,38.7137929],[139.8180992,38.7138233],[139.8181204,38.7139724],[139.8171578,38.7144142],[139.8174657,38.7148147],[139.8170976,38.7150549],[139.8171649,38.7151847],[139.8167295,38.7155244],[139.8165844,38.7155962],[139.8161491,38.7160435],[139.8161456,38.7161126],[139.8146237,38.71664],[139.8144715,38.7167615],[139.8140928,38.7169023],[139.8140545,38.7168718],[139.8133763,38.7163319],[139.8138997,38.7160282],[139.8134667,38.715612],[139.8128768,38.7159007],[139.8120347,38.7152638]]]}}
