{"type":"Feature","id":"attraction-large-park-W561027227","properties":{"id":"attraction-large-park-W561027227","kind":"attraction","name":"観音山公園","shortName":"観音山公園","context":"日本","subtype":"large-park","subtypeLabel":"大型都市公園・広域公園","statusLabel":"著名な公園","aliases":[],"osmType":"way","osmId":561027227,"osmDate":null,"officialAreaKm2":null,"areaSourceLabel":"","areaSourceUrl":"","boundarySourceLabel":"© OpenStreetMap contributors","boundarySourceUrl":"https://www.openstreetmap.org/copyright","geometryFile":"attractions/large-park-W561027227.geojson"},"geometry":{"type":"Polygon","coordinates":[[[138.9816977,36.3112601],[138.9820608,36.3113143],[138.9824002,36.3111642],[138.982537,36.3111483],[138.9826345,36.311137],[138.9829761,36.3109406],[138.9830465,36.3106298],[138.9831588,36.3106765],[138.9834021,36.3108201],[138.9833221,36.3111412],[138.9837108,36.3111933],[138.9841975,36.3112545],[138.9844124,36.311413],[138.9846185,36.311431],[138.9847836,36.3113016],[138.9854446,36.3113399],[138.9868488,36.3105149],[138.9871959,36.3091517],[138.9873,36.3089274],[138.9868193,36.3081826],[138.9870473,36.3078747],[138.9871336,36.3070057],[138.9880702,36.3066879],[138.9886248,36.3063403],[138.9875773,36.3051534],[138.9869302,36.3045973],[138.9860685,36.3054979],[138.9857429,36.3054523],[138.9856615,36.305786],[138.9851236,36.3065446],[138.9845573,36.3067728],[138.9843577,36.3070828],[138.9841258,36.3073155],[138.9839612,36.3075973],[138.983825,36.3077332],[138.9836685,36.3078495],[138.9834937,36.3079167],[138.9833727,36.3080231],[138.9830831,36.3084359],[138.9829611,36.308526],[138.9828067,36.3086079],[138.9825343,36.3086702],[138.9820057,36.308685],[138.9818939,36.3087472],[138.9817069,36.3089601],[138.9815882,36.3090218],[138.9815439,36.3095345],[138.9815524,36.3097627],[138.9814101,36.3099855],[138.9816134,36.3100478],[138.9817801,36.3102345],[138.9816053,36.3105785],[138.9813288,36.3107423],[138.9812597,36.3110732],[138.9816977,36.3112601]]]}}
