{"type":"Feature","id":"attraction-large-park-W477693071","properties":{"id":"attraction-large-park-W477693071","kind":"attraction","name":"東光スポーツ公園","shortName":"東光スポーツ公園","context":"日本","subtype":"large-park","subtypeLabel":"大型都市公園・広域公園","statusLabel":"著名な公園","aliases":["Toko Sports Park"],"osmType":"way","osmId":477693071,"osmDate":null,"officialAreaKm2":null,"areaSourceLabel":"","areaSourceUrl":"","boundarySourceLabel":"© OpenStreetMap contributors","boundarySourceUrl":"https://www.openstreetmap.org/copyright","geometryFile":"attractions/large-park-W477693071.geojson"},"geometry":{"type":"Polygon","coordinates":[[[142.4095249,43.7348927],[142.4119989,43.7348372],[142.4124482,43.7347896],[142.4128488,43.7346897],[142.4132799,43.7344305],[142.4146298,43.7335739],[142.4153832,43.7333671],[142.4168471,43.7329925],[142.4184837,43.7325737],[142.4182951,43.7304407],[142.4182678,43.7301611],[142.418327,43.7299268],[142.418476,43.7297772],[142.4184997,43.7296619],[142.4182959,43.7294513],[142.4158377,43.7272249],[142.4148374,43.7276152],[142.4136827,43.728157],[142.4128301,43.7285153],[142.4127912,43.728586],[142.4127952,43.7286994],[142.4103698,43.7293637],[142.4103471,43.7294306],[142.409598,43.7296501],[142.4096128,43.7298149],[142.4090102,43.7298769],[142.4095249,43.7348927]]]}}
