{"type":"Feature","id":"attraction-large-industrial-complex-W932905990","properties":{"id":"attraction-large-industrial-complex-W932905990","kind":"attraction","name":"本田技術研究所 鷹栖プルービンググラウンド","shortName":"本田技術研究所 鷹栖プルービンググラウンド","context":"日本","subtype":"industrial-complex","subtypeLabel":"工業地帯・大規模工場","statusLabel":"","aliases":[],"osmType":"way","osmId":932905990,"osmDate":null,"officialAreaKm2":null,"areaSourceLabel":"","areaSourceUrl":"","boundarySourceLabel":"© OpenStreetMap contributors","boundarySourceUrl":"https://www.openstreetmap.org/copyright","geometryFile":"attractions/large-industrial-complex-W932905990.geojson"},"geometry":{"type":"Polygon","coordinates":[[[142.2921619,43.9200877],[142.2910729,43.9202403],[142.2908717,43.9203041],[142.2906491,43.9204161],[142.2894931,43.9196336],[142.2892624,43.9196105],[142.2882619,43.9198616],[142.2878167,43.9199524],[142.286945,43.9195081],[142.2859526,43.9202384],[142.2849119,43.9202519],[142.2838041,43.9201128],[142.2835895,43.9183083],[142.2834367,43.9169287],[142.2830638,43.9139609],[142.2829056,43.9130335],[142.2832596,43.9127185],[142.2842359,43.9124093],[142.2855449,43.9095341],[142.2849011,43.9076712],[142.2846973,43.9045484],[142.2849655,43.9013867],[142.2843325,43.8999874],[142.2841823,43.8987505],[142.2839033,43.8980161],[142.2832382,43.8971425],[142.282412,43.8939186],[142.2821975,43.8929367],[142.2808885,43.892264],[142.2801697,43.8918542],[142.2798478,43.8910424],[142.2800088,43.8903388],[142.2814357,43.8895733],[142.2850943,43.8901146],[142.2873795,43.8911042],[142.2901368,43.8890011],[142.2934627,43.8865964],[142.2938007,43.8866196],[142.2944069,43.8861711],[142.2955495,43.8867665],[142.2974914,43.8865345],[142.2993797,43.8864611],[142.3005062,43.8866235],[142.3006859,43.8865751],[142.3014343,43.8862001],[142.3020673,43.8861808],[142.3034808,43.8866583],[142.3036739,43.8867549],[142.3040387,43.8870024],[142.3048139,43.8873561],[142.3051169,43.887445],[142.306273,43.8875939],[142.3065841,43.8875842],[142.3072332,43.8876944],[142.3075712,43.8878587],[142.3084804,43.8885198],[142.3084724,43.8886474],[142.3084214,43.888918],[142.3085287,43.8890437],[142.3091161,43.8894612],[142.3084536,43.8899309],[142.3077589,43.8904142],[142.3073781,43.8906944],[142.3071822,43.8907776],[142.3066163,43.8908278],[142.306332,43.8908394],[142.3062059,43.8909457],[142.3062408,43.8910578],[142.3064902,43.8918677],[142.3065305,43.8920436],[142.3067558,43.8927975],[142.3068228,43.8933715],[142.3068202,43.8935668],[142.3066109,43.8937465],[142.3065037,43.8938992],[142.3064983,43.8939901],[142.3068362,43.8948695],[142.3067987,43.8950551],[142.3090088,43.8966187],[142.3061737,43.8986925],[142.3041862,43.9001421],[142.3075336,43.9025694],[142.3060799,43.9035937],[142.3048514,43.9043783],[142.3031831,43.9054992],[142.3027861,43.9055262],[142.3023087,43.9059398],[142.304154,43.9072345],[142.3030919,43.9078664],[142.3017052,43.9089717],[142.3034996,43.9102606],[142.298575,43.9137774],[142.3016435,43.9160612],[142.2981244,43.9186966],[142.297309,43.9192685],[142.2967511,43.9195235],[142.2921619,43.9200877]]]}}
