{"type":"Feature","id":"attraction-large-park-W53656607","properties":{"id":"attraction-large-park-W53656607","kind":"attraction","name":"奥武山公園","shortName":"奥武山公園","context":"日本","subtype":"large-park","subtypeLabel":"大型都市公園・広域公園","statusLabel":"著名な公園","aliases":["Onoyama Park"],"osmType":"way","osmId":53656607,"osmDate":null,"officialAreaKm2":null,"areaSourceLabel":"","areaSourceUrl":"","boundarySourceLabel":"© OpenStreetMap contributors","boundarySourceUrl":"https://www.openstreetmap.org/copyright","geometryFile":"attractions/large-park-W53656607.geojson"},"geometry":{"type":"Polygon","coordinates":[[[127.6712129,26.2037858],[127.6712616,26.203697],[127.6712823,26.2036752],[127.6713696,26.203596],[127.6714549,26.203473],[127.6715153,26.2033622],[127.6717532,26.2030362],[127.6718228,26.2029736],[127.6719006,26.2029156],[127.6719901,26.2028631],[127.6720905,26.2028134],[127.672224,26.2027575],[127.6724207,26.2026812],[127.6727598,26.2025585],[127.6728773,26.202511],[127.6730214,26.2024409],[127.6731583,26.2023589],[127.6732623,26.2022912],[127.6735762,26.2020893],[127.6739954,26.2018028],[127.6741509,26.2016942],[127.6743061,26.2016281],[127.6743985,26.2015488],[127.6744445,26.2015065],[127.6745027,26.2014376],[127.6745303,26.2013988],[127.6746883,26.2011119],[127.674664,26.2011007],[127.6747519,26.2009161],[127.674791,26.2008227],[127.6748117,26.2007907],[127.6748427,26.2007683],[127.6749144,26.2007498],[127.6756841,26.2010741],[127.6761124,26.2012459],[127.6769156,26.2014969],[127.6772042,26.2015735],[127.6783055,26.2018512],[127.6782243,26.2021438],[127.6782399,26.202149],[127.6782501,26.2021613],[127.678306,26.202391],[127.6783121,26.2024469],[127.6783121,26.2024959],[127.6782619,26.202672],[127.6782362,26.2027041],[127.6781969,26.2027209],[127.6781523,26.2027211],[127.6781347,26.202859],[127.678117,26.20292],[127.6780242,26.2031313],[127.6780702,26.2031491],[127.6781013,26.2031804],[127.6781092,26.2032313],[127.6779981,26.203636],[127.6779762,26.2036907],[127.6779283,26.2037343],[127.6778803,26.2037552],[127.6778667,26.2037859],[127.677841,26.2038465],[127.6778088,26.2039061],[127.6777902,26.2039588],[127.6777858,26.2040151],[127.6777968,26.2040609],[127.6778439,26.2041406],[127.6778572,26.2041751],[127.6778639,26.2042172],[127.6778576,26.2042623],[127.6778428,26.2043069],[127.6778136,26.2043482],[127.6777737,26.204381],[127.6777336,26.2044044],[127.6776529,26.204443],[127.6776133,26.2044733],[127.6775774,26.2045142],[127.6775454,26.2045942],[127.6775135,26.2048633],[127.6774982,26.2049587],[127.6774598,26.2050856],[127.6772494,26.2054938],[127.6771945,26.2055973],[127.6769939,26.2059763],[127.6769626,26.2060136],[127.6769245,26.2060407],[127.6768028,26.2060875],[127.6768021,26.206101],[127.6767948,26.2061118],[127.6767554,26.2061364],[127.6767445,26.206163],[127.6767836,26.2062623],[127.6767877,26.2062823],[127.6767845,26.2063048],[127.6767003,26.2064685],[127.6767076,26.206523],[127.6766984,26.2065393],[127.6766537,26.206558],[127.6765735,26.206681],[127.6765613,26.2066962],[127.6765433,26.2067087],[127.6765234,26.2067182],[127.6764397,26.2067413],[127.6764674,26.2068227],[127.6764722,26.2068578],[127.676464,26.2068887],[127.6764456,26.2069174],[127.6764155,26.2069342],[127.6763772,26.2069319],[127.67634,26.2069081],[127.6762929,26.2068949],[127.6762537,26.2068982],[127.6758751,26.2072939],[127.6758411,26.2073171],[127.6757968,26.2073259],[127.675755,26.2073294],[127.6757283,26.2073488],[127.6757122,26.2073794],[127.6757082,26.2074151],[127.6757225,26.2074525],[127.6757836,26.207508],[127.6757907,26.2075275],[127.6757896,26.2075477],[127.6757778,26.2075658],[127.675754,26.2075857],[127.6757202,26.2076092],[127.6756767,26.2076265],[127.6756138,26.2076263],[127.6754861,26.2076777],[127.6750239,26.2078015],[127.6746889,26.2079181],[127.6745878,26.2079472],[127.6745724,26.2078794],[127.6744741,26.2074611],[127.6744948,26.2074585],[127.6745796,26.2074735],[127.6746852,26.20745],[127.6751714,26.2069967],[127.6754415,26.2072514],[127.6756055,26.2071084],[127.6755725,26.2069986],[127.6755492,26.2069478],[127.6758475,26.2066342],[127.6757168,26.2065631],[127.6756716,26.2064861],[127.6756091,26.2064396],[127.6755815,26.2064063],[127.6755725,26.2063848],[127.6755336,26.2062767],[127.675508,26.2062443],[127.6753001,26.2064521],[127.6750419,26.2062718],[127.6749944,26.206245],[127.6749268,26.206207],[127.6747429,26.2063157],[127.6746036,26.2062603],[127.6743696,26.2061325],[127.6743726,26.2061281],[127.6744798,26.2060621],[127.6743527,26.2060117],[127.6741916,26.2057372],[127.6744677,26.2053698],[127.6742615,26.2051988],[127.6743349,26.2051356],[127.6742801,26.2050542],[127.6742161,26.2050438],[127.6739547,26.2048512],[127.673929,26.2050087],[127.6736,26.2052804],[127.6735439,26.2052657],[127.6734508,26.2053743],[127.6734175,26.2053345],[127.6733401,26.2052484],[127.6732829,26.2051871],[127.6732154,26.2051178],[127.6731462,26.205049],[127.6730698,26.2049792],[127.6730436,26.2049617],[127.672902,26.2048555],[127.6727449,26.2047449],[127.6726338,26.204672],[127.672542,26.2046146],[127.6723813,26.2044826],[127.6723305,26.2044506],[127.6721953,26.2043818],[127.6720315,26.2043369],[127.6719025,26.2043],[127.6719121,26.2042666],[127.6718989,26.2042477],[127.6717635,26.2041966],[127.6714942,26.2041095],[127.6713876,26.2040608],[127.6712343,26.2040394],[127.671242,26.2040129],[127.6712143,26.2039939],[127.6711895,26.2039677],[127.6711811,26.2039422],[127.6711781,26.2038997],[127.6711845,26.2038575],[127.6712129,26.2037858]]]}}
