{"type":"Feature","id":"attraction-large-park-R13498433","properties":{"id":"attraction-large-park-R13498433","kind":"attraction","name":"石巻南浜津波復興祈念公園","shortName":"石巻南浜津波復興祈念公園","context":"日本","subtype":"large-park","subtypeLabel":"大型都市公園・広域公園","statusLabel":"著名な公園","aliases":["Ishinomaki Minamihama Tsunami Memorial Park"],"osmType":"relation","osmId":13498433,"osmDate":null,"officialAreaKm2":null,"areaSourceLabel":"","areaSourceUrl":"","boundarySourceLabel":"© OpenStreetMap contributors","boundarySourceUrl":"https://www.openstreetmap.org/copyright","geometryFile":"attractions/large-park-R13498433.geojson"},"geometry":{"type":"MultiPolygon","coordinates":[[[[141.3049906,38.4153983],[141.3048124,38.4152723],[141.3027661,38.4153174],[141.3020499,38.4154625],[141.3014213,38.4156079],[141.3009025,38.4157698],[141.3005307,38.4159263],[141.3001373,38.4161395],[141.2996504,38.416462],[141.2988401,38.4172092],[141.2984626,38.4176118],[141.2981842,38.4179593],[141.2976109,38.4187347],[141.2970382,38.4194595],[141.2971012,38.4196361],[141.298676,38.4199962],[141.2989793,38.4200318],[141.2997443,38.4200397],[141.2998377,38.4199925],[141.2999771,38.4199899],[141.3000957,38.4199821],[141.3002046,38.4200291],[141.3026527,38.4198984],[141.3045592,38.4198706],[141.3067801,38.4198189],[141.3071798,38.4197549],[141.3082479,38.4196411],[141.3093309,38.4195902],[141.3092619,38.4193264],[141.3091983,38.4192101],[141.3090922,38.4191147],[141.3089358,38.4190298],[141.3087787,38.4189846],[141.3086268,38.4189757],[141.3084056,38.4189741],[141.3081771,38.4189926],[141.3079719,38.4189827],[141.3078548,38.4189639],[141.3077352,38.4189269],[141.3076232,38.4188635],[141.3075268,38.4187901],[141.3074364,38.4186846],[141.3073513,38.418495],[141.3073172,38.4182242],[141.3070819,38.4167452],[141.3070294,38.4166015],[141.3069657,38.4165059],[141.3068948,38.4163956],[141.3067595,38.4163062],[141.306654,38.416244],[141.3064572,38.4161943],[141.3062353,38.4161749],[141.305638,38.4161418],[141.3054627,38.4161263],[141.3053093,38.4160586],[141.3051883,38.4159638],[141.305089,38.4158692],[141.3049999,38.4156255],[141.3049906,38.4153983]]],[[[141.3050917,38.4154088],[141.3050941,38.4157115],[141.3052409,38.4159426],[141.3053653,38.4160288],[141.3054896,38.4160561],[141.3057306,38.416097],[141.3060278,38.4161148],[141.3063447,38.4161273],[141.3066118,38.4161767],[141.306895,38.4162848],[141.3069724,38.4162989],[141.3070676,38.4162857],[141.3071789,38.4162143],[141.3072246,38.4157535],[141.308239,38.4157245],[141.3081954,38.4152643],[141.3052979,38.4152446],[141.3050917,38.4154088]]]]}}
