{"type":"Feature","id":"attraction-large-park-W868171729","properties":{"id":"attraction-large-park-W868171729","kind":"attraction","name":"丸亀市総合運動公園","shortName":"丸亀市総合運動公園","context":"日本","subtype":"large-park","subtypeLabel":"大型都市公園・広域公園","statusLabel":"著名な公園","aliases":[],"osmType":"way","osmId":868171729,"osmDate":null,"officialAreaKm2":null,"areaSourceLabel":"","areaSourceUrl":"","boundarySourceLabel":"© OpenStreetMap contributors","boundarySourceUrl":"https://www.openstreetmap.org/copyright","geometryFile":"attractions/large-park-W868171729.geojson"},"geometry":{"type":"Polygon","coordinates":[[[133.7850538,34.2601232],[133.7857872,34.2603582],[133.7861341,34.2605022],[133.7865129,34.2606286],[133.7877468,34.2610542],[133.7874571,34.2614798],[133.7874785,34.2616129],[133.7878111,34.2617813],[133.7882081,34.2618611],[133.7882567,34.2620028],[133.7887681,34.262232],[133.7885668,34.262565],[133.7889692,34.2627645],[133.789806,34.2632168],[133.7897363,34.26327],[133.7894466,34.2636246],[133.7899884,34.2638419],[133.7895324,34.2644714],[133.7899348,34.2646443],[133.7899151,34.2646053],[133.7901708,34.264702],[133.7905517,34.2654822],[133.7910077,34.2657083],[133.7908145,34.2657128],[133.7906422,34.2656477],[133.7903454,34.2662241],[133.7899994,34.2660908],[133.7897848,34.2665098],[133.7884113,34.2660408],[133.7883576,34.2659921],[133.7869629,34.2655133],[133.7868395,34.265531],[133.7867054,34.2654911],[133.7864586,34.2659965],[133.7864211,34.2661384],[133.7859023,34.2671158],[133.785858,34.2679273],[133.7859024,34.2679784],[133.785986,34.2680121],[133.7862753,34.2680925],[133.7868456,34.2682018],[133.7874849,34.26837],[133.7875271,34.2684438],[133.7876789,34.2686152],[133.7878048,34.2686985],[133.7891435,34.2692857],[133.7890633,34.2693177],[133.7888533,34.2692214],[133.7887632,34.2693614],[133.7889126,34.2694254],[133.7875708,34.2698599],[133.786934,34.2700661],[133.7871199,34.2697874],[133.786589,34.2695546],[133.7861732,34.2703116],[133.7857783,34.2705108],[133.7863893,34.2694696],[133.7864785,34.2692577],[133.7865215,34.2690926],[133.7865542,34.2688877],[133.7865592,34.2687784],[133.7865349,34.2686774],[133.7864498,34.2684965],[133.7863591,34.2683557],[133.7862743,34.268267],[133.7860937,34.2681482],[133.7859974,34.268083],[133.7858899,34.2680294],[133.7856164,34.2678169],[133.7857645,34.2673582],[133.7857247,34.2671763],[133.7856593,34.2671669],[133.7855681,34.2672511],[133.7855038,34.2673442],[133.7853819,34.2676532],[133.78505,34.2675051],[133.7847234,34.2673593],[133.7844286,34.2672277],[133.7843113,34.2671052],[133.7841687,34.266819],[133.7839191,34.2667174],[133.7837901,34.2666649],[133.7834646,34.2665103],[133.7832785,34.2664078],[133.7829815,34.2662712],[133.7833293,34.2657085],[133.7823509,34.2652113],[133.7821919,34.2651346],[133.7824494,34.2647665],[133.7825055,34.264727],[133.7828407,34.2642157],[133.782915,34.2641274],[133.7829828,34.2640611],[133.7830778,34.2639872],[133.7833961,34.2637501],[133.7834847,34.2636612],[133.7840461,34.262892],[133.7840975,34.2627891],[133.7841421,34.2626283],[133.7841511,34.2624584],[133.7840551,34.2622006],[133.7839266,34.262135],[133.783665,34.2620165],[133.7840691,34.2614063],[133.7845464,34.2607041],[133.7846477,34.2605367],[133.7847362,34.2603918],[133.78486,34.260186],[133.7849661,34.2601432],[133.7850538,34.2601232]]]}}
