{"type":"Feature","id":"attraction-large-industrial-complex-W419484088","properties":{"id":"attraction-large-industrial-complex-W419484088","kind":"attraction","name":"日本自動車研究所城里テストセンター","shortName":"日本自動車研究所城里テストセンター","context":"日本","subtype":"industrial-complex","subtypeLabel":"工業地帯・大規模工場","statusLabel":"","aliases":["Japan automobile research institute Shirosato test center"],"osmType":"way","osmId":419484088,"osmDate":null,"officialAreaKm2":null,"areaSourceLabel":"","areaSourceUrl":"","boundarySourceLabel":"© OpenStreetMap contributors","boundarySourceUrl":"https://www.openstreetmap.org/copyright","geometryFile":"attractions/large-industrial-complex-W419484088.geojson"},"geometry":{"type":"Polygon","coordinates":[[[140.324256,36.470794],[140.3246409,36.4707048],[140.324952,36.4706573],[140.3252819,36.4706789],[140.3255515,36.4707824],[140.3264937,36.4713929],[140.3280848,36.4720032],[140.3283584,36.4721974],[140.328455,36.4724821],[140.3283906,36.472853],[140.3287306,36.4738554],[140.3288251,36.4744275],[140.3288573,36.4747985],[140.3288519,36.4759761],[140.3287929,36.4762285],[140.3286504,36.4764743],[140.3291738,36.4767094],[140.3300804,36.4758338],[140.330236,36.4758769],[140.3301179,36.4764204],[140.3300804,36.4766016],[140.3301287,36.4767698],[140.3300805,36.4770159],[140.3299248,36.4773392],[140.3296941,36.4772788],[140.3287543,36.4786073],[140.3274242,36.4780755],[140.327248,36.4783291],[140.3271246,36.4782839],[140.3203667,36.4872967],[140.3203788,36.4874299],[140.3203011,36.4875291],[140.3201455,36.4875399],[140.319652,36.4882257],[140.3191048,36.4888079],[140.3186434,36.4891874],[140.3180558,36.4895391],[140.3174204,36.48983],[140.3166747,36.4900327],[140.3161007,36.4901233],[140.3154596,36.4901879],[140.3147864,36.4901621],[140.3140998,36.4900629],[140.3134292,36.4898473],[140.3129077,36.4896417],[140.3123832,36.4893427],[140.3118843,36.4889847],[140.3115144,36.4886404],[140.3112245,36.4882861],[140.310908,36.4878116],[140.3106773,36.4872768],[140.3105646,36.4867852],[140.3105282,36.4862641],[140.3105646,36.4858277],[140.3106344,36.485405],[140.3107846,36.4849306],[140.3111815,36.4842879],[140.312247,36.482713],[140.3151834,36.4787497],[140.3153443,36.4782407],[140.3160363,36.4772875],[140.3164923,36.4770028],[140.3198047,36.4727164],[140.3202689,36.472206],[140.320811,36.4717732],[140.3215992,36.4713475],[140.3220874,36.4711232],[140.3228062,36.4709463],[140.3235604,36.4708601],[140.324256,36.470794]]]}}
