{"type":"Feature","id":"attraction-large-military-base-W719079440","properties":{"id":"attraction-large-military-base-W719079440","kind":"attraction","name":"航空自衛隊 見島分屯基地","shortName":"航空自衛隊 見島分屯基地","context":"日本","subtype":"military-base","subtypeLabel":"基地・駐屯地・演習場","statusLabel":"","aliases":[],"osmType":"way","osmId":719079440,"osmDate":null,"officialAreaKm2":null,"areaSourceLabel":"","areaSourceUrl":"","boundarySourceLabel":"© OpenStreetMap contributors","boundarySourceUrl":"https://www.openstreetmap.org/copyright","geometryFile":"attractions/large-military-base-W719079440.geojson"},"geometry":{"type":"Polygon","coordinates":[[[131.1362051,34.7726974],[131.1362229,34.7726189],[131.1365974,34.7723339],[131.1364622,34.7721506],[131.1361871,34.7717774],[131.1358455,34.7717246],[131.1352753,34.7717597],[131.1352357,34.7716503],[131.1351855,34.7716267],[131.1348575,34.7715736],[131.1348197,34.7715673],[131.1347697,34.7715589],[131.1344175,34.7714997],[131.1341605,34.7715243],[131.1340368,34.771393],[131.1337172,34.7709087],[131.1336901,34.7708573],[131.1336883,34.7708085],[131.1337194,34.7707524],[131.1338437,34.7705675],[131.1338876,34.7704942],[131.1338804,34.7704151],[131.1336993,34.7700486],[131.1336718,34.7700092],[131.1336285,34.7699775],[131.1335104,34.7699556],[131.1334668,34.769956],[131.1333597,34.7700155],[131.1331562,34.7700089],[131.1330945,34.7700712],[131.1328828,34.7702516],[131.1329616,34.7703296],[131.1327923,34.7704971],[131.1327584,34.7705557],[131.1327983,34.7706966],[131.1328214,34.7708008],[131.1327877,34.7708323],[131.1326516,34.7709164],[131.1325247,34.7710613],[131.1324989,34.7712503],[131.1326042,34.7714293],[131.1327074,34.7714928],[131.1328422,34.7714733],[131.1327937,34.7722257],[131.1327105,34.7725032],[131.132723,34.7727247],[131.1327609,34.7729075],[131.1329243,34.7732052],[131.1330502,34.7734003],[131.1331969,34.773589],[131.1335854,34.7739327],[131.1336847,34.7741148],[131.1338289,34.7742313],[131.1339587,34.7742786],[131.13407,34.7742372],[131.1342039,34.7740173],[131.1342961,34.7738689],[131.1343752,34.7736884],[131.134829,34.773551],[131.1350027,34.773451],[131.1352956,34.7732908],[131.1357369,34.7731133],[131.1360644,34.7729409],[131.1362822,34.7728054],[131.1362306,34.7727331],[131.1362051,34.7726974]]]}}
