{"type":"Feature","id":"attraction-large-park-W442578238","properties":{"id":"attraction-large-park-W442578238","kind":"attraction","name":"富士川クラフトパーク","shortName":"富士川クラフトパーク","context":"日本","subtype":"large-park","subtypeLabel":"大型都市公園・広域公園","statusLabel":"著名な公園","aliases":[],"osmType":"way","osmId":442578238,"osmDate":null,"officialAreaKm2":null,"areaSourceLabel":"","areaSourceUrl":"","boundarySourceLabel":"© OpenStreetMap contributors","boundarySourceUrl":"https://www.openstreetmap.org/copyright","geometryFile":"attractions/large-park-W442578238.geojson"},"geometry":{"type":"Polygon","coordinates":[[[138.4409039,35.4209224],[138.4394178,35.4203311],[138.437063,35.4203434],[138.436208,35.4201349],[138.4349578,35.420776],[138.4337256,35.4209371],[138.4316293,35.4199146],[138.4321858,35.4169599],[138.432706,35.4149727],[138.4341507,35.4148044],[138.4355954,35.4146361],[138.4363465,35.4161231],[138.4378157,35.4161908],[138.4393053,35.4166259],[138.4406492,35.416192],[138.4419316,35.4165595],[138.4420876,35.4181386],[138.443034,35.4204486],[138.44233,35.420907],[138.4409039,35.4209224]]]}}
