{"type":"Feature","id":"attraction-large-industrial-complex-W614776480","properties":{"id":"attraction-large-industrial-complex-W614776480","kind":"attraction","name":"ダイハツ工業滋賀工場第1地区","shortName":"ダイハツ工業滋賀工場第1地区","context":"日本","subtype":"industrial-complex","subtypeLabel":"工業地帯・大規模工場","statusLabel":"","aliases":["ダイハツ工業竜王工場第1地区"],"osmType":"way","osmId":614776480,"osmDate":null,"officialAreaKm2":null,"areaSourceLabel":"","areaSourceUrl":"","boundarySourceLabel":"© OpenStreetMap contributors","boundarySourceUrl":"https://www.openstreetmap.org/copyright","geometryFile":"attractions/large-industrial-complex-W614776480.geojson"},"geometry":{"type":"Polygon","coordinates":[[[136.135523,35.0360558],[136.1346683,35.0373801],[136.1339387,35.0386429],[136.1330241,35.039495],[136.1317742,35.039809],[136.130771,35.0399473],[136.1310098,35.0410168],[136.1306718,35.0413528],[136.1298108,35.041366],[136.1293602,35.0411211],[136.1295024,35.0402833],[136.1272734,35.0405029],[136.1254227,35.0412035],[136.1254388,35.0415768],[136.1251478,35.0419765],[136.1248031,35.0418908],[136.1249104,35.0423344],[136.1244444,35.0424607],[136.123631,35.0423092],[136.1220512,35.0405271],[136.1222282,35.040369],[136.12185,35.0397958],[136.1217977,35.0389646],[136.1232984,35.03832],[136.1235183,35.0386604],[136.125019,35.0380181],[136.1258546,35.037547],[136.1266766,35.0371901],[136.12656,35.0367037],[136.1280674,35.0361085],[136.1283034,35.0365324],[136.1318064,35.0350302],[136.1333567,35.0347403],[136.135523,35.0360558]]]}}
