{"type":"Feature","id":"attraction-large-industrial-complex-W936543921","properties":{"id":"attraction-large-industrial-complex-W936543921","kind":"attraction","name":"横浜ゴム北海道タイヤテストセンター","shortName":"横浜ゴム北海道タイヤテストセンター","context":"北海道・旭川市","subtype":"industrial-complex","subtypeLabel":"工業地帯・大規模工場","statusLabel":"","aliases":["Yokohama Gom Tire Test Center of Hokkaido"],"osmType":"way","osmId":936543921,"osmDate":null,"officialAreaKm2":null,"areaSourceLabel":"","areaSourceUrl":"","boundarySourceLabel":"© OpenStreetMap contributors","boundarySourceUrl":"https://www.openstreetmap.org/copyright","geometryFile":"attractions/large-industrial-complex-W936543921.geojson"},"geometry":{"type":"Polygon","coordinates":[[[142.3594183,43.6984451],[142.359429,43.6987631],[142.3617303,43.6987282],[142.36283,43.698767],[142.3633128,43.698383],[142.3655176,43.6990152],[142.370249,43.6907847],[142.3710054,43.6902145],[142.3717779,43.6889578],[142.370984,43.6887522],[142.3676741,43.6888996],[142.3670143,43.6900633],[142.3663169,43.6898926],[142.365185,43.6906994],[142.3640478,43.6915062],[142.3628676,43.6908662],[142.3626476,43.6910679],[142.3627496,43.6912153],[142.3622936,43.6919562],[142.3624867,43.6922665],[142.3615962,43.6930616],[142.3611724,43.6936744],[142.3611885,43.6941748],[142.360416,43.6948225],[142.3601264,43.6952802],[142.3604268,43.6963546],[142.360062,43.6972738],[142.359429,43.698193],[142.3594183,43.6984451]]]}}
