{"type":"Feature","id":"attraction-large-park-W493660364","properties":{"id":"attraction-large-park-W493660364","kind":"attraction","name":"洲原公園","shortName":"洲原公園","context":"愛知県・刈谷市","subtype":"large-park","subtypeLabel":"大型都市公園・広域公園","statusLabel":"著名な公園","aliases":[],"osmType":"way","osmId":493660364,"osmDate":null,"officialAreaKm2":null,"areaSourceLabel":"","areaSourceUrl":"","boundarySourceLabel":"© OpenStreetMap contributors","boundarySourceUrl":"https://www.openstreetmap.org/copyright","geometryFile":"attractions/large-park-W493660364.geojson"},"geometry":{"type":"Polygon","coordinates":[[[137.0569499,35.057986],[137.0571156,35.0577414],[137.0575019,35.0574977],[137.0596842,35.0562665],[137.0586284,35.054964],[137.058725,35.0548739],[137.0588939,35.0547224],[137.0590597,35.0545769],[137.0592049,35.0542676],[137.0600381,35.0537942],[137.0607469,35.053822],[137.0606393,35.0532827],[137.0610362,35.0532221],[137.0609794,35.0530512],[137.0608734,35.0528602],[137.0607151,35.0526801],[137.060612,35.052458],[137.060537,35.052317],[137.0603195,35.0524082],[137.0600822,35.0526387],[137.059763,35.0527244],[137.0593593,35.0527463],[137.0591179,35.0528166],[137.0589811,35.052821],[137.0588819,35.0527463],[137.0587585,35.0527178],[137.0586351,35.0527727],[137.0581066,35.0527207],[137.0575879,35.052587],[137.0568297,35.0523859],[137.0564907,35.0523928],[137.0558148,35.0522984],[137.0554849,35.0523555],[137.0542591,35.0524104],[137.0542116,35.0525645],[137.0541786,35.0526717],[137.0540821,35.052799],[137.0530494,35.0535851],[137.0529689,35.0536927],[137.0528992,35.0538398],[137.0529314,35.0540264],[137.0534464,35.0549244],[137.0534088,35.054964],[137.0528268,35.0552692],[137.0530306,35.0558444],[137.0530092,35.0558883],[137.0518857,35.0562118],[137.0504396,35.0566282],[137.0502733,35.0563999],[137.0500534,35.056255],[137.0499515,35.0562616],[137.0499387,35.0562701],[137.0497422,35.0563999],[137.0494767,35.0567644],[137.049392,35.0568819],[137.0491334,35.0572408],[137.0491736,35.0573045],[137.0497345,35.0573831],[137.0499944,35.0574362],[137.0503001,35.0575438],[137.0505067,35.0575877],[137.0506864,35.0575921],[137.0510378,35.0575548],[137.0517859,35.0573288],[137.0522555,35.0572276],[137.0524781,35.0571991],[137.0526337,35.0572233],[137.052859,35.0573133],[137.0530923,35.0573308],[137.0533123,35.0574011],[137.0535188,35.0575724],[137.0539319,35.0574154],[137.0540995,35.0576525],[137.0542484,35.0576009],[137.0544563,35.057548],[137.0546727,35.0575129],[137.0548849,35.0574996],[137.0550883,35.0574949],[137.0553072,35.0575206],[137.0554612,35.0575445],[137.0556523,35.0575869],[137.0561474,35.0577787],[137.0564349,35.0578839],[137.0566924,35.0579608],[137.0568278,35.0579827],[137.0569499,35.057986]]]}}
