{"type":"Feature","id":"attraction-large-airport-W57011474","properties":{"id":"attraction-large-airport-W57011474","kind":"attraction","name":"喜界空港","shortName":"喜界空港","context":"日本","subtype":"airport","subtypeLabel":"空港・飛行場","statusLabel":"","aliases":["Kikai Airport"],"osmType":"way","osmId":57011474,"osmDate":null,"officialAreaKm2":null,"areaSourceLabel":"","areaSourceUrl":"","boundarySourceLabel":"© OpenStreetMap contributors","boundarySourceUrl":"https://www.openstreetmap.org/copyright","geometryFile":"attractions/large-airport-W57011474.geojson"},"geometry":{"type":"Polygon","coordinates":[[[129.9277728,28.3208144],[129.927762,28.3209339],[129.9344273,28.3233687],[129.9343974,28.3235629],[129.9342711,28.3237877],[129.9338896,28.3244666],[129.9236202,28.3205232],[129.9220927,28.3199343],[129.9213482,28.3196655],[129.9218016,28.3187947],[129.9218898,28.3186252],[129.9264561,28.3203539],[129.9267906,28.3197764],[129.9270237,28.3193739],[129.9275351,28.3195876],[129.9278401,28.3197098],[129.9280091,28.3197798],[129.9280477,28.3197954],[129.9279777,28.320004],[129.9281708,28.3200901],[129.9279492,28.3204934],[129.9277728,28.3208144]]]}}
