{"type":"Feature","id":"attraction-large-park-W575570441","properties":{"id":"attraction-large-park-W575570441","kind":"attraction","name":"三ツ池公園","shortName":"三ツ池公園","context":"日本","subtype":"large-park","subtypeLabel":"大型都市公園・広域公園","statusLabel":"著名な公園","aliases":[],"osmType":"way","osmId":575570441,"osmDate":null,"officialAreaKm2":null,"areaSourceLabel":"","areaSourceUrl":"","boundarySourceLabel":"© OpenStreetMap contributors","boundarySourceUrl":"https://www.openstreetmap.org/copyright","geometryFile":"attractions/large-park-W575570441.geojson"},"geometry":{"type":"Polygon","coordinates":[[[139.6624893,35.5267037],[139.6612313,35.5268543],[139.6610007,35.5262475],[139.6609604,35.5260903],[139.6609738,35.5260444],[139.660829,35.5258785],[139.6605608,35.5257672],[139.6605742,35.5256886],[139.6606627,35.5257083],[139.6607834,35.5256777],[139.6608317,35.5255533],[139.6606627,35.5253983],[139.6605957,35.525311],[139.6605045,35.5252084],[139.6604562,35.5250839],[139.6603891,35.5250425],[139.6602792,35.5246845],[139.6603355,35.5245579],[139.6604186,35.5244836],[139.6602583,35.5242974],[139.6602175,35.5242501],[139.6600002,35.5240405],[139.6598473,35.5239401],[139.6596676,35.5238637],[139.6596783,35.5237785],[139.6596462,35.5237589],[139.6594799,35.5238222],[139.6592653,35.5238877],[139.6591736,35.5238937],[139.6590668,35.5239008],[139.6588629,35.5238418],[139.6587981,35.5238012],[139.6585143,35.5236235],[139.6582782,35.5234991],[139.6581897,35.523534],[139.6580395,35.5235668],[139.6579134,35.5235559],[139.6575782,35.5233245],[139.6571973,35.5230494],[139.6569613,35.5228726],[139.6567628,35.5227765],[139.6566233,35.522746],[139.6564865,35.5226674],[139.6564087,35.5225342],[139.6564054,35.522471],[139.6564007,35.5223792],[139.6564381,35.5221996],[139.6564516,35.5221347],[139.6564811,35.5219688],[139.6564823,35.521883],[139.6564838,35.5217724],[139.6564935,35.5217063],[139.6564972,35.5216807],[139.6565777,35.5215431],[139.6567096,35.5213926],[139.6569318,35.5211393],[139.6571678,35.5209777],[139.6572724,35.5208839],[139.6573676,35.5207692],[139.6576305,35.5210006],[139.6580945,35.5206339],[139.6581203,35.5206472],[139.6589407,35.5210716],[139.6589984,35.5210727],[139.6594517,35.5206666],[139.6595469,35.520528],[139.6596663,35.520182],[139.6596891,35.5200619],[139.6596703,35.5200019],[139.6596743,35.5199484],[139.6597454,35.5197563],[139.6598466,35.5196462],[139.6598868,35.5196026],[139.659901,35.5195871],[139.6599613,35.5196428],[139.6600699,35.5198491],[139.6601558,35.5197738],[139.6602564,35.5197126],[139.6603211,35.5196762],[139.6603999,35.5196319],[139.6605863,35.5195718],[139.6606144,35.519371],[139.6607432,35.5194081],[139.6607542,35.5194172],[139.6613359,35.5198993],[139.6618509,35.5203446],[139.6621924,35.5206212],[139.6624061,35.5207943],[139.662728,35.5210607],[139.6627756,35.521094],[139.6628051,35.5211103],[139.6627951,35.5211862],[139.662779,35.5212604],[139.6630646,35.5216359],[139.6633972,35.5221489],[139.6634294,35.522221],[139.6634616,35.5227198],[139.6635085,35.5237261],[139.6635367,35.524452],[139.6635032,35.5246124],[139.663412,35.5248078],[139.6632417,35.5250152],[139.6630083,35.5253044],[139.6629198,35.5254387],[139.6628809,35.5256002],[139.6628943,35.5257519],[139.662952,35.5259429],[139.6630687,35.5262551],[139.6631947,35.5265967],[139.6632081,35.5266731],[139.6631706,35.5267375],[139.6631102,35.5267648],[139.6627428,35.5268095],[139.6626838,35.5267932],[139.6625537,35.5268237],[139.6624893,35.5267037]]]}}
