{"type":"Feature","id":"attraction-large-park-W38748023","properties":{"id":"attraction-large-park-W38748023","kind":"attraction","name":"武蔵野中央公園","shortName":"武蔵野中央公園","context":"日本","subtype":"large-park","subtypeLabel":"大型都市公園・広域公園","statusLabel":"著名な公園","aliases":["Musashino Central Park"],"osmType":"way","osmId":38748023,"osmDate":null,"officialAreaKm2":null,"areaSourceLabel":"","areaSourceUrl":"","boundarySourceLabel":"© OpenStreetMap contributors","boundarySourceUrl":"https://www.openstreetmap.org/copyright","geometryFile":"attractions/large-park-W38748023.geojson"},"geometry":{"type":"Polygon","coordinates":[[[139.5581137,35.7203968],[139.5574089,35.7191884],[139.5566805,35.7194715],[139.5561779,35.7186212],[139.5560683,35.7186669],[139.5559703,35.7185114],[139.5562938,35.7183908],[139.5560085,35.7179008],[139.5566566,35.7176329],[139.5574193,35.7173173],[139.5577741,35.7171714],[139.5582705,35.7169678],[139.5583129,35.7170314],[139.5586994,35.7168729],[139.5587069,35.7168849],[139.558769,35.7168678],[139.5588636,35.7168502],[139.5591769,35.7167276],[139.5591934,35.7167659],[139.5593119,35.716959],[139.5596825,35.7175633],[139.5597285,35.717544],[139.5603964,35.7172796],[139.5609061,35.7181782],[139.5610898,35.7184808],[139.560758,35.7188746],[139.5607363,35.7189926],[139.5606443,35.7189618],[139.5605724,35.7189205],[139.5605625,35.7189898],[139.5607862,35.719385],[139.5581137,35.7203968]]]}}
