{"type":"Feature","id":"attraction-large-park-W87650570","properties":{"id":"attraction-large-park-W87650570","kind":"attraction","name":"川越運動公園","shortName":"川越運動公園","context":"日本","subtype":"large-park","subtypeLabel":"大型都市公園・広域公園","statusLabel":"著名な公園","aliases":[],"osmType":"way","osmId":87650570,"osmDate":null,"officialAreaKm2":null,"areaSourceLabel":"","areaSourceUrl":"","boundarySourceLabel":"© OpenStreetMap contributors","boundarySourceUrl":"https://www.openstreetmap.org/copyright","geometryFile":"attractions/large-park-W87650570.geojson"},"geometry":{"type":"Polygon","coordinates":[[[139.5254486,35.9303993],[139.5253547,35.9300614],[139.5252601,35.9297481],[139.5250019,35.9291239],[139.5256661,35.9290062],[139.5253298,35.927703],[139.5262883,35.9274423],[139.5276335,35.9272406],[139.528735,35.9275264],[139.5298681,35.927669],[139.5299426,35.9277374],[139.5303085,35.9278163],[139.5304066,35.9278612],[139.5305876,35.9280643],[139.5306627,35.9282],[139.5307549,35.9283614],[139.5308285,35.9287552],[139.530809,35.929146],[139.5307907,35.9292178],[139.5304285,35.9299693],[139.530232,35.9302403],[139.5301637,35.9302728],[139.5301926,35.9303367],[139.5297708,35.9305111],[139.5295521,35.9308273],[139.5284765,35.9303384],[139.5284861,35.9303166],[139.527913,35.9300527],[139.5271622,35.9300873],[139.5266697,35.9301941],[139.5266081,35.9301679],[139.5259791,35.9303168],[139.5258093,35.9303611],[139.5254486,35.9303993]]]}}
