{"type":"Feature","id":"attraction-large-military-base-R5996317","properties":{"id":"attraction-large-military-base-R5996317","kind":"attraction","name":"金武ブルー・ビーチ訓練場","shortName":"金武ブルー・ビーチ訓練場","context":"日本","subtype":"military-base","subtypeLabel":"基地・駐屯地・演習場","statusLabel":"","aliases":[],"osmType":"relation","osmId":5996317,"osmDate":null,"officialAreaKm2":null,"areaSourceLabel":"","areaSourceUrl":"","boundarySourceLabel":"© OpenStreetMap contributors","boundarySourceUrl":"https://www.openstreetmap.org/copyright","geometryFile":"attractions/large-military-base-R5996317.geojson"},"geometry":{"type":"Polygon","coordinates":[[[127.9356388,26.4407017],[127.9358883,26.4409274],[127.9362048,26.4411724],[127.9364569,26.4412828],[127.9368968,26.4413933],[127.9369236,26.440351],[127.9377068,26.4407161],[127.9383291,26.4409514],[127.9391927,26.4411532],[127.9399116,26.4411964],[127.9406626,26.4411339],[127.9412259,26.4409995],[127.941934,26.4407065],[127.9424275,26.4403606],[127.9431356,26.4397362],[127.9436238,26.439424],[127.9441709,26.4392703],[127.9446966,26.4392559],[127.946027,26.4391166],[127.9461933,26.4387083],[127.9465366,26.4381031],[127.9469121,26.4378004],[127.9472501,26.4376419],[127.9476417,26.4375555],[127.9478938,26.4373825],[127.948103,26.4372288],[127.9482103,26.4370223],[127.9483552,26.4368638],[127.9485107,26.4367965],[127.9488004,26.4368061],[127.9492028,26.4369022],[127.9494817,26.4370799],[127.9497338,26.4373345],[127.9502488,26.4382087],[127.9506619,26.4392943],[127.9506672,26.4396882],[127.9505546,26.4402982],[127.9503615,26.4408313],[127.9500825,26.4414173],[127.949707,26.4420754],[127.94931,26.4426037],[127.9490794,26.4428583],[127.9487736,26.4429784],[127.9484142,26.4430072],[127.9470731,26.4429736],[127.9465152,26.4430552],[127.945732,26.443281],[127.9451043,26.4436172],[127.9445679,26.4440591],[127.944305,26.4444722],[127.9442246,26.4449477],[127.9436345,26.4449237],[127.9433314,26.4444698],[127.9429237,26.4444097],[127.9413466,26.4428967],[127.9409603,26.442731],[127.9393752,26.4429535],[127.9387529,26.4430408],[127.9382218,26.4430793],[127.9380045,26.4436148],[127.9352124,26.442695],[127.9356737,26.4418472],[127.9356388,26.4407017]]]}}
