{"type":"Feature","id":"attraction-large-industrial-complex-W620964350","properties":{"id":"attraction-large-industrial-complex-W620964350","kind":"attraction","name":"住友金属鉱山 磯浦工場","shortName":"住友金属鉱山 磯浦工場","context":"日本","subtype":"industrial-complex","subtypeLabel":"工業地帯・大規模工場","statusLabel":"","aliases":["Sumitomo Metal Mining Co., Ltd."],"osmType":"way","osmId":620964350,"osmDate":null,"officialAreaKm2":null,"areaSourceLabel":"","areaSourceUrl":"","boundarySourceLabel":"© OpenStreetMap contributors","boundarySourceUrl":"https://www.openstreetmap.org/copyright","geometryFile":"attractions/large-industrial-complex-W620964350.geojson"},"geometry":{"type":"Polygon","coordinates":[[[133.245146,33.9499973],[133.2443574,33.949866],[133.2433462,33.9499194],[133.2429895,33.9499127],[133.2425845,33.9498348],[133.2411629,33.9493298],[133.2405889,33.9491051],[133.2366423,33.9483204],[133.2358253,33.948244],[133.2359889,33.9491073],[133.2359809,33.9500707],[133.2359916,33.9507804],[133.2359888,33.9520833],[133.2354203,33.9561115],[133.2430426,33.9568677],[133.2436262,33.9527552],[133.2444011,33.9528371],[133.2446072,33.9519067],[133.2446578,33.9517216],[133.24469,33.9512811],[133.245146,33.9499973]]]}}
