{"type":"Feature","id":"attraction-large-park-W551450924","properties":{"id":"attraction-large-park-W551450924","kind":"attraction","name":"各務野自然遺産の森","shortName":"各務野自然遺産の森","context":"日本","subtype":"large-park","subtypeLabel":"大型都市公園・広域公園","statusLabel":"著名な公園","aliases":[],"osmType":"way","osmId":551450924,"osmDate":null,"officialAreaKm2":null,"areaSourceLabel":"","areaSourceUrl":"","boundarySourceLabel":"© OpenStreetMap contributors","boundarySourceUrl":"https://www.openstreetmap.org/copyright","geometryFile":"attractions/large-park-W551450924.geojson"},"geometry":{"type":"Polygon","coordinates":[[[136.932714,35.4291211],[136.933642,35.4291998],[136.9337654,35.4290118],[136.933186,35.4283474],[136.9329178,35.4280764],[136.931861,35.4274907],[136.9310456,35.4271847],[136.9303912,35.4271541],[136.9304019,35.4269661],[136.9308311,35.4267694],[136.9307184,35.4266427],[136.9300474,35.4267458],[136.929102,35.4268217],[136.9284495,35.4262683],[136.9281565,35.4260947],[136.9282039,35.4272705],[136.9279721,35.4274863],[136.9274569,35.4279584],[136.9267005,35.4282994],[136.9264215,35.4287452],[136.926282,35.4293047],[136.9268292,35.4302882],[136.9270277,35.4305898],[136.9263456,35.4316609],[136.9261325,35.4319105],[136.9281166,35.4331365],[136.9288889,35.4321709],[136.9300474,35.4319864],[136.9317385,35.431509],[136.9329636,35.4304349],[136.9323224,35.4294577],[136.932714,35.4291211]]]}}
