{"type":"Feature","id":"attraction-large-park-W693873811","properties":{"id":"attraction-large-park-W693873811","kind":"attraction","name":"佐倉城址公園","shortName":"佐倉城址公園","context":"日本","subtype":"large-park","subtypeLabel":"大型都市公園・広域公園","statusLabel":"著名な公園","aliases":["Sakura Castle Ruins Park"],"osmType":"way","osmId":693873811,"osmDate":null,"officialAreaKm2":null,"areaSourceLabel":"","areaSourceUrl":"","boundarySourceLabel":"© OpenStreetMap contributors","boundarySourceUrl":"https://www.openstreetmap.org/copyright","geometryFile":"attractions/large-park-W693873811.geojson"},"geometry":{"type":"Polygon","coordinates":[[[140.2192617,35.7193224],[140.2210021,35.7200825],[140.2222052,35.719549],[140.2223688,35.7195983],[140.2218234,35.7198535],[140.2216935,35.7199552],[140.2216957,35.7199724],[140.2198309,35.7208881],[140.2203244,35.7216111],[140.2214777,35.7211865],[140.2220356,35.721953],[140.2221939,35.7222317],[140.2223468,35.7221511],[140.2223629,35.7222186],[140.2219766,35.7225148],[140.2213195,35.7224778],[140.22118,35.7224473],[140.2213114,35.7238845],[140.2214,35.7238932],[140.2213946,35.7245072],[140.2212954,35.7245225],[140.2213088,35.7246597],[140.2211881,35.7248295],[140.2211988,35.7250472],[140.2213517,35.7250756],[140.2213973,35.725241],[140.2216923,35.7252214],[140.2216789,35.725032],[140.2218546,35.7250015],[140.2219444,35.7253684],[140.2219404,35.7255023],[140.2219901,35.7257375],[140.2220021,35.7257593],[140.2219525,35.7257963],[140.2218741,35.7258295],[140.2215414,35.7259624],[140.2212424,35.7261049],[140.2211961,35.7261665],[140.2210218,35.7262405],[140.219619,35.7268763],[140.2192998,35.7269569],[140.2191737,35.726909],[140.2190828,35.7268417],[140.2191011,35.7267679],[140.2194983,35.7266315],[140.2200946,35.7263737],[140.2200782,35.7263266],[140.2207578,35.7260143],[140.2208678,35.7259931],[140.2205229,35.725572],[140.2201796,35.7257528],[140.2202627,35.725879],[140.2198952,35.7259509],[140.2195734,35.7259923],[140.219214,35.7259727],[140.2188385,35.7258899],[140.2183691,35.725731],[140.2177387,35.7253913],[140.2168858,35.7245965],[140.2167651,35.7243635],[140.2164191,35.7240195],[140.2163829,35.7240219],[140.2163494,35.7240407],[140.2163313,35.7240467],[140.2163085,35.724038],[140.2162789,35.7240201],[140.2162139,35.7239498],[140.2161596,35.723909],[140.2161053,35.723885],[140.2160153,35.7238853],[140.2158954,35.7239209],[140.2155212,35.7240679],[140.2154783,35.724077],[140.2154252,35.7240468],[140.2151598,35.7238496],[140.2149734,35.7237005],[140.2147812,35.7235639],[140.2147923,35.7235143],[140.2150659,35.7232116],[140.2151792,35.7231103],[140.2151269,35.7230543],[140.2151678,35.7230325],[140.2150863,35.7229711],[140.2150311,35.7229165],[140.214913,35.7228024],[140.2148212,35.7227146],[140.214748,35.7226456],[140.2147112,35.7226008],[140.2146735,35.7225426],[140.2146562,35.7225039],[140.2146381,35.7224631],[140.2146293,35.7224175],[140.2146173,35.7222656],[140.2146334,35.7221043],[140.2146474,35.7220266],[140.214681,35.7218827],[140.2147286,35.7217499],[140.2147607,35.7216891],[140.2148145,35.7216133],[140.2148614,35.7215484],[140.2150472,35.7213837],[140.215107,35.7213303],[140.2152127,35.7212304],[140.215255,35.7211868],[140.215267,35.7211704],[140.2152748,35.7211549],[140.2152658,35.7211209],[140.215261,35.7211049],[140.2151577,35.7210053],[140.2150498,35.7208882],[140.2150425,35.7208723],[140.2150392,35.7208104],[140.2150465,35.72077],[140.2150531,35.7207563],[140.2151042,35.7207205],[140.2157112,35.7203616],[140.2157512,35.7203527],[140.2157666,35.7203552],[140.2159031,35.7204228],[140.2159169,35.7204276],[140.216,35.7204384],[140.2160204,35.7204342],[140.2162533,35.7203289],[140.2163494,35.7202778],[140.2163634,35.7202759],[140.216399,35.7202838],[140.2164245,35.7202773],[140.2166229,35.7203993],[140.2166786,35.7204074],[140.2175215,35.720849],[140.2192617,35.7193224]]]}}
