{"type":"Feature","id":"attraction-large-park-W489711494","properties":{"id":"attraction-large-park-W489711494","kind":"attraction","name":"府民の森 なるかわ園地","shortName":"府民の森 なるかわ園地","context":"日本","subtype":"large-park","subtypeLabel":"大型都市公園・広域公園","statusLabel":"","aliases":[],"osmType":"way","osmId":489711494,"osmDate":null,"officialAreaKm2":null,"areaSourceLabel":"","areaSourceUrl":"","boundarySourceLabel":"© OpenStreetMap contributors","boundarySourceUrl":"https://www.openstreetmap.org/copyright","geometryFile":"attractions/large-park-W489711494.geojson"},"geometry":{"type":"Polygon","coordinates":[[[135.6648048,34.6514979],[135.6647793,34.651371],[135.664731,34.6513269],[135.6646868,34.6511702],[135.6646868,34.6510996],[135.6646734,34.6510423],[135.6645459,34.6508481],[135.6644735,34.6507322],[135.6641906,34.6504939],[135.6641759,34.6502326],[135.6641685,34.6500605],[135.6641417,34.6498454],[135.6640431,34.6497218],[135.6635925,34.6495409],[135.6633082,34.6496016],[135.6630306,34.6497053],[135.6626316,34.6500219],[135.6623714,34.6502194],[135.6619999,34.650504],[135.6618028,34.6506386],[135.6615507,34.6507456],[135.6613173,34.6508868],[135.6610236,34.6509166],[135.6607742,34.6508262],[135.6604349,34.6506629],[135.6600486,34.650504],[135.6598743,34.6503893],[135.6595886,34.6502436],[135.6593151,34.6502834],[135.6591514,34.650312],[135.6590656,34.6506099],[135.6591119,34.6506938],[135.6592406,34.6509497],[135.6594096,34.6512366],[135.6595605,34.6515388],[135.6595196,34.6518213],[135.6593171,34.6521886],[135.6590274,34.6525064],[135.658389,34.6528638],[135.6576434,34.6532963],[135.6572786,34.653614],[135.6570104,34.6538302],[135.6569165,34.6541435],[135.6567824,34.6546069],[135.656954,34.6548231],[135.6575817,34.6547878],[135.6586599,34.6546466],[135.6592607,34.6545495],[135.6598186,34.6543862],[135.6607896,34.6542803],[135.6613046,34.6542671],[135.6613958,34.6544215],[135.6614709,34.6548054],[135.6615835,34.6550878],[135.6616211,34.6554232],[135.6615513,34.655838],[135.6615064,34.6558854],[135.6613777,34.6557972],[135.6613053,34.6557696],[135.6612221,34.6557751],[135.6611604,34.6558391],[135.6609834,34.6558755],[135.6606971,34.655881],[135.660457,34.6558865],[135.6600091,34.6558921],[135.6598837,34.6559693],[135.659818,34.6561127],[135.6597831,34.6562473],[135.6598099,34.6565451],[135.6598421,34.6568011],[135.6598931,34.6570614],[135.6599896,34.6573924],[135.660231,34.6577343],[135.6603008,34.6581447],[135.6604979,34.6583565],[135.6607393,34.6585154],[135.6609405,34.6586433],[135.6615467,34.6587492],[135.6617183,34.6589213],[135.6618149,34.6590802],[135.6620831,34.6593228],[135.6624318,34.659442],[135.6625659,34.6596273],[135.6622762,34.6597156],[135.6616486,34.6598082],[135.6613388,34.6598766],[135.6605985,34.660073],[135.6598247,34.6605738],[135.6588457,34.661721],[135.6584889,34.6617475],[135.6582046,34.6617607],[135.658159,34.6612665],[135.6580035,34.6609885],[135.65729,34.6610415],[135.6568126,34.6611165],[135.6565068,34.6612886],[135.656024,34.6614386],[135.6558952,34.6617784],[135.6559274,34.6622417],[135.6563137,34.6623961],[135.6570003,34.6625549],[135.6573597,34.6626255],[135.6579659,34.6628197],[135.6584058,34.6629609],[135.6585882,34.6627755],[135.6587746,34.6626101],[135.6590187,34.6624446],[135.6592654,34.6623652],[135.6594451,34.6623365],[135.6596275,34.6623498],[135.659936,34.6623652],[135.6602941,34.6625174],[135.6606588,34.6626476],[135.6609512,34.6628086],[135.6615467,34.6630337],[135.6619383,34.6633072],[135.6621904,34.6635631],[135.6624257,34.6637694],[135.6626712,34.6640066],[135.662879,34.6641753],[135.6632411,34.6644699],[135.6635952,34.6647037],[135.6641048,34.6650479],[135.664432,34.6653346],[135.6646573,34.6655332],[135.6648451,34.6658729],[135.6648719,34.6660362],[135.6644106,34.6659347],[135.6638956,34.665895],[135.6631714,34.6657097],[135.6627476,34.6656214],[135.662179,34.6655464],[135.661605,34.6654802],[135.6612496,34.6654472],[135.6610699,34.6654869],[135.6608285,34.6655266],[135.6606273,34.66552],[135.6603591,34.6655001],[135.6601097,34.6655067],[135.6598495,34.6654273],[135.6595839,34.6654119],[135.659305,34.6654847],[135.6589241,34.6655442],[135.6586291,34.6655508],[135.6585888,34.6657494],[135.6584628,34.6659148],[135.6583236,34.6661275],[135.6579884,34.6667121],[135.6578596,34.6670275],[135.6578087,34.667268],[135.6577255,34.6673937],[135.6577989,34.6675672],[135.657984,34.6678032],[135.6581154,34.6680393],[135.65833,34.668443],[135.6583998,34.6687871],[135.6584239,34.6689834],[135.6585017,34.6692327],[135.6584856,34.6694577],[135.6588182,34.6694687],[135.6592795,34.6694776],[135.6597409,34.6693805],[135.6600091,34.6692901],[135.6602719,34.6690253],[135.6605187,34.6688025],[135.6608245,34.6687253],[135.6614119,34.6685511],[135.6617927,34.6683922],[135.6621186,34.6681959],[135.6623064,34.668165],[135.6624888,34.6681871],[135.6627194,34.6681981],[135.6628884,34.6682643],[135.6629414,34.6682885],[135.6629696,34.6682952],[135.6630232,34.6682808],[135.6631171,34.6682213],[135.6632284,34.6681496],[135.6633893,34.6680481],[135.6635221,34.6679632],[135.6635942,34.6679168],[135.6636418,34.6678959],[135.6637169,34.6678744],[135.6638208,34.6678722],[135.6638463,34.6678865],[135.6638946,34.6678821],[135.6640005,34.6678655],[135.6642486,34.6678622],[135.6643532,34.6678677],[135.6644109,34.6678468],[135.6644431,34.6678027],[135.6645008,34.6677144],[135.6645504,34.6676604],[135.6646376,34.6675931],[135.6647475,34.6675324],[135.6648334,34.6674971],[135.6650003,34.6674563],[135.6652002,34.667399],[135.6654349,34.6673284],[135.6657312,34.6672081],[135.6659371,34.6671056],[135.6661101,34.6670162],[135.6662536,34.6669578],[135.6664615,34.6668629],[135.6665473,34.6668199],[135.6665701,34.666778],[135.6665969,34.6667118],[135.6666372,34.6666478],[135.6667042,34.6665849],[135.6667833,34.6665496],[135.6668222,34.6665154],[135.6669228,34.6663864],[135.6669966,34.6662904],[135.6671173,34.6662981],[135.6672339,34.6662915],[135.6673265,34.666275],[135.6673818,34.6662634],[135.6674274,34.6662325],[135.6674569,34.6662011],[135.6675126,34.6661305],[135.6675722,34.6660533],[135.6676078,34.6660119],[135.6676648,34.6659733],[135.6677231,34.6659347],[135.6677714,34.6659137],[135.6678371,34.6658784],[135.6678934,34.6658288],[135.6679846,34.6657505],[135.6680544,34.6656678],[135.6681321,34.6655641],[135.6682072,34.6654494],[135.6682596,34.6653832],[135.6683414,34.665328],[135.6684205,34.6652905],[135.6686096,34.6652243],[135.6688563,34.6651339],[135.6689985,34.6650688],[135.669079,34.6650004],[135.6691232,34.6649442],[135.6691903,34.6648162],[135.6692332,34.6647247],[135.66926,34.6646849],[135.669319,34.6646375],[135.6693941,34.6646066],[135.6695188,34.6646055],[135.6696181,34.6646331],[135.6697187,34.6646651],[135.6698045,34.6646849],[135.6699118,34.6646827],[135.6699976,34.6646772],[135.6700781,34.6646629],[135.6701884,34.6646645],[135.6702863,34.6646965],[135.6703299,34.6647031],[135.6703835,34.6647026],[135.6704754,34.6646783],[135.6705907,34.6646546],[135.6707034,34.6646425],[135.6708201,34.6646221],[135.6707999,34.6645184],[135.6707289,34.6643783],[135.6706216,34.664172],[135.6703627,34.6637253],[135.6700905,34.6632377],[135.6700543,34.6630822],[135.6700583,34.6629212],[135.670171,34.6626046],[135.6703104,34.6623773],[135.6704727,34.6623354],[135.6705572,34.6622858],[135.6706216,34.6621611],[135.6707154,34.6619692],[135.671264,34.6614673],[135.671325,34.6613647],[135.6714054,34.6612643],[135.6713951,34.6611893],[135.6713816,34.661127],[135.6713696,34.6610751],[135.6713592,34.6610305],[135.6713451,34.6610018],[135.6712935,34.6609521],[135.6712432,34.6609058],[135.6712177,34.6608832],[135.6711989,34.6608622],[135.671158,34.6608043],[135.6711084,34.6607188],[135.6710729,34.6606731],[135.6709978,34.6606179],[135.6709354,34.6605721],[135.6709106,34.6605434],[135.6708543,34.6604629],[135.6708422,34.6604276],[135.6708378,34.6603719],[135.6708217,34.6603179],[135.6708063,34.6602859],[135.6707849,34.6602583],[135.6707513,34.6602175],[135.670746,34.6600945],[135.6707144,34.660047],[135.6706729,34.660004],[135.6706445,34.6599662],[135.6706135,34.6599183],[135.6705964,34.6598943],[135.6705428,34.6598435],[135.6705093,34.6598088],[135.6704831,34.6597806],[135.6704509,34.6597288],[135.6704088,34.6596569],[135.6703856,34.6596073],[135.6703648,34.6595461],[135.6703427,34.659513],[135.6703202,34.6594805],[135.6703048,34.65946],[135.670276,34.6594297],[135.6702552,34.6594137],[135.6701948,34.6594165],[135.6701204,34.6594308],[135.6700232,34.6594501],[135.6699394,34.6594683],[135.6698495,34.6594953],[135.6697563,34.6595279],[135.6696725,34.659561],[135.6695759,34.6595924],[135.6694539,34.6596244],[135.6693667,34.6596415],[135.6692983,34.6596525],[135.6691515,34.659668],[135.6690355,34.6596856],[135.6690019,34.6597342],[135.6690328,34.6598776],[135.6690596,34.6600188],[135.6690596,34.6601842],[135.669073,34.6602835],[135.6690596,34.6603596],[135.6690207,34.6604104],[135.6689966,34.6605317],[135.6690113,34.6606111],[135.6689979,34.6606729],[135.6689335,34.6607413],[135.6688544,34.6607932],[135.6688004,34.6608268],[135.6687139,34.6608555],[135.6686623,34.6608682],[135.6685657,34.6608665],[135.6684873,34.6608533],[135.6682901,34.6608533],[135.6682251,34.6608814],[135.6681916,34.6609068],[135.6680883,34.6609134],[135.6679857,34.6608957],[135.6679146,34.6608803],[135.6678154,34.660882],[135.6677336,34.6609073],[135.6676605,34.6609283],[135.6676209,34.6609283],[135.6674942,34.6609073],[135.6674017,34.6609046],[135.6673453,34.6609222],[135.6673145,34.6609404],[135.6671529,34.6610596],[135.6671314,34.6610684],[135.6670885,34.6610728],[135.6669792,34.6610656],[135.6668813,34.6610507],[135.6668055,34.6610314],[135.6667284,34.6610077],[135.6666506,34.6609774],[135.6666084,34.6609564],[135.6665749,34.6609013],[135.6665179,34.6607937],[135.6664683,34.6606977],[135.6664341,34.6606288],[135.666416,34.6605792],[135.6663844,34.6604876],[135.666375,34.660433],[135.6663603,34.6603525],[135.6663569,34.6602725],[135.6663429,34.6602107],[135.6663301,34.6601522],[135.6663321,34.6600767],[135.6663543,34.6599945],[135.6664233,34.6599134],[135.6663999,34.659807],[135.6663744,34.6597441],[135.6665004,34.6595312],[135.6665769,34.6593801],[135.6666493,34.659262],[135.6667003,34.6591506],[135.6669068,34.6590624],[135.6670624,34.6589587],[135.6671938,34.6588881],[135.6672904,34.65878],[135.6674003,34.6586145],[135.6676605,34.6585505],[135.6680306,34.6585285],[135.6683471,34.6584733],[135.6685161,34.658438],[135.668846,34.6584336],[135.6691759,34.6583696],[135.6693717,34.6583167],[135.6695702,34.6582505],[135.6697147,34.6581937],[135.6697027,34.658165],[135.6696738,34.658123],[135.6696318,34.6580715],[135.6695996,34.6580279],[135.6695523,34.6579716],[135.669505,34.6579187],[135.6694718,34.6578831],[135.6694561,34.6578517],[135.6694306,34.6577849],[135.6694058,34.6577022],[135.6693823,34.657577],[135.6693582,34.6574341],[135.6693454,34.6573404],[135.6693327,34.6572742],[135.6693106,34.6572229],[135.669275,34.6571975],[135.6692093,34.6571589],[135.6691174,34.6570977],[135.6690403,34.6570491],[135.6689746,34.6569989],[135.6689169,34.6569504],[135.6688995,34.6569289],[135.6687996,34.6568324],[135.6687761,34.6568142],[135.6687178,34.6567789],[135.6685944,34.6566868],[135.6685515,34.6566503],[135.6685247,34.6566106],[135.6684804,34.6565356],[135.6684422,34.6564816],[135.6684147,34.6564485],[135.6683584,34.6563812],[135.6683316,34.6563481],[135.668288,34.6562758],[135.6682645,34.6562317],[135.6682437,34.6561627],[135.668229,34.656053],[135.6682021,34.6559421],[135.6681834,34.6558688],[135.6681565,34.6557667],[135.668125,34.6556895],[135.6681136,34.6556641],[135.6680969,34.6556266],[135.6680606,34.6555698],[135.6680104,34.6555097],[135.6679688,34.6554628],[135.6678702,34.6552758],[135.6678313,34.6551969],[135.667826,34.6551533],[135.6678233,34.6550116],[135.6678219,34.6549239],[135.6678669,34.6547788],[135.6678843,34.6547099],[135.6678742,34.6546663],[135.6678018,34.6545394],[135.6676979,34.6544081],[135.6676811,34.6543453],[135.6677213,34.6542951],[135.6677146,34.6542454],[135.6676855,34.6541925],[135.6676526,34.6541726],[135.667597,34.6541268],[135.6675413,34.6540766],[135.6674964,34.6540275],[135.6674461,34.653942],[135.6673455,34.6538621],[135.6673066,34.6538389],[135.6672979,34.6538179],[135.6671973,34.6537324],[135.6671645,34.6537153],[135.6670847,34.6536216],[135.6670257,34.6535515],[135.6668788,34.653471],[135.6668191,34.6534269],[135.666685,34.6533105],[135.6666481,34.6532917],[135.6665817,34.6532305],[135.6665536,34.6531571],[135.6665331,34.6530854],[135.6665184,34.65299],[135.6665077,34.6529216],[135.6664999,34.6528753],[135.6664704,34.6528366],[135.6663558,34.6528251],[135.6662344,34.6528179],[135.666162,34.6528168],[135.6660493,34.6528019],[135.6659266,34.6527798],[135.6657804,34.6527467],[135.665651,34.6527158],[135.6654847,34.6526805],[135.6653251,34.6526353],[135.6651743,34.6525195],[135.6651468,34.6524748],[135.6651052,34.6522359],[135.6650971,34.6521256],[135.6650898,34.6519888],[135.6650831,34.6518961],[135.6650381,34.6518211],[135.6649925,34.6517693],[135.664894,34.6516843],[135.664841,34.6516479],[135.664849,34.6515685],[135.6648048,34.6514979]]]}}
