{"type":"Feature","id":"attraction-large-park-W146432442","properties":{"id":"attraction-large-park-W146432442","kind":"attraction","name":"円山公園","shortName":"円山公園","context":"日本","subtype":"large-park","subtypeLabel":"大型都市公園・広域公園","statusLabel":"","aliases":["Maruyama Park"],"osmType":"way","osmId":146432442,"osmDate":null,"officialAreaKm2":null,"areaSourceLabel":"","areaSourceUrl":"","boundarySourceLabel":"© OpenStreetMap contributors","boundarySourceUrl":"https://www.openstreetmap.org/copyright","geometryFile":"attractions/large-park-W146432442.geojson"},"geometry":{"type":"Polygon","coordinates":[[[141.3138961,43.0569116],[141.3134962,43.0568605],[141.313435,43.0567711],[141.3136147,43.0557579],[141.3141037,43.0551799],[141.3143017,43.0550244],[141.3144477,43.054873],[141.314725,43.0545519],[141.3149863,43.0542352],[141.3150222,43.0540993],[141.3151386,43.0537493],[141.3152653,43.0533983],[141.31541,43.0527603],[141.3151655,43.0524716],[141.3149958,43.0522032],[141.3150124,43.0520814],[141.3150484,43.0520603],[141.3156461,43.051711],[141.3157725,43.0517717],[141.3159341,43.051865],[141.3160175,43.0517936],[141.3159417,43.0517163],[141.315802,43.0515277],[141.3157918,43.0513288],[141.3156426,43.0512198],[141.3155458,43.0510468],[141.3160794,43.0505177],[141.3171585,43.0469478],[141.3109158,43.0467114],[141.3096824,43.0465733],[141.3095506,43.0468736],[141.3093625,43.0473717],[141.308437,43.0474002],[141.3084341,43.0465754],[141.3066822,43.0459784],[141.3065371,43.0460138],[141.3063328,43.0458763],[141.3064352,43.0457899],[141.3064621,43.0456407],[141.3059245,43.0456302],[141.305656,43.045625],[141.3055429,43.0458763],[141.3053494,43.0460334],[141.3052311,43.0460373],[141.3050166,43.0459251],[141.3047757,43.0462383],[141.3046501,43.0465056],[141.3041996,43.04862],[141.3040028,43.0494812],[141.3039876,43.0498451],[141.3039919,43.0500733],[141.3037798,43.0500507],[141.3011293,43.0497687],[141.3009879,43.0497707],[141.3007849,43.0497987],[141.3005967,43.0498526],[141.2996406,43.0502029],[141.2991834,43.0503705],[141.2990422,43.0504401],[141.298948,43.0505316],[141.2988945,43.0506122],[141.2987628,43.0508486],[141.2986671,43.0510754],[141.2992053,43.052417],[141.2997466,43.0523397],[141.3020269,43.0520138],[141.3024597,43.0519545],[141.3030249,43.0520945],[141.3040852,43.0544025],[141.3044947,43.054911],[141.3054008,43.055725],[141.3055137,43.0557674],[141.3055966,43.0557135],[141.3056422,43.0552821],[141.3057625,43.0548883],[141.3055241,43.0541675],[141.3058406,43.053567],[141.3065428,43.0532098],[141.3073559,43.0525624],[141.307739,43.0521791],[141.3097081,43.0532171],[141.310138,43.0533764],[141.3105232,43.053575],[141.3106421,43.0536032],[141.3107562,43.0536126],[141.3108856,43.0536101],[141.3111538,43.0535658],[141.3113918,43.053521],[141.3117552,43.0534306],[141.3124597,43.0533504],[141.3126962,43.0534206],[141.312865,43.0535361],[141.3129309,43.053768],[141.3128878,43.0538191],[141.3127505,43.0540823],[141.3127548,43.0543869],[141.3127313,43.0544902],[141.3127294,43.0545466],[141.31275,43.0546129],[141.3127066,43.0547401],[141.3123536,43.0550194],[141.3123,43.0551589],[141.3122623,43.0553686],[141.3122136,43.0555339],[141.3121036,43.0560141],[141.3118839,43.0562748],[141.3116757,43.0566283],[141.3113181,43.0568323],[141.3111591,43.0569809],[141.313787,43.0573441],[141.3138051,43.0573037],[141.3138961,43.0569116]]]}}
