{"type":"Feature","id":"attraction-large-park-W55952292","properties":{"id":"attraction-large-park-W55952292","kind":"attraction","name":"大阪公立大学附属植物園","shortName":"大阪公立大学附属植物園","context":"日本","subtype":"botanical-garden","subtypeLabel":"植物園・植物公園","statusLabel":"","aliases":[],"osmType":"way","osmId":55952292,"osmDate":null,"officialAreaKm2":null,"areaSourceLabel":"","areaSourceUrl":"","boundarySourceLabel":"© OpenStreetMap contributors","boundarySourceUrl":"https://www.openstreetmap.org/copyright","geometryFile":"attractions/large-park-W55952292.geojson"},"geometry":{"type":"Polygon","coordinates":[[[135.6791814,34.7645469],[135.6792545,34.7647886],[135.6794384,34.7653962],[135.6794419,34.7656855],[135.679454,34.7666763],[135.6799453,34.7672082],[135.6812146,34.7679036],[135.6821587,34.7664608],[135.683481,34.7655151],[135.6837015,34.7651185],[135.6836243,34.7647946],[135.6825106,34.7638797],[135.6814742,34.7631032],[135.6805172,34.7631001],[135.6798794,34.7631552],[135.6792458,34.7634227],[135.6790495,34.7637841],[135.6790312,34.7641648],[135.6791814,34.7645469]]]}}
