{"type":"Feature","id":"attraction-large-industrial-complex-W605420897","properties":{"id":"attraction-large-industrial-complex-W605420897","kind":"attraction","name":"武豊火力発電所","shortName":"武豊火力発電所","context":"日本","subtype":"industrial-complex","subtypeLabel":"工業地帯・大規模工場","statusLabel":"","aliases":["Taketoyo Thermal Power Station","中部電力株式会社"],"osmType":"way","osmId":605420897,"osmDate":null,"officialAreaKm2":null,"areaSourceLabel":"","areaSourceUrl":"","boundarySourceLabel":"© OpenStreetMap contributors","boundarySourceUrl":"https://www.openstreetmap.org/copyright","geometryFile":"attractions/large-industrial-complex-W605420897.geojson"},"geometry":{"type":"Polygon","coordinates":[[[136.9258876,34.8193737],[136.9257743,34.8185994],[136.9258758,34.8185872],[136.925285,34.814078],[136.920741,34.813727],[136.9217229,34.8167853],[136.9219879,34.8194957],[136.9214942,34.8208891],[136.9210732,34.8243068],[136.9215292,34.8266583],[136.9217277,34.8273805],[136.9267971,34.8271679],[136.9263962,34.8237475],[136.9262023,34.8221365],[136.9259845,34.8221181],[136.9259831,34.8220629],[136.9261832,34.8220176],[136.9261759,34.8219448],[136.9261557,34.8217449],[136.9260942,34.8212266],[136.9260896,34.8211871],[136.9260821,34.8211241],[136.9259496,34.8199072],[136.9258876,34.8193737]]]}}
