{"type":"Feature","id":"attraction-large-park-R7707880","properties":{"id":"attraction-large-park-R7707880","kind":"attraction","name":"東京都檜原都民の森","shortName":"東京都檜原都民の森","context":"日本","subtype":"large-park","subtypeLabel":"大型都市公園・広域公園","statusLabel":"","aliases":["Forest of Tokyo Citizen"],"osmType":"relation","osmId":7707880,"osmDate":null,"officialAreaKm2":null,"areaSourceLabel":"","areaSourceUrl":"","boundarySourceLabel":"© OpenStreetMap contributors","boundarySourceUrl":"https://www.openstreetmap.org/copyright","geometryFile":"attractions/large-park-R7707880.geojson"},"geometry":{"type":"Polygon","coordinates":[[[139.0189804,35.7398275],[139.0195271,35.7399707],[139.0199827,35.7400155],[139.021396,35.7400505],[139.0217319,35.7400918],[139.0221704,35.7402246],[139.0224874,35.7404036],[139.023514,35.7409969],[139.024064,35.7412462],[139.0244889,35.7413478],[139.0253088,35.7416138],[139.0255674,35.741726],[139.0258758,35.7418394],[139.0262423,35.7418991],[139.0265215,35.741965],[139.0267841,35.7420905],[139.0271215,35.7423125],[139.0272957,35.7424575],[139.0273583,35.7426329],[139.0273657,35.7430506],[139.0273996,35.7433143],[139.0274593,35.7436104],[139.0276185,35.7439565],[139.0279085,35.744239],[139.0282382,35.7444697],[139.0284791,35.7444998],[139.0287201,35.7444385],[139.0289774,35.7444649],[139.0293902,35.7446175],[139.0299191,35.7445953],[139.0303955,35.7445024],[139.0311687,35.744494],[139.0315931,35.7445509],[139.0319454,35.7444321],[139.0322837,35.7441503],[139.0328687,35.7437074],[139.033298,35.7435483],[139.033706,35.7431715],[139.0342305,35.7428621],[139.0344991,35.7425232],[139.0343989,35.7422431],[139.034074,35.7419155],[139.0329992,35.7409702],[139.0319264,35.7400569],[139.0316343,35.7392415],[139.0316994,35.7386539],[139.0321681,35.73799],[139.0327764,35.7370897],[139.033201,35.7363367],[139.0334784,35.7354492],[139.0333588,35.734513],[139.0330921,35.7337128],[139.0326476,35.732544],[139.0318936,35.7315514],[139.0310069,35.7307215],[139.0300926,35.7300563],[139.0289459,35.7298664],[139.0279011,35.7295627],[139.0271833,35.7294766],[139.0262777,35.7292002],[139.0256182,35.7292908],[139.0252252,35.7296032],[139.0249254,35.7300387],[139.0246248,35.7301261],[139.024161,35.7300009],[139.0233741,35.7301373],[139.0229613,35.7304082],[139.0221988,35.7305605],[139.021646,35.7303801],[139.0204863,35.7304095],[139.0197218,35.7299703],[139.0187408,35.7295813],[139.0182951,35.7301998],[139.0180731,35.7306056],[139.0180075,35.730835],[139.0179665,35.7311353],[139.0179347,35.7312372],[139.0178203,35.731315],[139.0176432,35.7313844],[139.0174437,35.7315428],[139.0172584,35.7316698],[139.0169447,35.7318558],[139.0165643,35.7321473],[139.0163106,35.7324411],[139.0160129,35.7328968],[139.0160098,35.7329016],[139.0158684,35.7330413],[139.0157536,35.7331349],[139.0151316,35.7331914],[139.0150028,35.7332602],[139.0149461,35.7333525],[139.0148095,35.7338484],[139.0146701,35.7341776],[139.0146038,35.7343303],[139.0144765,35.734482],[139.0142584,35.734599],[139.0140603,35.7347553],[139.0139131,35.7349048],[139.0138092,35.7350542],[139.0136847,35.7353971],[139.0135895,35.7357474],[139.013536,35.7358756],[139.0134856,35.7359924],[139.0134443,35.7360885],[139.0132571,35.7363779],[139.0129504,35.7368507],[139.0128959,35.7369784],[139.0127998,35.73728],[139.0126907,35.7376368],[139.0125717,35.7380399],[139.0124357,35.7384993],[139.0122615,35.7387594],[139.0121511,35.7388381],[139.0121391,35.7389349],[139.0122144,35.7390091],[139.0123949,35.7390192],[139.0125864,35.73906],[139.0128283,35.7391359],[139.0130166,35.7391104],[139.0131829,35.7391006],[139.0133663,35.7391307],[139.0135677,35.739161],[139.0136911,35.7391322],[139.0138178,35.7390429],[139.0139312,35.7388895],[139.0140623,35.7387333],[139.0142444,35.7385476],[139.014472,35.7385036],[139.014676,35.7385413],[139.0152554,35.7386592],[139.0155807,35.7387556],[139.01578,35.738944],[139.015964,35.7390401],[139.0162386,35.7390484],[139.0166156,35.7390198],[139.0170927,35.7391196],[139.0172588,35.739207],[139.0174627,35.7395261],[139.0176135,35.7395958],[139.0179129,35.7396458],[139.018422,35.7396966],[139.0189804,35.7398275]],[[139.0319735,35.737859],[139.0315126,35.7382423],[139.0314103,35.7383276],[139.0310633,35.7382639],[139.0309187,35.738185],[139.0308626,35.7381612],[139.0308391,35.7380758],[139.0309431,35.737986],[139.0308693,35.7377508],[139.0309538,35.7373546],[139.0311485,35.7371949],[139.0314701,35.7375429],[139.0317176,35.7377184],[139.031874,35.7377518],[139.0319735,35.737859]]]}}
