{"type":"Feature","id":"attraction-large-park-R8618375","properties":{"id":"attraction-large-park-R8618375","kind":"attraction","name":"小幡緑地(本園)","shortName":"小幡緑地(本園)","context":"日本","subtype":"large-park","subtypeLabel":"大型都市公園・広域公園","statusLabel":"","aliases":[],"osmType":"relation","osmId":8618375,"osmDate":null,"officialAreaKm2":null,"areaSourceLabel":"","areaSourceUrl":"","boundarySourceLabel":"© OpenStreetMap contributors","boundarySourceUrl":"https://www.openstreetmap.org/copyright","geometryFile":"attractions/large-park-R8618375.geojson"},"geometry":{"type":"Polygon","coordinates":[[[136.9832563,35.2180775],[136.983165,35.2178287],[136.9831038,35.2177209],[136.9831308,35.217689],[136.9831293,35.2176006],[136.9830118,35.217558],[136.9824464,35.2174433],[136.9821673,35.2173867],[136.982135,35.2173802],[136.9821186,35.216908],[136.9821122,35.2168009],[136.9820877,35.2167335],[136.9819446,35.2164279],[136.9817984,35.2164295],[136.9817642,35.2162948],[136.9818893,35.2163203],[136.981917,35.2162379],[136.9818487,35.215888],[136.9817334,35.2156735],[136.9815885,35.2154727],[136.9814692,35.215358],[136.9814248,35.2152931],[136.9811441,35.2144148],[136.9810474,35.2141122],[136.9810015,35.2139034],[136.9812324,35.2138961],[136.9811839,35.2136428],[136.9812691,35.213668],[136.9823144,35.2139764],[136.9826058,35.2142278],[136.9828696,35.214351],[136.9829112,35.2143499],[136.9827439,35.2146644],[136.9829135,35.2147175],[136.9827665,35.2150196],[136.9861446,35.2162912],[136.9860363,35.2164065],[136.9860673,35.2165124],[136.9860718,35.216528],[136.9865146,35.2166932],[136.9868528,35.2168193],[136.9869523,35.2168535],[136.9870897,35.2168798],[136.9871829,35.2168881],[136.9873412,35.2168842],[136.9874702,35.2168386],[136.9876436,35.2167851],[136.9879985,35.2165882],[136.9886028,35.2161462],[136.9886705,35.2160634],[136.989511,35.2150346],[136.9896834,35.2149093],[136.9898249,35.2148425],[136.989961,35.2147997],[136.9902479,35.2147248],[136.9903781,35.2147126],[136.9905189,35.2147132],[136.9906748,35.2147489],[136.9907516,35.2147762],[136.9908321,35.2148364],[136.9908935,35.2149017],[136.9909675,35.2149986],[136.9910822,35.2151903],[136.9911474,35.2153178],[136.991223,35.2154127],[136.9913008,35.2154779],[136.9913873,35.2155207],[136.9915273,35.215562],[136.9916582,35.2155744],[136.9922766,35.2155782],[136.9924179,35.2155409],[136.9924716,35.2154615],[136.9925574,35.2154769],[136.9928436,35.2155991],[136.9938021,35.2160085],[136.9948259,35.2163631],[136.9948065,35.2164975],[136.9947045,35.2167358],[136.9946442,35.2168398],[136.9944182,35.2171483],[136.9943112,35.2174008],[136.9942199,35.2177274],[136.994195,35.2178163],[136.9940152,35.2180944],[136.9937845,35.2183589],[136.9937653,35.2184699],[136.9933032,35.2194181],[136.9932587,35.2195493],[136.9931305,35.2199268],[136.9930469,35.2201283],[136.9925822,35.2208317],[136.992552,35.2209206],[136.9924866,35.2214895],[136.9925487,35.2216775],[136.9925699,35.2217551],[136.9925299,35.2218178],[136.9924937,35.2218868],[136.9924173,35.2219109],[136.9923502,35.2219251],[136.9922603,35.2219174],[136.9917906,35.2218313],[136.9916686,35.2220017],[136.9916388,35.2221021],[136.9914088,35.2222242],[136.9911955,35.2223174],[136.9911392,35.2223239],[136.9910601,35.2223163],[136.9908281,35.2222407],[136.9907543,35.2222078],[136.9904521,35.2218979],[136.9897887,35.2213752],[136.9894286,35.2211877],[136.989322,35.2211539],[136.9889034,35.2209814],[136.9882356,35.2209613],[136.9868034,35.2208098],[136.9863588,35.2207444],[136.9860214,35.2206839],[136.9856343,35.2205907],[136.9851311,35.2203431],[136.984638,35.2201398],[136.9842039,35.2198592],[136.9839888,35.2195677],[136.9837579,35.2193444],[136.9836847,35.2192842],[136.9834912,35.2188854],[136.9835268,35.2186534],[136.9832563,35.2180775]]]}}
