{"type":"Feature","id":"attraction-large-park-W459589547","properties":{"id":"attraction-large-park-W459589547","kind":"attraction","name":"秋ヶ瀬公園","shortName":"秋ヶ瀬公園","context":"日本","subtype":"large-park","subtypeLabel":"大型都市公園・広域公園","statusLabel":"","aliases":[],"osmType":"way","osmId":459589547,"osmDate":null,"officialAreaKm2":null,"areaSourceLabel":"","areaSourceUrl":"","boundarySourceLabel":"© OpenStreetMap contributors","boundarySourceUrl":"https://www.openstreetmap.org/copyright","geometryFile":"attractions/large-park-W459589547.geojson"},"geometry":{"type":"Polygon","coordinates":[[[139.5975236,35.852359],[139.5966196,35.8531851],[139.5961449,35.8536069],[139.5951444,35.854483],[139.594211,35.8553134],[139.5931663,35.8562395],[139.5923241,35.8569873],[139.5928632,35.8573205],[139.5945704,35.8584014],[139.5945825,35.8583895],[139.5961328,35.8593574],[139.5974471,35.8587161],[139.5968745,35.85854],[139.5975209,35.8572471],[139.5980171,35.8563286],[139.5983215,35.8558085],[139.5985844,35.855389],[139.5990377,35.8548792],[139.5992254,35.8547227],[139.5995473,35.8543053],[139.5999362,35.8538096],[139.6002527,35.8534205],[139.6004579,35.8527443],[139.6010721,35.8522568],[139.6016676,35.8517525],[139.602656,35.8509807],[139.6027793,35.8509524],[139.603179,35.8508633],[139.6032206,35.8506611],[139.6033735,35.8505763],[139.6036752,35.8504926],[139.6037449,35.8504904],[139.6038428,35.8504437],[139.6043605,35.8502458],[139.604669,35.8502013],[139.6050284,35.8501882],[139.6052202,35.8502121],[139.6053516,35.8502013],[139.6055648,35.8502469],[139.6061013,35.850248],[139.6062971,35.8504089],[139.6068757,35.8508692],[139.6069783,35.850953],[139.6072861,35.8512073],[139.6074296,35.851366],[139.6077341,35.851725],[139.6088981,35.852474],[139.6094078,35.8519304],[139.6100394,35.8512152],[139.6108642,35.8502358],[139.611347,35.8496553],[139.6115307,35.8493966],[139.6117507,35.8490944],[139.6119223,35.8490248],[139.6121007,35.8487737],[139.6120014,35.8487253],[139.6113953,35.8483253],[139.6111083,35.8481242],[139.6108588,35.8481253],[139.6107448,35.8482536],[139.6102392,35.8480921],[139.6093058,35.8476312],[139.6090215,35.8464148],[139.6091087,35.8440454],[139.609216,35.8434146],[139.6092522,35.8429885],[139.6093434,35.8429102],[139.6094748,35.8429037],[139.6099724,35.8428939],[139.6102936,35.842509],[139.6102942,35.8419831],[139.6102909,35.8414977],[139.6102761,35.8409283],[139.6102741,35.8408751],[139.6103009,35.8408446],[139.6103787,35.8408321],[139.610435,35.8408267],[139.6105101,35.8408055],[139.6105537,35.8407821],[139.6105973,35.8407479],[139.6106188,35.8406756],[139.610663,35.8405418],[139.6106784,35.8404625],[139.6106845,35.8403771],[139.6108347,35.8399126],[139.6109527,35.8395642],[139.6109822,35.8395603],[139.6112699,35.8396114],[139.6116179,35.8396114],[139.6117185,35.8396252],[139.6123019,35.8397937],[139.6131052,35.8400307],[139.613191,35.8400894],[139.6134579,35.8405047],[139.6134941,35.8405341],[139.6136966,35.8405667],[139.6149103,35.8408613],[139.6152617,35.8408352],[139.6154454,35.8409711],[139.6154695,35.8410266],[139.6155259,35.8410391],[139.616472,35.8401212],[139.6159141,35.8398755],[139.6149217,35.8395298],[139.6148359,35.8395472],[139.6140178,35.8392754],[139.6138998,35.8392102],[139.6137657,35.8390971],[139.6136262,35.8389025],[139.6134679,35.8388286],[139.611754,35.8381154],[139.6112095,35.8378893],[139.610539,35.8377305],[139.6105059,35.8377293],[139.6104728,35.8377347],[139.6104442,35.8377424],[139.6104185,35.8377544],[139.6103972,35.8377645],[139.6103758,35.8377838],[139.6103581,35.8378093],[139.6101903,35.8383679],[139.6099535,35.8383168],[139.609328,35.840145],[139.6091315,35.840719],[139.6089614,35.8411564],[139.6086662,35.8417397],[139.6083931,35.8421879],[139.6079924,35.8428165],[139.6075471,35.8433482],[139.6069382,35.8439803],[139.6064904,35.844404],[139.6054075,35.8454233],[139.6044905,35.8462473],[139.6038278,35.8468635],[139.6032619,35.8473901],[139.6029127,35.847708],[139.6026231,35.8480549],[139.6021171,35.848497],[139.601567,35.8488556],[139.6012903,35.8490921],[139.6009866,35.8493313],[139.600575,35.8496343],[139.5998135,35.8502754],[139.5991402,35.8508795],[139.5983491,35.8516056],[139.5981292,35.8518166],[139.5978786,35.8520518],[139.5975236,35.852359]]]}}
