{"type":"Feature","id":"attraction-large-industrial-complex-W744908411","properties":{"id":"attraction-large-industrial-complex-W744908411","kind":"attraction","name":"小坂鉱山","shortName":"小坂鉱山","context":"日本","subtype":"industrial-complex","subtypeLabel":"工業地帯・大規模工場","statusLabel":"","aliases":[],"osmType":"way","osmId":744908411,"osmDate":null,"officialAreaKm2":null,"areaSourceLabel":"","areaSourceUrl":"","boundarySourceLabel":"© OpenStreetMap contributors","boundarySourceUrl":"https://www.openstreetmap.org/copyright","geometryFile":"attractions/large-industrial-complex-W744908411.geojson"},"geometry":{"type":"Polygon","coordinates":[[[140.7567701,40.3527504],[140.7547207,40.3517733],[140.7546511,40.3514074],[140.7541952,40.351156],[140.7539914,40.3496023],[140.7531544,40.3486702],[140.7539969,40.3477712],[140.7537743,40.3472154],[140.7538025,40.3468967],[140.7540098,40.3464428],[140.7540598,40.3456598],[140.7542886,40.3449493],[140.7547143,40.3445614],[140.7545408,40.343525],[140.754281,40.342714],[140.7542573,40.3424927],[140.7543136,40.342133],[140.754936,40.3403787],[140.7545757,40.33961],[140.7541529,40.3391643],[140.7538128,40.3388351],[140.7519151,40.337967],[140.7510521,40.3372058],[140.7514576,40.3362935],[140.7529265,40.3356165],[140.7526953,40.3350408],[140.7520476,40.334709],[140.7511873,40.3338724],[140.7506069,40.3335278],[140.7502309,40.3330201],[140.7510085,40.3322592],[140.7518586,40.3319851],[140.7537965,40.3323224],[140.75498,40.3332107],[140.7550031,40.334391],[140.7553901,40.3345722],[140.7565922,40.3341312],[140.7575904,40.3349088],[140.7577956,40.3355297],[140.7602479,40.3367807],[140.7620211,40.3371363],[140.7623177,40.3380174],[140.7621227,40.3382699],[140.7621315,40.3387104],[140.7626479,40.3392339],[140.7631744,40.3410984],[140.762708,40.3412538],[140.7620672,40.3411761],[140.7616931,40.340712],[140.7614202,40.3398748],[140.7609083,40.33917],[140.760545,40.3388994],[140.7597411,40.3390503],[140.7598112,40.3394447],[140.7601818,40.3404606],[140.7610351,40.3433276],[140.7626955,40.3436164],[140.7624248,40.3458594],[140.7623332,40.3479762],[140.7621051,40.3497706],[140.7615511,40.350774],[140.7607718,40.3516957],[140.7579877,40.3531878],[140.7567701,40.3527504]]]}}
