{"type":"Feature","id":"attraction-large-airport-W57009197","properties":{"id":"attraction-large-airport-W57009197","kind":"attraction","name":"八丈島空港","shortName":"八丈島空港","context":"日本","subtype":"airport","subtypeLabel":"空港・飛行場","statusLabel":"","aliases":["Hachijojima Airport"],"osmType":"way","osmId":57009197,"osmDate":null,"officialAreaKm2":null,"areaSourceLabel":"","areaSourceUrl":"","boundarySourceLabel":"© OpenStreetMap contributors","boundarySourceUrl":"https://www.openstreetmap.org/copyright","geometryFile":"attractions/large-airport-W57009197.geojson"},"geometry":{"type":"Polygon","coordinates":[[[139.7939528,33.1186265],[139.793729,33.1189438],[139.793522,33.1189443],[139.7924022,33.1184959],[139.7910852,33.1180017],[139.7884358,33.1175125],[139.7861168,33.1171151],[139.7856927,33.1169459],[139.7852418,33.1170899],[139.7847538,33.1174294],[139.784358,33.117816],[139.7816136,33.1169626],[139.7811575,33.1167715],[139.7800463,33.1157376],[139.7792155,33.1149959],[139.7783665,33.114235],[139.7778187,33.1137359],[139.7777505,33.1136451],[139.7776939,33.1134815],[139.7774635,33.1134429],[139.7773227,33.1133228],[139.7770089,33.1132643],[139.776682,33.1131722],[139.7759923,33.1129734],[139.7755297,33.1128689],[139.774953,33.1126578],[139.7747813,33.1125915],[139.7743455,33.1125544],[139.7743031,33.1125346],[139.7735718,33.1112745],[139.7735755,33.1112453],[139.7735877,33.1111986],[139.7737849,33.1110806],[139.7740285,33.1108978],[139.7744715,33.1104662],[139.7745513,33.1104033],[139.7746422,33.1103448],[139.7747163,33.1103083],[139.7747987,33.1102774],[139.7749396,33.1102415],[139.7750559,33.110229],[139.7758006,33.1102404],[139.7758825,33.1102839],[139.77616,33.1107818],[139.7761982,33.1108116],[139.7762512,33.1108402],[139.7771861,33.1111346],[139.7775467,33.1109309],[139.7777103,33.1111003],[139.7777606,33.1111688],[139.7778041,33.1112671],[139.7778162,33.1113654],[139.7778061,33.1115851],[139.7778952,33.1116092],[139.7780642,33.1115547],[139.7802568,33.1123767],[139.7825501,33.1131263],[139.7827132,33.1130559],[139.7829478,33.1127858],[139.7830723,33.1127176],[139.7872243,33.1144878],[139.7872996,33.1145073],[139.7876559,33.1145064],[139.7881792,33.1139819],[139.7883603,33.1139577],[139.7895913,33.1146075],[139.7901005,33.1148197],[139.7898024,33.1154697],[139.791918,33.116148],[139.7945773,33.117005],[139.7947471,33.1168777],[139.7975328,33.117672],[139.7976716,33.1179253],[139.7976326,33.1183841],[139.7974204,33.1188934],[139.797081,33.119148],[139.7968051,33.1194026],[139.7966566,33.1194662],[139.7957018,33.1192328],[139.7954728,33.1190519],[139.7939528,33.1186265]]]}}
