{"type":"Feature","id":"attraction-large-park-W483995989","properties":{"id":"attraction-large-park-W483995989","kind":"attraction","name":"萩谷総合公園","shortName":"萩谷総合公園","context":"日本","subtype":"large-park","subtypeLabel":"大型都市公園・広域公園","statusLabel":"著名な公園","aliases":[],"osmType":"way","osmId":483995989,"osmDate":null,"officialAreaKm2":null,"areaSourceLabel":"","areaSourceUrl":"","boundarySourceLabel":"© OpenStreetMap contributors","boundarySourceUrl":"https://www.openstreetmap.org/copyright","geometryFile":"attractions/large-park-W483995989.geojson"},"geometry":{"type":"Polygon","coordinates":[[[135.5802322,34.8873602],[135.5802711,34.887402],[135.5803801,34.887402],[135.5804512,34.8874086],[135.5805578,34.8874235],[135.5806336,34.8874367],[135.5807066,34.8874653],[135.5807636,34.8875076],[135.5808186,34.8875594],[135.5808495,34.8876006],[135.5809004,34.8876369],[135.5809615,34.8876468],[135.5810292,34.8876567],[135.5810942,34.8876716],[135.5811479,34.887671],[135.5811707,34.8876441],[135.5811901,34.887599],[135.5812156,34.8875252],[135.5812391,34.887479],[135.5812699,34.8874526],[135.5812987,34.8874081],[135.5813195,34.8873767],[135.5813363,34.8873349],[135.5813544,34.8872893],[135.5813738,34.8872403],[135.5813846,34.88722],[135.5814127,34.8871881],[135.5814436,34.887149],[135.5814805,34.8871199],[135.5815039,34.8870913],[135.58152,34.88705],[135.5815252,34.8870085],[135.5815329,34.8869527],[135.5815453,34.8869067],[135.5815782,34.8868798],[135.5816446,34.8868605],[135.581709,34.8868633],[135.58177,34.8868748],[135.5818196,34.8868897],[135.5818752,34.8868963],[135.5819007,34.8868996],[135.5819866,34.8868996],[135.5820422,34.8869023],[135.5820824,34.8869062],[135.5821173,34.8869227],[135.5821529,34.8869441],[135.582185,34.8869667],[135.5822145,34.8869854],[135.5822528,34.8869958],[135.5823031,34.8870035],[135.5823668,34.8870107],[135.5824043,34.887014],[135.5824533,34.8870041],[135.5825176,34.8869942],[135.5825934,34.8869887],[135.5826155,34.8869804],[135.582637,34.8869601],[135.5826672,34.8869331],[135.5827041,34.8869117],[135.5827805,34.8868902],[135.5828496,34.8868836],[135.582926,34.8868787],[135.582987,34.8868968],[135.5830286,34.8869243],[135.5830856,34.8869535],[135.5831245,34.886965],[135.5831775,34.8869623],[135.5832358,34.8869513],[135.5833096,34.8869562],[135.5833733,34.8869601],[135.5834095,34.8869584],[135.5834598,34.8869469],[135.583502,34.8869359],[135.5835664,34.8869375],[135.5836126,34.886959],[135.5836381,34.886987],[135.5836623,34.8870167],[135.5837112,34.8870987],[135.5837496,34.887182],[135.5837717,34.8872269],[135.5837932,34.8872524],[135.5838339,34.8873017],[135.5838624,34.8873245],[135.5838889,34.8873465],[135.5839198,34.8873608],[135.5839305,34.8872882],[135.5839446,34.8872266],[135.5839506,34.8871347],[135.583966,34.8870539],[135.5839761,34.8869747],[135.5839868,34.886868],[135.5839929,34.8867871],[135.5839707,34.8867458],[135.5839466,34.8867112],[135.5838836,34.886621],[135.5838346,34.8865319],[135.5838064,34.8864791],[135.5837924,34.8864252],[135.5837555,34.8863245],[135.5837233,34.8862629],[135.5836992,34.8861914],[135.5836757,34.8861298],[135.5836509,34.8860704],[135.5836227,34.886011],[135.5835992,34.8859538],[135.5835852,34.8859076],[135.5835402,34.8858333],[135.583506,34.8857904],[135.5834752,34.8857816],[135.5834209,34.8857827],[135.5833749,34.8857899],[135.583326,34.8857871],[135.5833052,34.88578],[135.5832797,34.8857288],[135.5832777,34.8856931],[135.5832744,34.8856578],[135.5832744,34.8856479],[135.5833542,34.8856452],[135.5834346,34.8856452],[135.583446,34.8856397],[135.5834467,34.8855973],[135.5834514,34.8855588],[135.5834601,34.8855011],[135.5834695,34.8854043],[135.5834749,34.8853449],[135.5834856,34.8852756],[135.583503,34.8851898],[135.5835084,34.8851292],[135.5835204,34.8850742],[135.5835231,34.8849895],[135.5835137,34.8849125],[135.5835057,34.8848729],[135.5834668,34.8848509],[135.5834051,34.8848399],[135.5833528,34.8848179],[135.5833193,34.8847893],[135.5833099,34.8847486],[135.5833126,34.8846837],[135.5833059,34.8846441],[135.583326,34.8845968],[135.5833515,34.8845759],[135.5834185,34.8845539],[135.5834816,34.884533],[135.5834977,34.884511],[135.5834896,34.8844307],[135.5834708,34.8843405],[135.5834628,34.884247],[135.5834467,34.8841512],[135.5834413,34.884105],[135.5834373,34.8840357],[135.5834521,34.8839917],[135.5835312,34.8839246],[135.583613,34.8838553],[135.5836841,34.883797],[135.5837404,34.8837266],[135.5837914,34.8836496],[135.5838356,34.8835979],[135.5838289,34.8835748],[135.5837377,34.883577],[135.5836465,34.8836067],[135.5835406,34.8836485],[135.5834668,34.8837002],[135.5834065,34.8837387],[135.5833461,34.8837882],[135.5832777,34.8838421],[135.5832361,34.8838795],[135.5831972,34.8839345],[135.5831557,34.8839609],[135.5830926,34.8839587],[135.5829853,34.8839543],[135.5829424,34.8839488],[135.5828405,34.8839323],[135.5827439,34.8839202],[135.5826702,34.8838949],[135.5826045,34.8838564],[135.5825414,34.8838036],[135.5825119,34.8837739],[135.582461,34.8837057],[135.5824114,34.8836265],[135.5823778,34.8835495],[135.5823617,34.8835374],[135.5823363,34.8835462],[135.5823041,34.883588],[135.5822437,34.8836661],[135.5822035,34.8837288],[135.5821512,34.8837937],[135.5820895,34.8838509],[135.5820627,34.8838762],[135.5820198,34.8839268],[135.5819715,34.8839631],[135.5819473,34.8839752],[135.5818736,34.8839818],[135.5818172,34.8839873],[135.5817475,34.8839829],[135.581667,34.8839818],[135.5815544,34.8839807],[135.5814632,34.8839763],[135.581364,34.883973],[135.5812419,34.8839796],[135.5811668,34.8839829],[135.5810971,34.884017],[135.5810407,34.88405],[135.5810045,34.8840632],[135.580971,34.8840951],[135.5808691,34.8841655],[135.5807993,34.8842217],[135.5807484,34.8842602],[135.580688,34.8843075],[135.5806398,34.884346],[135.580617,34.8843603],[135.5805472,34.8843746],[135.5804426,34.8843603],[135.5803702,34.8843482],[135.5802495,34.8843229],[135.5801771,34.8842987],[135.5800912,34.8842712],[135.5800228,34.8842338],[135.5799638,34.8841787],[135.5799209,34.8841402],[135.5799048,34.8840775],[135.5798968,34.8840148],[135.5798995,34.8839389],[135.5799129,34.8838696],[135.579937,34.8837959],[135.5799491,34.8837299],[135.5799491,34.8836837],[135.5799464,34.883621],[135.5799551,34.8835253],[135.5799605,34.8834252],[135.5799967,34.8833239],[135.5799457,34.8833283],[135.5798505,34.8833482],[135.5797848,34.8833283],[135.5797258,34.8833449],[135.5796601,34.8833669],[135.5795903,34.8833944],[135.5795354,34.8834285],[135.5794871,34.8834681],[135.5794603,34.8835165],[135.5794133,34.8835715],[135.5793396,34.8836595],[135.5792591,34.8837618],[135.5792189,34.8838102],[135.579188,34.8838443],[135.5791344,34.8838729],[135.5790982,34.8838839],[135.5790257,34.8838641],[135.5789667,34.8838223],[135.578905,34.8837805],[135.5788259,34.8837299],[135.5787535,34.8836793],[135.5786717,34.8836265],[135.5785966,34.8835814],[135.5785121,34.8835264],[135.5783914,34.8834626],[135.5783284,34.8834252],[135.5782519,34.8834021],[135.5781621,34.8833834],[135.5780722,34.8833779],[135.5779824,34.8833922],[135.5778724,34.8834263],[135.5777946,34.8834714],[135.5777249,34.8835066],[135.5776471,34.8835715],[135.57758,34.8836298],[135.5775076,34.8837057],[135.5774057,34.8837926],[135.57734,34.8838619],[135.5772354,34.88394],[135.5771173,34.8840159],[135.5770798,34.8840456],[135.5769886,34.8841094],[135.576888,34.8841721],[135.57677,34.8842404],[135.5766922,34.8842844],[135.5766439,34.8843251],[135.5765715,34.8843834],[135.5764857,34.8844406],[135.5763918,34.884489],[135.5763006,34.8845143],[135.5762188,34.8845187],[135.576133,34.8845198],[135.5760083,34.8845143],[135.5759157,34.8845088],[135.575842,34.8845088],[135.5757508,34.8845308],[135.5756998,34.8845418],[135.5756475,34.8845341],[135.5755456,34.8845198],[135.5754343,34.8844989],[135.5753162,34.8844835],[135.5751929,34.8844714],[135.5750829,34.8844538],[135.5749917,34.884445],[135.5748925,34.8844571],[135.5747892,34.8844626],[135.5746873,34.8844648],[135.5746417,34.8844703],[135.5745733,34.8845022],[135.5745143,34.8845231],[135.5744392,34.8845484],[135.5743909,34.88461],[135.5743493,34.8846507],[135.5743077,34.8846771],[135.574242,34.8847112],[135.5741173,34.8847662],[135.5740341,34.8848124],[135.5739483,34.8848663],[135.5738451,34.8849246],[135.5737579,34.8849675],[135.5736345,34.8850291],[135.5735299,34.8850764],[135.5733958,34.8851281],[135.573267,34.8851733],[135.5731276,34.8852294],[135.5730149,34.8852701],[135.5729693,34.8852899],[135.5728446,34.8853713],[135.5727346,34.8854439],[135.5726327,34.8855033],[135.5725737,34.8855341],[135.5725308,34.885544],[135.5724932,34.8855418],[135.5724248,34.8855297],[135.5723604,34.8855121],[135.572276,34.8854582],[135.5722505,34.8854351],[135.5722357,34.8853911],[135.572221,34.8853493],[135.5722089,34.8853196],[135.5722545,34.8852382],[135.5722827,34.8851678],[135.5723189,34.8851006],[135.5723115,34.8850247],[135.5723008,34.8849642],[135.572286,34.8848927],[135.5722552,34.8847695],[135.5722511,34.8847101],[135.5721868,34.8846375],[135.572124,34.8845626],[135.5720717,34.8845012],[135.5720351,34.8844568],[135.5719902,34.8844078],[135.5719527,34.8843539],[135.5719245,34.8843116],[135.5718749,34.8842357],[135.5718507,34.8842087],[135.5718051,34.8841581],[135.5717616,34.8841213],[135.5717314,34.8841009],[135.5716429,34.8841026],[135.5715798,34.8841064],[135.5715289,34.884107],[135.5715148,34.884107],[135.5714665,34.8841361],[135.5714122,34.8841713],[135.5713894,34.8841796],[135.571374,34.8842043],[135.5713472,34.8842406],[135.5713116,34.8842742],[135.5712687,34.8843242],[135.5712446,34.8843622],[135.5712157,34.8844122],[135.5711775,34.884475],[135.5711353,34.8845432],[135.571087,34.8846147],[135.5710702,34.8846653],[135.5710649,34.8847087],[135.5710508,34.8847786],[135.5710454,34.8848292],[135.5710528,34.8848968],[135.5710595,34.8849458],[135.5710716,34.8850162],[135.5710803,34.8851009],[135.5710925,34.885159],[135.5710959,34.8852189],[135.5710818,34.8852558],[135.5710576,34.885291],[135.5710442,34.885324],[135.5710369,34.8853696],[135.5710202,34.8854047],[135.5710517,34.8854527],[135.5711114,34.8855335],[135.5711509,34.8855874],[135.5711952,34.8856672],[135.5712374,34.8857393],[135.5712897,34.8858031],[135.5713481,34.8858603],[135.5714245,34.8859175],[135.5714715,34.8859593],[135.5715184,34.8860088],[135.5715801,34.886088],[135.5716069,34.8861771],[135.5716458,34.8863157],[135.571678,34.8864422],[135.5717048,34.8865291],[135.5717276,34.8865632],[135.571792,34.8866325],[135.5718429,34.8866831],[135.5719462,34.8867689],[135.5720334,34.8868492],[135.5721367,34.8869219],[135.5722131,34.8869868],[135.572311,34.8870682],[135.5724102,34.8871331],[135.5724974,34.8871771],[135.5725792,34.887198],[135.5726758,34.8872046],[135.5727965,34.8872002],[135.5728367,34.8871892],[135.5728354,34.887099],[135.5728045,34.8869538],[135.5728461,34.88689],[135.5729051,34.8867579],[135.5729359,34.8866754],[135.5729708,34.8866072],[135.573007,34.8865654],[135.5730298,34.8865401],[135.5731036,34.8865192],[135.5731827,34.8864939],[135.5732404,34.8864774],[135.573408,34.8864367],[135.5735341,34.8864136],[135.5736669,34.8863839],[135.5737996,34.8863432],[135.5739726,34.8862992],[135.5741242,34.8862596],[135.574273,34.8862167],[135.5744219,34.8861716],[135.5745694,34.8861254],[135.5747317,34.8860814],[135.5748578,34.8860473],[135.5750093,34.886033],[135.5751112,34.8860297],[135.5752453,34.8860484],[135.5753459,34.8860682],[135.5753969,34.8860869],[135.5754425,34.8861221],[135.57548,34.8861716],[135.5754948,34.886231],[135.5755229,34.8862541],[135.5755819,34.8863014],[135.575594,34.8863487],[135.5756034,34.8864103],[135.5755927,34.8864554],[135.5755779,34.8865236],[135.5755565,34.8866006],[135.575539,34.8866963],[135.5755283,34.8868008],[135.5755095,34.8868779],[135.5754934,34.886989],[135.5755109,34.8870704],[135.5755082,34.8871265],[135.5755001,34.8872277],[135.5754921,34.887297],[135.5755216,34.8873608],[135.5755618,34.8874367],[135.5755766,34.8874521],[135.5756021,34.8874136],[135.5756705,34.8873366],[135.5757308,34.8872629],[135.5757657,34.8872277],[135.5758327,34.8871452],[135.5759065,34.8870572],[135.5759239,34.8870022],[135.5759548,34.8869472],[135.5759977,34.8868691],[135.576046,34.8867832],[135.5760473,34.886759],[135.5760756,34.8867126],[135.576113,34.8866963],[135.5761586,34.8866347],[135.5762056,34.8865808],[135.5762512,34.8865269],[135.5763102,34.8864631],[135.5763839,34.8863993],[135.5764496,34.8863531],[135.5765046,34.8863179],[135.5765891,34.8863212],[135.5766521,34.8863223],[135.5767246,34.8863619],[135.5768104,34.8864026],[135.5768386,34.8864213],[135.5768707,34.8864422],[135.5769056,34.8864356],[135.5769311,34.8864158],[135.5769405,34.8863685],[135.5769445,34.8862156],[135.5769526,34.8861089],[135.5769619,34.8859703],[135.5769687,34.8858955],[135.576974,34.8858515],[135.5769995,34.8858075],[135.5771028,34.8857888],[135.577198,34.8857965],[135.577267,34.8858075],[135.5773167,34.8858163],[135.5774199,34.8858537],[135.5775192,34.8858977],[135.5775661,34.8859318],[135.5775903,34.8859769],[135.5776424,34.8860553],[135.5776873,34.8861254],[135.577748,34.8862211],[135.5777909,34.8862827],[135.5778003,34.8863861],[135.5778191,34.8864862],[135.5778365,34.8866193],[135.5778539,34.8867183],[135.5778635,34.8867865],[135.5778722,34.886833],[135.5778806,34.8869087],[135.577888,34.88697],[135.5779339,34.8869749],[135.5779886,34.8869824],[135.5781203,34.8870038],[135.578241,34.887017],[135.5783327,34.8870239],[135.5784682,34.8870376],[135.5785178,34.8870409],[135.5786197,34.8870382],[135.5787102,34.8870486],[135.5788014,34.8870442],[135.578896,34.8870365],[135.5789355,34.8870052],[135.5789858,34.8869485],[135.5790965,34.8869348],[135.5792702,34.8869188],[135.5793868,34.88691],[135.5794281,34.8869056],[135.57953,34.8869194],[135.5796064,34.8869304],[135.5796856,34.886948],[135.5797835,34.8869788],[135.5798545,34.8870365],[135.5799102,34.8870849],[135.579992,34.8871581],[135.5800711,34.887223],[135.5801382,34.8872797],[135.5801938,34.8873292],[135.5802322,34.8873602]]]}}
