{"type":"Feature","id":"attraction-large-industrial-complex-W551648683","properties":{"id":"attraction-large-industrial-complex-W551648683","kind":"attraction","name":"IHI愛知工場","shortName":"IHI愛知工場","context":"日本","subtype":"industrial-complex","subtypeLabel":"工業地帯・大規模工場","statusLabel":"","aliases":[],"osmType":"way","osmId":551648683,"osmDate":null,"officialAreaKm2":null,"areaSourceLabel":"","areaSourceUrl":"","boundarySourceLabel":"© OpenStreetMap contributors","boundarySourceUrl":"https://www.openstreetmap.org/copyright","geometryFile":"attractions/large-industrial-complex-W551648683.geojson"},"geometry":{"type":"Polygon","coordinates":[[[136.863607,34.9998709],[136.8636864,34.9998862],[136.8649706,35.0017224],[136.8644196,35.0020552],[136.8640366,35.0021164],[136.8625236,35.0028088],[136.8627892,35.003907],[136.8614099,35.0045444],[136.8622653,35.008758],[136.8535096,35.0100555],[136.8535681,35.0102751],[136.8528626,35.010376],[136.8528455,35.0102872],[136.8525206,35.0103482],[136.8524867,35.0102246],[136.8524023,35.0102363],[136.8525014,35.0106609],[136.8525899,35.0107566],[136.8526022,35.0108189],[136.8523952,35.0108566],[136.8523793,35.0107972],[136.85242,35.0106725],[136.8523386,35.0102392],[136.8511689,35.0104044],[136.8512697,35.0108305],[136.8513741,35.0109262],[136.8513901,35.0109986],[136.8511742,35.0110334],[136.8511547,35.0109566],[136.8512025,35.0108479],[136.8511016,35.0104189],[136.849779,35.0106054],[136.8497912,35.0106587],[136.8499152,35.0107752],[136.8497627,35.0108834],[136.8496184,35.0107586],[136.8497424,35.0106653],[136.8497343,35.0106104],[136.8496428,35.010627],[136.8494477,35.0109284],[136.8490154,35.0103008],[136.848886,35.0103497],[136.8488884,35.0103612],[136.8488393,35.0103812],[136.8488137,35.0103545],[136.8488639,35.0103306],[136.8488755,35.0103372],[136.8489981,35.0102827],[136.8488081,35.0099763],[136.8486698,35.0100363],[136.8486749,35.0100463],[136.848621,35.0100721],[136.8485956,35.0100413],[136.8486505,35.0100163],[136.8486586,35.0100246],[136.8487918,35.0099614],[136.8486038,35.0096578],[136.8484732,35.009719],[136.8484948,35.0097424],[136.8484218,35.0097742],[136.8483675,35.0097144],[136.8484253,35.0096857],[136.8484504,35.0097063],[136.8485893,35.0096408],[136.8483643,35.0093446],[136.8474525,35.0094764],[136.8474366,35.0093786],[136.8483202,35.0092557],[136.8482686,35.0091552],[136.8480399,35.009187],[136.8479802,35.0089069],[136.8480453,35.0088971],[136.847936,35.008668],[136.8519297,35.0080654],[136.8517387,35.0070256],[136.8558365,35.0064351],[136.8561199,35.0062837],[136.8563911,35.0061323],[136.8565759,35.0059657],[136.8567731,35.0057789],[136.856921,35.0055922],[136.8570258,35.0053348],[136.8574386,35.0033562],[136.8575064,35.0031391],[136.8576358,35.002912],[136.8577036,35.0028413],[136.8582274,35.0024527],[136.863607,34.9998709]]]}}
