{"type":"Feature","id":"attraction-large-industrial-complex-W418987103","properties":{"id":"attraction-large-industrial-complex-W418987103","kind":"attraction","name":"UDトラックス株式会社 茂木試験場","shortName":"UDトラックス株式会社 茂木試験場","context":"日本","subtype":"industrial-complex","subtypeLabel":"工業地帯・大規模工場","statusLabel":"","aliases":[],"osmType":"way","osmId":418987103,"osmDate":null,"officialAreaKm2":null,"areaSourceLabel":"","areaSourceUrl":"","boundarySourceLabel":"© OpenStreetMap contributors","boundarySourceUrl":"https://www.openstreetmap.org/copyright","geometryFile":"attractions/large-industrial-complex-W418987103.geojson"},"geometry":{"type":"Polygon","coordinates":[[[140.1884007,36.4982137],[140.1887494,36.498481],[140.1895863,36.4981188],[140.1898702,36.4987452],[140.1900262,36.4990891],[140.191142,36.4989726],[140.1924562,36.4986061],[140.1924857,36.4986621],[140.1930544,36.4987958],[140.1934165,36.4984206],[140.1933897,36.4983495],[140.1933923,36.4980174],[140.1937678,36.4979204],[140.1936311,36.4976983],[140.1935372,36.4976401],[140.1931778,36.4975086],[140.1931268,36.4974612],[140.1931348,36.4973469],[140.1932394,36.4971701],[140.1931992,36.4970536],[140.1933441,36.4969523],[140.1935935,36.4968251],[140.195505,36.4962645],[140.1960933,36.496092],[140.1967317,36.4957901],[140.199579,36.4949723],[140.2003456,36.4947521],[140.2036384,36.4938063],[140.2040166,36.4936619],[140.2043572,36.4934829],[140.2046388,36.4933018],[140.2048212,36.4930948],[140.2049822,36.4928489],[140.2051002,36.4925859],[140.2051511,36.4923185],[140.2051485,36.4920468],[140.2050868,36.4917902],[140.2049634,36.4915422],[140.2047086,36.4912274],[140.2044082,36.4910031],[140.2042594,36.4909179],[140.2040729,36.4908112],[140.2035633,36.490684],[140.2029973,36.4906624],[140.202654,36.490684],[140.2020156,36.4908306],[140.2005672,36.4912468],[140.2003902,36.4912446],[140.2003312,36.4912209],[140.2002776,36.4910937],[140.2001488,36.4910053],[140.1999691,36.4910031],[140.1998645,36.4910419],[140.1998216,36.4910807],[140.1997921,36.4911692],[140.1998135,36.4913913],[140.1997492,36.4914603],[140.1985931,36.4917686],[140.1980647,36.4917708],[140.1974934,36.491898],[140.1968443,36.492077],[140.1960048,36.492146],[140.195801,36.4920813],[140.1955247,36.4918549],[140.1950821,36.4916565],[140.1949802,36.4916198],[140.1947281,36.491581],[140.1944303,36.4915853],[140.1943794,36.4916047],[140.1943713,36.4916479],[140.1943955,36.4917794],[140.1943526,36.491926],[140.1942694,36.4919929],[140.1942185,36.492008],[140.1941031,36.4920274],[140.1938161,36.4920209],[140.1937652,36.492036],[140.1937088,36.4921158],[140.1936981,36.4923012],[140.1936364,36.4924349],[140.1935881,36.4924608],[140.1934808,36.4924888],[140.1929525,36.4924931],[140.1927754,36.4925104],[140.1925769,36.4925967],[140.1923087,36.4927972],[140.1912439,36.4930214],[140.1911527,36.4935217],[140.1910427,36.4936274],[140.1909462,36.4936748],[140.1904699,36.4937348],[140.1903641,36.4937481],[140.1898921,36.4938516],[140.1898625,36.4936985],[140.1899296,36.493595],[140.1899135,36.4935174],[140.189876,36.4934807],[140.1898169,36.4934549],[140.189648,36.4934656],[140.1894602,36.4936942],[140.1891169,36.493774],[140.1890713,36.4937999],[140.1890096,36.4938753],[140.1890123,36.4939185],[140.189192,36.4942678],[140.1893958,36.4943756],[140.1889211,36.4951087],[140.1869202,36.4955486],[140.188728,36.4958871],[140.1887924,36.4963766],[140.1887387,36.4965318],[140.1887387,36.4966504],[140.1886582,36.4967733],[140.1884655,36.4978515],[140.1884007,36.4982137]]]}}
