{"type":"Feature","id":"attraction-large-park-R18233306","properties":{"id":"attraction-large-park-R18233306","kind":"attraction","name":"ワイルドネイチャープラザ","shortName":"ワイルドネイチャープラザ","context":"日本","subtype":"large-park","subtypeLabel":"大型都市公園・広域公園","statusLabel":"著名な公園","aliases":[],"osmType":"relation","osmId":18233306,"osmDate":null,"officialAreaKm2":null,"areaSourceLabel":"","areaSourceUrl":"","boundarySourceLabel":"© OpenStreetMap contributors","boundarySourceUrl":"https://www.openstreetmap.org/copyright","geometryFile":"attractions/large-park-R18233306.geojson"},"geometry":{"type":"Polygon","coordinates":[[[136.7037459,35.2652208],[136.703654,35.2650374],[136.7036118,35.2649498],[136.703601,35.264912],[136.703532,35.2647987],[136.7035011,35.2647412],[136.7034455,35.2646109],[136.7033167,35.2644039],[136.7032436,35.2642983],[136.7031893,35.2642473],[136.7031477,35.2641904],[136.7030666,35.2640634],[136.7029747,35.2638969],[136.7028721,35.2637447],[136.7028084,35.2636725],[136.7027635,35.263633],[136.7027347,35.2636024],[136.7026763,35.263466],[136.7026428,35.2634201],[136.7025898,35.2633193],[136.7025395,35.263264],[136.7025027,35.2632202],[136.702441,35.2631693],[136.702394,35.2631244],[136.7023726,35.2630905],[136.7023531,35.2630264],[136.7023243,35.2629908],[136.7022975,35.2629612],[136.7022727,35.2629092],[136.7022365,35.2628627],[136.7021828,35.2627953],[136.7021567,35.2627546],[136.7021104,35.2627056],[136.7019927,35.262604],[136.7019206,35.2625566],[136.7017986,35.2624501],[136.7017584,35.2624093],[136.7017376,35.2623779],[136.7017255,35.2623453],[136.7017071,35.2622725],[136.7016916,35.2622421],[136.7016571,35.2622007],[136.7016035,35.2621276],[136.7015579,35.2620789],[136.7015123,35.2620442],[136.7014486,35.2620075],[136.7013922,35.2619837],[136.7013691,35.2619804],[136.701355,35.2619823],[136.7013262,35.2619946],[136.7013081,35.2619943],[136.7012789,35.2619815],[136.7012497,35.2619787],[136.7012266,35.2619804],[136.7011311,35.2620042],[136.7010546,35.2620368],[136.7010362,35.2620433],[136.7010191,35.2620403],[136.7010073,35.2620305],[136.7010026,35.262008],[136.7009966,35.2619856],[136.7009778,35.2619812],[136.7008464,35.2619921],[136.7007351,35.2620127],[136.7005973,35.2620499],[136.7005252,35.2620598],[136.7004709,35.2620619],[136.700436,35.2620529],[136.7003995,35.2620316],[136.7003928,35.2620121],[136.7003955,35.2619908],[136.7004045,35.2619752],[136.7004189,35.2619686],[136.700434,35.2619711],[136.7004518,35.2619765],[136.700474,35.2619725],[136.7004747,35.2619581],[136.700463,35.2619576],[136.700459,35.2619533],[136.7004595,35.2619437],[136.7004816,35.2619151],[136.7004984,35.2618856],[136.7005406,35.2618605],[136.7005477,35.2618473],[136.7005467,35.2618331],[136.7005051,35.2617211],[136.7004853,35.2616915],[136.7004575,35.261668],[136.7004082,35.2616384],[136.700369,35.2616018],[136.7003559,35.2615697],[136.7003002,35.2615144],[136.7002754,35.2614731],[136.7002627,35.2614337],[136.70026,35.2614044],[136.700265,35.2613767],[136.70026,35.2612171],[136.7002489,35.2611832],[136.7002235,35.2611473],[136.7001846,35.261098],[136.7001497,35.2610345],[136.7001437,35.2609814],[136.7001202,35.2609403],[136.7001061,35.2609075],[136.7001014,35.260862],[136.7000686,35.2608188],[136.700033,35.2607339],[136.7000149,35.2606622],[136.7000122,35.2604854],[136.7000075,35.2604492],[136.6999888,35.260401],[136.6999217,35.260257],[136.6999003,35.2602313],[136.6998707,35.2601793],[136.6998352,35.260072],[136.6998178,35.2600397],[136.6997769,35.2599761],[136.6997581,35.2599307],[136.6996884,35.2598354],[136.6996622,35.2597834],[136.6996394,35.2597467],[136.6996133,35.2596991],[136.6996025,35.2596734],[136.6995998,35.2596356],[136.6996072,35.2596087],[136.6996066,35.2595699],[136.6995864,35.2595354],[136.6995757,35.2594971],[136.6995757,35.2594543],[136.6996045,35.2594198],[136.6996126,35.2593941],[136.6996059,35.2592967],[136.6996092,35.2592518],[136.6996247,35.2592041],[136.699626,35.2591559],[136.6996153,35.2591012],[136.6995931,35.2590295],[136.6995294,35.2589156],[136.6995247,35.2588833],[136.6995301,35.2588526],[136.6995281,35.2588247],[136.699506,35.2587677],[136.6994986,35.2587305],[136.6995019,35.2586974],[136.6995006,35.2586579],[136.6995019,35.2586243],[136.6994734,35.2585914],[136.6994661,35.2585895],[136.6994624,35.2585955],[136.69946,35.258612],[136.699447,35.2586218],[136.6994325,35.2586193],[136.6994228,35.2586062],[136.6994195,35.2585898],[136.6994061,35.258569],[136.6994054,35.2585246],[136.6993839,35.2584912],[136.6993873,35.2584518],[136.6994,35.2584206],[136.6994195,35.2584058],[136.6994423,35.258402],[136.6994624,35.2583943],[136.6995234,35.2583396],[136.6995328,35.2583171],[136.6995281,35.2582919],[136.6994986,35.2582492],[136.6994745,35.2582027],[136.6996797,35.2580935],[136.6997268,35.258067],[136.7012599,35.2572542],[136.7013951,35.2573614],[136.7019726,35.2580079],[136.7036663,35.2603674],[136.7042276,35.2610544],[136.7044496,35.2614176],[136.7044882,35.2614337],[136.7045291,35.2614337],[136.7045593,35.2614167],[136.7045733,35.2614014],[136.7045814,35.261368],[136.7045586,35.2612656],[136.70468,35.2614852],[136.7053769,35.262622],[136.7055056,35.2628207],[136.7056542,35.2629963],[136.7058138,35.2631166],[136.7059729,35.2631829],[136.7062809,35.2633112],[136.7063586,35.2633492],[136.7064063,35.2633902],[136.7064488,35.2634485],[136.7055306,35.263842],[136.705209,35.2647467],[136.7049072,35.2654487],[136.7047368,35.2655098],[136.7047474,35.2655296],[136.7047448,35.265935],[136.7048245,35.2662512],[136.7047159,35.2663203],[136.7047039,35.2665277],[136.7046808,35.2666005],[136.7046286,35.2667649],[136.7046062,35.2668148],[136.7045361,35.2668068],[136.7044987,35.2666203],[136.7044301,35.2664114],[136.7043473,35.2662404],[136.7042023,35.2662856],[136.7040924,35.2663101],[136.7040286,35.2662972],[136.7040128,35.266212],[136.7039883,35.2661149],[136.7039799,35.2660738],[136.7039752,35.2659314],[136.7039665,35.2658696],[136.7039437,35.2657984],[136.703935,35.2657508],[136.703884,35.2656276],[136.7038753,35.2655794],[136.7038558,35.2655175],[136.7038491,35.2654759],[136.703821,35.265402],[136.7038123,35.2653615],[136.7037874,35.2653204],[136.7037459,35.2652208]]]}}
