{"type":"Feature","id":"attraction-large-industrial-complex-W588358737","properties":{"id":"attraction-large-industrial-complex-W588358737","kind":"attraction","name":"神戸製鋼","shortName":"神戸製鋼","context":"日本","subtype":"industrial-complex","subtypeLabel":"工業地帯・大規模工場","statusLabel":"","aliases":["Kobe Steel, Ltd."],"osmType":"way","osmId":588358737,"osmDate":null,"officialAreaKm2":null,"areaSourceLabel":"","areaSourceUrl":"","boundarySourceLabel":"© OpenStreetMap contributors","boundarySourceUrl":"https://www.openstreetmap.org/copyright","geometryFile":"attractions/large-industrial-complex-W588358737.geojson"},"geometry":{"type":"Polygon","coordinates":[[[135.2369993,34.7011062],[135.2367345,34.7027459],[135.2382902,34.7037283],[135.2394918,34.7051539],[135.2402322,34.7058193],[135.2405432,34.7060093],[135.2436867,34.7075749],[135.2440703,34.7077149],[135.2444217,34.7078152],[135.2449635,34.7078351],[135.2470247,34.707734],[135.2477341,34.7078395],[135.2482927,34.7078705],[135.2503254,34.7078453],[135.2503293,34.7075749],[135.250456,34.7068594],[135.2510601,34.7069432],[135.2515282,34.7069939],[135.2520794,34.7070368],[135.2522484,34.7070131],[135.2523547,34.7069719],[135.252422,34.7069031],[135.252453,34.706786],[135.2534818,34.700553],[135.2534785,34.7004386],[135.2533945,34.7003107],[135.253309,34.7002476],[135.2531607,34.7002158],[135.249378,34.6998024],[135.2454556,34.699361],[135.245111,34.6993599],[135.2449755,34.6993936],[135.24484,34.6994375],[135.2445285,34.6995616],[135.2444971,34.6995089],[135.2397533,34.7014083],[135.2369993,34.7011062]]]}}
