{"type":"Feature","id":"attraction-large-park-R19445169","properties":{"id":"attraction-large-park-R19445169","kind":"attraction","name":"石見海浜公園","shortName":"石見海浜公園","context":"日本","subtype":"large-park","subtypeLabel":"大型都市公園・広域公園","statusLabel":"","aliases":[],"osmType":"relation","osmId":19445169,"osmDate":null,"officialAreaKm2":null,"areaSourceLabel":"","areaSourceUrl":"","boundarySourceLabel":"© OpenStreetMap contributors","boundarySourceUrl":"https://www.openstreetmap.org/copyright","geometryFile":"attractions/large-park-R19445169.geojson"},"geometry":{"type":"Polygon","coordinates":[[[132.1112157,34.9484174],[132.1108846,34.9487688],[132.1104741,34.9496565],[132.1103254,34.9505035],[132.1105095,34.9510141],[132.1107855,34.9512519],[132.1113235,34.9519249],[132.1123286,34.9531665],[132.1129161,34.9533695],[132.1132913,34.9532593],[132.1137655,34.9527546],[132.1140062,34.9523427],[132.1139637,34.952012],[132.1139142,34.951571],[132.1144026,34.9513738],[132.115068,34.9514608],[132.1155281,34.9514724],[132.1173614,34.9517277],[132.1183311,34.9521222],[132.1196194,34.9527836],[132.1214527,34.9537873],[132.1244114,34.9541702],[132.1269442,34.9551412],[132.1283077,34.9548385],[132.1286102,34.9536391],[132.1268377,34.9527361],[132.1273453,34.9518548],[132.1274014,34.9517683],[132.1274681,34.9516627],[132.127414,34.9514472],[132.1272956,34.9513956],[132.1271351,34.9514629],[132.1268763,34.9513558],[132.1267843,34.9513546],[132.1266072,34.9513711],[132.1258255,34.9505916],[132.125588,34.9505043],[132.1251354,34.950456],[132.1247872,34.9504204],[132.1245652,34.9503658],[132.1243293,34.95025],[132.1239598,34.9499644],[132.1240376,34.9498821],[132.1241545,34.9498031],[132.1241186,34.9496743],[132.1240842,34.9495406],[132.1240387,34.9493699],[132.1240015,34.9491935],[132.12461,34.9487625],[132.1250308,34.9485182],[132.1249345,34.9483456],[132.1246078,34.9484574],[132.1244518,34.9484092],[132.124214,34.9484566],[132.1241303,34.9484196],[132.1240728,34.9483171],[132.123932,34.9482384],[132.1238633,34.9482948],[132.1238492,34.9484231],[132.1239523,34.9485662],[132.1239358,34.9488045],[132.1238237,34.948942],[132.1236333,34.9490513],[132.1234617,34.9491024],[132.1232734,34.9491033],[132.1230979,34.9490539],[132.1228677,34.9489474],[132.1225318,34.9487887],[132.1220938,34.9485525],[132.1218781,34.9484277],[132.1215747,34.9482466],[132.1212532,34.9480648],[132.1201822,34.9477306],[132.1190911,34.9474655],[132.1187303,34.9474958],[132.1184439,34.9473868],[132.1180183,34.9475225],[132.1179341,34.9476001],[132.1174319,34.9476731],[132.117179,34.9475807],[132.1168002,34.9473174],[132.1161138,34.946954],[132.1156288,34.9470158],[132.1150056,34.9473117],[132.1143995,34.9473684],[132.1138676,34.9473202],[132.1139288,34.9477581],[132.1131884,34.947938],[132.1127879,34.9480274],[132.1112157,34.9484174]]]}}
