{"type":"Feature","id":"attraction-large-park-W60252671","properties":{"id":"attraction-large-park-W60252671","kind":"attraction","name":"栗林公園","shortName":"栗林公園","context":"香川県・高松市","subtype":"large-park","subtypeLabel":"大型都市公園・広域公園","statusLabel":"著名な公園","aliases":["Ritsurin Garden"],"osmType":"way","osmId":60252671,"osmDate":null,"officialAreaKm2":null,"areaSourceLabel":"","areaSourceUrl":"","boundarySourceLabel":"© OpenStreetMap contributors","boundarySourceUrl":"https://www.openstreetmap.org/copyright","geometryFile":"attractions/large-park-W60252671.geojson"},"geometry":{"type":"Polygon","coordinates":[[[134.0426511,34.33184],[134.0426066,34.3321705],[134.0428187,34.3321907],[134.042824,34.3323115],[134.0430956,34.3323105],[134.0431411,34.3323102],[134.0431605,34.3323101],[134.0432589,34.332311],[134.0442184,34.3323201],[134.0453013,34.3323143],[134.045451,34.3322999],[134.0456321,34.3322367],[134.0458166,34.3321389],[134.0458526,34.3320615],[134.046082,34.3315732],[134.0461038,34.331523],[134.0461193,34.3314502],[134.0461299,34.3313224],[134.0461374,34.3311508],[134.0461362,34.3308339],[134.0461334,34.3307049],[134.0461222,34.3305501],[134.0460911,34.3301331],[134.0460461,34.330043],[134.046014,34.329974],[134.0459893,34.3299165],[134.0459605,34.3298492],[134.0456301,34.3291373],[134.0455913,34.3290545],[134.0452246,34.3282526],[134.0451996,34.3282001],[134.0451611,34.3281186],[134.0450512,34.3278975],[134.0449723,34.327745],[134.044941,34.3276827],[134.0449132,34.3276327],[134.0448988,34.3276064],[134.0448754,34.3275636],[134.04431,34.3265793],[134.041427,34.3270883],[134.0413048,34.3272143],[134.0411773,34.3275303],[134.0411773,34.32789],[134.0413792,34.3283815],[134.0418467,34.3291449],[134.042514,34.3302692],[134.0426365,34.3306325],[134.0426887,34.3310154],[134.0426511,34.33184]]]}}
