{"type":"Feature","id":"attraction-large-park-W473476793","properties":{"id":"attraction-large-park-W473476793","kind":"attraction","name":"神楽岡公園","shortName":"神楽岡公園","context":"日本","subtype":"large-park","subtypeLabel":"大型都市公園・広域公園","statusLabel":"著名な公園","aliases":["Kaguraoka Park"],"osmType":"way","osmId":473476793,"osmDate":null,"officialAreaKm2":null,"areaSourceLabel":"","areaSourceUrl":"","boundarySourceLabel":"© OpenStreetMap contributors","boundarySourceUrl":"https://www.openstreetmap.org/copyright","geometryFile":"attractions/large-park-W473476793.geojson"},"geometry":{"type":"Polygon","coordinates":[[[142.3619768,43.7491096],[142.3617004,43.749315],[142.3614914,43.7495634],[142.361358,43.7498153],[142.3613194,43.7500723],[142.3612739,43.7504094],[142.3612266,43.7505282],[142.3613988,43.7505455],[142.3614597,43.7506512],[142.3613105,43.7507647],[142.3617695,43.751105],[142.3619975,43.751381],[142.3622225,43.7513046],[142.3623907,43.7507271],[142.3626489,43.750366],[142.3629602,43.7502229],[142.3630973,43.7502441],[142.3632573,43.7501959],[142.3635737,43.7503194],[142.3637489,43.750555],[142.3636028,43.7506234],[142.3634606,43.7505908],[142.3633731,43.7506205],[142.3632795,43.7507894],[142.3634357,43.7510134],[142.3634477,43.7511837],[142.3626605,43.7514467],[142.3630349,43.7522731],[142.3629522,43.7526134],[142.3625114,43.7526768],[142.3624718,43.7527878],[142.3624955,43.7530108],[142.3625157,43.7530995],[142.3625781,43.7532432],[142.3626751,43.753318],[142.3626583,43.7533974],[142.3627374,43.7535174],[142.3628276,43.753628],[142.3629511,43.7537251],[142.3630913,43.7538164],[142.3632493,43.75384],[142.3633868,43.7538234],[142.3635611,43.7538381],[142.3637797,43.753951],[142.3639849,43.754055],[142.3643469,43.754152],[142.3644681,43.7541456],[142.3655626,43.7538549],[142.3659128,43.7536579],[142.3661594,43.7534546],[142.3665,43.7529533],[142.3665424,43.7526047],[142.3666368,43.75238],[142.366853,43.7522567],[142.3669466,43.7522463],[142.3670679,43.7523317],[142.3670096,43.7527265],[142.366945,43.7531056],[142.3665665,43.7537726],[142.3667158,43.7538698],[142.3669349,43.7537442],[142.3671541,43.7535968],[142.3672184,43.7535095],[142.3673053,43.7533457],[142.3675035,43.7531688],[142.3676193,43.7529798],[142.3678608,43.7528762],[142.3680384,43.7527397],[142.3681291,43.7521582],[142.3682576,43.7517843],[142.3680687,43.7517629],[142.3676606,43.7518417],[142.3675615,43.7518087],[142.3670743,43.7522018],[142.3667295,43.7521956],[142.3672401,43.7515669],[142.3675551,43.7511289],[142.3678561,43.75079],[142.3688146,43.7503131],[142.3692411,43.7502961],[142.3698506,43.749838],[142.3697298,43.7496004],[142.3698499,43.7494882],[142.3700801,43.749161],[142.3694931,43.7491536],[142.3689159,43.7492161],[142.3689392,43.7490345],[142.3691237,43.7488709],[142.3701685,43.7489479],[142.3702718,43.7487146],[142.3704873,43.7482689],[142.3708393,43.7480427],[142.3709473,43.7479159],[142.371439,43.7476516],[142.3715908,43.7476426],[142.3717288,43.747595],[142.3717597,43.747532],[142.3718964,43.7474185],[142.3719658,43.7472414],[142.3704397,43.745272],[142.3701993,43.745455],[142.3622579,43.7489743],[142.3619768,43.7491096]]]}}
