{"type":"Feature","id":"attraction-large-park-W480053354","properties":{"id":"attraction-large-park-W480053354","kind":"attraction","name":"原池公園","shortName":"原池公園","context":"大阪府・堺市","subtype":"large-park","subtypeLabel":"大型都市公園・広域公園","statusLabel":"著名な公園","aliases":["Baraike Park"],"osmType":"way","osmId":480053354,"osmDate":null,"officialAreaKm2":null,"areaSourceLabel":"","areaSourceUrl":"","boundarySourceLabel":"© OpenStreetMap contributors","boundarySourceUrl":"https://www.openstreetmap.org/copyright","geometryFile":"attractions/large-park-W480053354.geojson"},"geometry":{"type":"Polygon","coordinates":[[[135.4927721,34.5175074],[135.4928901,34.5174853],[135.4930376,34.5174853],[135.4931556,34.5174986],[135.4932844,34.5175472],[135.4933251,34.5175355],[135.493538,34.5174741],[135.4939192,34.5176684],[135.4939624,34.5176188],[135.494033,34.5175378],[135.4941573,34.517392],[135.4942272,34.5171481],[135.4942593,34.5168822],[135.4942917,34.5168083],[135.4943486,34.5167364],[135.4944413,34.5166887],[135.4945842,34.5162816],[135.494892,34.5160467],[135.4950877,34.5158781],[135.4951987,34.5157684],[135.4953949,34.5156158],[135.4956293,34.5155539],[135.4958197,34.5155501],[135.4958857,34.5155624],[135.4959045,34.5156613],[135.4958999,34.5157269],[135.4959897,34.5158051],[135.4960433,34.5158354],[135.496979,34.5161715],[135.4970635,34.5162213],[135.4971217,34.5162739],[135.497201,34.51636],[135.4972525,34.5164415],[135.4972908,34.5165248],[135.4972947,34.5166254],[135.4972585,34.5168981],[135.4972424,34.5170101],[135.4970839,34.5173952],[135.4969533,34.5176828],[135.4969375,34.51786],[135.4969038,34.517938],[135.4965327,34.5185513],[135.4965112,34.5186129],[135.4964982,34.5186311],[135.4960037,34.5195561],[135.4959222,34.5196055],[135.4956894,34.5196721],[135.4956538,34.5196818],[135.4956346,34.5196888],[135.4956427,34.5197115],[135.4955922,34.5197292],[135.4954152,34.5198503],[135.4952084,34.519995],[135.4951818,34.5200435],[135.4950533,34.5200776],[135.4946692,34.520164],[135.4945752,34.5201991],[135.4945102,34.5202622],[135.4944431,34.5203152],[135.4943787,34.520387],[135.4943251,34.520439],[135.4942701,34.5204743],[135.4942567,34.5205174],[135.4942325,34.5205274],[135.4941467,34.5205329],[135.4940797,34.5205373],[135.4939952,34.5205517],[135.4939281,34.5205605],[135.4938369,34.5205826],[135.493758,34.5206102],[135.4935955,34.5206942],[135.4933637,34.5205026],[135.4933122,34.5204657],[135.4931865,34.520381],[135.4931555,34.5203569],[135.4928882,34.5201512],[135.4925995,34.5199169],[135.492264,34.5196971],[135.4916712,34.5191672],[135.4916504,34.5191394],[135.4916251,34.5191097],[135.4916042,34.5190824],[135.4917666,34.5188461],[135.4918132,34.5187704],[135.4921373,34.5182631],[135.4923128,34.5180177],[135.4924311,34.5178765],[135.4925048,34.5178009],[135.4925837,34.5177322],[135.4926554,34.5176743],[135.4927032,34.517627],[135.4927358,34.5175687],[135.49276,34.5175284],[135.4927721,34.5175074]]]}}
