{"type":"Feature","id":"attraction-large-park-W667702696","properties":{"id":"attraction-large-park-W667702696","kind":"attraction","name":"宮城野原公園","shortName":"宮城野原公園","context":"宮城県・仙台市","subtype":"large-park","subtypeLabel":"大型都市公園・広域公園","statusLabel":"著名な公園","aliases":["Miyaginohara Park","宮城野原公園総合運動場"],"osmType":"way","osmId":667702696,"osmDate":null,"officialAreaKm2":null,"areaSourceLabel":"","areaSourceUrl":"","boundarySourceLabel":"© OpenStreetMap contributors","boundarySourceUrl":"https://www.openstreetmap.org/copyright","geometryFile":"attractions/large-park-W667702696.geojson"},"geometry":{"type":"Polygon","coordinates":[[[140.906189,38.2587684],[140.9060458,38.2591538],[140.9060292,38.2591985],[140.9051119,38.2595837],[140.9041844,38.2599894],[140.9040894,38.2601086],[140.903498,38.2596783],[140.9029535,38.2592453],[140.9025672,38.2588481],[140.9020533,38.2582939],[140.9019899,38.2582298],[140.9019667,38.2582048],[140.9019413,38.2581776],[140.9018578,38.2580883],[140.9018222,38.2580501],[140.9017769,38.2579977],[140.9016858,38.2578923],[140.9002871,38.2562725],[140.8996294,38.2554977],[140.9010699,38.2547074],[140.9024483,38.254285],[140.9028676,38.2541124],[140.9044703,38.2565905],[140.904869,38.2572266],[140.904961,38.2573119],[140.9050921,38.2573953],[140.9052855,38.2574893],[140.9061907,38.2579442],[140.9063714,38.2580394],[140.9070451,38.2583945],[140.906189,38.2587684]]]}}
