{"type":"Feature","id":"attraction-large-park-W469918806","properties":{"id":"attraction-large-park-W469918806","kind":"attraction","name":"いわみざわ公園","shortName":"いわみざわ公園","context":"日本","subtype":"large-park","subtypeLabel":"大型都市公園・広域公園","statusLabel":"","aliases":["Iwamizawa Park"],"osmType":"way","osmId":469918806,"osmDate":null,"officialAreaKm2":null,"areaSourceLabel":"","areaSourceUrl":"","boundarySourceLabel":"© OpenStreetMap contributors","boundarySourceUrl":"https://www.openstreetmap.org/copyright","geometryFile":"attractions/large-park-W469918806.geojson"},"geometry":{"type":"Polygon","coordinates":[[[141.7921832,43.1654583],[141.7912648,43.1663431],[141.791085,43.1679194],[141.7957397,43.1687911],[141.7973141,43.1690917],[141.7983039,43.1692284],[141.7975456,43.1697874],[141.7968043,43.1709382],[141.7962512,43.17112],[141.795668,43.1715858],[141.795414,43.1721308],[141.7947414,43.1723686],[141.7941224,43.1724865],[141.7934789,43.1728076],[141.7940936,43.1736339],[141.7929098,43.1731001],[141.7914198,43.1733724],[141.790577,43.1734546],[141.7893729,43.1733359],[141.7846567,43.1737955],[141.7843743,43.1739927],[141.783461,43.1737529],[141.782753,43.173292],[141.7821507,43.1728047],[141.7826076,43.1721015],[141.7834833,43.1716493],[141.7833339,43.1715158],[141.7824396,43.1712587],[141.7821828,43.1711227],[141.7819126,43.1707682],[141.7817371,43.170716],[141.7812666,43.1704347],[141.7813364,43.1702727],[141.7800707,43.1695796],[141.7794909,43.1693384],[141.7785598,43.1693613],[141.7772103,43.1691597],[141.7764253,43.1690577],[141.7758174,43.1689945],[141.7751981,43.1686834],[141.7808196,43.1628433],[141.7830219,43.1604444],[141.7854938,43.1578245],[141.7856318,43.1578481],[141.7857521,43.1578733],[141.7859235,43.1578785],[141.7883593,43.1578072],[141.7897751,43.1577615],[141.7901434,43.1577509],[141.7902509,43.1579525],[141.790415,43.1581243],[141.7906391,43.1582582],[141.7907191,43.1582987],[141.7920701,43.1589637],[141.7939386,43.159885],[141.7940921,43.1600692],[141.7942753,43.1604889],[141.794391,43.1607513],[141.7989027,43.1655783],[141.7958406,43.1652686],[141.7941746,43.1652168],[141.7921832,43.1654583]]]}}
