{"type":"Feature","id":"attraction-large-military-base-W362030430","properties":{"id":"attraction-large-military-base-W362030430","kind":"attraction","name":"海上自衛隊呉基地 呉造修補給所","shortName":"海上自衛隊呉基地 呉造修補給所","context":"日本","subtype":"military-base","subtypeLabel":"基地・駐屯地・演習場","statusLabel":"","aliases":[],"osmType":"way","osmId":362030430,"osmDate":null,"officialAreaKm2":null,"areaSourceLabel":"","areaSourceUrl":"","boundarySourceLabel":"© OpenStreetMap contributors","boundarySourceUrl":"https://www.openstreetmap.org/copyright","geometryFile":"attractions/large-military-base-W362030430.geojson"},"geometry":{"type":"Polygon","coordinates":[[[132.54839,34.2285303],[132.548631,34.22876],[132.5501957,34.2302513],[132.5526204,34.2285267],[132.5529307,34.228461],[132.5529893,34.2283773],[132.5526975,34.228486],[132.5522491,34.2285112],[132.5518181,34.2284207],[132.5514373,34.2281981],[132.5512671,34.2280498],[132.5511557,34.2279526],[132.5504886,34.2284404],[132.5500901,34.2280521],[132.5495745,34.2283877],[132.5493613,34.2281675],[132.5491912,34.2279918],[132.54839,34.2285303]]]}}
