{"type":"Feature","id":"attraction-large-park-W647643482","properties":{"id":"attraction-large-park-W647643482","kind":"attraction","name":"藺牟田池外輪緑地","shortName":"藺牟田池外輪緑地","context":"日本","subtype":"large-park","subtypeLabel":"大型都市公園・広域公園","statusLabel":"","aliases":[],"osmType":"way","osmId":647643482,"osmDate":null,"officialAreaKm2":null,"areaSourceLabel":"","areaSourceUrl":"","boundarySourceLabel":"© OpenStreetMap contributors","boundarySourceUrl":"https://www.openstreetmap.org/copyright","geometryFile":"attractions/large-park-W647643482.geojson"},"geometry":{"type":"Polygon","coordinates":[[[130.4733949,31.8153302],[130.473449,31.8155755],[130.4733678,31.8157595],[130.4729979,31.8159511],[130.4727408,31.8161428],[130.4723303,31.8166066],[130.4721395,31.8170881],[130.4719333,31.818527],[130.4720867,31.8187723],[130.472443,31.8188375],[130.472637,31.8186535],[130.4731603,31.8188336],[130.4736249,31.8190329],[130.4735392,31.8194316],[130.4729212,31.8194737],[130.4727002,31.8198225],[130.4728084,31.8201368],[130.4725784,31.8204665],[130.4720732,31.8209762],[130.4714958,31.8212139],[130.4709996,31.8211219],[130.470783,31.8212484],[130.4701244,31.8213634],[130.4691185,31.8219345],[130.4686268,31.8221606],[130.4675307,31.8223638],[130.4662721,31.8225669],[130.4655955,31.8225899],[130.4643189,31.822015],[130.4628889,31.8211334],[130.4627852,31.8206658],[130.46251,31.8198992],[130.4621085,31.8189831],[130.4618243,31.818435],[130.4617883,31.8178945],[130.4618243,31.8174307],[130.4617341,31.8170474],[130.4618695,31.8164878],[130.4626228,31.8158706],[130.4634257,31.8151807],[130.4641655,31.8147322],[130.4648737,31.8145635],[130.4661187,31.814368],[130.4666059,31.8141802],[130.467481,31.8142339],[130.4688163,31.8140806],[130.4699169,31.8140997],[130.4711213,31.8141381],[130.4721092,31.8143872],[130.4729934,31.8151155],[130.4733949,31.8153302]]]}}
