{"type":"Feature","id":"attraction-large-large-port-W1193576108","properties":{"id":"attraction-large-large-port-W1193576108","kind":"attraction","name":"湊浜漁港","shortName":"湊浜漁港","context":"日本","subtype":"large-port","subtypeLabel":"港湾・埠頭","statusLabel":"","aliases":["Minatohama Fishing Port"],"osmType":"way","osmId":1193576108,"osmDate":null,"officialAreaKm2":null,"areaSourceLabel":"","areaSourceUrl":"","boundarySourceLabel":"© OpenStreetMap contributors","boundarySourceUrl":"https://www.openstreetmap.org/copyright","geometryFile":"attractions/large-large-port-W1193576108.geojson"},"geometry":{"type":"Polygon","coordinates":[[[129.9585628,33.5228172],[129.9576942,33.5220231],[129.9575428,33.5218847],[129.957446,33.5217887],[129.9572807,33.5217416],[129.9567926,33.5217729],[129.9566692,33.522001],[129.9559075,33.5226137],[129.9558511,33.5227121],[129.9557492,33.5228194],[129.9556178,33.5228999],[129.9553737,33.5232152],[129.9554354,33.5232711],[129.9553791,33.5243668],[129.9553013,33.5247939],[129.9557519,33.5248073],[129.955709,33.5251158],[129.9557734,33.5255116],[129.9560469,33.5259655],[129.9561274,33.5260169],[129.9570635,33.5262025],[129.9570554,33.526283],[129.9572512,33.5263188],[129.9573129,33.5264105],[129.9576141,33.5264518],[129.9578481,33.5261471],[129.9591476,33.5246507],[129.9590564,33.5245859],[129.9580143,33.5249829],[129.9578609,33.5247938],[129.9585628,33.5228172]]]}}
