{"type":"Feature","id":"attraction-large-park-W312445042","properties":{"id":"attraction-large-park-W312445042","kind":"attraction","name":"瑞穂公園","shortName":"瑞穂公園","context":"日本","subtype":"large-park","subtypeLabel":"大型都市公園・広域公園","statusLabel":"著名な公園","aliases":["Mizuho Park"],"osmType":"way","osmId":312445042,"osmDate":null,"officialAreaKm2":null,"areaSourceLabel":"","areaSourceUrl":"","boundarySourceLabel":"© OpenStreetMap contributors","boundarySourceUrl":"https://www.openstreetmap.org/copyright","geometryFile":"attractions/large-park-W312445042.geojson"},"geometry":{"type":"Polygon","coordinates":[[[136.9420563,35.1253618],[136.9419978,35.1257922],[136.9421173,35.1260362],[136.9421422,35.1261131],[136.9421417,35.1261935],[136.9421327,35.126298],[136.9421095,35.1263781],[136.942071,35.1265415],[136.9420754,35.1266328],[136.9421181,35.1267875],[136.9423828,35.1271691],[136.9424386,35.1271682],[136.9432889,35.1274151],[136.9440557,35.1276296],[136.9441145,35.1277769],[136.9441442,35.1282806],[136.9439317,35.1286361],[136.9440841,35.1286714],[136.9443255,35.1282424],[136.9444709,35.1279004],[136.9445563,35.1273585],[136.9446386,35.1266153],[136.9446736,35.1257639],[136.9445567,35.1255113],[136.9445724,35.1247624],[136.9446942,35.124441],[136.9448215,35.1238795],[136.944972,35.1235853],[136.945048,35.1234376],[136.9450861,35.1233634],[136.9451507,35.1228056],[136.9451983,35.1222792],[136.9450187,35.121842],[136.9446664,35.1213857],[136.9446217,35.1213277],[136.9445802,35.1212523],[136.9445538,35.1212023],[136.944167,35.1204695],[136.9428974,35.1203724],[136.9414901,35.1202906],[136.9414072,35.1204889],[136.94138,35.1205247],[136.9415817,35.1211599],[136.9419177,35.1221126],[136.9420311,35.12235],[136.9407704,35.1227767],[136.9407313,35.1228199],[136.94047,35.125156],[136.9404956,35.1251942],[136.9421222,35.1253076],[136.9420563,35.1253618]]]}}
