{"type":"Feature","id":"attraction-large-industrial-complex-W643001955","properties":{"id":"attraction-large-industrial-complex-W643001955","kind":"attraction","name":"大分キヤノン 大分事業所","shortName":"大分キヤノン 大分事業所","context":"日本","subtype":"industrial-complex","subtypeLabel":"工業地帯・大規模工場","statusLabel":"","aliases":["Oita Canon Inc."],"osmType":"way","osmId":643001955,"osmDate":null,"officialAreaKm2":null,"areaSourceLabel":"","areaSourceUrl":"","boundarySourceLabel":"© OpenStreetMap contributors","boundarySourceUrl":"https://www.openstreetmap.org/copyright","geometryFile":"attractions/large-industrial-complex-W643001955.geojson"},"geometry":{"type":"Polygon","coordinates":[[[131.7037501,33.2299523],[131.7037182,33.2297982],[131.7037904,33.2287017],[131.7038623,33.2286107],[131.703803,33.2285145],[131.7037507,33.2284707],[131.7037492,33.2283679],[131.7037582,33.2282775],[131.7037992,33.2280819],[131.7038641,33.2278959],[131.7039326,33.227751],[131.7040196,33.227606],[131.7041433,33.2274525],[131.704267,33.2273261],[131.704438,33.2271779],[131.704554,33.2271578],[131.7046956,33.2270572],[131.7047116,33.2269672],[131.7049001,33.2268448],[131.705033,33.2267679],[131.7052402,33.2266582],[131.7056558,33.2263289],[131.7059067,33.2261012],[131.7063278,33.225565],[131.7066041,33.2252127],[131.7071941,33.2248201],[131.7073712,33.2247864],[131.7075697,33.2249098],[131.7080954,33.2245901],[131.7082188,33.2246092],[131.708664,33.2238631],[131.7090368,33.2235882],[131.7095008,33.2234761],[131.7103431,33.2228074],[131.7111343,33.2224978],[131.712116,33.2223407],[131.7132318,33.2223631],[131.7141008,33.2226414],[131.7148465,33.2229645],[131.7155063,33.2235793],[131.7151637,33.224657],[131.7154092,33.2252226],[131.7160186,33.2258791],[131.7157531,33.2265231],[131.7159462,33.227075],[131.7150557,33.2270615],[131.7146138,33.2270068],[131.7118478,33.2260115],[131.711542,33.2257692],[131.7082912,33.2246922],[131.7075133,33.2257378],[131.7066014,33.2263839],[131.7073819,33.2267093],[131.7078459,33.2270032],[131.7086667,33.2262269],[131.7109251,33.227066],[131.7098014,33.2289094],[131.7093641,33.2291414],[131.7091997,33.2306155],[131.7083256,33.2312665],[131.7080034,33.2313351],[131.707837,33.2315281],[131.7077587,33.2318905],[131.707406,33.2321465],[131.7065625,33.2318365],[131.7070294,33.2308603],[131.7069433,33.2307809],[131.7068675,33.2307016],[131.7066356,33.2304523],[131.7064524,33.2303002],[131.7062055,33.230182],[131.7060377,33.2301387],[131.7056617,33.2300632],[131.705457,33.230012],[131.7052917,33.2299292],[131.7051789,33.2298885],[131.7050859,33.2298718],[131.7049988,33.2298798],[131.7047741,33.2299685],[131.7046738,33.2300159],[131.7045254,33.2300602],[131.7043148,33.2300478],[131.7037501,33.2299523]]]}}
