{"type":"Feature","id":"attraction-large-park-W257735397","properties":{"id":"attraction-large-park-W257735397","kind":"attraction","name":"長池公園","shortName":"長池公園","context":"日本","subtype":"large-park","subtypeLabel":"大型都市公園・広域公園","statusLabel":"著名な公園","aliases":["Nagaike Park"],"osmType":"way","osmId":257735397,"osmDate":null,"officialAreaKm2":null,"areaSourceLabel":"","areaSourceUrl":"","boundarySourceLabel":"© OpenStreetMap contributors","boundarySourceUrl":"https://www.openstreetmap.org/copyright","geometryFile":"attractions/large-park-W257735397.geojson"},"geometry":{"type":"Polygon","coordinates":[[[139.386465,35.6034954],[139.3862801,35.6036372],[139.3864607,35.6037737],[139.3864029,35.6038371],[139.3863712,35.6038998],[139.3863697,35.6039688],[139.3863852,35.6040312],[139.3862582,35.6041445],[139.3862132,35.6041858],[139.3861309,35.6042614],[139.3860428,35.6044471],[139.386006,35.6045317],[139.3860131,35.6046271],[139.3859765,35.6046888],[139.3863386,35.6047767],[139.3866046,35.6048597],[139.3868151,35.6049631],[139.386993,35.6050854],[139.3871589,35.6052295],[139.3873035,35.6054045],[139.3874069,35.6055779],[139.3874823,35.6057505],[139.3875232,35.6059196],[139.387544,35.605958],[139.3875639,35.6061473],[139.3875571,35.606218],[139.3875885,35.6064417],[139.3876148,35.6067504],[139.3876501,35.6069844],[139.3877147,35.60717],[139.3878391,35.6073847],[139.3880334,35.6076289],[139.3881087,35.6076962],[139.3883256,35.6078629],[139.3883925,35.6079418],[139.3895611,35.6089089],[139.3897111,35.6090552],[139.3898106,35.6091711],[139.3899322,35.6093377],[139.3899654,35.6093885],[139.3900461,35.609529],[139.3900809,35.6096005],[139.3901286,35.6097361],[139.3902504,35.6101224],[139.3903785,35.6105234],[139.3904519,35.6106993],[139.390528,35.6108023],[139.3906037,35.6109249],[139.3906523,35.6110206],[139.3907643,35.6111654],[139.3910412,35.6114736],[139.3914375,35.6119122],[139.3915105,35.6119913],[139.3915883,35.6120761],[139.391702,35.612091],[139.3918018,35.6120298],[139.3919091,35.611964],[139.3919681,35.6119278],[139.392123,35.6120962],[139.3921651,35.6120666],[139.3923573,35.6122868],[139.3923994,35.612368],[139.3924073,35.6124384],[139.3923861,35.6125099],[139.3924487,35.6125847],[139.3924098,35.6126137],[139.39251,35.6127466],[139.3926931,35.6126364],[139.3927344,35.612687],[139.3927846,35.6127243],[139.3928362,35.6127454],[139.3929057,35.6127417],[139.3929391,35.6127351],[139.3929564,35.6127317],[139.3929715,35.6127229],[139.3930223,35.6126829],[139.393051,35.6126325],[139.3930663,35.6124043],[139.3930597,35.6123107],[139.3930341,35.6122224],[139.3929918,35.6121216],[139.3929338,35.6120244],[139.3927266,35.6117669],[139.3928787,35.6116725],[139.3928775,35.6116336],[139.3929809,35.6115751],[139.3925543,35.6110672],[139.3924768,35.6109986],[139.3925992,35.610831],[139.392614,35.6107451],[139.3926037,35.6106393],[139.392538,35.6103432],[139.3925985,35.6101233],[139.39266,35.6100087],[139.3926474,35.6099359],[139.392491,35.6096329],[139.3925033,35.6095564],[139.3925719,35.6094927],[139.3927405,35.6093502],[139.3927543,35.6092617],[139.39275,35.6091766],[139.3927545,35.609112],[139.3927944,35.6090528],[139.3928663,35.6089812],[139.3930152,35.6088782],[139.3931011,35.6088323],[139.393269,35.6086833],[139.3935003,35.6084636],[139.3923881,35.607642],[139.3919708,35.6073338],[139.3917605,35.6071784],[139.3911107,35.606708],[139.3910398,35.6066873],[139.3909716,35.6067009],[139.3909714,35.6067621],[139.3910434,35.6068422],[139.3911878,35.6069805],[139.391174,35.6073118],[139.3909867,35.6074134],[139.3908088,35.6075341],[139.3906596,35.6076736],[139.3903834,35.6073175],[139.3904231,35.6072628],[139.3904445,35.6072071],[139.3904587,35.606998],[139.3903828,35.6069384],[139.3901028,35.606734],[139.3897014,35.606441],[139.3894384,35.606249],[139.3894043,35.6062177],[139.3890794,35.6059193],[139.3888657,35.6057279],[139.3888591,35.605722],[139.3885951,35.6055338],[139.3881593,35.6052623],[139.3880946,35.605222],[139.3880487,35.6052011],[139.3880082,35.6051745],[139.3878048,35.6050281],[139.3877333,35.604966],[139.3876831,35.6049016],[139.3876578,35.6048255],[139.3876481,35.6047488],[139.3876778,35.6046287],[139.3877062,35.6045224],[139.3877386,35.6044736],[139.3878048,35.6043878],[139.3872394,35.6039974],[139.3867352,35.6036173],[139.3866625,35.6035598],[139.3865613,35.6034857],[139.386465,35.6034954]]]}}
