{"type":"Feature","id":"attraction-large-airport-W664900076","properties":{"id":"attraction-large-airport-W664900076","kind":"attraction","name":"岩国錦帯橋空港","shortName":"岩国錦帯橋空港","context":"日本","subtype":"airport","subtypeLabel":"空港・飛行場","statusLabel":"岩国飛行場の軍民共用空港／輪郭は民航ターミナル区域","aliases":["Iwakuni Kintaikyo Airport"],"osmType":"way","osmId":664900076,"osmDate":null,"officialAreaKm2":1.152,"areaSourceLabel":"山口県「岩国錦帯橋空港」空港面積","areaSourceUrl":"https://www.pref.yamaguchi.lg.jp/uploaded/attachment/70576.pdf","boundarySourceLabel":"© OpenStreetMap contributors","boundarySourceUrl":"https://www.openstreetmap.org/copyright","geometryFile":"attractions/large-airport-W664900076.geojson"},"geometry":{"type":"Polygon","coordinates":[[[132.2340041,34.1594633],[132.2342563,34.1594012],[132.2344722,34.1587851],[132.2344964,34.158716],[132.2346829,34.1581838],[132.2346913,34.15816],[132.2347121,34.1581006],[132.2357013,34.1578355],[132.2376358,34.1583425],[132.2377002,34.1586377],[132.237035,34.1601003],[132.2367185,34.1601358],[132.2340041,34.1594633]]]}}
