{"type":"Feature","id":"attraction-large-park-W359344506","properties":{"id":"attraction-large-park-W359344506","kind":"attraction","name":"北海道立オホーツク流氷公園","shortName":"北海道立オホーツク流氷公園","context":"日本","subtype":"large-park","subtypeLabel":"大型都市公園・広域公園","statusLabel":"","aliases":[],"osmType":"way","osmId":359344506,"osmDate":null,"officialAreaKm2":null,"areaSourceLabel":"","areaSourceUrl":"","boundarySourceLabel":"© OpenStreetMap contributors","boundarySourceUrl":"https://www.openstreetmap.org/copyright","geometryFile":"attractions/large-park-W359344506.geojson"},"geometry":{"type":"Polygon","coordinates":[[[143.3841533,44.32362],[143.3825929,44.3216059],[143.3869553,44.3198789],[143.3884845,44.3191203],[143.3925987,44.3164791],[143.3944038,44.315304],[143.3997702,44.3125463],[143.4043973,44.3102602],[143.4052342,44.3098467],[143.4068353,44.309038],[143.4088281,44.3080313],[143.4098363,44.3074844],[143.4106068,44.3069563],[143.4112573,44.3063071],[143.4118246,44.3068469],[143.4118658,44.3068861],[143.4133763,44.3083233],[143.407711,44.3111373],[143.4058605,44.3120564],[143.3841533,44.32362]]]}}
