{"type":"Feature","id":"attraction-large-park-W162194578","properties":{"id":"attraction-large-park-W162194578","kind":"attraction","name":"河川環境楽園","shortName":"河川環境楽園","context":"日本","subtype":"large-park","subtypeLabel":"大型都市公園・広域公園","statusLabel":"著名な公園","aliases":[],"osmType":"way","osmId":162194578,"osmDate":null,"officialAreaKm2":null,"areaSourceLabel":"","areaSourceUrl":"","boundarySourceLabel":"© OpenStreetMap contributors","boundarySourceUrl":"https://www.openstreetmap.org/copyright","geometryFile":"attractions/large-park-W162194578.geojson"},"geometry":{"type":"Polygon","coordinates":[[[136.8028736,35.3699366],[136.8033312,35.3703644],[136.8036155,35.3706969],[136.8039213,35.3710906],[136.8045221,35.371598],[136.8048708,35.3718867],[136.8052731,35.3721535],[136.8057329,35.3724868],[136.8062548,35.372779],[136.8065858,35.3729286],[136.8070471,35.3731517],[136.8073545,35.3732777],[136.8080036,35.3735095],[136.8087224,35.3737151],[136.8097524,35.374065],[136.8120736,35.3748488],[136.812878,35.3751419],[136.8169657,35.3764585],[136.8175719,35.3766641],[136.8177382,35.3766903],[136.8186877,35.3737903],[136.8181048,35.3735926],[136.8170534,35.3735751],[136.8163185,35.3735095],[136.8157265,35.3734229],[136.815149,35.373282],[136.8150077,35.3732392],[136.8148325,35.3730983],[136.8142835,35.3729724],[136.8135182,35.3727834],[136.8132374,35.3725787],[136.8131033,35.3724475],[136.8121216,35.3722532],[136.8113296,35.372101],[136.8111686,35.3718648],[136.8112582,35.3713495],[136.8105716,35.3710258],[136.8104605,35.3710556],[136.8103049,35.3710818],[136.8101708,35.3710818],[136.8099654,35.3710739],[136.8098061,35.3710206],[136.8091661,35.3706453],[136.8089622,35.3705534],[136.8081984,35.3707868],[136.8075234,35.3706065],[136.8072711,35.3704267],[136.8072643,35.3699679],[136.8074661,35.3698268],[136.8085776,35.3695684],[136.8088174,35.3694555],[136.8090159,35.369298],[136.8093538,35.3691842],[136.8097293,35.3691493],[136.8098742,35.3691449],[136.8101537,35.3690503],[136.8099563,35.368361],[136.8080734,35.3685316],[136.8065643,35.3687774],[136.805713,35.3688903],[136.8052018,35.3693155],[136.8049711,35.369368],[136.8048923,35.3694633],[136.8049244,35.3696033],[136.8049781,35.3697039],[136.8043773,35.3700582],[136.8041128,35.3698098],[136.8042576,35.3696567],[136.804204,35.3695648],[136.8040983,35.3695202],[136.803866,35.3695386],[136.8036906,35.3696208],[136.8035726,35.3697827],[136.8032454,35.3698045],[136.8030614,35.3699454],[136.8028736,35.3699366]]]}}
