{"type":"Feature","id":"attraction-large-park-W38905648","properties":{"id":"attraction-large-park-W38905648","kind":"attraction","name":"大浜公園","shortName":"大浜公園","context":"日本","subtype":"large-park","subtypeLabel":"大型都市公園・広域公園","statusLabel":"著名な公園","aliases":["Ohama Park"],"osmType":"way","osmId":38905648,"osmDate":null,"officialAreaKm2":null,"areaSourceLabel":"","areaSourceUrl":"","boundarySourceLabel":"© OpenStreetMap contributors","boundarySourceUrl":"https://www.openstreetmap.org/copyright","geometryFile":"attractions/large-park-W38905648.geojson"},"geometry":{"type":"Polygon","coordinates":[[[135.4634162,34.5806892],[135.4632303,34.5808073],[135.4631183,34.5808969],[135.4629858,34.5810093],[135.4629087,34.5810854],[135.4628532,34.5811656],[135.4627957,34.5812527],[135.4627333,34.5813682],[135.4626648,34.5815081],[135.4625871,34.5816855],[135.4624942,34.5818856],[135.4624324,34.5820013],[135.4623597,34.5821376],[135.4622989,34.582252],[135.4622187,34.5823506],[135.4621066,34.5824732],[135.4619616,34.5825727],[135.4618319,34.5826294],[135.4617335,34.5826646],[135.4615511,34.5827068],[135.4612114,34.5827736],[135.4608579,34.5828335],[135.4607317,34.5828447],[135.4605503,34.5828541],[135.4603561,34.5828525],[135.4602271,34.5828502],[135.4601066,34.5828419],[135.4600047,34.5828263],[135.4599445,34.5828137],[135.4598954,34.5827901],[135.45985,34.5827447],[135.4598056,34.5826901],[135.4597039,34.5825631],[135.4595502,34.5824037],[135.4594417,34.5822894],[135.4593283,34.5821827],[135.4592084,34.582088],[135.4590549,34.5819872],[135.4589345,34.5819305],[135.4588145,34.5818684],[135.4587227,34.581795],[135.4586506,34.5816983],[135.4586107,34.5816077],[135.4585938,34.5815436],[135.4585809,34.5814853],[135.4585662,34.5812858],[135.4585116,34.5810392],[135.4584802,34.58086],[135.4584582,34.58074],[135.4584497,34.5806287],[135.4584517,34.5803362],[135.4584456,34.5801692],[135.458478,34.5797563],[135.4585321,34.5793956],[135.4587716,34.5783496],[135.4594255,34.5783324],[135.4606257,34.5780371],[135.4608095,34.5781301],[135.4608793,34.5784334],[135.4609061,34.578514],[135.460935,34.5786941],[135.4609671,34.5788534],[135.4609767,34.5789783],[135.4609899,34.5790892],[135.4609824,34.5791963],[135.4609786,34.5792718],[135.4610478,34.5793735],[135.4611356,34.5794288],[135.4612168,34.5795514],[135.4613322,34.5795842],[135.4617006,34.5795998],[135.4617389,34.5796077],[135.4617727,34.5796165],[135.461808,34.5796337],[135.4618487,34.5796542],[135.4634556,34.5805635],[135.4634673,34.5806121],[135.4634482,34.5806545],[135.4634162,34.5806892]]]}}
