{"type":"Feature","id":"attraction-large-park-W62115552","properties":{"id":"attraction-large-park-W62115552","kind":"attraction","name":"水沢公園","shortName":"水沢公園","context":"日本","subtype":"large-park","subtypeLabel":"大型都市公園・広域公園","statusLabel":"著名な公園","aliases":[],"osmType":"way","osmId":62115552,"osmDate":null,"officialAreaKm2":null,"areaSourceLabel":"","areaSourceUrl":"","boundarySourceLabel":"© OpenStreetMap contributors","boundarySourceUrl":"https://www.openstreetmap.org/copyright","geometryFile":"attractions/large-park-W62115552.geojson"},"geometry":{"type":"Polygon","coordinates":[[[141.1378415,39.1371539],[141.1376037,39.1365328],[141.137475,39.1360798],[141.1374593,39.1360244],[141.1373368,39.1355134],[141.1373019,39.1353536],[141.1368934,39.1335848],[141.1369412,39.1335753],[141.138843,39.1335191],[141.1401329,39.1334332],[141.1410827,39.1333279],[141.1411343,39.1345643],[141.1411646,39.1349592],[141.141181,39.1352099],[141.141285,39.1361541],[141.1413012,39.1363821],[141.141285,39.1364381],[141.1412439,39.1365012],[141.14112,39.136591],[141.1409216,39.1367117],[141.1406493,39.1368251],[141.1404428,39.1369031],[141.1401342,39.1369355],[141.1394282,39.1369576],[141.1393095,39.1369737],[141.1386792,39.1370487],[141.1383327,39.1371065],[141.1381307,39.137133],[141.137896,39.1371564],[141.1378415,39.1371539]]]}}
