{"type":"Feature","id":"attraction-large-park-W43060445","properties":{"id":"attraction-large-park-W43060445","kind":"attraction","name":"落合公園","shortName":"落合公園","context":"愛知県・春日井市","subtype":"large-park","subtypeLabel":"大型都市公園・広域公園","statusLabel":"著名な公園","aliases":[],"osmType":"way","osmId":43060445,"osmDate":null,"officialAreaKm2":null,"areaSourceLabel":"","areaSourceUrl":"","boundarySourceLabel":"© OpenStreetMap contributors","boundarySourceUrl":"https://www.openstreetmap.org/copyright","geometryFile":"attractions/large-park-W43060445.geojson"},"geometry":{"type":"Polygon","coordinates":[[[136.9868516,35.2703322],[136.9877288,35.2688805],[136.9880963,35.2682915],[136.9881397,35.2682093],[136.9882279,35.2681518],[136.9883618,35.2681061],[136.9889036,35.2679867],[136.9893225,35.2680341],[136.9904778,35.2681145],[136.9907945,35.2681991],[136.9911878,35.2683787],[136.9915992,35.2689032],[136.9918805,35.2691788],[136.9919851,35.2697894],[136.9922998,35.2698743],[136.9922791,35.2701063],[136.9923078,35.2703124],[136.9923636,35.2704755],[136.9924906,35.2707435],[136.9926137,35.271128],[136.992619,35.271247],[136.9926144,35.2713974],[136.9925009,35.2717979],[136.9924757,35.2718204],[136.9921185,35.2718439],[136.9920968,35.2718332],[136.9920849,35.271817],[136.9920577,35.2717102],[136.991727,35.2717632],[136.9911309,35.2718853],[136.9900961,35.2721166],[136.9900113,35.2721967],[136.9895576,35.2721538],[136.989358,35.2729604],[136.9892852,35.2730734],[136.9888445,35.2735349],[136.9887146,35.2737617],[136.9883625,35.2736005],[136.988182,35.2734399],[136.9880556,35.2734479],[136.9879007,35.2733679],[136.987726,35.2732231],[136.9873253,35.2725913],[136.9871971,35.2724182],[136.9870325,35.2722407],[136.986744,35.2719873],[136.9861024,35.2714043],[136.9854891,35.2710099],[136.9853389,35.2706846],[136.9853761,35.2706641],[136.9865115,35.2713622],[136.9868516,35.2703322]]]}}
