{"type":"Feature","id":"attraction-large-military-base-W1135381781","properties":{"id":"attraction-large-military-base-W1135381781","kind":"attraction","name":"海上自衛隊水中処分隊","shortName":"海上自衛隊水中処分隊","context":"日本","subtype":"military-base","subtypeLabel":"基地・駐屯地・演習場","statusLabel":"","aliases":[],"osmType":"way","osmId":1135381781,"osmDate":null,"officialAreaKm2":null,"areaSourceLabel":"","areaSourceUrl":"","boundarySourceLabel":"© OpenStreetMap contributors","boundarySourceUrl":"https://www.openstreetmap.org/copyright","geometryFile":"attractions/large-military-base-W1135381781.geojson"},"geometry":{"type":"Polygon","coordinates":[[[135.3674948,35.4884894],[135.3672856,35.4881575],[135.3672212,35.487902],[135.3671274,35.4876006],[135.3671166,35.4874302],[135.3672373,35.4872358],[135.3674197,35.4869716],[135.367645,35.4865675],[135.3676397,35.4864452],[135.3674465,35.4861133],[135.3672373,35.4858031],[135.3677416,35.4855411],[135.3681064,35.4854755],[135.3684872,35.4855367],[135.3692168,35.4856896],[135.3696191,35.4857944],[135.3700536,35.4859735],[135.3705472,35.4862618],[135.3713679,35.4864234],[135.3720251,35.4865479],[135.3722638,35.4866265],[135.3725427,35.4868187],[135.3727546,35.4870174],[135.3729826,35.487321],[135.3731677,35.487677],[135.3732777,35.4879456],[135.3732455,35.488057],[135.3731784,35.4881269],[135.3731033,35.4882012],[135.3730309,35.4882798],[135.3729451,35.4883868],[135.3728673,35.4884458],[135.3727754,35.4885051],[135.3722531,35.488769],[135.3719521,35.4889002],[135.3715047,35.489114],[135.3712633,35.4891905],[135.3710434,35.489232],[135.3708422,35.4892473],[135.3706495,35.4892339],[135.3705284,35.4892232],[135.3695306,35.4889677],[135.3687585,35.4887756],[135.3674948,35.4884894]]]}}
