{"type":"Feature","id":"attraction-large-park-W273276502","properties":{"id":"attraction-large-park-W273276502","kind":"attraction","name":"玉島の森公園","shortName":"玉島の森公園","context":"日本","subtype":"large-park","subtypeLabel":"大型都市公園・広域公園","statusLabel":"著名な公園","aliases":[],"osmType":"way","osmId":273276502,"osmDate":null,"officialAreaKm2":null,"areaSourceLabel":"","areaSourceUrl":"","boundarySourceLabel":"© OpenStreetMap contributors","boundarySourceUrl":"https://www.openstreetmap.org/copyright","geometryFile":"attractions/large-park-W273276502.geojson"},"geometry":{"type":"Polygon","coordinates":[[[133.6829294,34.5184023],[133.6840554,34.5183839],[133.6840532,34.518306],[133.6840262,34.5173613],[133.6840243,34.5172957],[133.6840174,34.5170536],[133.6840158,34.5169984],[133.6839951,34.5163095],[133.6839517,34.5162793],[133.6837238,34.5162913],[133.6825742,34.5163091],[133.6825665,34.5163091],[133.6824782,34.5163088],[133.6821837,34.5163668],[133.6809765,34.5163797],[133.6809368,34.5163801],[133.6808979,34.5163805],[133.6806414,34.5163832],[133.6805247,34.5163515],[133.6804407,34.5163526],[133.6800877,34.5163534],[133.6800475,34.5163536],[133.6799611,34.5163539],[133.6793666,34.5163564],[133.6792695,34.5163569],[133.6792406,34.5163781],[133.6792421,34.5164588],[133.6792424,34.5164736],[133.6792539,34.5169292],[133.6792542,34.5169381],[133.6792531,34.5169965],[133.6792529,34.5170441],[133.6795453,34.5170448],[133.6795877,34.5170452],[133.6795958,34.5172453],[133.6795465,34.5172459],[133.6794987,34.5172461],[133.6792032,34.5172485],[133.679178,34.5172487],[133.6791584,34.5163337],[133.6791499,34.5163065],[133.6791286,34.5162783],[133.679085,34.516239],[133.6790365,34.5162122],[133.6789945,34.5161939],[133.6789294,34.5161797],[133.6788755,34.5161703],[133.6786984,34.5161698],[133.6786205,34.5161704],[133.6785524,34.516171],[133.6785347,34.5161742],[133.6785036,34.5161937],[133.6784952,34.5162287],[133.6785363,34.5171374],[133.6785473,34.517453],[133.6785475,34.5174589],[133.6785517,34.5175873],[133.6785683,34.518074],[133.6785903,34.518508],[133.678642,34.5188411],[133.6787681,34.5194596],[133.6788163,34.5194794],[133.6789358,34.5195239],[133.6789789,34.5195354],[133.6793956,34.5191923],[133.6795762,34.5190781],[133.67963,34.5189755],[133.6795475,34.5189763],[133.6795394,34.5189763],[133.6794673,34.518977],[133.679443,34.5189487],[133.6794425,34.5188959],[133.6794657,34.518857],[133.6794942,34.5188248],[133.6795368,34.5187983],[133.6796944,34.5187769],[133.6797868,34.5187482],[133.6798274,34.5187174],[133.6801445,34.5184767],[133.6801671,34.5184582],[133.6801932,34.5184506],[133.6805872,34.518448],[133.6811289,34.5184385],[133.6817241,34.5184261],[133.6829294,34.5184023]]]}}
