{"type":"Feature","id":"attraction-large-park-W727377704","properties":{"id":"attraction-large-park-W727377704","kind":"attraction","name":"蓮ヶ池史跡公園","shortName":"蓮ヶ池史跡公園","context":"日本","subtype":"large-park","subtypeLabel":"大型都市公園・広域公園","statusLabel":"","aliases":[],"osmType":"way","osmId":727377704,"osmDate":null,"officialAreaKm2":null,"areaSourceLabel":"","areaSourceUrl":"","boundarySourceLabel":"© OpenStreetMap contributors","boundarySourceUrl":"https://www.openstreetmap.org/copyright","geometryFile":"attractions/large-park-W727377704.geojson"},"geometry":{"type":"Polygon","coordinates":[[[131.441153,31.9685962],[131.44084,31.9682271],[131.440653,31.9680375],[131.4405473,31.9679754],[131.4405392,31.9678892],[131.4405676,31.9673028],[131.4408034,31.9673063],[131.4407871,31.9670752],[131.4409864,31.9671476],[131.4410229,31.9674201],[131.441149,31.9674029],[131.4412628,31.9673235],[131.4414092,31.9672718],[131.4415271,31.9672546],[131.4416653,31.9672683],[131.4418442,31.9673063],[131.4418564,31.9673891],[131.4419336,31.9674063],[131.4420434,31.9674236],[131.4421491,31.9674236],[131.4425109,31.9674236],[131.4429337,31.9673718],[131.443198,31.9673615],[131.4435191,31.967358],[131.4437021,31.9673649],[131.4441615,31.9673753],[131.4444989,31.9673718],[131.4445192,31.9672028],[131.4445477,31.9671235],[131.4445965,31.9670545],[131.4446534,31.9669648],[131.4447022,31.9668303],[131.4447103,31.966751],[131.4447307,31.9667027],[131.4448079,31.9665475],[131.4448973,31.9664854],[131.4449786,31.9663958],[131.4450762,31.9662854],[131.445251,31.9661129],[131.4454136,31.9660923],[131.4455112,31.9661509],[131.4456698,31.966175],[131.4458405,31.9662475],[131.4459096,31.9662957],[131.4462064,31.9663923],[131.4463772,31.966444],[131.4464625,31.966444],[131.4466577,31.9666165],[131.4467512,31.9666096],[131.4468528,31.9665751],[131.4469423,31.9666475],[131.4471049,31.9667372],[131.4472878,31.9668338],[131.4473617,31.9668829],[131.4474708,31.9670338],[131.447422,31.9671718],[131.447731,31.9672166],[131.4481872,31.9670478],[131.4494547,31.9674408],[131.4495198,31.9679685],[131.4494832,31.9682375],[131.4500971,31.968303],[131.450278,31.9687393],[131.4508167,31.9686169],[131.4509752,31.9691239],[131.4503329,31.9692566],[131.4501377,31.9694463],[131.4506601,31.9696981],[131.4508207,31.9698516],[131.4513492,31.9694825],[131.4518095,31.9730275],[131.4502199,31.9731482],[131.4498621,31.9732137],[131.4494881,31.9731447],[131.4471993,31.9729344],[131.4456869,31.9727654],[131.4456585,31.9725515],[131.4453698,31.9724584],[131.4449023,31.9724722],[131.4449389,31.9725412],[131.4447925,31.9725791],[131.4448047,31.9727274],[131.4435688,31.9732378],[131.443581,31.9729757],[131.4428736,31.9729447],[131.4429021,31.9726895],[131.4429224,31.9725412],[131.4429183,31.9723964],[131.4431419,31.9722791],[131.4434265,31.9722067],[131.4436013,31.9720342],[131.4436704,31.9718652],[131.4437192,31.9716307],[131.4436908,31.971441],[131.443646,31.9713617],[131.4434062,31.9713272],[131.4432842,31.9714135],[131.4432029,31.9715031],[131.4431175,31.9715824],[131.4430444,31.971579],[131.443024,31.9714859],[131.4429956,31.9714445],[131.4428614,31.9714031],[131.4427476,31.9713203],[131.4426459,31.9712203],[131.4426012,31.9710393],[131.4426988,31.9708065],[131.4429448,31.9707806],[131.442961,31.9704047],[131.442896,31.9701598],[131.4426642,31.9699805],[131.4426276,31.9698701],[131.442461,31.9698287],[131.4420747,31.9698149],[131.4420788,31.9694942],[131.442091,31.9693045],[131.4418877,31.9692769],[131.441778,31.9689079],[131.4416845,31.9686768],[131.441153,31.9685962]]]}}
