{"type":"Feature","id":"attraction-large-park-R8616811","properties":{"id":"attraction-large-park-R8616811","kind":"attraction","name":"亀岡公園","shortName":"亀岡公園","context":"日本","subtype":"large-park","subtypeLabel":"大型都市公園・広域公園","statusLabel":"著名な公園","aliases":["Kameoka Park"],"osmType":"relation","osmId":8616811,"osmDate":null,"officialAreaKm2":null,"areaSourceLabel":"","areaSourceUrl":"","boundarySourceLabel":"© OpenStreetMap contributors","boundarySourceUrl":"https://www.openstreetmap.org/copyright","geometryFile":"attractions/large-park-R8616811.geojson"},"geometry":{"type":"MultiPolygon","coordinates":[[[[129.5590103,33.3676844],[129.5589255,33.3679311],[129.5587997,33.3681472],[129.5586723,33.3684701],[129.5586298,33.3686044],[129.5586412,33.3688376],[129.5586614,33.3690771],[129.5586701,33.369177],[129.558563,33.369187],[129.5584744,33.3691235],[129.5583423,33.3691244],[129.5581398,33.3691108],[129.5578798,33.3691456],[129.5576155,33.3691583],[129.5575042,33.3691774],[129.5574787,33.369174],[129.5574103,33.3691057],[129.5575632,33.3690284],[129.5575552,33.3690066],[129.557294,33.3689627],[129.5572881,33.3689902],[129.5574975,33.3690239],[129.557367,33.3690962],[129.5574546,33.3691869],[129.5574532,33.3691975],[129.5574385,33.3692098],[129.5574237,33.3692121],[129.5573513,33.3692031],[129.5571569,33.3691796],[129.5570819,33.3691663],[129.5568323,33.3690418],[129.5567777,33.3690285],[129.5565173,33.3690214],[129.556421,33.3690182],[129.5563404,33.3689997],[129.5562784,33.3689623],[129.5560745,33.3688255],[129.5559552,33.3687237],[129.5557899,33.3685492],[129.5557367,33.3684721],[129.5557192,33.3684292],[129.5557093,33.3683708],[129.5557179,33.3683333],[129.5557326,33.3683004],[129.5557795,33.3682489],[129.5558077,33.3681996],[129.5559432,33.3678836],[129.5559685,33.3677999],[129.5559768,33.367744],[129.5559723,33.3676373],[129.5559512,33.3675438],[129.5558634,33.3673699],[129.55575,33.3671479],[129.555742,33.3671271],[129.555747,33.3671089],[129.5558131,33.3670689],[129.5556723,33.3668942],[129.5555913,33.3669247],[129.5555834,33.3669255],[129.5555717,33.3669205],[129.555565,33.3669099],[129.5553356,33.366473],[129.5553276,33.3664434],[129.5553283,33.366286],[129.555345,33.3662294],[129.5554899,33.3658352],[129.5555073,33.3657713],[129.5555207,33.3656817],[129.5555233,33.3655904],[129.5554993,33.3655047],[129.5554644,33.3654146],[129.5555127,33.3654023],[129.5555817,33.3654941],[129.5556696,33.3654539],[129.555793,33.3654252],[129.5560581,33.3654449],[129.5560491,33.3653244],[129.5566033,33.3656651],[129.5567955,33.3658301],[129.5567842,33.3659563],[129.5567955,33.366154],[129.5571755,33.3664839],[129.5576731,33.3668466],[129.558177,33.3672402],[129.5584599,33.3674013],[129.5588532,33.3675446],[129.5590103,33.3676844]]],[[[129.5555502,33.3669998],[129.5556508,33.3671344],[129.5556419,33.3671728],[129.555363,33.367281],[129.5552404,33.3673551],[129.5551669,33.3674248],[129.5551345,33.3674693],[129.5550671,33.3676522],[129.5549836,33.3679397],[129.5549,33.368137],[129.5549038,33.3682354],[129.5549537,33.3683433],[129.5550285,33.3684617],[129.5552271,33.3685947],[129.5552833,33.3685905],[129.5553322,33.3685643],[129.5553879,33.3685703],[129.5555008,33.3685978],[129.5555542,33.368642],[129.5555985,33.3687271],[129.5556424,33.3687551],[129.5557943,33.36881],[129.55586,33.3688133],[129.555899,33.3688032],[129.5559436,33.3687895],[129.5560489,33.3688729],[129.5560732,33.3688981],[129.5562426,33.3690123],[129.5562131,33.3691032],[129.5562445,33.3691535],[129.5560016,33.3692541],[129.5560675,33.3694789],[129.5556297,33.3695086],[129.5553251,33.3693819],[129.5555753,33.3691716],[129.5553495,33.3689407],[129.555129,33.3688735],[129.555003,33.3686873],[129.5547284,33.3685254],[129.5544905,33.3682972],[129.5544771,33.3681423],[129.5544988,33.367911],[129.5547898,33.3679318],[129.5548629,33.3678656],[129.554934,33.3672891],[129.5548425,33.3672114],[129.5548989,33.3670277],[129.5551055,33.3666326],[129.5550944,33.3663924],[129.55484,33.366132],[129.5548671,33.365937],[129.554873,33.365818],[129.554894,33.365723],[129.554999,33.365646],[129.555098,33.36558],[129.555239,33.36555],[129.5554271,33.3657884],[129.5553227,33.366094],[129.5552793,33.3662233],[129.5552699,33.3664792],[129.5555502,33.3669998]]]]}}
