{"type":"Feature","id":"attraction-large-park-W60973069","properties":{"id":"attraction-large-park-W60973069","kind":"attraction","name":"等々力緑地","shortName":"等々力緑地","context":"日本","subtype":"large-park","subtypeLabel":"大型都市公園・広域公園","statusLabel":"著名な公園","aliases":["Todoroki Ryokuchi"],"osmType":"way","osmId":60973069,"osmDate":null,"officialAreaKm2":null,"areaSourceLabel":"","areaSourceUrl":"","boundarySourceLabel":"© OpenStreetMap contributors","boundarySourceUrl":"https://www.openstreetmap.org/copyright","geometryFile":"attractions/large-park-W60973069.geojson"},"geometry":{"type":"Polygon","coordinates":[[[139.6545477,35.5870843],[139.653549,35.5869952],[139.6535179,35.587036],[139.6537996,35.5874501],[139.6536402,35.5876761],[139.6535596,35.5877359],[139.6534217,35.5878085],[139.6529329,35.5881973],[139.6526982,35.5884855],[139.6524019,35.5885576],[139.6521936,35.5885681],[139.6520353,35.5885526],[139.651841,35.5885645],[139.6502885,35.5885399],[139.6503046,35.5892163],[139.6502768,35.5893844],[139.6502483,35.5894519],[139.6495021,35.589444],[139.6494218,35.5894332],[139.6493731,35.5894291],[139.6493069,35.5894179],[139.649254,35.5893983],[139.649187,35.5893737],[139.6490423,35.5892919],[139.6489522,35.5892422],[139.64887,35.5892164],[139.6487967,35.5891925],[139.6487018,35.5891805],[139.6486102,35.5891758],[139.6486202,35.5892759],[139.6487856,35.5892995],[139.6487771,35.5896161],[139.6487396,35.5896476],[139.648714,35.5904886],[139.6480385,35.5904658],[139.6480205,35.5911312],[139.6465734,35.5911144],[139.6465659,35.5907914],[139.646566,35.5902071],[139.6465705,35.5892601],[139.6465574,35.5890076],[139.6465883,35.5889052],[139.6465914,35.5887963],[139.6464972,35.588632],[139.6464829,35.5884131],[139.6464527,35.5881971],[139.6463977,35.5879871],[139.6463839,35.587859],[139.6463903,35.5878026],[139.6464017,35.5876922],[139.6464184,35.5875567],[139.6464184,35.5874284],[139.6463597,35.5872561],[139.6463604,35.5871993],[139.6463488,35.5871212],[139.6463531,35.5870567],[139.6463656,35.586988],[139.6463852,35.5869193],[139.6464235,35.5868476],[139.6464433,35.5868062],[139.6465122,35.5867436],[139.6466468,35.5865166],[139.6467304,35.5864076],[139.6468373,35.586236],[139.6469555,35.5860496],[139.6470787,35.5858766],[139.6472568,35.5856835],[139.6474141,35.5855601],[139.6475266,35.5854925],[139.6476596,35.5853977],[139.6477539,35.585311],[139.6479461,35.5851784],[139.647886,35.5850216],[139.6477254,35.5848352],[139.6476274,35.5847117],[139.6475595,35.5846233],[139.64747,35.5844634],[139.6474296,35.5842663],[139.6477825,35.5841959],[139.6479987,35.5841528],[139.6482416,35.5841073],[139.6483583,35.584073],[139.6483874,35.5841891],[139.6484527,35.5843414],[139.6485215,35.584477],[139.6487176,35.5847927],[139.6487575,35.5848767],[139.649028,35.5848437],[139.6491147,35.5848143],[139.6491735,35.5847753],[139.6492138,35.5847537],[139.6493123,35.5847011],[139.6494485,35.5845588],[139.6495074,35.5844706],[139.6495201,35.5844516],[139.6495696,35.5843776],[139.649827,35.5840918],[139.6498802,35.5840238],[139.6502556,35.5840182],[139.6508287,35.5840516],[139.6514246,35.5841053],[139.6516937,35.5841699],[139.651863,35.584241],[139.6522132,35.5842428],[139.6522193,35.5841693],[139.6525677,35.5842128],[139.6528652,35.5842571],[139.6529821,35.5842982],[139.6529889,35.5843006],[139.6530952,35.5843386],[139.6532048,35.5844142],[139.6533864,35.5845966],[139.6536713,35.5849223],[139.6538286,35.5850572],[139.6542316,35.5853898],[139.654571,35.5857027],[139.6548885,35.586012],[139.6542701,35.5862222],[139.6540411,35.5863519],[139.653793,35.5865818],[139.6545622,35.586909],[139.6545477,35.5870843]]]}}
