{"type":"Feature","id":"attraction-large-park-W137926884","properties":{"id":"attraction-large-park-W137926884","kind":"attraction","name":"駿府城公園","shortName":"駿府城公園","context":"日本","subtype":"large-park","subtypeLabel":"大型都市公園・広域公園","statusLabel":"著名な公園","aliases":["Sunpu Castle Park"],"osmType":"way","osmId":137926884,"osmDate":null,"officialAreaKm2":null,"areaSourceLabel":"","areaSourceUrl":"","boundarySourceLabel":"© OpenStreetMap contributors","boundarySourceUrl":"https://www.openstreetmap.org/copyright","geometryFile":"attractions/large-park-W137926884.geojson"},"geometry":{"type":"Polygon","coordinates":[[[138.3811736,34.9795594],[138.3807519,34.9781939],[138.3807977,34.978185],[138.3807823,34.9781031],[138.3816564,34.9779271],[138.3816258,34.9777604],[138.3825271,34.977657],[138.3825251,34.9776295],[138.3826542,34.9776177],[138.3826612,34.9776432],[138.3835232,34.9775449],[138.3835095,34.9774527],[138.3849776,34.9772938],[138.3850373,34.9776075],[138.3850795,34.9776053],[138.3850926,34.9777109],[138.3851002,34.9777716],[138.3851148,34.9778891],[138.3850359,34.9778886],[138.3852162,34.9792554],[138.3850942,34.9792623],[138.3849266,34.9792646],[138.3849052,34.9791201],[138.3845653,34.9791598],[138.3843966,34.9791817],[138.3843842,34.9790745],[138.3841347,34.9791005],[138.3841535,34.97923],[138.3844049,34.97923],[138.384405,34.9792099],[138.384475,34.9792102],[138.3845738,34.9791998],[138.3848556,34.9791682],[138.384873,34.9792995],[138.3850557,34.9792998],[138.3850765,34.9794314],[138.3852395,34.9794294],[138.3852465,34.9795674],[138.3852958,34.9795676],[138.3852919,34.9799498],[138.3852819,34.9806678],[138.3852096,34.9806686],[138.3852106,34.980731],[138.3846045,34.9807585],[138.384592,34.9808499],[138.3844716,34.9808718],[138.384474,34.9808881],[138.3843912,34.9809032],[138.3843871,34.9808895],[138.3842943,34.980903],[138.3843033,34.9809574],[138.3835188,34.9810997],[138.3827946,34.981248],[138.3827896,34.9811999],[138.3827316,34.9811721],[138.3823249,34.9812197],[138.3823218,34.9811906],[138.381591,34.9812244],[138.3815321,34.9809601],[138.3814365,34.980966],[138.38113,34.9797681],[138.3810904,34.9796764],[138.3810542,34.979578],[138.3811736,34.9795594]]]}}
