{"type":"Feature","id":"attraction-large-park-W314070238","properties":{"id":"attraction-large-park-W314070238","kind":"attraction","name":"徳島県南部健康運動公園","shortName":"徳島県南部健康運動公園","context":"日本","subtype":"large-park","subtypeLabel":"大型都市公園・広域公園","statusLabel":"著名な公園","aliases":[],"osmType":"way","osmId":314070238,"osmDate":null,"officialAreaKm2":null,"areaSourceLabel":"","areaSourceUrl":"","boundarySourceLabel":"© OpenStreetMap contributors","boundarySourceUrl":"https://www.openstreetmap.org/copyright","geometryFile":"attractions/large-park-W314070238.geojson"},"geometry":{"type":"Polygon","coordinates":[[[134.6031383,33.8693745],[134.6033082,33.8692465],[134.6033605,33.8691864],[134.6034732,33.8691719],[134.6037347,33.869182],[134.6038762,33.8692076],[134.6040284,33.8692688],[134.6041451,33.8693379],[134.6042591,33.8694336],[134.6043878,33.8696608],[134.6044254,33.86981],[134.6048357,33.8700037],[134.6050637,33.8697744],[134.6052971,33.8696096],[134.6055734,33.8694893],[134.6056699,33.8691285],[134.6056538,33.8688034],[134.6056377,33.8686252],[134.6054607,33.8685227],[134.6051818,33.8685406],[134.605012,33.8684509],[134.6049672,33.8682911],[134.6049833,33.868113],[134.6046949,33.8679639],[134.6045407,33.8677566],[134.6045032,33.8675484],[134.6044495,33.8673056],[134.6045177,33.8670193],[134.6045166,33.8667221],[134.6043851,33.8664549],[134.6044522,33.8662232],[134.6046373,33.8659983],[134.6047311,33.8656709],[134.6049243,33.8654616],[134.6050503,33.8653302],[134.6050262,33.8652166],[134.604884,33.8650874],[134.6048548,33.8648751],[134.6047633,33.8646286],[134.6045648,33.8643792],[134.6042618,33.8641275],[134.6039613,33.8639872],[134.6038433,33.863927],[134.6036851,33.8638847],[134.6037065,33.8636731],[134.6038353,33.8636219],[134.6039345,33.8635818],[134.6040525,33.8633591],[134.6041196,33.8632722],[134.6044359,33.8629947],[134.6040203,33.8630305],[134.6034568,33.863213],[134.6030116,33.8636807],[134.6028936,33.8636852],[134.6027273,33.8633689],[134.6027412,33.8626032],[134.6024752,33.8622731],[134.6022552,33.8621217],[134.60201,33.8612221],[134.6014237,33.8613867],[134.6013969,33.8620326],[134.6010268,33.862037],[134.6007175,33.8624238],[134.6007497,33.8628407],[134.6006294,33.8634263],[134.6014345,33.8640727],[134.6015847,33.8658277],[134.6014799,33.8667059],[134.6017724,33.8675025],[134.6019983,33.8682881],[134.6021857,33.8687255],[134.6020221,33.8688679],[134.6018129,33.8690172],[134.601884,33.8691007],[134.6020838,33.8691163],[134.6022702,33.8691185],[134.6024848,33.8691753],[134.6026658,33.8692967],[134.6027235,33.8693601],[134.6028026,33.8693546],[134.6029005,33.8693679],[134.6030494,33.8694203],[134.6031383,33.8693745]]]}}
