{"type":"Feature","id":"attraction-large-industrial-complex-W103812542","properties":{"id":"attraction-large-industrial-complex-W103812542","kind":"attraction","name":"広野火力発電所","shortName":"広野火力発電所","context":"日本","subtype":"industrial-complex","subtypeLabel":"工業地帯・大規模工場","statusLabel":"","aliases":["Hirono Power Station"],"osmType":"way","osmId":103812542,"osmDate":null,"officialAreaKm2":null,"areaSourceLabel":"","areaSourceUrl":"","boundarySourceLabel":"© OpenStreetMap contributors","boundarySourceUrl":"https://www.openstreetmap.org/copyright","geometryFile":"attractions/large-industrial-complex-W103812542.geojson"},"geometry":{"type":"Polygon","coordinates":[[[141.0102058,37.2293842],[141.0095968,37.2304995],[141.0072823,37.2316565],[141.0070822,37.2318989],[141.0068212,37.232945],[141.0071344,37.2354943],[141.0076391,37.2367689],[141.0072063,37.2376329],[141.0079175,37.2390617],[141.0080741,37.2395189],[141.0085962,37.2407242],[141.0090486,37.2409943],[141.0096751,37.2409666],[141.0103103,37.2405372],[141.010841,37.2401493],[141.011163,37.2401423],[141.0116415,37.2403294],[141.0121375,37.2405303],[141.01337,37.240562],[141.01766,37.240578],[141.017883,37.240785],[141.018707,37.240791],[141.018953,37.240598],[141.020429,37.240613],[141.020784,37.240617],[141.0207715,37.2352123],[141.0210417,37.2350659],[141.023218,37.235077],[141.0232823,37.2349044],[141.0233268,37.2348253],[141.0233045,37.2347616],[141.0232652,37.2347207],[141.0229874,37.2347115],[141.0229656,37.2347751],[141.0225758,37.234779],[141.022571,37.2344359],[141.0224402,37.2344359],[141.0224416,37.2343842],[141.0224427,37.2343434],[141.0222054,37.2343453],[141.0222048,37.2343921],[141.022203,37.2345419],[141.0222756,37.23454],[141.0222708,37.2347192],[141.0214591,37.2347312],[141.016463,37.234862],[141.016451,37.234724],[141.020884,37.234718],[141.020888,37.234543],[141.020144,37.234544],[141.016458,37.234552],[141.016458,37.23384],[141.01611,37.23364],[141.016102,37.233159],[141.016442,37.232997],[141.0164167,37.2320777],[141.0163991,37.2314383],[141.0161742,37.2313541],[141.0161756,37.2308848],[141.0164055,37.2308103],[141.0164099,37.2301801],[141.0187884,37.2301128],[141.0192012,37.2301011],[141.0192026,37.2299049],[141.0205087,37.2298697],[141.0205181,37.2300588],[141.0208689,37.2300459],[141.0208702,37.2298752],[141.0209633,37.2298739],[141.0209619,37.2292065],[141.0221559,37.229196],[141.02238,37.2292948],[141.02463,37.232642],[141.0281894,37.2377924],[141.02807,37.2378507],[141.0282191,37.2380794],[141.0286521,37.2378745],[141.0285027,37.2376458],[141.0283255,37.2377179],[141.027392,37.236297],[141.022402,37.229067],[141.021512,37.229073],[141.016036,37.229112],[141.016152,37.228358],[141.015974,37.228364],[141.015845,37.229124],[141.0123249,37.2291534],[141.0111871,37.229188],[141.0102058,37.2293842]]]}}
