{"type":"Feature","id":"attraction-large-industrial-complex-W171507682","properties":{"id":"attraction-large-industrial-complex-W171507682","kind":"attraction","name":"トヨタ自動車　元町工場","shortName":"トヨタ自動車　元町工場","context":"日本","subtype":"industrial-complex","subtypeLabel":"工業地帯・大規模工場","statusLabel":"","aliases":[],"osmType":"way","osmId":171507682,"osmDate":null,"officialAreaKm2":null,"areaSourceLabel":"","areaSourceUrl":"","boundarySourceLabel":"© OpenStreetMap contributors","boundarySourceUrl":"https://www.openstreetmap.org/copyright","geometryFile":"attractions/large-industrial-complex-W171507682.geojson"},"geometry":{"type":"Polygon","coordinates":[[[137.1316902,35.0809163],[137.1320424,35.0800361],[137.1323613,35.0792649],[137.1325945,35.0787196],[137.1327659,35.0782755],[137.1329087,35.0778432],[137.1331086,35.0773836],[137.1332561,35.0770914],[137.133337,35.0768655],[137.1334608,35.0764838],[137.1335464,35.0762384],[137.1335322,35.0761138],[137.133475,35.0759813],[137.1334655,35.0758255],[137.1334608,35.0755412],[137.1334512,35.0753854],[137.133437,35.0751361],[137.1334179,35.074879],[137.1334255,35.0748064],[137.1334436,35.0745949],[137.1334846,35.074135],[137.1335322,35.0737845],[137.133575,35.073356],[137.1336131,35.0730366],[137.1337178,35.0727366],[137.1337606,35.0725341],[137.1338272,35.0721757],[137.1338558,35.0716966],[137.1338177,35.0714278],[137.133813,35.0712525],[137.1338009,35.0710486],[137.1339019,35.0706933],[137.1340197,35.0704399],[137.1341475,35.0701369],[137.1342418,35.0698807],[137.1343293,35.0696521],[137.1343899,35.0693987],[137.1344706,35.0688946],[137.1345144,35.0686357],[137.134575,35.0683079],[137.1346086,35.0679994],[137.1346692,35.0676441],[137.1347163,35.0672722],[137.1347028,35.066848],[137.1345346,35.0667598],[137.1335249,35.0660822],[137.1331919,35.0657755],[137.1328713,35.0654353],[137.1322599,35.0650358],[137.1318563,35.0646298],[137.1312162,35.0636085],[137.131021,35.0634047],[137.1307989,35.0632394],[137.1306172,35.0631347],[137.1304623,35.0631843],[137.1304354,35.0633276],[137.1304354,35.06357],[137.1303681,35.0636857],[137.1301796,35.0637903],[137.1291835,35.0643192],[137.1290152,35.0643303],[137.1286786,35.0642697],[137.128544,35.064176],[137.1281108,35.0647055],[137.1279935,35.0650044],[137.1279312,35.0658019],[137.1287661,35.0658618],[137.1286719,35.0663797],[137.1285979,35.0673879],[137.1284902,35.0679498],[137.1284565,35.0682969],[137.1280055,35.0682804],[137.1279046,35.0689084],[137.1278709,35.0693711],[137.1278238,35.0697898],[137.1277969,35.0709467],[137.1277902,35.0716959],[137.1277498,35.0724286],[137.1276892,35.0739435],[137.1276757,35.0747037],[137.1276869,35.0778587],[137.1277284,35.0791024],[137.1277284,35.0792833],[137.1285435,35.0795999],[137.1294277,35.0799843],[137.1299803,35.0802895],[137.1308369,35.0806626],[137.1316902,35.0809163]]]}}
