{"type":"Feature","id":"attraction-large-park-W265358058","properties":{"id":"attraction-large-park-W265358058","kind":"attraction","name":"城山公園","shortName":"城山公園","context":"日本","subtype":"large-park","subtypeLabel":"大型都市公園・広域公園","statusLabel":"著名な公園","aliases":[],"osmType":"way","osmId":265358058,"osmDate":null,"officialAreaKm2":null,"areaSourceLabel":"","areaSourceUrl":"","boundarySourceLabel":"© OpenStreetMap contributors","boundarySourceUrl":"https://www.openstreetmap.org/copyright","geometryFile":"attractions/large-park-W265358058.geojson"},"geometry":{"type":"Polygon","coordinates":[[[139.8540731,34.9823355],[139.8544271,34.9821859],[139.854852,34.9824318],[139.8552436,34.9825988],[139.856225,34.9825329],[139.8572335,34.9824054],[139.8576602,34.9822935],[139.8580275,34.9820714],[139.8582367,34.9815266],[139.8583118,34.9811178],[139.8585907,34.9805904],[139.8586229,34.9800629],[139.8586551,34.9794915],[139.8584515,34.9790606],[139.858065,34.9791047],[139.8575393,34.9791707],[139.8569385,34.9786564],[139.8567668,34.9786872],[139.8560104,34.9790872],[139.85578,34.9797331],[139.8553241,34.9799397],[139.8546747,34.9805948],[139.854337,34.9809112],[139.8541814,34.9815793],[139.8540634,34.9821241],[139.8540731,34.9823355]]]}}
