{"type":"Feature","id":"attraction-large-park-W164337062","properties":{"id":"attraction-large-park-W164337062","kind":"attraction","name":"岩田運動公園","shortName":"岩田運動公園","context":"日本","subtype":"large-park","subtypeLabel":"大型都市公園・広域公園","statusLabel":"著名な公園","aliases":[],"osmType":"way","osmId":164337062,"osmDate":null,"officialAreaKm2":null,"areaSourceLabel":"","areaSourceUrl":"","boundarySourceLabel":"© OpenStreetMap contributors","boundarySourceUrl":"https://www.openstreetmap.org/copyright","geometryFile":"attractions/large-park-W164337062.geojson"},"geometry":{"type":"Polygon","coordinates":[[[137.4224062,34.7593925],[137.4224279,34.7588857],[137.4224425,34.758331],[137.4224809,34.757494],[137.4224557,34.757437],[137.4224819,34.7568763],[137.4225039,34.756865],[137.4236226,34.7566846],[137.4247357,34.7564486],[137.4258737,34.75639],[137.42588,34.7564302],[137.4259973,34.7567427],[137.4262755,34.7573662],[137.4265125,34.7578967],[137.4268681,34.7587258],[137.4272508,34.7596828],[137.4272342,34.7597256],[137.4272367,34.7598788],[137.4273114,34.7600985],[137.4267291,34.7601864],[137.426088,34.7602192],[137.4253326,34.7602295],[137.4233124,34.7601732],[137.4233461,34.7594742],[137.4233044,34.7594405],[137.4230639,34.759371],[137.4228096,34.7593775],[137.4224062,34.7593925]]]}}
