{"type":"Feature","id":"attraction-large-park-W117273207","properties":{"id":"attraction-large-park-W117273207","kind":"attraction","name":"豊川公園","shortName":"豊川公園","context":"愛知県・豊川市","subtype":"large-park","subtypeLabel":"大型都市公園・広域公園","statusLabel":"著名な公園","aliases":[],"osmType":"way","osmId":117273207,"osmDate":null,"officialAreaKm2":null,"areaSourceLabel":"","areaSourceUrl":"","boundarySourceLabel":"© OpenStreetMap contributors","boundarySourceUrl":"https://www.openstreetmap.org/copyright","geometryFile":"attractions/large-park-W117273207.geojson"},"geometry":{"type":"Polygon","coordinates":[[[137.3712295,34.8289826],[137.3712324,34.8274468],[137.3777129,34.8275285],[137.3776698,34.8290721],[137.3765493,34.829064],[137.3758042,34.8290581],[137.3757765,34.8290564],[137.3751946,34.8290487],[137.3712295,34.8289826]]]}}
