{"type":"Feature","id":"attraction-large-industrial-complex-W960817839","properties":{"id":"attraction-large-industrial-complex-W960817839","kind":"attraction","name":"大島造船所","shortName":"大島造船所","context":"日本","subtype":"industrial-complex","subtypeLabel":"工業地帯・大規模工場","statusLabel":"","aliases":[],"osmType":"way","osmId":960817839,"osmDate":null,"officialAreaKm2":null,"areaSourceLabel":"","areaSourceUrl":"","boundarySourceLabel":"© OpenStreetMap contributors","boundarySourceUrl":"https://www.openstreetmap.org/copyright","geometryFile":"attractions/large-industrial-complex-W960817839.geojson"},"geometry":{"type":"Polygon","coordinates":[[[129.6288064,33.0565008],[129.629584,33.0564545],[129.6314992,33.0553276],[129.6300993,33.0535877],[129.6301593,33.0533627],[129.631249,33.052719],[129.6313763,33.0528708],[129.6315533,33.0527797],[129.6314274,33.0526173],[129.6318765,33.0523638],[129.6319999,33.0525111],[129.6321729,33.0524122],[129.6320537,33.0522599],[129.6332853,33.0515467],[129.6340532,33.051086],[129.6344882,33.050827],[129.6334042,33.049514],[129.6334314,33.0494742],[129.6335034,33.049432],[129.6333923,33.0492887],[129.6333218,33.0493227],[129.6332529,33.0493235],[129.6330861,33.049123],[129.6330954,33.0490635],[129.633176,33.049026],[129.633048,33.048866],[129.6329879,33.0489012],[129.6329308,33.0489041],[129.6318652,33.047682],[129.6325983,33.0472732],[129.6324002,33.047028],[129.6316412,33.046128],[129.631797,33.0460295],[129.6316862,33.0458908],[129.6315731,33.0459576],[129.6315113,33.0459524],[129.6313185,33.0457202],[129.6314672,33.0456309],[129.6313507,33.0454902],[129.6311954,33.0455694],[129.6303283,33.0444907],[129.628961,33.0443955],[129.628889,33.044401],[129.627979,33.044919],[129.627657,33.045122],[129.6273673,33.0452989],[129.6268929,33.0455814],[129.6265386,33.045777],[129.625484,33.0454597],[129.6251183,33.0453659],[129.6248627,33.0452862],[129.6248777,33.0450709],[129.6248741,33.0449755],[129.6249767,33.044718],[129.6249903,33.0446848],[129.6249667,33.0446668],[129.6250027,33.0446133],[129.6249175,33.0445793],[129.6243335,33.0446478],[129.6241719,33.0457889],[129.6241853,33.0461047],[129.6246546,33.0469085],[129.6249658,33.0475245],[129.6250436,33.0479],[129.6250087,33.0487319],[129.6250141,33.0503461],[129.625124,33.0509216],[129.6253091,33.0515376],[129.6254244,33.0518321],[129.6256245,33.0520173],[129.625678,33.0520894],[129.6261658,33.0526966],[129.6262829,33.0528096],[129.6265368,33.0531257],[129.6265726,33.0533309],[129.6265852,33.0535075],[129.6265675,33.0536763],[129.6266769,33.0539195],[129.6272893,33.0546374],[129.627915,33.0554183],[129.6288064,33.0565008]]]}}
