{"type":"Feature","id":"attraction-large-industrial-complex-W427747824","properties":{"id":"attraction-large-industrial-complex-W427747824","kind":"attraction","name":"三菱日立パワーシステムズ","shortName":"三菱日立パワーシステムズ","context":"日本","subtype":"industrial-complex","subtypeLabel":"工業地帯・大規模工場","statusLabel":"","aliases":[],"osmType":"way","osmId":427747824,"osmDate":null,"officialAreaKm2":null,"areaSourceLabel":"","areaSourceUrl":"","boundarySourceLabel":"© OpenStreetMap contributors","boundarySourceUrl":"https://www.openstreetmap.org/copyright","geometryFile":"attractions/large-industrial-complex-W427747824.geojson"},"geometry":{"type":"Polygon","coordinates":[[[134.7853521,34.7413415],[134.7837835,34.7421937],[134.7786461,34.7449412],[134.77872,34.745023],[134.7788994,34.74525],[134.7785188,34.7454558],[134.7784636,34.7454857],[134.7785168,34.7455655],[134.7777643,34.7459772],[134.7788934,34.7471467],[134.7801705,34.7484584],[134.7809542,34.7492586],[134.7830307,34.7514144],[134.782872,34.7515104],[134.7840842,34.7528204],[134.7874436,34.7564015],[134.7877782,34.7562648],[134.788776,34.7556445],[134.7894036,34.7552478],[134.7907568,34.7543789],[134.7918144,34.7536999],[134.7931133,34.7528659],[134.7931648,34.7527598],[134.7930971,34.7526717],[134.7929965,34.7526012],[134.7928396,34.7525152],[134.7925752,34.7524861],[134.7919492,34.7524556],[134.7917895,34.7523962],[134.7915991,34.7522365],[134.7915086,34.752049],[134.7915084,34.7517424],[134.7915136,34.7511258],[134.7915387,34.7506663],[134.7915347,34.7503864],[134.7914703,34.7500822],[134.7914103,34.7499562],[134.790631,34.7487014],[134.7899012,34.7474321],[134.7898152,34.7472629],[134.7896486,34.7472329],[134.7894377,34.7473813],[134.7893521,34.7472906],[134.7894423,34.7472222],[134.789282,34.7470671],[134.7891645,34.7471412],[134.7887901,34.7467509],[134.7892818,34.7465078],[134.7882462,34.7453775],[134.7887447,34.7450639],[134.7888549,34.7445729],[134.7857254,34.7412263],[134.7855012,34.7413483],[134.7853521,34.7413415]]]}}
