{"type":"Feature","id":"attraction-large-park-W544116160","properties":{"id":"attraction-large-park-W544116160","kind":"attraction","name":"文化記念公園","shortName":"文化記念公園","context":"日本","subtype":"large-park","subtypeLabel":"大型都市公園・広域公園","statusLabel":"著名な公園","aliases":[],"osmType":"way","osmId":544116160,"osmDate":null,"officialAreaKm2":null,"areaSourceLabel":"","areaSourceUrl":"","boundarySourceLabel":"© OpenStreetMap contributors","boundarySourceUrl":"https://www.openstreetmap.org/copyright","geometryFile":"attractions/large-park-W544116160.geojson"},"geometry":{"type":"Polygon","coordinates":[[[130.9298054,33.8219064],[130.9297362,33.8219617],[130.9288839,33.8226424],[130.9286224,33.8228512],[130.9282518,33.8223853],[130.9269329,33.8218317],[130.9256776,33.8215748],[130.9254782,33.8208873],[130.9255954,33.8203017],[130.9258529,33.8201003],[130.9260726,33.8199284],[130.9263035,33.8190181],[130.926587,33.8184162],[130.9268116,33.8182729],[130.9271603,33.8179941],[130.9277745,33.8181039],[130.9283055,33.8184505],[130.9284108,33.8186845],[130.9296226,33.819199],[130.9297718,33.8195695],[130.9295331,33.8196275],[130.9291435,33.8198232],[130.9285141,33.8203325],[130.9284285,33.8204596],[130.9284091,33.8205393],[130.9284091,33.8206639],[130.9284815,33.820791],[130.9285427,33.8208494],[130.9287575,33.8210292],[130.9288097,33.8210729],[130.9292464,33.8214385],[130.9298054,33.8219064]]]}}
