{"type":"Feature","id":"attraction-large-park-W410148760","properties":{"id":"attraction-large-park-W410148760","kind":"attraction","name":"小瀬スポーツ公園","shortName":"小瀬スポーツ公園","context":"日本","subtype":"large-park","subtypeLabel":"大型都市公園・広域公園","statusLabel":"著名な公園","aliases":[],"osmType":"way","osmId":410148760,"osmDate":null,"officialAreaKm2":null,"areaSourceLabel":"","areaSourceUrl":"","boundarySourceLabel":"© OpenStreetMap contributors","boundarySourceUrl":"https://www.openstreetmap.org/copyright","geometryFile":"attractions/large-park-W410148760.geojson"},"geometry":{"type":"Polygon","coordinates":[[[138.5820514,35.6257772],[138.582317,35.6257118],[138.5824967,35.6256725],[138.5827274,35.6256725],[138.5828132,35.6256813],[138.5829671,35.6254721],[138.583058,35.625166],[138.5831343,35.6249432],[138.5832571,35.6247277],[138.5841259,35.6248203],[138.5839737,35.6253897],[138.5840531,35.6254411],[138.5839107,35.6259534],[138.584138,35.6259759],[138.5845346,35.6259752],[138.5848409,35.6259712],[138.5859787,35.6258891],[138.5887087,35.6254523],[138.5917128,35.625001],[138.5917664,35.6249443],[138.5916162,35.624384],[138.5911119,35.6221732],[138.5905406,35.6197618],[138.5904736,35.6197094],[138.5892854,35.6198969],[138.5887892,35.6175988],[138.5860435,35.6179803],[138.5854552,35.619293],[138.5850366,35.6200454],[138.5851256,35.6204189],[138.5852589,35.6204149],[138.585782,35.620349],[138.5861279,35.6219287],[138.5861979,35.6222215],[138.5861123,35.6222364],[138.5860426,35.6221383],[138.5856161,35.6222364],[138.585659,35.6225046],[138.5851413,35.6225526],[138.584621,35.6225112],[138.5847122,35.6221994],[138.5847927,35.621977],[138.5847578,35.6217699],[138.5842669,35.6216717],[138.5835159,35.6231696],[138.5830814,35.6239719],[138.5823706,35.6252125],[138.5820514,35.6257772]]]}}
