{"type":"Feature","id":"attraction-large-large-port-W1535736088","properties":{"id":"attraction-large-large-port-W1535736088","kind":"attraction","name":"庶野漁港","shortName":"庶野漁港","context":"日本","subtype":"large-port","subtypeLabel":"港湾・埠頭","statusLabel":"","aliases":["Shoya Fishing Port","北海道"],"osmType":"way","osmId":1535736088,"osmDate":null,"officialAreaKm2":null,"areaSourceLabel":"","areaSourceUrl":"","boundarySourceLabel":"© OpenStreetMap contributors","boundarySourceUrl":"https://www.openstreetmap.org/copyright","geometryFile":"attractions/large-large-port-W1535736088.geojson"},"geometry":{"type":"Polygon","coordinates":[[[143.3001282,42.0439049],[143.3001102,42.0441073],[143.2996634,42.0441154],[143.2985574,42.0440764],[143.2973726,42.0440129],[143.2961812,42.044039],[143.2959597,42.0440475],[143.2941904,42.0434643],[143.2938451,42.0433202],[143.2936038,42.0431551],[143.2933814,42.0429127],[143.2932159,42.0426422],[143.2926765,42.0407906],[143.2929107,42.0405445],[143.2932435,42.0405823],[143.2941367,42.0406837],[143.2950343,42.04076],[143.2973439,42.0407288],[143.297674,42.0406316],[143.2976556,42.0406017],[143.2977238,42.0405798],[143.2986641,42.0399412],[143.298786,42.0399377],[143.2988106,42.040717],[143.2999502,42.0421952],[143.3000639,42.0426731],[143.3000753,42.0427333],[143.3001572,42.0433984],[143.3001282,42.0439049]]]}}
