{"type":"Feature","id":"attraction-large-industrial-complex-R19969935","properties":{"id":"attraction-large-industrial-complex-R19969935","kind":"attraction","name":"コスモ石油株式会社","shortName":"コスモ石油株式会社","context":"日本","subtype":"industrial-complex","subtypeLabel":"工業地帯・大規模工場","statusLabel":"","aliases":[],"osmType":"relation","osmId":19969935,"osmDate":null,"officialAreaKm2":null,"areaSourceLabel":"","areaSourceUrl":"","boundarySourceLabel":"© OpenStreetMap contributors","boundarySourceUrl":"https://www.openstreetmap.org/copyright","geometryFile":"attractions/large-industrial-complex-R19969935.geojson"},"geometry":{"type":"MultiPolygon","coordinates":[[[[136.648678,34.9699403],[136.648524,34.969503],[136.64793,34.968028],[136.647916,34.967898],[136.647875,34.967808],[136.647861,34.967808],[136.647156,34.965859],[136.646588,34.96445],[136.6460878,34.9641546],[136.6413885,34.9654823],[136.6411565,34.9653905],[136.638988,34.9673055],[136.6384891,34.9678462],[136.638135,34.9683298],[136.6393259,34.9704321],[136.6401467,34.9702541],[136.6405651,34.9714674],[136.6413081,34.9711926],[136.6414341,34.9711794],[136.6415602,34.9713366],[136.6418821,34.971952],[136.6457927,34.9709421],[136.6483609,34.9702739],[136.6482684,34.9700475],[136.648678,34.9699403]]],[[[136.6378681,34.9654438],[136.6378507,34.9653592],[136.6380814,34.9652361],[136.6388136,34.9644041],[136.6391677,34.9638502],[136.6392602,34.9636304],[136.6392374,34.9635249],[136.6390242,34.9633897],[136.6391127,34.9632842],[136.6392106,34.9632424],[136.6391864,34.9630622],[136.6390362,34.9630501],[136.6388404,34.9629303],[136.6408011,34.9612256],[136.640899,34.9609574],[136.640898,34.960912],[136.640918,34.960732],[136.640884,34.96036],[136.640775,34.960134],[136.640747,34.960134],[136.640542,34.959891],[136.6400967,34.9595586],[136.6401198,34.9595108],[136.6402693,34.9594943],[136.6408646,34.9594438],[136.6415563,34.9593834],[136.644893,34.959149],[136.646124,34.959075],[136.646275,34.959662],[136.6467633,34.9613807],[136.642393,34.963404],[136.6423555,34.9633348],[136.6404659,34.9641579],[136.6402794,34.9642898],[136.6397779,34.9648526],[136.6387103,34.96599],[136.6378681,34.9654438]]]]}}
