{"type":"Feature","id":"attraction-large-industrial-complex-W634083202","properties":{"id":"attraction-large-industrial-complex-W634083202","kind":"attraction","name":"コスモ石油","shortName":"コスモ石油","context":"日本","subtype":"industrial-complex","subtypeLabel":"工業地帯・大規模工場","statusLabel":"","aliases":["Sakai refinery","Cosmo Oil"],"osmType":"way","osmId":634083202,"osmDate":null,"officialAreaKm2":null,"areaSourceLabel":"","areaSourceUrl":"","boundarySourceLabel":"© OpenStreetMap contributors","boundarySourceUrl":"https://www.openstreetmap.org/copyright","geometryFile":"attractions/large-industrial-complex-W634083202.geojson"},"geometry":{"type":"Polygon","coordinates":[[[135.4251373,34.570194],[135.4294391,34.5707007],[135.4287087,34.5750033],[135.4286038,34.5756132],[135.4285859,34.5757149],[135.4279152,34.579579],[135.4279076,34.5796227],[135.4278219,34.5801164],[135.4339955,34.5809141],[135.4365948,34.5659876],[135.4366577,34.5655741],[135.4366294,34.5653118],[135.4364241,34.5650553],[135.4362259,34.5649446],[135.4359994,34.5649008],[135.4357764,34.5649125],[135.4355608,34.5649671],[135.434205,34.5652681],[135.4329649,34.5652787],[135.4259885,34.564897],[135.4255131,34.5681607],[135.4251373,34.570194]]]}}
