{"type":"Feature","id":"attraction-large-park-W491598046","properties":{"id":"attraction-large-park-W491598046","kind":"attraction","name":"新川緑地","shortName":"新川緑地","context":"日本","subtype":"large-park","subtypeLabel":"大型都市公園・広域公園","statusLabel":"","aliases":[],"osmType":"way","osmId":491598046,"osmDate":null,"officialAreaKm2":null,"areaSourceLabel":"","areaSourceUrl":"","boundarySourceLabel":"© OpenStreetMap contributors","boundarySourceUrl":"https://www.openstreetmap.org/copyright","geometryFile":"attractions/large-park-W491598046.geojson"},"geometry":{"type":"Polygon","coordinates":[[[141.2384746,43.1523701],[141.2371411,43.151332],[141.241544,43.1482681],[141.2416777,43.1481706],[141.2427149,43.1474139],[141.2446907,43.145999],[141.2459998,43.1450617],[141.24713,43.1442697],[141.2481667,43.1435014],[141.2492725,43.1427123],[141.2507645,43.1416444],[141.2511371,43.1413774],[141.2522845,43.1405549],[141.2526021,43.1403273],[141.253712,43.1395145],[141.2547609,43.1387521],[141.2560171,43.1378562],[141.2577775,43.1365924],[141.2592735,43.1355333],[141.2607737,43.1344504],[141.2616275,43.1338719],[141.2629081,43.1330056],[141.2629707,43.1329362],[141.2633065,43.1325635],[141.2650059,43.1313263],[141.2655018,43.1308753],[141.2655313,43.130414],[141.2662133,43.1304184],[141.2664369,43.1300505],[141.2666727,43.1301603],[141.2679858,43.1291515],[141.269421,43.1280834],[141.271474,43.1265879],[141.2727587,43.1256503],[141.2747589,43.124226],[141.2759176,43.123413],[141.2769746,43.1226237],[141.278304,43.1216474],[141.2798733,43.1205109],[141.2815564,43.1193179],[141.28254,43.1186075],[141.2846705,43.1170685],[141.2852508,43.1165627],[141.2855422,43.1163546],[141.2862222,43.115869],[141.2875905,43.1149861],[141.2893884,43.113677],[141.2901846,43.113106],[141.292034,43.1119162],[141.293045,43.1112207],[141.2946865,43.1099814],[141.2961763,43.1088888],[141.2972807,43.108079],[141.2975673,43.1072079],[141.2985837,43.1080954],[141.3011246,43.1060919],[141.3022874,43.1052756],[141.3032509,43.1045722],[141.3043648,43.1037173],[141.3057105,43.1027407],[141.3069017,43.1018918],[141.308162,43.1009271],[141.309284,43.1001375],[141.3103167,43.0993954],[141.3125445,43.0977745],[141.3141951,43.0965871],[141.3162563,43.0950731],[141.3180614,43.0937698],[141.3203502,43.0920865],[141.321887,43.0909821],[141.3245743,43.0890345],[141.3260866,43.0879508],[141.3279364,43.0866533],[141.3281071,43.0867929],[141.3263468,43.0880369],[141.3241718,43.0896075],[141.3222407,43.0909969],[141.3203258,43.0923686],[141.3186793,43.0936362],[141.3164718,43.0952245],[141.3142358,43.0968454],[141.3113818,43.0989293],[141.3094548,43.1002621],[141.307483,43.1017256],[141.3055113,43.1031741],[141.3034867,43.1046879],[141.3024988,43.1055695],[141.3014011,43.1062522],[141.3003319,43.1069853],[141.2994131,43.1077065],[141.2990797,43.1079855],[141.2985878,43.1084456],[141.2976487,43.1092826],[141.2968722,43.1098524],[141.2932905,43.1124434],[141.2913553,43.1138591],[141.2884078,43.1160166],[141.2869036,43.1170909],[141.2850254,43.11845],[141.2834358,43.1195688],[141.2804395,43.1217499],[141.2780856,43.1234709],[141.276431,43.1246935],[141.2752642,43.1255391],[141.2718289,43.1279781],[141.2690481,43.1299779],[141.2673199,43.1312256],[141.265629,43.1324464],[141.2633768,43.1341138],[141.2588439,43.1373556],[141.2578721,43.1380506],[141.2542376,43.1406433],[141.249294,43.1442327],[141.2430982,43.1487561],[141.2396141,43.1513899],[141.2384746,43.1523701]]]}}
