{"type":"Feature","id":"attraction-large-park-W560211849","properties":{"id":"attraction-large-park-W560211849","kind":"attraction","name":"いこいの森","shortName":"いこいの森","context":"日本","subtype":"large-park","subtypeLabel":"大型都市公園・広域公園","statusLabel":"著名な公園","aliases":["Ikoinomori"],"osmType":"way","osmId":560211849,"osmDate":null,"officialAreaKm2":null,"areaSourceLabel":"","areaSourceUrl":"","boundarySourceLabel":"© OpenStreetMap contributors","boundarySourceUrl":"https://www.openstreetmap.org/copyright","geometryFile":"attractions/large-park-W560211849.geojson"},"geometry":{"type":"Polygon","coordinates":[[[143.3334893,43.9294746],[143.3336073,43.9294534],[143.3340982,43.9280258],[143.3359516,43.9270232],[143.3364826,43.9268551],[143.3369735,43.9269073],[143.3374697,43.9271662],[143.3377057,43.9277071],[143.3378184,43.9283407],[143.3378774,43.9299479],[143.3406508,43.9330115],[143.3409995,43.9340777],[143.3393848,43.9344795],[143.3379525,43.9347653],[143.3374697,43.9356847],[143.3367991,43.9360285],[143.3359462,43.9346726],[143.3346105,43.9324783],[143.3344763,43.9322388],[143.3334893,43.9294746]]]}}
