{"type":"Feature","id":"attraction-large-park-R3893005","properties":{"id":"attraction-large-park-R3893005","kind":"attraction","name":"アイランドシティ中央公園","shortName":"アイランドシティ中央公園","context":"福岡県・福岡市","subtype":"large-park","subtypeLabel":"大型都市公園・広域公園","statusLabel":"著名な公園","aliases":["Island City Central Park","Island City Chuo Park"],"osmType":"relation","osmId":3893005,"osmDate":null,"officialAreaKm2":null,"areaSourceLabel":"","areaSourceUrl":"","boundarySourceLabel":"© OpenStreetMap contributors","boundarySourceUrl":"https://www.openstreetmap.org/copyright","geometryFile":"attractions/large-park-R3893005.geojson"},"geometry":{"type":"MultiPolygon","coordinates":[[[[130.4221514,33.6662939],[130.4221045,33.6662806],[130.4220549,33.6662801],[130.4220276,33.6662872],[130.4220076,33.6662924],[130.4219672,33.6663163],[130.4219378,33.6663495],[130.4208126,33.6658937],[130.4207738,33.6658767],[130.4207351,33.6658597],[130.4199264,33.6655315],[130.4198119,33.6654827],[130.4193682,33.6652937],[130.4192732,33.6652532],[130.4181541,33.6648064],[130.4181692,33.6647809],[130.418174,33.6647527],[130.418168,33.6647247],[130.4181519,33.6646996],[130.4181272,33.6646799],[130.4180964,33.6646676],[130.4184851,33.6640086],[130.4185345,33.6639317],[130.4185542,33.6638986],[130.419443,33.6623657],[130.4195511,33.6623682],[130.4195704,33.662356],[130.4195873,33.6623454],[130.4196437,33.6622916],[130.4208856,33.6628002],[130.4209696,33.6628346],[130.4210465,33.6628644],[130.4210573,33.6628688],[130.4210743,33.6628751],[130.4210914,33.6628813],[130.4211047,33.6628871],[130.4211609,33.6629129],[130.4212444,33.6629471],[130.4227042,33.6635449],[130.4233867,33.6638282],[130.4233747,33.6638867],[130.4233707,33.6639429],[130.4233798,33.6639589],[130.4233877,33.6639731],[130.423423,33.6640122],[130.4234669,33.6640427],[130.4229144,33.6649819],[130.42289,33.6650276],[130.4228668,33.6650695],[130.4227359,33.6652938],[130.4226774,33.6653939],[130.4221514,33.6662939]]],[[[130.4207346,33.662433],[130.4210278,33.6625576],[130.4210712,33.662576],[130.4211187,33.6625962],[130.4211861,33.6626249],[130.421196,33.6626291],[130.4212141,33.6626368],[130.4212323,33.6626445],[130.4212447,33.6626497],[130.4213116,33.6626782],[130.4213458,33.6626927],[130.4213826,33.6627084],[130.4216123,33.662806],[130.4216483,33.6628213],[130.4216838,33.6628364],[130.4222766,33.661844],[130.4223396,33.6617786],[130.4224188,33.6617326],[130.4224683,33.6617161],[130.4225215,33.6617076],[130.4226226,33.661711],[130.4226051,33.6616998],[130.4225131,33.6616638],[130.4224527,33.6615322],[130.4228507,33.6608865],[130.4248605,33.6617406],[130.4250576,33.6614111],[130.4184821,33.658698],[130.4184625,33.6587211],[130.4184417,33.6587607],[130.4183674,33.6588827],[130.4183884,33.6588913],[130.4195016,33.6593466],[130.4195225,33.6593552],[130.4218623,33.6603123],[130.4219476,33.6603429],[130.4214779,33.6611647],[130.4214321,33.6612255],[130.4211726,33.6611078],[130.4212816,33.6611819],[130.4213217,33.661252],[130.4213296,33.6613345],[130.421322,33.661418],[130.4211063,33.6617907],[130.4210728,33.6618485],[130.4207698,33.6623721],[130.4207346,33.662433]]]]}}
