{"type":"Feature","id":"attraction-large-park-W614205745","properties":{"id":"attraction-large-park-W614205745","kind":"attraction","name":"七沢森林公園","shortName":"七沢森林公園","context":"日本","subtype":"large-park","subtypeLabel":"大型都市公園・広域公園","statusLabel":"","aliases":[],"osmType":"way","osmId":614205745,"osmDate":null,"officialAreaKm2":null,"areaSourceLabel":"","areaSourceUrl":"","boundarySourceLabel":"© OpenStreetMap contributors","boundarySourceUrl":"https://www.openstreetmap.org/copyright","geometryFile":"attractions/large-park-W614205745.geojson"},"geometry":{"type":"Polygon","coordinates":[[[139.3053184,35.4396195],[139.3054061,35.4396198],[139.3055098,35.4396],[139.3055426,35.4396017],[139.3055616,35.4396319],[139.3056812,35.439609],[139.3055597,35.4394728],[139.3050894,35.4392585],[139.3051284,35.4391168],[139.3048382,35.4390119],[139.3044317,35.4390618],[139.3039373,35.4396089],[139.3035119,35.4399487],[139.3028797,35.4405628],[139.3031081,35.4407745],[139.3028508,35.4411583],[139.3025347,35.4410225],[139.3024884,35.4411667],[139.3025068,35.4413543],[139.3025078,35.4415136],[139.3020519,35.4422569],[139.3020991,35.4423183],[139.301763,35.4429589],[139.3016205,35.4437636],[139.3015147,35.4438486],[139.3017621,35.4440078],[139.3013055,35.4442261],[139.3011969,35.4441308],[139.3006448,35.4443672],[139.3000431,35.4445517],[139.2998367,35.4449976],[139.3002108,35.4452224],[139.2999286,35.4456594],[139.2999086,35.4459588],[139.2992999,35.446374],[139.2981886,35.4477637],[139.2978913,35.4486517],[139.2976777,35.4494944],[139.2980516,35.4504715],[139.297871,35.4509601],[139.2973993,35.4510216],[139.2972671,35.4513382],[139.2968692,35.4518401],[139.2968069,35.4522274],[139.29736,35.4525045],[139.2983289,35.4527016],[139.2983401,35.4531102],[139.2977085,35.4532868],[139.2977906,35.4536425],[139.2980376,35.4536849],[139.2981948,35.4537696],[139.2985776,35.4538144],[139.2984999,35.4540267],[139.2983419,35.4542859],[139.2985745,35.4543489],[139.2989865,35.4541485],[139.2999195,35.4542536],[139.3008853,35.4547668],[139.3011834,35.4548428],[139.3014595,35.4539607],[139.3016506,35.4536839],[139.3017332,35.4533658],[139.302523,35.4533334],[139.3026713,35.4520724],[139.3016112,35.451939],[139.3015605,35.451735],[139.3016293,35.4514755],[139.3026557,35.4513544],[139.3026062,35.4509969],[139.3029813,35.450945],[139.3029388,35.4507201],[139.3024575,35.4506221],[139.302631,35.4499042],[139.302805,35.4497655],[139.3027018,35.4496111],[139.3027851,35.449266],[139.3029964,35.4491933],[139.3032078,35.4491921],[139.3034937,35.4493312],[139.3036113,35.4493247],[139.3037033,35.4490249],[139.3032998,35.4486731],[139.3031866,35.4483387],[139.3035122,35.4482176],[139.3038166,35.4483272],[139.3039652,35.4482753],[139.3041351,35.4477736],[139.3036821,35.4475487],[139.3035971,35.4468279],[139.3036539,35.4466704],[139.3038524,35.4466281],[139.3038801,35.4465277],[139.3037702,35.4464068],[139.3037805,35.4462311],[139.303853,35.4461993],[139.3046054,35.4461839],[139.3049736,35.4453054],[139.3044112,35.4449192],[139.3044253,35.4444694],[139.3047509,35.4438351],[139.3048359,35.4434199],[139.3048451,35.4429085],[139.3047669,35.4427038],[139.3042413,35.4426586],[139.3039298,35.4425087],[139.3038169,35.4421906],[139.3039652,35.4415284],[139.3040838,35.4412662],[139.3040852,35.4409062],[139.304191,35.4407853],[139.3041952,35.440716],[139.3041333,35.4405918],[139.3041252,35.4404843],[139.304201,35.4402985],[139.3044004,35.4401587],[139.3044606,35.4400957],[139.3045376,35.439909],[139.3046212,35.4397617],[139.3047493,35.4395949],[139.3049363,35.4394385],[139.3050696,35.4393929],[139.305123,35.4394021],[139.3051552,35.4394275],[139.3052779,35.4395914],[139.3053184,35.4396195]]]}}
