{"type":"Feature","id":"attraction-large-industrial-complex-W551131529","properties":{"id":"attraction-large-industrial-complex-W551131529","kind":"attraction","name":"大分石油化学コンビナート","shortName":"大分石油化学コンビナート","context":"日本","subtype":"industrial-complex","subtypeLabel":"工業地帯・大規模工場","statusLabel":"","aliases":["Oita Petrochemical Complex"],"osmType":"way","osmId":551131529,"osmDate":null,"officialAreaKm2":null,"areaSourceLabel":"","areaSourceUrl":"","boundarySourceLabel":"© OpenStreetMap contributors","boundarySourceUrl":"https://www.openstreetmap.org/copyright","geometryFile":"attractions/large-industrial-complex-W551131529.geojson"},"geometry":{"type":"Polygon","coordinates":[[[131.6719631,33.2632752],[131.6725447,33.2617263],[131.6814242,33.2640048],[131.6826814,33.2650725],[131.6837183,33.2661813],[131.6839172,33.2665704],[131.6795887,33.2681077],[131.6792174,33.2690218],[131.6792918,33.2691345],[131.6788459,33.2703247],[131.6787453,33.2703001],[131.6773101,33.274163],[131.6759098,33.2779905],[131.6670089,33.2748032],[131.6669397,33.2747822],[131.6678488,33.2723094],[131.6679447,33.2723021],[131.66914,33.2690727],[131.6700264,33.266664],[131.6711727,33.2636951],[131.6717511,33.2637904],[131.6719631,33.2632752]]]}}
