{"type":"Feature","id":"attraction-large-airport-W57007999","properties":{"id":"attraction-large-airport-W57007999","kind":"attraction","name":"函館空港","shortName":"函館空港","context":"北海道・函館市","subtype":"airport","subtypeLabel":"空港・飛行場","statusLabel":"","aliases":["Hakodate Airport","Ministry of Land, Infrastructure and Transport (Japan)"],"osmType":"way","osmId":57007999,"osmDate":null,"officialAreaKm2":null,"areaSourceLabel":"","areaSourceUrl":"","boundarySourceLabel":"© OpenStreetMap contributors","boundarySourceUrl":"https://www.openstreetmap.org/copyright","geometryFile":"attractions/large-airport-W57007999.geojson"},"geometry":{"type":"Polygon","coordinates":[[[140.8213977,41.7727019],[140.8214643,41.772892],[140.8212221,41.773357],[140.8205919,41.7742187],[140.8205705,41.774811],[140.8207549,41.7752275],[140.81914,41.77581],[140.8181661,41.7762016],[140.8178754,41.7764347],[140.8177689,41.7765156],[140.816859,41.776689],[140.8134755,41.7773075],[140.8132689,41.7768814],[140.8129246,41.776769],[140.8121887,41.776938],[140.8113323,41.775063],[140.8062777,41.776261],[140.803871,41.776118],[140.8033615,41.7762245],[140.8019174,41.7765647],[140.8015457,41.7756824],[140.8009583,41.7755844],[140.8008671,41.7755424],[140.8007555,41.7754],[140.797501,41.776203],[140.7974597,41.7760914],[140.8006782,41.7753098],[140.8005162,41.7750692],[140.8011514,41.7748983],[140.8007169,41.7738082],[140.8017696,41.7735291],[140.8016959,41.773206],[140.8016825,41.77316],[140.8017008,41.773052],[140.8019433,41.7730967],[140.8020553,41.7728532],[140.8024752,41.7729651],[140.8025402,41.7728148],[140.8026832,41.7728844],[140.8035245,41.7726832],[140.8044901,41.7724495],[140.804402,41.7721781],[140.8046125,41.7719683],[140.8049313,41.7721164],[140.8084399,41.7719229],[140.8139017,41.7706127],[140.8200243,41.7691388],[140.8285269,41.7670459],[140.8279524,41.7658999],[140.8306225,41.7651559],[140.8306624,41.7651929],[140.8316399,41.7648851],[140.8324451,41.7658849],[140.8340343,41.7655763],[140.8342524,41.7654716],[140.8343957,41.7655691],[140.8355955,41.7652112],[140.8356186,41.765278],[140.8398968,41.764299],[140.8399623,41.764569],[140.8413925,41.764578],[140.8419537,41.764425],[140.8420821,41.7649129],[140.8425438,41.7651309],[140.8425821,41.7651288],[140.8425314,41.7650025],[140.8426583,41.7649593],[140.8427015,41.7650861],[140.8434335,41.7649149],[140.8496141,41.7634589],[140.849746,41.7632864],[140.849982,41.7632249],[140.8502155,41.7635325],[140.8499035,41.7636135],[140.8495241,41.7635594],[140.8431194,41.765187],[140.8427454,41.76539],[140.8423064,41.7653768],[140.8422621,41.765422],[140.8425682,41.7660629],[140.8420782,41.7661812],[140.841277,41.76664],[140.841121,41.766735],[140.8410844,41.7668108],[140.8412536,41.7668366],[140.8421312,41.7666316],[140.842049,41.7663731],[140.8422383,41.766326],[140.8422479,41.7663705],[140.8423318,41.7663454],[140.8423981,41.7662194],[140.8425235,41.7661164],[140.8427186,41.7660584],[140.8429089,41.7660625],[140.8430898,41.7661234],[140.8432203,41.7662228],[140.8433021,41.7663522],[140.843298,41.766505],[140.8432294,41.7666354],[140.8431231,41.7667277],[140.8429328,41.7668069],[140.842759,41.7668151],[140.8426187,41.7667997],[140.8424293,41.7666835],[140.8411031,41.7669659],[140.8410637,41.7669967],[140.8415332,41.767846],[140.828126,41.7710617],[140.8281466,41.7711468],[140.8278085,41.7712319],[140.8277706,41.7711469],[140.82501,41.771809],[140.8213977,41.7727019]]]}}
