{"type":"Feature","id":"attraction-large-park-W186236840","properties":{"id":"attraction-large-park-W186236840","kind":"attraction","name":"古代蓮の里","shortName":"古代蓮の里","context":"日本","subtype":"large-park","subtypeLabel":"大型都市公園・広域公園","statusLabel":"著名な公園","aliases":["Ancient Lotus Park"],"osmType":"way","osmId":186236840,"osmDate":null,"officialAreaKm2":null,"areaSourceLabel":"","areaSourceUrl":"","boundarySourceLabel":"© OpenStreetMap contributors","boundarySourceUrl":"https://www.openstreetmap.org/copyright","geometryFile":"attractions/large-park-W186236840.geojson"},"geometry":{"type":"Polygon","coordinates":[[[139.5012304,36.1339654],[139.499616,36.1344586],[139.499474,36.134242],[139.4994244,36.1341683],[139.4987997,36.1333852],[139.498705,36.1332619],[139.498094,36.1324657],[139.4977665,36.1319991],[139.4976903,36.1318905],[139.4974034,36.1315298],[139.4974266,36.1314385],[139.498495,36.1309048],[139.4987364,36.1307543],[139.4995438,36.1303405],[139.5005943,36.1298041],[139.5012134,36.1304672],[139.5021079,36.1315049],[139.5030447,36.1326895],[139.5030762,36.1327332],[139.5028388,36.1328209],[139.5026119,36.1329429],[139.5023561,36.1331177],[139.5021455,36.1332997],[139.5017259,36.1336628],[139.5015165,36.1338207],[139.5013958,36.1338932],[139.5012304,36.1339654]]]}}
