{"type":"Feature","id":"attraction-large-park-W51806143","properties":{"id":"attraction-large-park-W51806143","kind":"attraction","name":"岩手県営運動公園","shortName":"岩手県営運動公園","context":"日本","subtype":"large-park","subtypeLabel":"大型都市公園・広域公園","statusLabel":"著名な公園","aliases":[],"osmType":"way","osmId":51806143,"osmDate":null,"officialAreaKm2":null,"areaSourceLabel":"","areaSourceUrl":"","boundarySourceLabel":"© OpenStreetMap contributors","boundarySourceUrl":"https://www.openstreetmap.org/copyright","geometryFile":"attractions/large-park-W51806143.geojson"},"geometry":{"type":"Polygon","coordinates":[[[141.1156797,39.7344584],[141.115697,39.7344278],[141.1160908,39.7342425],[141.1163802,39.7341014],[141.1166427,39.7339598],[141.1167607,39.7338833],[141.1168761,39.7340565],[141.1170628,39.7341261],[141.1173781,39.7341072],[141.1178124,39.7340772],[141.1182354,39.7340364],[141.1186475,39.7339281],[141.1187015,39.7338249],[141.1188167,39.7335682],[141.1188703,39.7334033],[141.1185464,39.7329505],[141.1181579,39.7324579],[141.1186981,39.7319282],[141.1191058,39.7323943],[141.1193226,39.7319485],[141.1196581,39.7322559],[141.1199633,39.7327222],[141.1204721,39.7335633],[141.1205937,39.7338355],[141.120907,39.7344101],[141.1211602,39.7347966],[141.1215974,39.7353364],[141.1202412,39.7360304],[141.1211826,39.7371959],[141.1212363,39.7373819],[141.1214934,39.7375884],[141.1228933,39.7391979],[141.1206116,39.7403428],[141.1205404,39.7403287],[141.1193803,39.7389332],[141.1177937,39.7369931],[141.1170139,39.7360506],[141.1156797,39.7344584]]]}}
