{"type":"Feature","id":"attraction-large-park-W323165199","properties":{"id":"attraction-large-park-W323165199","kind":"attraction","name":"塩谷町総合公園","shortName":"塩谷町総合公園","context":"日本","subtype":"large-park","subtypeLabel":"大型都市公園・広域公園","statusLabel":"著名な公園","aliases":[],"osmType":"way","osmId":323165199,"osmDate":null,"officialAreaKm2":null,"areaSourceLabel":"","areaSourceUrl":"","boundarySourceLabel":"© OpenStreetMap contributors","boundarySourceUrl":"https://www.openstreetmap.org/copyright","geometryFile":"attractions/large-park-W323165199.geojson"},"geometry":{"type":"Polygon","coordinates":[[[139.834499,36.7654039],[139.834735,36.7646991],[139.8356255,36.7648796],[139.8356577,36.7645616],[139.8357006,36.7636677],[139.8353036,36.7635302],[139.8349603,36.7632895],[139.8348423,36.7627824],[139.8349603,36.7622753],[139.8351642,36.7618455],[139.8357221,36.7616822],[139.8360976,36.7616822],[139.8365472,36.7618082],[139.8370785,36.761957],[139.8378464,36.7621722],[139.8383721,36.7623312],[139.8388549,36.7626879],[139.8395201,36.7629586],[139.8399385,36.7632594],[139.8403677,36.7636419],[139.8400243,36.7640803],[139.8399657,36.7640328],[139.8396836,36.7639063],[139.8393913,36.7638654],[139.8392519,36.7638826],[139.8381897,36.7650257],[139.8375996,36.7659153],[139.8359474,36.7655414],[139.8350998,36.7654297],[139.834499,36.7654039]]]}}
