{"type":"Feature","id":"attraction-large-park-W127199314","properties":{"id":"attraction-large-park-W127199314","kind":"attraction","name":"青木町公園総合運動場","shortName":"青木町公園総合運動場","context":"日本","subtype":"large-park","subtypeLabel":"大型都市公園・広域公園","statusLabel":"著名な公園","aliases":[],"osmType":"way","osmId":127199314,"osmDate":null,"officialAreaKm2":null,"areaSourceLabel":"","areaSourceUrl":"","boundarySourceLabel":"© OpenStreetMap contributors","boundarySourceUrl":"https://www.openstreetmap.org/copyright","geometryFile":"attractions/large-park-W127199314.geojson"},"geometry":{"type":"Polygon","coordinates":[[[139.7099296,35.8235274],[139.7098437,35.8234619],[139.7097137,35.8223308],[139.709658,35.8207703],[139.7097583,35.8206962],[139.7137696,35.8212286],[139.7138398,35.8213166],[139.7137566,35.8218731],[139.7137145,35.8232451],[139.7135836,35.8233509],[139.7120925,35.8233273],[139.7120895,35.823475],[139.7120023,35.8235432],[139.7099296,35.8235274]]]}}
