{"type":"Feature","id":"attraction-large-park-W427306044","properties":{"id":"attraction-large-park-W427306044","kind":"attraction","name":"大島公園","shortName":"大島公園","context":"日本","subtype":"large-park","subtypeLabel":"大型都市公園・広域公園","statusLabel":"","aliases":["Oshima Park"],"osmType":"way","osmId":427306044,"osmDate":null,"officialAreaKm2":null,"areaSourceLabel":"","areaSourceUrl":"","boundarySourceLabel":"© OpenStreetMap contributors","boundarySourceUrl":"https://www.openstreetmap.org/copyright","geometryFile":"attractions/large-park-W427306044.geojson"},"geometry":{"type":"Polygon","coordinates":[[[139.4309155,34.7657507],[139.4323973,34.7627505],[139.4329614,34.7623813],[139.4334203,34.7613524],[139.4342329,34.759758],[139.4350551,34.7591139],[139.435514,34.7586427],[139.4365848,34.7584306],[139.4379233,34.757221],[139.4389558,34.7563727],[139.4394721,34.7559171],[139.4406384,34.7561056],[139.4396059,34.7591061],[139.4384204,34.7619493],[139.4371584,34.7646826],[139.4368716,34.7661905],[139.4361956,34.7679098],[139.4334203,34.7671337],[139.4309155,34.7657507]]]}}
