{"type":"Feature","id":"attraction-large-airport-W772669000","properties":{"id":"attraction-large-airport-W772669000","kind":"attraction","name":"神戸空港","shortName":"神戸空港","context":"日本","subtype":"airport","subtypeLabel":"空港・飛行場","statusLabel":"","aliases":["Kobe Airport"],"osmType":"way","osmId":772669000,"osmDate":null,"officialAreaKm2":null,"areaSourceLabel":"","areaSourceUrl":"","boundarySourceLabel":"© OpenStreetMap contributors","boundarySourceUrl":"https://www.openstreetmap.org/copyright","geometryFile":"attractions/large-airport-W772669000.geojson"},"geometry":{"type":"Polygon","coordinates":[[[135.2283714,34.6305487],[135.2286747,34.6305799],[135.2297327,34.6316711],[135.2387904,34.632344],[135.2405529,34.6330963],[135.2404558,34.6340093],[135.2404534,34.6340267],[135.2403593,34.6348811],[135.2385262,34.6352765],[135.238309,34.6371995],[135.2376474,34.6371427],[135.2339437,34.6368533],[135.2338975,34.6368497],[135.2336362,34.636829],[135.2332629,34.6367986],[135.2331858,34.6375421],[135.2331845,34.6375533],[135.2332271,34.6375564],[135.2332772,34.637558],[135.2332986,34.6375595],[135.2332662,34.6378417],[135.2332634,34.6378665],[135.2332612,34.6378864],[135.2332546,34.637947],[135.2332301,34.6381709],[135.2332267,34.6382023],[135.2332233,34.6382314],[135.23321,34.6383457],[135.2331984,34.638445],[135.2331943,34.6384799],[135.2331637,34.6388006],[135.2330986,34.6388534],[135.2327714,34.6388327],[135.2317884,34.6387643],[135.2316953,34.6387563],[135.231515,34.6387419],[135.2305107,34.6386635],[135.2296353,34.6385936],[135.2284823,34.6385044],[135.2284321,34.6384996],[135.227638,34.638438],[135.2235697,34.6381114],[135.2235847,34.6379923],[135.2237937,34.6362582],[135.2208978,34.6360356],[135.2210503,34.6347269],[135.2210401,34.6347262],[135.2203692,34.6346828],[135.2199869,34.6346528],[135.2194808,34.6346154],[135.219231,34.6345929],[135.2185236,34.6345344],[135.2117371,34.634004],[135.2089711,34.6337833],[135.208954,34.6337819],[135.2087911,34.6337689],[135.2090461,34.6315754],[135.209049,34.6315502],[135.2092179,34.6300978],[135.2110169,34.6293456],[135.2148593,34.6304864],[135.2270749,34.6314349],[135.2283714,34.6305487]]]}}
