{"type":"Feature","id":"attraction-large-military-base-W1156797039","properties":{"id":"attraction-large-military-base-W1156797039","kind":"attraction","name":"海上自衛隊 瀬崎警備所","shortName":"海上自衛隊 瀬崎警備所","context":"日本","subtype":"military-base","subtypeLabel":"基地・駐屯地・演習場","statusLabel":"","aliases":[],"osmType":"way","osmId":1156797039,"osmDate":null,"officialAreaKm2":null,"areaSourceLabel":"","areaSourceUrl":"","boundarySourceLabel":"© OpenStreetMap contributors","boundarySourceUrl":"https://www.openstreetmap.org/copyright","geometryFile":"attractions/large-military-base-W1156797039.geojson"},"geometry":{"type":"Polygon","coordinates":[[[135.342008,35.5494614],[135.3423959,35.5493991],[135.3427276,35.5490918],[135.3426868,35.5485396],[135.3419416,35.54817],[135.3415129,35.5484275],[135.3416099,35.5492911],[135.342008,35.5494614]]]}}
