{"type":"Feature","id":"attraction-large-park-W18622557","properties":{"id":"attraction-large-park-W18622557","kind":"attraction","name":"常磐公園","shortName":"常磐公園","context":"日本","subtype":"large-park","subtypeLabel":"大型都市公園・広域公園","statusLabel":"著名な公園","aliases":["Tokiwa Park"],"osmType":"way","osmId":18622557,"osmDate":null,"officialAreaKm2":null,"areaSourceLabel":"","areaSourceUrl":"","boundarySourceLabel":"© OpenStreetMap contributors","boundarySourceUrl":"https://www.openstreetmap.org/copyright","geometryFile":"attractions/large-park-W18622557.geojson"},"geometry":{"type":"Polygon","coordinates":[[[142.3601375,43.7772277],[142.3595386,43.7771191],[142.3591685,43.7770622],[142.3583578,43.7769566],[142.3567563,43.7766981],[142.3559632,43.77666],[142.3558019,43.7766637],[142.3554476,43.7765676],[142.3554215,43.7764433],[142.3555474,43.7764373],[142.3559873,43.7763531],[142.3559431,43.7761807],[142.3557339,43.7761042],[142.3552972,43.7762137],[142.3549051,43.7755358],[142.3545477,43.7756195],[142.3538355,43.7742955],[142.3548997,43.774089],[142.3548108,43.7739072],[142.3556081,43.7737005],[142.3564462,43.7734615],[142.3565275,43.7736041],[142.3571947,43.7738012],[142.3577546,43.7739731],[142.358019,43.7735138],[142.3584676,43.7736438],[142.3581853,43.7740976],[142.3598194,43.7746029],[142.3599227,43.7744454],[142.3604891,43.774614],[142.360417,43.7747373],[142.3615037,43.7750566],[142.3601375,43.7772277]]]}}
