{"type":"Feature","id":"attraction-large-park-W737296103","properties":{"id":"attraction-large-park-W737296103","kind":"attraction","name":"みゆき公園","shortName":"みゆき公園","context":"日本","subtype":"large-park","subtypeLabel":"大型都市公園・広域公園","statusLabel":"著名な公園","aliases":[],"osmType":"way","osmId":737296103,"osmDate":null,"officialAreaKm2":null,"areaSourceLabel":"","areaSourceUrl":"","boundarySourceLabel":"© OpenStreetMap contributors","boundarySourceUrl":"https://www.openstreetmap.org/copyright","geometryFile":"attractions/large-park-W737296103.geojson"},"geometry":{"type":"Polygon","coordinates":[[[129.9826192,33.1132046],[129.982654,33.1128294],[129.9819379,33.1124587],[129.9815731,33.1121307],[129.9813585,33.1120701],[129.9809883,33.1120746],[129.9807313,33.1120961],[129.9804953,33.1122399],[129.9804336,33.112323],[129.9801441,33.1121634],[129.9799504,33.1120566],[129.9795239,33.1120162],[129.979371,33.1119263],[129.9792744,33.1116477],[129.9791406,33.1115556],[129.978671,33.1112321],[129.9782959,33.1112288],[129.9777724,33.1112253],[129.9777965,33.1108277],[129.9774479,33.1106592],[129.97689,33.1106547],[129.9767183,33.1105109],[129.9764876,33.1103334],[129.9761551,33.1095358],[129.9761045,33.1093417],[129.9761045,33.1091395],[129.9761873,33.1089225],[129.9765109,33.1083795],[129.9765497,33.1082453],[129.9765578,33.1080566],[129.9766141,33.1079937],[129.9772816,33.1078059],[129.9789418,33.1074374],[129.9794499,33.1073171],[129.9795775,33.1072868],[129.9803044,33.1071453],[129.9808731,33.1071273],[129.9812352,33.1072083],[129.9824006,33.1076834],[129.9827345,33.1078014],[129.9834136,33.1079773],[129.9841668,33.1081523],[129.9849876,33.1083226],[129.9850788,33.1084394],[129.9850119,33.1086813],[129.9849502,33.1089041],[129.9845597,33.1103154],[129.9846833,33.1103384],[129.9851098,33.1104179],[129.9851713,33.1103904],[129.9851977,33.1102948],[129.985274,33.1102619],[129.9855554,33.1103144],[129.9855903,33.1103765],[129.9854955,33.1107191],[129.9860175,33.1108164],[129.9855186,33.1115129],[129.9851753,33.1115668],[129.9848635,33.1114808],[129.9847113,33.1114388],[129.9846121,33.111569],[129.9841776,33.1120319],[129.9839388,33.112279],[129.9839044,33.1123983],[129.9837998,33.1124634],[129.9837985,33.1124971],[129.9837863,33.1132329],[129.9834189,33.1134733],[129.9830165,33.1134463],[129.9829414,33.1132306],[129.9826192,33.1132046]]]}}
