{"type":"Feature","id":"attraction-large-park-W126882599","properties":{"id":"attraction-large-park-W126882599","kind":"attraction","name":"千葉県総合スポーツセンター","shortName":"千葉県総合スポーツセンター","context":"日本","subtype":"large-park","subtypeLabel":"大型都市公園・広域公園","statusLabel":"著名な公園","aliases":["Chiba Central Sports Center"],"osmType":"way","osmId":126882599,"osmDate":null,"officialAreaKm2":null,"areaSourceLabel":"","areaSourceUrl":"","boundarySourceLabel":"© OpenStreetMap contributors","boundarySourceUrl":"https://www.openstreetmap.org/copyright","geometryFile":"attractions/large-park-W126882599.geojson"},"geometry":{"type":"Polygon","coordinates":[[[140.1171129,35.6433184],[140.1180087,35.6428506],[140.1182876,35.6430599],[140.120133,35.6454053],[140.1232546,35.6493857],[140.1233792,35.6494026],[140.1236858,35.6492423],[140.1242593,35.6500026],[140.1251795,35.6499685],[140.1253443,35.6501657],[140.127234,35.6492888],[140.1276089,35.6497454],[140.1281845,35.6506413],[140.1281798,35.6507223],[140.1266933,35.6514108],[140.1268199,35.6515761],[140.1248384,35.6526158],[140.1242666,35.6518842],[140.1224934,35.6528507],[140.1218731,35.6522798],[140.1210664,35.6513686],[140.1209055,35.6512466],[140.1208089,35.6511681],[140.1204915,35.6509535],[140.1202725,35.6506276],[140.1197044,35.6495073],[140.1194356,35.6489885],[140.1190365,35.6487627],[140.118306,35.6487774],[140.1182366,35.6482398],[140.1180184,35.6475199],[140.1177152,35.6467155],[140.1175013,35.6462649],[140.1172486,35.6456685],[140.116967,35.6450811],[140.1168542,35.6448543],[140.1167087,35.644625],[140.1161445,35.6438496],[140.1171129,35.6433184]]]}}
