{"type":"Feature","id":"attraction-large-park-R12793177","properties":{"id":"attraction-large-park-R12793177","kind":"attraction","name":"高井戸公園","shortName":"高井戸公園","context":"日本","subtype":"large-park","subtypeLabel":"大型都市公園・広域公園","statusLabel":"著名な公園","aliases":[],"osmType":"relation","osmId":12793177,"osmDate":null,"officialAreaKm2":null,"areaSourceLabel":"","areaSourceUrl":"","boundarySourceLabel":"© OpenStreetMap contributors","boundarySourceUrl":"https://www.openstreetmap.org/copyright","geometryFile":"attractions/large-park-R12793177.geojson"},"geometry":{"type":"MultiPolygon","coordinates":[[[[139.6043957,35.6831755],[139.6043007,35.6829776],[139.6046951,35.6828595],[139.6050202,35.6834669],[139.6051263,35.6836812],[139.6052509,35.6839331],[139.6058394,35.684023],[139.6059233,35.6840088],[139.6059636,35.6840751],[139.6059478,35.6840813],[139.605789,35.6842311],[139.6057419,35.6842857],[139.6054507,35.6844343],[139.6049232,35.684591],[139.6041646,35.6846538],[139.6040732,35.6848331],[139.6037972,35.6849374],[139.6036365,35.6845981],[139.6039218,35.6844788],[139.6037458,35.6842553],[139.603663,35.6842625],[139.6034197,35.6837332],[139.6043957,35.6831755]]],[[[139.6043957,35.6831755],[139.6043007,35.6829776],[139.603991,35.6830702],[139.6037192,35.6832077],[139.6033279,35.6834008],[139.6031616,35.683462],[139.6028169,35.6835922],[139.602453,35.6837464],[139.6019707,35.6839593],[139.6018558,35.6840225],[139.6018275,35.6840469],[139.601808,35.6840742],[139.6017921,35.6841101],[139.601808,35.6841546],[139.6018911,35.6843457],[139.6018664,35.6846502],[139.6018611,35.6850624],[139.6018346,35.6851859],[139.6018356,35.6852058],[139.601973,35.6852023],[139.6022492,35.6856211],[139.6032245,35.6851471],[139.6035145,35.6850667],[139.6035993,35.6850107],[139.6037972,35.6849374],[139.6036365,35.6845981],[139.6039218,35.6844788],[139.6037458,35.6842553],[139.603663,35.6842625],[139.6034197,35.6837332],[139.6043957,35.6831755]]],[[[139.6036585,35.6812692],[139.6033134,35.6813936],[139.6033633,35.6814792],[139.6034221,35.6814963],[139.6034982,35.6814707],[139.6036257,35.6814291],[139.6036801,35.6815296],[139.6038562,35.6814694],[139.6039523,35.6816519],[139.6042145,35.6815569],[139.6042875,35.6817036],[139.6045978,35.6815993],[139.6047277,35.6816561],[139.6051286,35.6824507],[139.6053329,35.682376],[139.6053873,35.6824769],[139.6053437,35.6825041],[139.605385,35.6825456],[139.605404,35.6825818],[139.6056741,35.6824244],[139.6057581,35.682344],[139.6057208,35.682196],[139.6057157,35.6821553],[139.6057029,35.6818808],[139.6056918,35.6816436],[139.6057237,35.6815777],[139.6057144,35.681283],[139.6057774,35.6809709],[139.6058259,35.6808116],[139.6058783,35.6807103],[139.6058743,35.6806447],[139.6051393,35.6807882],[139.6043917,35.681003],[139.6042611,35.6810819],[139.6039104,35.6811881],[139.6036585,35.6812692]]],[[[139.6037202,35.6818983],[139.6042296,35.682957],[139.6046383,35.6828357],[139.6051274,35.6827073],[139.6053106,35.6826296],[139.605404,35.6825818],[139.605385,35.6825456],[139.6053437,35.6825041],[139.6053873,35.6824769],[139.6053329,35.682376],[139.6051286,35.6824507],[139.6047277,35.6816561],[139.6045978,35.6815993],[139.6042875,35.6817036],[139.6037202,35.6818983]]],[[[139.6037202,35.6818983],[139.6034982,35.6814707],[139.6034221,35.6814963],[139.6033633,35.6814792],[139.6033134,35.6813936],[139.6032043,35.6814329],[139.6028374,35.6816188],[139.6027197,35.6816882],[139.6027521,35.6818128],[139.6027974,35.6819695],[139.6030675,35.6827969],[139.6030366,35.6828584],[139.603034,35.6829344],[139.603914,35.6827768],[139.6040218,35.683024],[139.6042296,35.682957],[139.6037202,35.6818983]]],[[[139.6036801,35.6815296],[139.6036257,35.6814291],[139.6034982,35.6814707],[139.6037202,35.6818983],[139.6042875,35.6817036],[139.6042781,35.6816812],[139.6042145,35.6815569],[139.6039523,35.6816519],[139.6038562,35.6814694],[139.6036801,35.6815296]]]]}}
