{"type":"Feature","id":"attraction-large-park-W134637945","properties":{"id":"attraction-large-park-W134637945","kind":"attraction","name":"洞峰公園","shortName":"洞峰公園","context":"日本","subtype":"large-park","subtypeLabel":"大型都市公園・広域公園","statusLabel":"著名な公園","aliases":["Doho Park"],"osmType":"way","osmId":134637945,"osmDate":null,"officialAreaKm2":null,"areaSourceLabel":"","areaSourceUrl":"","boundarySourceLabel":"© OpenStreetMap contributors","boundarySourceUrl":"https://www.openstreetmap.org/copyright","geometryFile":"attractions/large-park-W134637945.geojson"},"geometry":{"type":"Polygon","coordinates":[[[140.1196878,36.0626845],[140.1204274,36.062824],[140.120648,36.0628402],[140.1214701,36.0628435],[140.1217064,36.0628174],[140.1217932,36.0628078],[140.1219518,36.0627095],[140.1224112,36.0625082],[140.1230859,36.0624009],[140.1240544,36.062601],[140.124547,36.0626685],[140.1246045,36.0626784],[140.1248441,36.0628037],[140.1253476,36.063066],[140.1256973,36.0624399],[140.1258515,36.0621529],[140.1261017,36.0616982],[140.1261412,36.0615176],[140.1261895,36.0614352],[140.1245472,36.060945],[140.1248198,36.060251],[140.1250266,36.0597245],[140.1246469,36.0595758],[140.1238761,36.0592069],[140.1218423,36.0582702],[140.1218094,36.0582854],[140.1208148,36.0578357],[140.1206748,36.0584623],[140.1204993,36.0592507],[140.1201983,36.06057],[140.1199979,36.0614072],[140.1198496,36.0620581],[140.1196878,36.0626845]]]}}
