{"type":"Feature","id":"attraction-large-park-W172596579","properties":{"id":"attraction-large-park-W172596579","kind":"attraction","name":"野幌総合運動公園","shortName":"野幌総合運動公園","context":"日本","subtype":"large-park","subtypeLabel":"大型都市公園・広域公園","statusLabel":"","aliases":["Nopporo Sports Park"],"osmType":"way","osmId":172596579,"osmDate":null,"officialAreaKm2":null,"areaSourceLabel":"","areaSourceUrl":"","boundarySourceLabel":"© OpenStreetMap contributors","boundarySourceUrl":"https://www.openstreetmap.org/copyright","geometryFile":"attractions/large-park-W172596579.geojson"},"geometry":{"type":"Polygon","coordinates":[[[141.5322947,43.0636565],[141.534355,43.0631031],[141.5344968,43.0630836],[141.5360465,43.0634985],[141.5360235,43.0642732],[141.5395025,43.0650938],[141.5402606,43.0652286],[141.5400318,43.0664827],[141.539948,43.0669644],[141.538972,43.066871],[141.5382818,43.0667544],[141.5377065,43.0666073],[141.5370094,43.0676287],[141.5367993,43.0677652],[141.5364796,43.0697562],[141.5392319,43.0699727],[141.5389042,43.0716526],[141.5389996,43.0718459],[141.5393226,43.0721092],[141.5393548,43.0722894],[141.5392984,43.072407],[141.5390248,43.0724755],[141.5385738,43.072448],[141.5378275,43.0724474],[141.5359254,43.072626],[141.5360284,43.0728692],[141.5357923,43.0728379],[141.5349984,43.0724735],[141.5343118,43.0721482],[141.5337378,43.0718073],[141.5329331,43.0713605],[141.5328687,43.0717759],[141.5329282,43.0719367],[141.5290765,43.0717251],[141.5275526,43.0716105],[141.5266137,43.0713563],[141.5265152,43.0712482],[141.5263641,43.0711922],[141.5263309,43.0711323],[141.5255785,43.0704309],[141.5255087,43.0704309],[141.5246075,43.0707444],[141.5243718,43.0707559],[141.5241247,43.070768],[141.5238333,43.0703723],[141.5234631,43.0702518],[141.5235219,43.0697701],[141.5235144,43.0696675],[141.5235514,43.069116],[141.5243362,43.0691745],[141.5243752,43.0688893],[141.5249294,43.068932],[141.5252646,43.068882],[141.5257683,43.0687767],[141.5259308,43.0687162],[141.5260017,43.0685075],[141.5262024,43.0685007],[141.5263051,43.0684782],[141.5264565,43.0684013],[141.5266516,43.068359],[141.5267357,43.068329],[141.5273115,43.068069],[141.527386,43.0680537],[141.5274605,43.0680482],[141.5289033,43.0680934],[141.5289313,43.0680619],[141.5290815,43.0680608],[141.5292424,43.0680216],[141.5293497,43.0679629],[141.5294637,43.0678865],[141.5295991,43.0678453],[141.5298123,43.0678149],[141.5300443,43.067812],[141.5316949,43.0679298],[141.5317355,43.0679179],[141.5322184,43.064169],[141.5322947,43.0636565]]]}}
