{"type":"Feature","id":"attraction-large-park-W503805752","properties":{"id":"attraction-large-park-W503805752","kind":"attraction","name":"カナディアンワールド","shortName":"カナディアンワールド","context":"日本","subtype":"large-park","subtypeLabel":"大型都市公園・広域公園","statusLabel":"著名な公園","aliases":[],"osmType":"way","osmId":503805752,"osmDate":null,"officialAreaKm2":null,"areaSourceLabel":"","areaSourceUrl":"","boundarySourceLabel":"© OpenStreetMap contributors","boundarySourceUrl":"https://www.openstreetmap.org/copyright","geometryFile":"attractions/large-park-W503805752.geojson"},"geometry":{"type":"Polygon","coordinates":[[[142.234607,43.571923],[142.2339345,43.5717889],[142.2336314,43.5717732],[142.233127,43.571696],[142.2323046,43.5716011],[142.2322275,43.5713479],[142.2316109,43.5713814],[142.231431,43.5712176],[142.2305668,43.5713423],[142.2303139,43.5711119],[142.230762,43.5699599],[142.2304801,43.5693525],[142.2301693,43.5691745],[142.2296418,43.5691221],[142.2294394,43.5687189],[142.2299742,43.5683733],[142.2302054,43.5671898],[142.2314991,43.5663991],[142.234345,43.5641706],[142.2344701,43.5631101],[142.2357488,43.5621873],[142.2360969,43.5621807],[142.2371488,43.5626421],[142.2376239,43.5639248],[142.2378439,43.5638924],[142.2380254,43.5641264],[142.2384757,43.5646039],[142.2391704,43.5649822],[142.2401131,43.565415],[142.2403156,43.5664536],[142.2402241,43.5667703],[142.238852,43.5664757],[142.2385165,43.5669397],[142.237988,43.5682947],[142.2370326,43.5691196],[142.236189,43.5699959],[142.235203,43.5703715],[142.2350201,43.5715719],[142.234607,43.571923]]]}}
