{"type":"Feature","id":"attraction-large-park-W584619158","properties":{"id":"attraction-large-park-W584619158","kind":"attraction","name":"五十公野公園","shortName":"五十公野公園","context":"日本","subtype":"large-park","subtypeLabel":"大型都市公園・広域公園","statusLabel":"","aliases":[],"osmType":"way","osmId":584619158,"osmDate":null,"officialAreaKm2":null,"areaSourceLabel":"","areaSourceUrl":"","boundarySourceLabel":"© OpenStreetMap contributors","boundarySourceUrl":"https://www.openstreetmap.org/copyright","geometryFile":"attractions/large-park-W584619158.geojson"},"geometry":{"type":"Polygon","coordinates":[[[139.3521762,37.9369408],[139.3526309,37.9368707],[139.3529136,37.9368546],[139.3533668,37.9369408],[139.3534135,37.9367144],[139.3535898,37.9366419],[139.3534732,37.9364557],[139.3530841,37.9359822],[139.353106,37.9359615],[139.354658,37.9356512],[139.3549335,37.9357776],[139.3563776,37.9355719],[139.3563879,37.9354523],[139.3567361,37.9351891],[139.3565554,37.9348259],[139.3577796,37.9343857],[139.3581119,37.9349213],[139.3627009,37.9343443],[139.3637327,37.9347949],[139.3637094,37.9354983],[139.362596,37.9370845],[139.3616633,37.9377557],[139.3615118,37.9388591],[139.3620714,37.9409002],[139.3601944,37.942392],[139.3588653,37.9429138],[139.3586554,37.9428862],[139.3583028,37.9427713],[139.3577898,37.941691],[139.3578481,37.9415898],[139.3580667,37.9414956],[139.3580929,37.9414335],[139.3580754,37.9413875],[139.3574313,37.9409922],[139.357271,37.9405991],[139.3571661,37.9406152],[139.3563504,37.9410592],[139.3556739,37.9413789],[139.3533479,37.939374],[139.3531701,37.939174],[139.3524327,37.9377304],[139.3521762,37.9369408]]]}}
