{"type":"Feature","id":"attraction-large-park-R7033941","properties":{"id":"attraction-large-park-R7033941","kind":"attraction","name":"錦織公園","shortName":"錦織公園","context":"日本","subtype":"large-park","subtypeLabel":"大型都市公園・広域公園","statusLabel":"","aliases":[],"osmType":"relation","osmId":7033941,"osmDate":null,"officialAreaKm2":null,"areaSourceLabel":"","areaSourceUrl":"","boundarySourceLabel":"© OpenStreetMap contributors","boundarySourceUrl":"https://www.openstreetmap.org/copyright","geometryFile":"attractions/large-park-R7033941.geojson"},"geometry":{"type":"Polygon","coordinates":[[[135.569718,34.4804358],[135.5697502,34.480595],[135.5694712,34.4806923],[135.5694337,34.4808338],[135.5693264,34.4810416],[135.5693478,34.4812229],[135.5693637,34.4813717],[135.56938,34.4815236],[135.5692352,34.4817182],[135.5692781,34.4820365],[135.5693264,34.4822399],[135.5693854,34.4825141],[135.5694873,34.4827263],[135.5697233,34.4829386],[135.5700935,34.4832172],[135.5703349,34.4834029],[135.5705012,34.4835665],[135.5705387,34.4837213],[135.5706836,34.4837832],[135.5708338,34.4838009],[135.5708713,34.4839026],[135.570925,34.4840485],[135.5709947,34.4842386],[135.570984,34.4843845],[135.5708821,34.4844862],[135.5708499,34.4845702],[135.5706728,34.4847117],[135.570587,34.4848267],[135.5705831,34.484838],[135.5705548,34.4849196],[135.5706085,34.4850213],[135.570646,34.485092],[135.5706601,34.4851123],[135.5707748,34.4852777],[135.5709035,34.4852777],[135.5708713,34.48549],[135.5708445,34.4857111],[135.570933,34.4857276],[135.570984,34.4857475],[135.5709973,34.4857037],[135.5710543,34.4857108],[135.5711376,34.4857203],[135.5712392,34.4856976],[135.5713393,34.4856807],[135.5714171,34.4856925],[135.5714809,34.4857226],[135.5715335,34.4857654],[135.5716429,34.485844],[135.571715,34.4858673],[135.571797,34.4858687],[135.5718595,34.4858678],[135.5719248,34.4858818],[135.5719747,34.485905],[135.5720177,34.4859293],[135.5722664,34.4862029],[135.5723566,34.4862424],[135.5724148,34.4862714],[135.5724964,34.4863407],[135.5725504,34.486392],[135.572596,34.4864354],[135.5726763,34.4864944],[135.5727955,34.4866121],[135.5729761,34.4866767],[135.5730958,34.4867019],[135.5732142,34.486721],[135.5734384,34.4867407],[135.5736133,34.4867446],[135.5736072,34.4868574],[135.5736313,34.4869126],[135.573685,34.4869989],[135.5737762,34.4871116],[135.5737876,34.4871527],[135.5737332,34.4871956],[135.5736715,34.4872642],[135.5736394,34.4873482],[135.5736313,34.4874123],[135.5736742,34.4874693],[135.5737547,34.4874654],[135.5737896,34.4875803],[135.5737386,34.4875936],[135.5737681,34.4877351],[135.5736447,34.4877793],[135.573685,34.4878987],[135.5738137,34.4878721],[135.5738513,34.4879517],[135.5738579,34.4880093],[135.5738218,34.4880689],[135.5737869,34.4881352],[135.5737869,34.4882126],[135.5738244,34.4883077],[135.5739076,34.4884138],[135.5740041,34.4885199],[135.5739988,34.4885641],[135.5740927,34.4886747],[135.5741061,34.4887255],[135.5740927,34.4887852],[135.5741704,34.4888338],[135.5742402,34.4889134],[135.5741704,34.488993],[135.5743984,34.4889753],[135.574554,34.4889643],[135.5747096,34.4889488],[135.5749,34.4889333],[135.5752058,34.4889068],[135.5755169,34.4888825],[135.5758093,34.4888626],[135.5761338,34.4888294],[135.5761311,34.4887985],[135.5762465,34.488668],[135.5761445,34.4886083],[135.5760829,34.4885641],[135.5760627,34.4885414],[135.576052,34.4885202],[135.5760513,34.4885019],[135.5760614,34.4884765],[135.5760802,34.4884566],[135.5761023,34.4884439],[135.5761238,34.4884312],[135.5761345,34.4884218],[135.5761479,34.4884074],[135.576166,34.4883925],[135.5762015,34.4883743],[135.5762217,34.4883638],[135.576231,34.4883693],[135.5762498,34.4883693],[135.5762827,34.4883522],[135.5763102,34.488335],[135.5763363,34.4883135],[135.5763558,34.4882864],[135.5763591,34.4882588],[135.5763926,34.488217],[135.5764141,34.4881662],[135.5764785,34.4881396],[135.5765858,34.4881463],[135.5765616,34.4880623],[135.5766045,34.4879871],[135.576634,34.4879495],[135.5766501,34.4880601],[135.5766796,34.4880822],[135.5767199,34.4880623],[135.576744,34.487965],[135.5767467,34.4878788],[135.5767789,34.4878213],[135.5768486,34.487755],[135.5769425,34.4877019],[135.5770069,34.4876599],[135.5771142,34.4875936],[135.5772215,34.4875206],[135.5773207,34.4874631],[135.5774065,34.4874034],[135.5774977,34.4873614],[135.5775943,34.4872951],[135.5777177,34.4872332],[135.5778089,34.4871735],[135.5778974,34.487074],[135.5780047,34.4869591],[135.5780905,34.4867712],[135.5781951,34.4866429],[135.5782809,34.4865346],[135.5783748,34.4864506],[135.5786055,34.4862759],[135.5787396,34.486172],[135.5788281,34.486088],[135.5789327,34.4860504],[135.5790212,34.4859819],[135.5790614,34.4859531],[135.5791258,34.4859111],[135.579252,34.4859076],[135.5793856,34.4859238],[135.5795419,34.4858917],[135.5796224,34.4858768],[135.57967,34.4858331],[135.5796922,34.4857745],[135.5796875,34.4856988],[135.5796797,34.4856335],[135.5796749,34.4855286],[135.5797158,34.4855009],[135.5797618,34.4854987],[135.5798071,34.4854977],[135.5798312,34.4855021],[135.579842,34.4854336],[135.5798393,34.4853628],[135.5798473,34.4852589],[135.5798286,34.4851196],[135.5798098,34.4850732],[135.5797883,34.4849361],[135.5797991,34.48483],[135.579783,34.4847438],[135.5797427,34.4846001],[135.5796737,34.4844311],[135.5796287,34.4843425],[135.5795536,34.4842253],[135.5794259,34.4840564],[135.5792847,34.4838657],[135.5790911,34.4836042],[135.5789304,34.483387],[135.5787694,34.4831694],[135.5785976,34.4829374],[135.5784634,34.4827561],[135.5783842,34.482649],[135.5783466,34.4825318],[135.578301,34.4824522],[135.5781991,34.4822952],[135.5780945,34.4821559],[135.5779631,34.481968],[135.5778274,34.4817708],[135.5776897,34.4815389],[135.5775594,34.4813197],[135.5774196,34.4810843],[135.5772851,34.4808579],[135.5771796,34.4806803],[135.5770637,34.4804851],[135.5768976,34.4801868],[135.5767859,34.4799454],[135.5767024,34.4797128],[135.5766273,34.4794961],[135.5765442,34.4792485],[135.5764664,34.4789677],[135.576402,34.4787444],[135.5763538,34.4785586],[135.5763055,34.4783707],[135.5762304,34.4780855],[135.5761687,34.4778931],[135.5761043,34.477588],[135.5760265,34.4775614],[135.5759166,34.4775393],[135.5757905,34.4775039],[135.5756832,34.4774619],[135.5755357,34.4774243],[135.5754203,34.4773978],[135.5752594,34.4773691],[135.5750985,34.4773425],[135.5749322,34.4773249],[135.5747686,34.4772961],[135.5745808,34.4772585],[135.5745701,34.4773602],[135.574562,34.4774907],[135.5745942,34.4776012],[135.5746371,34.4777405],[135.5746345,34.4778356],[135.5746371,34.4779594],[135.5745862,34.4781297],[135.5745433,34.4782159],[135.5744869,34.4783176],[135.5744279,34.4784282],[135.574377,34.478594],[135.5743849,34.4786122],[135.574331,34.4786223],[135.5742994,34.4786282],[135.5742583,34.4786881],[135.5742029,34.4787688],[135.5741561,34.4788368],[135.5741193,34.4788905],[135.5740709,34.4789609],[135.5740151,34.4790422],[135.5739423,34.4790691],[135.5738799,34.4790922],[135.5737861,34.4790627],[135.5737407,34.4791589],[135.5736895,34.4792674],[135.5737471,34.4793081],[135.5737861,34.4793356],[135.5737978,34.4793892],[135.5738109,34.4794494],[135.5738018,34.4795054],[135.5737916,34.4795677],[135.5737427,34.4796379],[135.5737171,34.4796746],[135.5736542,34.4796995],[135.5735736,34.4797315],[135.5734758,34.4797337],[135.5733776,34.479736],[135.5733064,34.4797255],[135.5732188,34.4797126],[135.5731458,34.4797019],[135.5730627,34.4796885],[135.5729259,34.4796398],[135.572824,34.4795868],[135.5727381,34.4794077],[135.572706,34.4792949],[135.5726711,34.479202],[135.5725745,34.4791401],[135.5724806,34.4791512],[135.5723895,34.4791313],[135.5723278,34.4790473],[135.5722527,34.4790849],[135.5721212,34.4790826],[135.572022,34.478961],[135.5718986,34.4788836],[135.5718128,34.4787842],[135.571743,34.4786449],[135.5716867,34.478479],[135.5716304,34.4783817],[135.5715714,34.4783176],[135.5715097,34.4782336],[135.5713809,34.4781827],[135.571271,34.4781407],[135.5711476,34.4781429],[135.5710483,34.4782093],[135.5710081,34.4782889],[135.5710296,34.4784525],[135.5711851,34.4786139],[135.5712951,34.4787466],[135.5713193,34.4788018],[135.571102,34.4789058],[135.5708633,34.4790318],[135.5706246,34.4791711],[135.570477,34.4792816],[135.5703268,34.4794983],[135.5701364,34.479642],[135.5699621,34.4798012],[135.5698253,34.4798565],[135.5697394,34.4799958],[135.5697046,34.480113],[135.5697099,34.4802346],[135.5697099,34.4803562],[135.569718,34.4804358]]]}}
