{"type":"Feature","id":"attraction-large-industrial-complex-W106675401","properties":{"id":"attraction-large-industrial-complex-W106675401","kind":"attraction","name":"株式会社クレハ　いわき事業所","shortName":"株式会社クレハ　いわき事業所","context":"日本","subtype":"industrial-complex","subtypeLabel":"工業地帯・大規模工場","statusLabel":"","aliases":[],"osmType":"way","osmId":106675401,"osmDate":null,"officialAreaKm2":null,"areaSourceLabel":"","areaSourceUrl":"","boundarySourceLabel":"© OpenStreetMap contributors","boundarySourceUrl":"https://www.openstreetmap.org/copyright","geometryFile":"attractions/large-industrial-complex-W106675401.geojson"},"geometry":{"type":"Polygon","coordinates":[[[140.7764572,36.9062199],[140.7788846,36.9049385],[140.7801471,36.9043498],[140.7816047,36.9039172],[140.7812135,36.9025447],[140.7828933,36.9023101],[140.781231,36.9000784],[140.78004,36.8982507],[140.7796074,36.8967974],[140.7767784,36.8974282],[140.7678848,36.899483],[140.7712959,36.9049096],[140.7745677,36.9041177],[140.7746702,36.9045497],[140.7753815,36.9056785],[140.775906,36.9054597],[140.7764572,36.9062199]]]}}
