{"type":"Feature","id":"attraction-large-park-W441355193","properties":{"id":"attraction-large-park-W441355193","kind":"attraction","name":"トリムパーク かなづ","shortName":"トリムパーク かなづ","context":"日本","subtype":"large-park","subtypeLabel":"大型都市公園・広域公園","statusLabel":"著名な公園","aliases":[],"osmType":"way","osmId":441355193,"osmDate":null,"officialAreaKm2":null,"areaSourceLabel":"","areaSourceUrl":"","boundarySourceLabel":"© OpenStreetMap contributors","boundarySourceUrl":"https://www.openstreetmap.org/copyright","geometryFile":"attractions/large-park-W441355193.geojson"},"geometry":{"type":"Polygon","coordinates":[[[136.2461625,36.2167791],[136.246479,36.2157426],[136.2466773,36.2157006],[136.2472084,36.2154669],[136.2476549,36.2151828],[136.2480198,36.2151444],[136.2483551,36.2151795],[136.2486407,36.2151899],[136.2489653,36.21535],[136.2491167,36.2154901],[136.2493207,36.2157325],[136.2494588,36.2158607],[136.2504552,36.2161848],[136.2511847,36.2161696],[136.2517601,36.2164645],[136.2522791,36.2166133],[136.2527297,36.2166305],[136.2530476,36.2170163],[136.2535103,36.2172863],[136.2537637,36.217224],[136.2542734,36.2174729],[136.2545362,36.217646],[136.2550659,36.217825],[136.2547494,36.2183769],[136.254244,36.2185967],[136.2526669,36.2192134],[136.2521814,36.2191139],[136.2515858,36.2185895],[136.250694,36.2181929],[136.250073,36.2179922],[136.2496371,36.2179116],[136.2489451,36.2180804],[136.2475101,36.2188205],[136.2467484,36.218801],[136.2462884,36.2178581],[136.2462375,36.2176785],[136.2461625,36.2167791]]]}}
