{"type":"Feature","id":"attraction-large-park-W618028642","properties":{"id":"attraction-large-park-W618028642","kind":"attraction","name":"水口スポーツの森","shortName":"水口スポーツの森","context":"滋賀県・甲賀市","subtype":"large-park","subtypeLabel":"大型都市公園・広域公園","statusLabel":"著名な公園","aliases":[],"osmType":"way","osmId":618028642,"osmDate":null,"officialAreaKm2":null,"areaSourceLabel":"","areaSourceUrl":"","boundarySourceLabel":"© OpenStreetMap contributors","boundarySourceUrl":"https://www.openstreetmap.org/copyright","geometryFile":"attractions/large-park-W618028642.geojson"},"geometry":{"type":"Polygon","coordinates":[[[136.1622699,34.9585889],[136.1628408,34.9588],[136.1630653,34.9588261],[136.162891,34.9590912],[136.1624648,34.9594985],[136.1624903,34.9596092],[136.1625998,34.9595591],[136.1627176,34.9595257],[136.1629127,34.9595439],[136.1630854,34.9595939],[136.1630818,34.959651],[136.1634027,34.9596591],[136.163397,34.9596147],[136.1634784,34.9594586],[136.1637291,34.9595337],[136.1640267,34.9594505],[136.1641087,34.9593911],[136.164263,34.9589115],[136.1648516,34.9589449],[136.1650659,34.9593686],[136.1651699,34.959581],[136.165419,34.9600822],[136.1654672,34.9601792],[136.1654837,34.9602126],[136.1656033,34.9604182],[136.1658035,34.9603434],[136.1662013,34.9602319],[136.1662369,34.9603159],[136.1662711,34.9604439],[136.1664216,34.9604546],[136.1664906,34.9603903],[136.1665919,34.9604567],[136.1666979,34.9605231],[136.1668163,34.9606023],[136.1669039,34.9606534],[136.1669646,34.9607673],[136.1670066,34.9608677],[136.1666397,34.9609679],[136.1666723,34.9611181],[136.1667022,34.9612411],[136.1669359,34.9611989],[136.1672631,34.9611722],[136.1672016,34.9612884],[136.167198,34.9613431],[136.1672151,34.961429],[136.1672373,34.961481],[136.1672735,34.9615102],[136.16733,34.9615512],[136.1673495,34.961573],[136.1673617,34.961619],[136.1673361,34.9617052],[136.1672296,34.961717],[136.1666963,34.9617758],[136.1664155,34.9618068],[136.1662964,34.9618221],[136.1662549,34.9618274],[136.1651506,34.9619694],[136.1646662,34.9620296],[136.1642744,34.9620783],[136.163689,34.962151],[136.1634349,34.962131],[136.1632906,34.962111],[136.1632337,34.962126],[136.1632113,34.962171],[136.1624531,34.9622193],[136.1622714,34.9622298],[136.1615897,34.9623269],[136.16158,34.9623283],[136.1614489,34.962186],[136.1614037,34.9620991],[136.1609685,34.9622522],[136.1609081,34.9622357],[136.1608746,34.9621764],[136.1607759,34.9620226],[136.1606169,34.9617572],[136.1605337,34.9617802],[136.1604938,34.9617856],[136.1603761,34.9618136],[136.1602443,34.9618126],[136.1597729,34.9617293],[136.1597455,34.9615428],[136.1596918,34.9612777],[136.1595707,34.9606698],[136.159526,34.9604666],[136.1594902,34.9602992],[136.1594674,34.9601841],[136.1594296,34.9599444],[136.1594411,34.9599154],[136.159786,34.9598581],[136.1600471,34.9592768],[136.1601405,34.9592101],[136.1602835,34.9588885],[136.1604019,34.9587588],[136.1604247,34.9586163],[136.1606375,34.9582516],[136.1608219,34.9582057],[136.161344,34.9582266],[136.1620437,34.9581971],[136.1622093,34.9582436],[136.1622433,34.9583357],[136.1623123,34.9584144],[136.1623338,34.9585161],[136.1622699,34.9585889]]]}}
