{"type":"Feature","id":"attraction-large-industrial-complex-W614597809","properties":{"id":"attraction-large-industrial-complex-W614597809","kind":"attraction","name":"住友化学 愛媛工場","shortName":"住友化学 愛媛工場","context":"日本","subtype":"industrial-complex","subtypeLabel":"工業地帯・大規模工場","statusLabel":"","aliases":["Sumitomo Chemical Co., Ltd."],"osmType":"way","osmId":614597809,"osmDate":null,"officialAreaKm2":null,"areaSourceLabel":"","areaSourceUrl":"","boundarySourceLabel":"© OpenStreetMap contributors","boundarySourceUrl":"https://www.openstreetmap.org/copyright","geometryFile":"attractions/large-industrial-complex-W614597809.geojson"},"geometry":{"type":"Polygon","coordinates":[[[133.2544051,33.963371],[133.2571488,33.9616441],[133.2569182,33.9611725],[133.2578462,33.9608611],[133.2585409,33.9603138],[133.259941,33.9595997],[133.2603434,33.9602381],[133.2606089,33.9604984],[133.2613277,33.96093],[133.2619686,33.9611789],[133.261883,33.9614455],[133.2619152,33.9614544],[133.2619364,33.9614396],[133.2619793,33.9614478],[133.2618371,33.9619753],[133.2617841,33.9620068],[133.2615857,33.9622923],[133.2615441,33.9622753],[133.2612216,33.9630685],[133.2611521,33.9632651],[133.261072,33.963777],[133.2608081,33.9656031],[133.260999,33.9656214],[133.260909,33.9663352],[133.2607558,33.96633],[133.2603725,33.9690834],[133.2604866,33.9691009],[133.2603306,33.9700925],[133.2602354,33.9700832],[133.2597431,33.9734416],[133.2598486,33.9734563],[133.2596989,33.9745288],[133.2592179,33.9769141],[133.259123,33.9775667],[133.2577175,33.9773754],[133.2577336,33.976806],[133.257457,33.9764013],[133.2570335,33.9750867],[133.2555208,33.9748909],[133.2547966,33.9753803],[133.2544693,33.9757517],[133.2547456,33.9759475],[133.2536346,33.9772258],[133.2528841,33.9772286],[133.252824,33.977579],[133.252681,33.977538],[133.251984,33.977274],[133.251062,33.977168],[133.249125,33.976161],[133.248958,33.976154],[133.24886,33.976036],[133.248746,33.976049],[133.248647,33.975978],[133.248632,33.975925],[133.248641,33.975799],[133.248445,33.975361],[133.248796,33.972445],[133.2498204,33.9642957],[133.2538615,33.9646746],[133.2538696,33.9645605],[133.2540714,33.9644983],[133.2540673,33.9643797],[133.2544455,33.9640583],[133.2544051,33.963371]]]}}
