{"type":"Feature","id":"attraction-large-park-W238138488","properties":{"id":"attraction-large-park-W238138488","kind":"attraction","name":"栃木県総合運動公園","shortName":"栃木県総合運動公園","context":"日本","subtype":"large-park","subtypeLabel":"大型都市公園・広域公園","statusLabel":"","aliases":[],"osmType":"way","osmId":238138488,"osmDate":null,"officialAreaKm2":null,"areaSourceLabel":"","areaSourceUrl":"","boundarySourceLabel":"© OpenStreetMap contributors","boundarySourceUrl":"https://www.openstreetmap.org/copyright","geometryFile":"attractions/large-park-W238138488.geojson"},"geometry":{"type":"Polygon","coordinates":[[[139.8598902,36.50861],[139.8598205,36.5076804],[139.8604589,36.5075123],[139.8610704,36.5073639],[139.8617892,36.5072906],[139.8620735,36.5078253],[139.8621111,36.5086488],[139.8664335,36.5088543],[139.8665696,36.5088902],[139.8666174,36.5089558],[139.8665189,36.5101689],[139.8667242,36.5101863],[139.8668423,36.5102008],[139.867824,36.5103212],[139.8679659,36.5103386],[139.8673977,36.5129063],[139.8673742,36.5130123],[139.8666227,36.5129007],[139.8664149,36.5137752],[139.8661394,36.5136713],[139.8660361,36.513634],[139.8655222,36.5134258],[139.8650167,36.5132422],[139.8650206,36.5132242],[139.8650446,36.5131148],[139.8650485,36.5130971],[139.8650738,36.5129812],[139.8650777,36.5129635],[139.8652999,36.5119488],[139.8653086,36.5119092],[139.8653192,36.5118608],[139.8653366,36.5117812],[139.8654222,36.5113904],[139.8654363,36.5113259],[139.8654498,36.5112642],[139.865457,36.5112299],[139.8654693,36.5111738],[139.8655303,36.5109215],[139.8654928,36.5106958],[139.8639666,36.5106465],[139.8637421,36.5116765],[139.863479,36.5123241],[139.8631196,36.5135054],[139.8617793,36.5134082],[139.861599,36.5132443],[139.860665,36.5133911],[139.8593784,36.5135039],[139.8591956,36.5135235],[139.8593843,36.5145224],[139.8589863,36.5145676],[139.8599378,36.5162956],[139.8598508,36.5168866],[139.8595554,36.5173372],[139.8590206,36.5176515],[139.8584172,36.51782],[139.8579625,36.5177479],[139.8575583,36.5175763],[139.857462,36.5175519],[139.8573485,36.5175995],[139.8558936,36.5181315],[139.8557183,36.5177697],[139.8556539,36.5174895],[139.8554018,36.5170551],[139.8547995,36.516177],[139.8544804,36.5159261],[139.8563086,36.5155583],[139.8558112,36.5147272],[139.8557669,36.514317],[139.8558079,36.514022],[139.8559082,36.5137548],[139.8563742,36.513333],[139.8564831,36.5134224],[139.8569129,36.5132665],[139.8571949,36.5132502],[139.8576289,36.5131453],[139.8576932,36.5128561],[139.8575245,36.5124538],[139.8573199,36.5123654],[139.8572657,36.5123397],[139.8571638,36.5123061],[139.8571147,36.512267],[139.8570881,36.5122642],[139.8568432,36.5118179],[139.8566583,36.5116976],[139.8565214,36.5116084],[139.8561083,36.5114816],[139.8557709,36.5115019],[139.855706,36.5115032],[139.8552017,36.511617],[139.853381,36.5129562],[139.8534077,36.5125713],[139.8534299,36.5124813],[139.8535128,36.5124709],[139.8537258,36.5120811],[139.8538518,36.5119621],[139.8539474,36.5116757],[139.8536898,36.5116266],[139.8533929,36.5116545],[139.8531996,36.5113367],[139.8536689,36.5109976],[139.8536891,36.51077],[139.8536525,36.5105874],[139.8536621,36.5105051],[139.853708,36.5104801],[139.8544067,36.5102848],[139.8546654,36.5099375],[139.8536675,36.5100303],[139.8535798,36.5099962],[139.8524061,36.5102836],[139.8523599,36.5101993],[139.8530058,36.5100042],[139.8535565,36.5098129],[139.8538963,36.5096827],[139.8542232,36.5095299],[139.8543542,36.5095416],[139.8546055,36.5097128],[139.8548795,36.5098724],[139.855156,36.5098266],[139.8552278,36.5096963],[139.8553727,36.5095688],[139.8556225,36.5094736],[139.8597293,36.5087954],[139.8598902,36.50861]]]}}
