{"type":"Feature","id":"attraction-large-park-W32305435","properties":{"id":"attraction-large-park-W32305435","kind":"attraction","name":"光が丘公園","shortName":"光が丘公園","context":"日本","subtype":"large-park","subtypeLabel":"大型都市公園・広域公園","statusLabel":"","aliases":["Hikarigaoka Park"],"osmType":"way","osmId":32305435,"osmDate":null,"officialAreaKm2":null,"areaSourceLabel":"","areaSourceUrl":"","boundarySourceLabel":"© OpenStreetMap contributors","boundarySourceUrl":"https://www.openstreetmap.org/copyright","geometryFile":"attractions/large-park-W32305435.geojson"},"geometry":{"type":"Polygon","coordinates":[[[139.6354311,35.7665341],[139.6353591,35.7663746],[139.6325146,35.7662258],[139.632479,35.7656561],[139.6324302,35.7655145],[139.632096,35.7645787],[139.6327808,35.7646134],[139.6328637,35.7645284],[139.6318011,35.7636959],[139.6309675,35.7630037],[139.6307474,35.7628187],[139.6304843,35.7626414],[139.6302856,35.7625855],[139.6300803,35.76256],[139.6295902,35.7625518],[139.6291041,35.7625347],[139.6287856,35.7625429],[139.6282172,35.7625435],[139.6279848,35.7625884],[139.6277524,35.7626898],[139.6269977,35.7632151],[139.6266799,35.7634456],[139.626362,35.763676],[139.6259135,35.7639756],[139.6254743,35.7642979],[139.625457,35.7647146],[139.6253642,35.7667827],[139.6253499,35.7670745],[139.625382,35.7681776],[139.6254587,35.7683751],[139.6256128,35.7688435],[139.6259795,35.769498],[139.626192,35.7697033],[139.6263975,35.7698179],[139.6264607,35.7698431],[139.6265564,35.769872],[139.6266754,35.7698971],[139.6267943,35.7699117],[139.6269864,35.7699146],[139.6291703,35.7699179],[139.629343,35.7699182],[139.6314157,35.7699213],[139.6314825,35.7699213],[139.6351277,35.7699436],[139.635362,35.7697274],[139.6353471,35.7686975],[139.6353348,35.767845],[139.6353372,35.7677396],[139.635343,35.7672606],[139.6354311,35.7665341]]]}}
