{"type":"Feature","id":"attraction-large-park-W550549223","properties":{"id":"attraction-large-park-W550549223","kind":"attraction","name":"県立小泉潟公園","shortName":"県立小泉潟公園","context":"日本","subtype":"large-park","subtypeLabel":"大型都市公園・広域公園","statusLabel":"","aliases":["Koizumigata Park"],"osmType":"way","osmId":550549223,"osmDate":null,"officialAreaKm2":null,"areaSourceLabel":"","areaSourceUrl":"","boundarySourceLabel":"© OpenStreetMap contributors","boundarySourceUrl":"https://www.openstreetmap.org/copyright","geometryFile":"attractions/large-park-W550549223.geojson"},"geometry":{"type":"Polygon","coordinates":[[[140.0695105,39.8085588],[140.0693803,39.8087062],[140.0692344,39.8087609],[140.0690075,39.8088112],[140.0689707,39.8088415],[140.0689163,39.8089741],[140.0688208,39.8092679],[140.0687794,39.8093079],[140.0687004,39.8093826],[140.068636,39.8096573],[140.0685958,39.8097845],[140.0684487,39.8099261],[140.0684139,39.8099309],[140.0683624,39.8099297],[140.068022,39.8098755],[140.0679788,39.8098766],[140.0679549,39.80989],[140.0677405,39.8101294],[140.0676292,39.8102218],[140.0675442,39.81026],[140.067242,39.8103724],[140.0668262,39.8104962],[140.0668048,39.8104925],[140.0667819,39.8104755],[140.0667149,39.8103795],[140.0666007,39.8101834],[140.0664134,39.8100899],[140.0663838,39.8100909],[140.0663383,39.8101075],[140.0661844,39.8102307],[140.0660677,39.8103764],[140.0659735,39.8105291],[140.0659441,39.8105514],[140.0654896,39.8107918],[140.0654238,39.8108657],[140.0653679,39.8108894],[140.0650583,39.8109087],[140.0647959,39.8109686],[140.0644578,39.8111152],[140.0643522,39.8112062],[140.0639878,39.8115337],[140.0633118,39.8121416],[140.062716,39.8126286],[140.0625436,39.8127901],[140.0625423,39.8128782],[140.0625716,39.8129555],[140.0626795,39.8130521],[140.0629592,39.8131717],[140.0634981,39.8133584],[140.0636127,39.8134322],[140.0636893,39.8135233],[140.0637652,39.8136432],[140.0637783,39.8137401],[140.0637423,39.8138812],[140.0636562,39.8140155],[140.0635495,39.8141273],[140.0634038,39.8142222],[140.0631042,39.8143786],[140.0629793,39.8147908],[140.0628675,39.8150716],[140.0627398,39.8151944],[140.0627413,39.8152315],[140.0628094,39.8152964],[140.0632963,39.8154959],[140.0635008,39.8156461],[140.0636061,39.815769],[140.0637334,39.8159798],[140.0639255,39.8163789],[140.0640871,39.8167463],[140.0642635,39.8171231],[140.0643358,39.8172947],[140.0643676,39.8174526],[140.0643886,39.8179406],[140.0644177,39.8182891],[140.0644404,39.8184078],[140.064485,39.8185126],[140.0645491,39.8186209],[140.0646366,39.8187559],[140.0647287,39.8188256],[140.0648838,39.8189031],[140.0649289,39.8188919],[140.0649857,39.8187999],[140.0651178,39.8186567],[140.0653498,39.8183638],[140.0655069,39.8182496],[140.0656197,39.8181734],[140.0658053,39.8181556],[140.0663066,39.818169],[140.0664606,39.8181373],[140.0666276,39.8180543],[140.0668444,39.817838],[140.067236,39.8172003],[140.0674703,39.8169543],[140.0677746,39.8166375],[140.0679414,39.8168361],[140.0682571,39.8170169],[140.0686421,39.8171055],[140.0686699,39.8172039],[140.0685823,39.8174321],[140.0685201,39.8174847],[140.0684337,39.8178533],[140.0684546,39.8180007],[140.0685509,39.8181326],[140.0687656,39.8182262],[140.0694699,39.8181687],[140.0695215,39.8181443],[140.0698396,39.8179835],[140.070372,39.8179512],[140.0703787,39.8179939],[140.0703814,39.8181399],[140.0703904,39.8185174],[140.0706276,39.8184976],[140.0709997,39.8184016],[140.0712157,39.8183492],[140.07145,39.8183969],[140.0717355,39.8184886],[140.0720583,39.8184931],[140.0728527,39.8183851],[140.0729303,39.8183919],[140.0732622,39.8184387],[140.073474,39.8184372],[140.0736522,39.8183793],[140.0743045,39.817831],[140.0744674,39.8171828],[140.0746746,39.8167538],[140.07466,39.8167128],[140.0744286,39.8167372],[140.0743814,39.8166929],[140.074379,39.8165788],[140.0743453,39.8164941],[140.0742586,39.8164114],[140.0741212,39.8163385],[140.0741625,39.8162555],[140.074238,39.8162349],[140.074252,39.8162131],[140.0750484,39.8163254],[140.0753547,39.8163396],[140.0755817,39.8158212],[140.0762486,39.8156632],[140.0763659,39.8156491],[140.0766145,39.8156917],[140.0766403,39.8157394],[140.076736,39.8156087],[140.0765046,39.8155163],[140.0764893,39.815466],[140.0763271,39.8154096],[140.0762553,39.8153557],[140.076413,39.8151094],[140.0768192,39.8150154],[140.0768976,39.8149665],[140.0769726,39.8148687],[140.0772282,39.8146757],[140.0772595,39.8145932],[140.0771241,39.8144828],[140.0770991,39.8144006],[140.0770207,39.8142788],[140.0769424,39.8142263],[140.0768192,39.8141857],[140.0768169,39.8141585],[140.0768761,39.81405],[140.0768249,39.8138626],[140.0767714,39.8138215],[140.0763911,39.8137653],[140.0761955,39.8136404],[140.0760888,39.813548],[140.0758696,39.8133285],[140.0757971,39.8132845],[140.0755374,39.8131659],[140.0755145,39.8131374],[140.075477,39.8130821],[140.0754285,39.8130284],[140.0753936,39.8130031],[140.0753669,39.812947],[140.0753518,39.8128886],[140.0753672,39.8128715],[140.0754199,39.8128433],[140.0755096,39.8127422],[140.0756149,39.812587],[140.0757835,39.8122971],[140.0759077,39.8120672],[140.076047,39.811885],[140.0760499,39.811819],[140.0759249,39.8114245],[140.075714,39.8112875],[140.0756063,39.811219],[140.0755314,39.8111499],[140.0751537,39.8106817],[140.0751022,39.810663],[140.07497,39.810648],[140.0748521,39.8106371],[140.0747501,39.8106003],[140.0746422,39.810531],[140.0746101,39.8104912],[140.0744949,39.810326],[140.0744485,39.8102682],[140.0743488,39.8096847],[140.0744279,39.8092263],[140.0744442,39.809106],[140.0743909,39.8090485],[140.0742426,39.8091098],[140.0741983,39.8091217],[140.073965,39.8090878],[140.0739445,39.80907],[140.0739431,39.8090432],[140.0740059,39.8089282],[140.0740689,39.8087746],[140.074125,39.8085444],[140.0741337,39.8084727],[140.07408,39.8081672],[140.0737215,39.8078706],[140.0736184,39.8077318],[140.0735501,39.8075888],[140.0735367,39.8075276],[140.073454,39.807467],[140.0733758,39.8074482],[140.0730691,39.8074459],[140.0729267,39.8074427],[140.0725335,39.8076755],[140.072578,39.8078395],[140.0726065,39.8079116],[140.0726031,39.8079535],[140.0725306,39.8080051],[140.0724316,39.8080091],[140.072263,39.8079885],[140.0720741,39.8079558],[140.071932,39.8079805],[140.0718578,39.8080111],[140.0716898,39.8080926],[140.0716699,39.8081166],[140.0717425,39.8081753],[140.0718126,39.8082386],[140.0718805,39.8083138],[140.0719551,39.8085026],[140.0718124,39.8086185],[140.0717571,39.8086498],[140.0715557,39.808665],[140.0715029,39.8086964],[140.0714602,39.8090994],[140.0714639,39.8091588],[140.0714114,39.8092098],[140.071353,39.8092338],[140.0712816,39.8092369],[140.0711665,39.809216],[140.0710095,39.8092611],[140.0709841,39.8092602],[140.0709553,39.8092381],[140.070924,39.8091736],[140.0707736,39.8090447],[140.0706337,39.8090134],[140.070586,39.8089925],[140.0705455,39.8088643],[140.0703683,39.8088163],[140.0701125,39.8087276],[140.0696223,39.8085211],[140.0695669,39.8085248],[140.0695105,39.8085588]]]}}
