{"type":"Feature","id":"attraction-large-industrial-complex-W467067792","properties":{"id":"attraction-large-industrial-complex-W467067792","kind":"attraction","name":"三菱自動車工業(株)岡崎製作所","shortName":"三菱自動車工業(株)岡崎製作所","context":"日本","subtype":"industrial-complex","subtypeLabel":"工業地帯・大規模工場","statusLabel":"","aliases":[],"osmType":"way","osmId":467067792,"osmDate":null,"officialAreaKm2":null,"areaSourceLabel":"","areaSourceUrl":"","boundarySourceLabel":"© OpenStreetMap contributors","boundarySourceUrl":"https://www.openstreetmap.org/copyright","geometryFile":"attractions/large-industrial-complex-W467067792.geojson"},"geometry":{"type":"Polygon","coordinates":[[[137.1271104,34.997152],[137.1270038,34.9970939],[137.1258229,34.9920644],[137.1251753,34.9892675],[137.1285326,34.9867413],[137.1285679,34.9868645],[137.1293503,34.9867132],[137.1297225,34.9884531],[137.1354772,34.9876086],[137.1369603,34.9881347],[137.1386151,34.9951903],[137.1271104,34.997152]]]}}
