{"type":"Feature","id":"attraction-large-park-W190130793","properties":{"id":"attraction-large-park-W190130793","kind":"attraction","name":"はままつフラワーパーク","shortName":"はままつフラワーパーク","context":"日本","subtype":"botanical-garden","subtypeLabel":"植物園・植物公園","statusLabel":"","aliases":["Hamamatsu Flower Park"],"osmType":"way","osmId":190130793,"osmDate":null,"officialAreaKm2":null,"areaSourceLabel":"","areaSourceUrl":"","boundarySourceLabel":"© OpenStreetMap contributors","boundarySourceUrl":"https://www.openstreetmap.org/copyright","geometryFile":"attractions/large-park-W190130793.geojson"},"geometry":{"type":"Polygon","coordinates":[[[137.629294,34.764092],[137.6293216,34.7640854],[137.6293802,34.7640004],[137.6294979,34.7639721],[137.6295659,34.7639624],[137.6296351,34.7639622],[137.6298304,34.7639748],[137.6298713,34.7639833],[137.6299012,34.7640054],[137.6299095,34.7640374],[137.629903,34.7643095],[137.6299019,34.764355],[137.6299214,34.7644145],[137.6299543,34.7644687],[137.6299998,34.7645165],[137.6300228,34.7645325],[137.630056,34.7645557],[137.6301205,34.7645849],[137.6301822,34.7646008],[137.6301909,34.764603],[137.6302401,34.7646071],[137.6302637,34.7646091],[137.6303654,34.7646035],[137.6306596,34.7645845],[137.6311142,34.7645858],[137.6312082,34.7645843],[137.6312256,34.7646328],[137.6312638,34.7646504],[137.6312859,34.7646863],[137.6312765,34.7647171],[137.6312504,34.764743],[137.6311994,34.7647529],[137.6311525,34.7647827],[137.631125,34.7648135],[137.6311156,34.7648427],[137.6310627,34.7648939],[137.6310425,34.7649452],[137.6310116,34.7649881],[137.6309668,34.7650289],[137.6309392,34.7650845],[137.6309634,34.7651391],[137.6310258,34.7651688],[137.631074,34.765176],[137.6311358,34.7651722],[137.6311806,34.7651369],[137.6312055,34.7650889],[137.6312276,34.7650244],[137.6312376,34.7649727],[137.6312812,34.7649242],[137.6313054,34.7648802],[137.6313429,34.7648433],[137.6313825,34.7648008],[137.6313959,34.7647805],[137.6314026,34.7647331],[137.6313912,34.7647028],[137.6313731,34.7646752],[137.6313496,34.7646527],[137.6313268,34.7646394],[137.6313101,34.7646202],[137.6313195,34.7645998],[137.631349,34.7645903],[137.6314157,34.7645964],[137.6314159,34.7646272],[137.6314594,34.7646634],[137.6314803,34.7646868],[137.6314882,34.7647163],[137.6314734,34.764969],[137.6314859,34.764998],[137.6315155,34.765017],[137.631549,34.7650214],[137.6318508,34.7650049],[137.6318496,34.7651003],[137.6318631,34.7651329],[137.6318789,34.7651638],[137.6318995,34.7651977],[137.6319595,34.7652649],[137.6320393,34.7653322],[137.6320686,34.7653433],[137.6321016,34.7653476],[137.63213,34.7653425],[137.6321641,34.7653229],[137.6321898,34.7652931],[137.6322123,34.7652596],[137.632277,34.7650058],[137.6322895,34.7649499],[137.6325916,34.7648823],[137.6326351,34.7648782],[137.6326717,34.7648858],[137.6327006,34.7649005],[137.6327657,34.7649556],[137.6328009,34.7649669],[137.6328321,34.7649656],[137.6328695,34.7649562],[137.6330436,34.7648731],[137.6330859,34.7648638],[137.6333262,34.7648633],[137.6333691,34.7648738],[137.633469,34.7649059],[137.6335085,34.7649112],[137.6335499,34.7649117],[137.6339318,34.7648938],[137.633967,34.7648962],[137.6340119,34.7649085],[137.6341066,34.764954],[137.6341428,34.764963],[137.6342955,34.7649652],[137.6343351,34.7649556],[137.6343777,34.7649299],[137.6345828,34.7647559],[137.6346118,34.7647218],[137.6346387,34.764681],[137.6346772,34.7645876],[137.6347528,34.7645783],[137.6348536,34.7645793],[137.6349528,34.7645938],[137.6350484,34.7646216],[137.6351365,34.7646583],[137.6352719,34.7647343],[137.6353928,34.7648145],[137.6354527,34.7648652],[137.6354837,34.7648977],[137.635506,34.7649211],[137.6355513,34.7649812],[137.6355893,34.7650465],[137.6356163,34.7650527],[137.6357,34.765061],[137.6357829,34.7650812],[137.6358661,34.7651093],[137.6359358,34.7651567],[137.6361127,34.7653098],[137.6362757,34.7654239],[137.6363943,34.7655054],[137.6366369,34.7656703],[137.636704,34.7657123],[137.6368152,34.7657741],[137.6368881,34.7658088],[137.6369649,34.7658376],[137.6370448,34.7658602],[137.6371269,34.7658764],[137.6372105,34.7658859],[137.6372684,34.7658885],[137.6373188,34.7658809],[137.6373585,34.7658549],[137.637396,34.7658557],[137.6374027,34.7658811],[137.6374871,34.7659033],[137.6375879,34.7657217],[137.6376718,34.7653667],[137.6377035,34.7652813],[137.6378388,34.7649178],[137.6375615,34.7633448],[137.6375066,34.7633333],[137.6374383,34.7633377],[137.6373893,34.7633256],[137.6373392,34.7633014],[137.6372875,34.76329],[137.6372448,34.7632674],[137.6371817,34.7632021],[137.6371065,34.7631462],[137.6370212,34.7631011],[137.6369963,34.7630712],[137.6370024,34.7630386],[137.6370192,34.7630094],[137.6370453,34.7629901],[137.6370963,34.7629835],[137.6371499,34.7629879],[137.6371955,34.7630045],[137.6373216,34.7630766],[137.6373766,34.7630998],[137.6374832,34.7631345],[137.6375502,34.7631301],[137.6376126,34.763108],[137.6376562,34.7630882],[137.6376703,34.7630607],[137.6376709,34.7630182],[137.6376327,34.7629912],[137.6375623,34.7629742],[137.637516,34.762951],[137.6374731,34.7629097],[137.6374087,34.7628921],[137.637345,34.762864],[137.6372994,34.7628199],[137.6372827,34.7627935],[137.6372404,34.7627797],[137.6371922,34.7627863],[137.6371425,34.7627786],[137.6370909,34.7627522],[137.637052,34.7627164],[137.6370233,34.7626675],[137.6369978,34.7626068],[137.6369878,34.7624146],[137.636955,34.7623767],[137.6369014,34.7623699],[137.6360663,34.7625222],[137.6359655,34.7625135],[137.6359022,34.7625005],[137.6358638,34.7624745],[137.6358242,34.762469],[137.6357934,34.7624811],[137.635778,34.7625076],[137.6357607,34.762544],[137.6357117,34.7625976],[137.6356517,34.7626573],[137.6356434,34.7626792],[137.6356618,34.7626969],[137.6356837,34.762709],[137.6356873,34.7627256],[137.6356686,34.7627544],[137.6355665,34.7628598],[137.6355463,34.7628918],[137.6355357,34.7629223],[137.6355309,34.7629846],[137.6355217,34.7630137],[137.6355055,34.7630421],[137.6354876,34.7630608],[137.6354651,34.7630729],[137.6354345,34.7630785],[137.6353644,34.7630814],[137.6353334,34.7630645],[137.635326,34.7630375],[137.6353327,34.7628427],[137.6353318,34.7627743],[137.6353651,34.762712],[137.6353709,34.7626541],[137.6353307,34.76261],[137.6352689,34.7625957],[137.635219,34.7625882],[137.6351892,34.7625599],[137.635188,34.7625233],[137.6352248,34.7625043],[137.6353039,34.7625076],[137.6353468,34.76249],[137.635377,34.7624641],[137.6353884,34.762409],[137.6353696,34.7623412],[137.635332,34.7622878],[137.635275,34.762258],[137.6352362,34.7622343],[137.6352268,34.7622123],[137.6352422,34.7621837],[137.6352999,34.7621765],[137.6353636,34.762171],[137.635387,34.7621385],[137.6353937,34.762084],[137.6354058,34.7620454],[137.6354427,34.7620168],[137.6354769,34.7620129],[137.6354963,34.762036],[137.6354729,34.7620944],[137.6354608,34.7621848],[137.6354702,34.7622476],[137.635505,34.7622702],[137.6355466,34.7622718],[137.6356003,34.7622547],[137.6356257,34.7622046],[137.6356506,34.762155],[137.6356499,34.7620889],[137.6356298,34.7620465],[137.6356372,34.7620107],[137.6356673,34.7619892],[137.6356981,34.761986],[137.6357306,34.7618352],[137.6352192,34.7617607],[137.6351821,34.7617509],[137.6350861,34.7617194],[137.6349928,34.7616825],[137.6349373,34.7616602],[137.6348263,34.761584],[137.6345781,34.7614136],[137.6345592,34.7614322],[137.6343359,34.7612787],[137.634065,34.7610867],[137.6340655,34.7610763],[137.6340618,34.7610678],[137.6340536,34.7610601],[137.6337174,34.7608221],[137.6336476,34.7607819],[137.6335732,34.7607479],[137.6334949,34.7607205],[137.6334145,34.7607001],[137.6333335,34.7606836],[137.6332446,34.7606707],[137.6321222,34.7606265],[137.6321233,34.7606086],[137.632122,34.7606041],[137.6321182,34.7606006],[137.6321129,34.7605992],[137.6320226,34.7605956],[137.6319664,34.7615633],[137.6320141,34.7615651],[137.6320081,34.7616679],[137.6322896,34.761679],[137.6323608,34.7616917],[137.6324599,34.7617436],[137.6325177,34.7617936],[137.6325767,34.7618295],[137.6326431,34.761868],[137.6327399,34.7619146],[137.6327086,34.7619498],[137.6326681,34.7619779],[137.6321953,34.7621688],[137.6321489,34.7621759],[137.6320545,34.7621673],[137.631844,34.7621392],[137.6316555,34.7620862],[137.6315731,34.7620697],[137.6314879,34.7620639],[137.6314028,34.7620693],[137.6313569,34.7620411],[137.6313027,34.7620223],[137.631241,34.7620123],[137.6311706,34.7620206],[137.6311196,34.762052],[137.6310921,34.7620939],[137.6310781,34.7621308],[137.631078,34.7621665],[137.6310436,34.7621877],[137.6309165,34.7622412],[137.6308393,34.7622766],[137.6307743,34.7623093],[137.6307268,34.7623288],[137.6306898,34.7623302],[137.6306529,34.7623291],[137.6306134,34.7623473],[137.6305979,34.762371],[137.6305946,34.7623941],[137.6306093,34.7624194],[137.6306335,34.7624376],[137.6306404,34.7624615],[137.6306125,34.7625262],[137.6305952,34.7625937],[137.6305888,34.7626624],[137.6305935,34.7627312],[137.6306091,34.762799],[137.6306354,34.7628645],[137.630672,34.7629264],[137.6307148,34.7629808],[137.630723,34.763033],[137.6307266,34.7630881],[137.6307253,34.7631435],[137.6307192,34.7631984],[137.6305944,34.763781],[137.6305852,34.7638098],[137.6305574,34.7638232],[137.6305215,34.7638286],[137.6304203,34.7638336],[137.6302865,34.7638446],[137.6301783,34.7638623],[137.6300995,34.7638789],[137.6300073,34.7639068],[137.6299362,34.7639411],[137.6296369,34.7639217],[137.6295615,34.763922],[137.6295015,34.763914],[137.6294372,34.7639272],[137.629393,34.7639453],[137.629344,34.7639756],[137.6293098,34.7639856],[137.6292723,34.7639828],[137.6292535,34.7639784],[137.6292568,34.7639874],[137.629294,34.764092]]]}}
