{"type":"Feature","id":"attraction-large-park-W492811646","properties":{"id":"attraction-large-park-W492811646","kind":"attraction","name":"石狩川河川敷公園","shortName":"石狩川河川敷公園","context":"日本","subtype":"large-park","subtypeLabel":"大型都市公園・広域公園","statusLabel":"","aliases":[],"osmType":"way","osmId":492811646,"osmDate":null,"officialAreaKm2":null,"areaSourceLabel":"","areaSourceUrl":"","boundarySourceLabel":"© OpenStreetMap contributors","boundarySourceUrl":"https://www.openstreetmap.org/copyright","geometryFile":"attractions/large-park-W492811646.geojson"},"geometry":{"type":"Polygon","coordinates":[[[141.5581423,43.1271589],[141.5541971,43.1246684],[141.5520799,43.125412],[141.5384796,43.1272965],[141.5382,43.1273895],[141.5336035,43.1289181],[141.5277255,43.1310718],[141.5223008,43.135377],[141.5180715,43.1361489],[141.5184882,43.136962],[141.5243032,43.1350908],[141.5289166,43.1336737],[141.5322211,43.1326559],[141.536695,43.131364],[141.5391305,43.1307219],[141.5428963,43.130166],[141.5460291,43.1299311],[141.5487006,43.1296101],[141.5518871,43.1290306],[141.5539363,43.1285922],[141.5563825,43.127817],[141.5581423,43.1271589]]]}}
