{"type":"Feature","id":"attraction-large-industrial-complex-W590810606","properties":{"id":"attraction-large-industrial-complex-W590810606","kind":"attraction","name":"トヨタ自動車東日本 岩手工場","shortName":"トヨタ自動車東日本 岩手工場","context":"日本","subtype":"industrial-complex","subtypeLabel":"工業地帯・大規模工場","statusLabel":"","aliases":[],"osmType":"way","osmId":590810606,"osmDate":null,"officialAreaKm2":null,"areaSourceLabel":"","areaSourceUrl":"","boundarySourceLabel":"© OpenStreetMap contributors","boundarySourceUrl":"https://www.openstreetmap.org/copyright","geometryFile":"attractions/large-industrial-complex-W590810606.geojson"},"geometry":{"type":"Polygon","coordinates":[[[141.0806482,39.212324],[141.0815066,39.2139263],[141.0844463,39.2165073],[141.0894459,39.2170933],[141.0895157,39.2044201],[141.0894383,39.2040401],[141.089095,39.2037034],[141.0886573,39.2035015],[141.0882711,39.2034516],[141.0837945,39.203462],[141.0834727,39.2036467],[141.0823546,39.2050606],[141.0817269,39.2060125],[141.0812464,39.2065068],[141.080659,39.2068477],[141.0805829,39.2069413],[141.0806085,39.2083111],[141.0806323,39.2106384],[141.0806482,39.212324]]]}}
