{"type":"Feature","id":"attraction-large-park-W263744324","properties":{"id":"attraction-large-park-W263744324","kind":"attraction","name":"不入斗公園","shortName":"不入斗公園","context":"日本","subtype":"large-park","subtypeLabel":"大型都市公園・広域公園","statusLabel":"著名な公園","aliases":["Iriyamazu Park"],"osmType":"way","osmId":263744324,"osmDate":null,"officialAreaKm2":null,"areaSourceLabel":"","areaSourceUrl":"","boundarySourceLabel":"© OpenStreetMap contributors","boundarySourceUrl":"https://www.openstreetmap.org/copyright","geometryFile":"attractions/large-park-W263744324.geojson"},"geometry":{"type":"Polygon","coordinates":[[[139.6619974,35.2695175],[139.6623287,35.2694446],[139.662662,35.2695182],[139.6627818,35.2695447],[139.6630655,35.2695173],[139.663763,35.2694501],[139.6641752,35.2691497],[139.6659843,35.2687381],[139.6664851,35.2687464],[139.6663079,35.2676087],[139.6664646,35.2670357],[139.6651291,35.26651],[139.66486,35.2664766],[139.663504,35.2666574],[139.6635109,35.2673361],[139.663286,35.2674057],[139.6630373,35.2677395],[139.6613577,35.2683431],[139.6614958,35.2688639],[139.6618057,35.2692186],[139.6616512,35.2693391],[139.6619212,35.2695185],[139.6619974,35.2695175]]]}}
