{"type":"Feature","id":"attraction-large-park-W31959341","properties":{"id":"attraction-large-park-W31959341","kind":"attraction","name":"浜名湖ガーデンパーク","shortName":"浜名湖ガーデンパーク","context":"日本","subtype":"large-park","subtypeLabel":"大型都市公園・広域公園","statusLabel":"","aliases":["Hamanako Garden Park"],"osmType":"way","osmId":31959341,"osmDate":null,"officialAreaKm2":null,"areaSourceLabel":"","areaSourceUrl":"","boundarySourceLabel":"© OpenStreetMap contributors","boundarySourceUrl":"https://www.openstreetmap.org/copyright","geometryFile":"attractions/large-park-W31959341.geojson"},"geometry":{"type":"Polygon","coordinates":[[[137.6022158,34.716301],[137.602086,34.7162421],[137.6019443,34.7162062],[137.6017967,34.7161947],[137.6002646,34.7161835],[137.5979018,34.7161432],[137.5970117,34.7161719],[137.5936765,34.7163121],[137.5932709,34.7163292],[137.593013,34.7163405],[137.5929817,34.7163231],[137.5936057,34.7119636],[137.5940049,34.712],[137.5947687,34.7120737],[137.5951303,34.7121086],[137.59577,34.7121704],[137.5963073,34.7121905],[137.5990639,34.7124697],[137.6011838,34.7126844],[137.6016516,34.7127111],[137.6019241,34.7127267],[137.6026592,34.7127211],[137.6032448,34.7127805],[137.6041301,34.7128703],[137.6044424,34.7129019],[137.6045033,34.7129241],[137.6045544,34.7129592],[137.6045919,34.7130044],[137.6054224,34.7143272],[137.6055072,34.7144621],[137.6058512,34.7150356],[137.606107,34.7154338],[137.6061944,34.7155714],[137.6065324,34.7161036],[137.6070827,34.716975],[137.607413,34.717517],[137.6074057,34.7177467],[137.6061924,34.7189121],[137.6022158,34.716301]]]}}
