{"type":"Feature","id":"attraction-large-park-W312883205","properties":{"id":"attraction-large-park-W312883205","kind":"attraction","name":"本牧市民公園","shortName":"本牧市民公園","context":"日本","subtype":"large-park","subtypeLabel":"大型都市公園・広域公園","statusLabel":"著名な公園","aliases":["Honmoku City Park"],"osmType":"way","osmId":312883205,"osmDate":null,"officialAreaKm2":null,"areaSourceLabel":"","areaSourceUrl":"","boundarySourceLabel":"© OpenStreetMap contributors","boundarySourceUrl":"https://www.openstreetmap.org/copyright","geometryFile":"attractions/large-park-W312883205.geojson"},"geometry":{"type":"Polygon","coordinates":[[[139.6550112,35.4167629],[139.6556012,35.4166012],[139.6563952,35.4161072],[139.6577436,35.4156944],[139.6581531,35.4156656],[139.658314,35.4151497],[139.6590398,35.4148655],[139.6596728,35.4146644],[139.6612492,35.4145169],[139.6621116,35.4143893],[139.6632034,35.4142204],[139.663783,35.4141261],[139.6638571,35.4149923],[139.6638276,35.4154221],[139.6640271,35.4158656],[139.6641898,35.415893],[139.664505,35.4156952],[139.664931,35.4158842],[139.6650581,35.4157871],[139.6651933,35.4157294],[139.6652529,35.4155782],[139.6654111,35.4149344],[139.6654327,35.4148006],[139.6654865,35.414726],[139.6654303,35.4145236],[139.665788,35.4139934],[139.6649351,35.4135452],[139.6641036,35.4131725],[139.6632711,35.4128917],[139.6624839,35.4127431],[139.6612742,35.412719],[139.6604937,35.4128338],[139.6595241,35.4131136],[139.6587932,35.4134535],[139.6583006,35.4137496],[139.6575326,35.4143454],[139.6569474,35.4148929],[139.6560556,35.4156503],[139.6553006,35.4162919],[139.6551942,35.4163779],[139.6548812,35.4166308],[139.6549639,35.41674],[139.6550112,35.4167629]]]}}
