{"type":"Feature","id":"attraction-large-industrial-complex-W828455847","properties":{"id":"attraction-large-industrial-complex-W828455847","kind":"attraction","name":"日本軽金属","shortName":"日本軽金属","context":"日本","subtype":"industrial-complex","subtypeLabel":"工業地帯・大規模工場","statusLabel":"","aliases":["Nippon Light Metal Company, Ltd."],"osmType":"way","osmId":828455847,"osmDate":null,"officialAreaKm2":null,"areaSourceLabel":"","areaSourceUrl":"","boundarySourceLabel":"© OpenStreetMap contributors","boundarySourceUrl":"https://www.openstreetmap.org/copyright","geometryFile":"attractions/large-industrial-complex-W828455847.geojson"},"geometry":{"type":"Polygon","coordinates":[[[141.6395375,42.6483108],[141.6396931,42.6483838],[141.6384727,42.6504039],[141.6460687,42.6529704],[141.6515538,42.6441559],[141.6515002,42.6440967],[141.6478175,42.6428813],[141.647045,42.6442545],[141.6467124,42.6441381],[141.6466132,42.6442723],[141.643129,42.6431654],[141.6430566,42.6432601],[141.6424262,42.643051],[141.6399235,42.6469343],[141.6413095,42.6473936],[141.6411371,42.6476607],[141.6412095,42.6476872],[141.6410602,42.6479387],[141.6400152,42.6475749],[141.6395375,42.6483108]]]}}
