{"type":"Feature","id":"attraction-large-park-W840001796","properties":{"id":"attraction-large-park-W840001796","kind":"attraction","name":"市原緑地運動公園","shortName":"市原緑地運動公園","context":"日本","subtype":"large-park","subtypeLabel":"大型都市公園・広域公園","statusLabel":"著名な公園","aliases":[],"osmType":"way","osmId":840001796,"osmDate":null,"officialAreaKm2":null,"areaSourceLabel":"","areaSourceUrl":"","boundarySourceLabel":"© OpenStreetMap contributors","boundarySourceUrl":"https://www.openstreetmap.org/copyright","geometryFile":"attractions/large-park-W840001796.geojson"},"geometry":{"type":"Polygon","coordinates":[[[140.0723013,35.5266244],[140.0730538,35.526383],[140.073125,35.5264621],[140.0733814,35.5262884],[140.0737193,35.5259773],[140.0740889,35.5258039],[140.0744844,35.5255054],[140.0748001,35.5251686],[140.0740271,35.5248581],[140.0739241,35.5248838],[140.0723846,35.525738],[140.0710564,35.5264511],[140.0705036,35.5264851],[140.0701955,35.5259639],[140.0696919,35.5261439],[140.0693816,35.5261977],[140.0688381,35.5262464],[140.0684345,35.5265979],[140.0681087,35.5267947],[140.0674164,35.525827],[140.0673367,35.5258215],[140.0671664,35.5259093],[140.0668598,35.5260793],[140.0665959,35.526214],[140.0674287,35.527821],[140.0685914,35.5285984],[140.0693803,35.5289171],[140.0703517,35.5292215],[140.0713036,35.5294128],[140.0721253,35.5294903],[140.0728839,35.5298431],[140.0732647,35.5303442],[140.0752589,35.530956],[140.075452,35.5306585],[140.075813,35.5302787],[140.0756258,35.5303045],[140.0753286,35.530302],[140.0748959,35.5301934],[140.074167,35.5298527],[140.0736857,35.5297115],[140.0734554,35.5296439],[140.0732391,35.5294442],[140.0731122,35.5293673],[140.072996,35.5292348],[140.0728689,35.5292818],[140.0727911,35.5293101],[140.0726685,35.5293527],[140.0723471,35.5287404],[140.0725664,35.5286418],[140.0723892,35.5280992],[140.0723828,35.5279178],[140.0722402,35.5276333],[140.07196,35.5271537],[140.0724058,35.526992],[140.0723013,35.5266244]]]}}
