{"type":"Feature","id":"attraction-large-industrial-complex-W493742254","properties":{"id":"attraction-large-industrial-complex-W493742254","kind":"attraction","name":"パナソニック群馬工場","shortName":"パナソニック群馬工場","context":"日本","subtype":"industrial-complex","subtypeLabel":"工業地帯・大規模工場","statusLabel":"","aliases":["Panasonic Gunma Plant"],"osmType":"way","osmId":493742254,"osmDate":null,"officialAreaKm2":null,"areaSourceLabel":"","areaSourceUrl":"","boundarySourceLabel":"© OpenStreetMap contributors","boundarySourceUrl":"https://www.openstreetmap.org/copyright","geometryFile":"attractions/large-industrial-complex-W493742254.geojson"},"geometry":{"type":"Polygon","coordinates":[[[139.3969708,36.256928],[139.4020557,36.2554973],[139.4020813,36.2554588],[139.4021571,36.255437],[139.4022591,36.2554088],[139.4023057,36.2553962],[139.4023899,36.2554048],[139.4058097,36.2544581],[139.4058373,36.254364],[139.4058912,36.2543486],[139.4059541,36.2543307],[139.4060564,36.2543014],[139.4061075,36.2542868],[139.4061747,36.2542676],[139.40627,36.2543325],[139.4064205,36.2542977],[139.4041905,36.2490933],[139.4041817,36.2490719],[139.4041436,36.2489797],[139.4041298,36.2489465],[139.403696,36.247961],[139.4035436,36.2479802],[139.4033412,36.2475196],[139.3994281,36.2485924],[139.3992527,36.2486395],[139.3990514,36.2486935],[139.3941534,36.2500595],[139.3941033,36.2501655],[139.395574,36.253634],[139.3956165,36.2537342],[139.395656,36.2538274],[139.3969708,36.256928]]]}}
