{"type":"Feature","id":"attraction-large-park-W645965484","properties":{"id":"attraction-large-park-W645965484","kind":"attraction","name":"霧島アートの森","shortName":"霧島アートの森","context":"日本","subtype":"large-park","subtypeLabel":"大型都市公園・広域公園","statusLabel":"","aliases":[],"osmType":"way","osmId":645965484,"osmDate":null,"officialAreaKm2":null,"areaSourceLabel":"","areaSourceUrl":"","boundarySourceLabel":"© OpenStreetMap contributors","boundarySourceUrl":"https://www.openstreetmap.org/copyright","geometryFile":"attractions/large-park-W645965484.geojson"},"geometry":{"type":"Polygon","coordinates":[[[130.779825,31.9358236],[130.7801498,31.9356552],[130.7806189,31.9355939],[130.7813948,31.9357777],[130.7832172,31.9360992],[130.7846968,31.9357011],[130.7857072,31.9355174],[130.7862124,31.9366045],[130.7865011,31.9378142],[130.7858877,31.9386258],[130.7817015,31.9383195],[130.7818459,31.9385798],[130.7836322,31.939422],[130.7840292,31.941336],[130.7839028,31.9455619],[130.7817556,31.9456844],[130.7771906,31.9448576],[130.7764869,31.9419638],[130.7760358,31.9409685],[130.7763606,31.9398507],[130.7774432,31.9388861],[130.7790671,31.9385645],[130.7795002,31.938243],[130.7791032,31.9370639],[130.779825,31.9358236]]]}}
