{"type":"Feature","id":"attraction-large-park-W279700928","properties":{"id":"attraction-large-park-W279700928","kind":"attraction","name":"岡山県倉敷スポーツ公園","shortName":"岡山県倉敷スポーツ公園","context":"岡山県・倉敷市","subtype":"large-park","subtypeLabel":"大型都市公園・広域公園","statusLabel":"著名な公園","aliases":["Kurashiki Sports Park"],"osmType":"way","osmId":279700928,"osmDate":null,"officialAreaKm2":null,"areaSourceLabel":"","areaSourceUrl":"","boundarySourceLabel":"© OpenStreetMap contributors","boundarySourceUrl":"https://www.openstreetmap.org/copyright","geometryFile":"attractions/large-park-W279700928.geojson"},"geometry":{"type":"Polygon","coordinates":[[[133.8053366,34.6219947],[133.8044984,34.621906],[133.8040617,34.6218611],[133.8038175,34.6218376],[133.8035326,34.6218106],[133.8026492,34.6217047],[133.80117,34.6215023],[133.8007207,34.6214445],[133.8001864,34.6213683],[133.8000509,34.6213267],[133.800014,34.6211542],[133.8001289,34.6210709],[133.8002178,34.621024],[133.8005375,34.620847],[133.8007615,34.6207185],[133.8009779,34.6205791],[133.8010216,34.6205547],[133.801222,34.620428],[133.8013995,34.6202971],[133.8016009,34.6201408],[133.8017986,34.6199742],[133.8020217,34.6197662],[133.8021013,34.6197065],[133.802156,34.6196521],[133.8024155,34.6194223],[133.8026095,34.6192705],[133.8027473,34.6191175],[133.8029657,34.6188822],[133.8032148,34.6185873],[133.8034904,34.6182465],[133.803603,34.6180927],[133.8036569,34.6180142],[133.8038761,34.6177271],[133.8040953,34.617398],[133.8042118,34.6172268],[133.8043562,34.6171872],[133.8048007,34.6172734],[133.804851,34.6172776],[133.8053056,34.6173682],[133.8063092,34.6175313],[133.8067411,34.6176058],[133.8071104,34.6176558],[133.8073328,34.6177024],[133.8074512,34.6177168],[133.8076583,34.6177314],[133.8077413,34.6177419],[133.8078306,34.6177511],[133.8078984,34.6177835],[133.8079095,34.6178019],[133.8079085,34.6178277],[133.8073128,34.61857],[133.8072962,34.6185916],[133.8072766,34.618617],[133.8072588,34.6186401],[133.8072295,34.6186779],[133.8066758,34.619366],[133.8066136,34.6194433],[133.8065961,34.6194651],[133.8065435,34.6195321],[133.8063456,34.619784],[133.806197,34.6199926],[133.8060621,34.6202119],[133.8060225,34.6202902],[133.8059506,34.6204323],[133.8059505,34.6204588],[133.8059505,34.6204687],[133.8059108,34.6205591],[133.8057941,34.6208338],[133.8057558,34.6209421],[133.8056521,34.6212874],[133.8054904,34.6218849],[133.805445,34.6219568],[133.8053366,34.6219947]]]}}
