{"type":"Feature","id":"attraction-large-park-W475766385","properties":{"id":"attraction-large-park-W475766385","kind":"attraction","name":"国営備北丘陵公園 つどいの里","shortName":"国営備北丘陵公園 つどいの里","context":"日本","subtype":"large-park","subtypeLabel":"大型都市公園・広域公園","statusLabel":"","aliases":[],"osmType":"way","osmId":475766385,"osmDate":null,"officialAreaKm2":null,"areaSourceLabel":"","areaSourceUrl":"","boundarySourceLabel":"© OpenStreetMap contributors","boundarySourceUrl":"https://www.openstreetmap.org/copyright","geometryFile":"attractions/large-park-W475766385.geojson"},"geometry":{"type":"Polygon","coordinates":[[[133.014258,34.8463938],[133.0143599,34.8463652],[133.014258,34.8462045],[133.0141186,34.8460724],[133.0140247,34.8459888],[133.0139764,34.8459624],[133.0139147,34.8459337],[133.0137216,34.8457797],[133.0135177,34.8456388],[133.013558,34.8454759],[133.0134138,34.8453493],[133.0133575,34.8453042],[133.0132582,34.8452513],[133.0131644,34.8449476],[133.0131188,34.84481],[133.013104,34.8447296],[133.0130866,34.8446196],[133.0130624,34.84446],[133.0130544,34.8443697],[133.0129686,34.8440549],[133.0129283,34.8438634],[133.0126467,34.8439449],[133.0122739,34.8438634],[133.0122658,34.8437269],[133.0122605,34.8436499],[133.012298,34.8434364],[133.0123543,34.8433417],[133.0124536,34.8431458],[133.0121639,34.8431722],[133.0118393,34.8432118],[133.0113968,34.8432405],[133.0110535,34.8432669],[133.0108442,34.8432889],[133.0107262,34.8431392],[133.0105787,34.8429125],[133.0103695,34.8426219],[133.0104339,34.8423621],[133.0105492,34.8423841],[133.0110937,34.8420231],[133.0113217,34.8421244],[133.0113995,34.8420671],[133.0112412,34.84188],[133.0111017,34.8417281],[133.0110266,34.8416511],[133.011024,34.8415608],[133.0105841,34.8416401],[133.0104526,34.8415212],[133.0103105,34.841464],[133.0101522,34.8414111],[133.0101227,34.8412768],[133.010104,34.8411932],[133.0100879,34.8411249],[133.0100771,34.8410897],[133.0099189,34.8409752],[133.0097901,34.8408366],[133.0096346,34.8406781],[133.0095729,34.840623],[133.0095434,34.8405636],[133.0095836,34.8404887],[133.0095407,34.8404425],[133.0094254,34.8404689],[133.0092939,34.8404249],[133.0086207,34.840579],[133.0084705,34.8404227],[133.0083712,34.8401519],[133.0082425,34.8399098],[133.0082479,34.839727],[133.0081486,34.8395465],[133.0080145,34.839333],[133.0078858,34.8392868],[133.0076658,34.839311],[133.0074888,34.8393198],[133.0070623,34.839333],[133.0068209,34.8392669],[133.0068263,34.8391481],[133.0069685,34.8390446],[133.0070543,34.8389719],[133.0070999,34.8389345],[133.007285,34.8388685],[133.007112,34.8386395],[133.0069322,34.8383996],[133.0059801,34.8389609],[133.0056314,34.8392317],[133.0054897,34.8394714],[133.0053948,34.8396963],[133.0053219,34.839802],[133.0052008,34.8399375],[133.0050789,34.8400143],[133.0049105,34.8401032],[133.0047006,34.8401804],[133.0045594,34.8402693],[133.0044762,34.8403088],[133.0041668,34.8404557],[133.0040937,34.8404939],[133.0038375,34.8406278],[133.0037281,34.8406771],[133.0034228,34.8408148],[133.0032419,34.8409965],[133.0031599,34.841138],[133.0031076,34.841261],[133.0030139,34.8413625],[133.0029878,34.8414284],[133.0030152,34.8414746],[133.0030114,34.8416276],[133.0030291,34.8416682],[133.0029968,34.841686],[133.0029821,34.8417438],[133.0029797,34.8418618],[133.0029587,34.8419651],[133.0029725,34.8420863],[133.002984,34.8423037],[133.002982,34.8424763],[133.0030446,34.8427296],[133.0030921,34.8430477],[133.0031571,34.8432951],[133.003265,34.843549],[133.0034757,34.8439536],[133.0036466,34.8441875],[133.0038513,34.844465],[133.0040227,34.8446806],[133.0042403,34.8448507],[133.0044261,34.8450523],[133.0045575,34.8451685],[133.0048717,34.8454409],[133.0053936,34.8458416],[133.0059002,34.8460238],[133.0064494,34.8462483],[133.0067239,34.8463232],[133.0071658,34.8464191],[133.0074948,34.8465081],[133.0077813,34.8465447],[133.0080611,34.8465433],[133.0083387,34.8466008],[133.0089173,34.8466131],[133.009075,34.8466164],[133.0092831,34.8466744],[133.0094829,34.8466919],[133.0097085,34.8467353],[133.0099509,34.8469253],[133.0100464,34.8469136],[133.0102092,34.8468935],[133.0102843,34.8468253],[133.0105794,34.846768],[133.011038,34.8466844],[133.0111856,34.8467658],[133.0112607,34.8469375],[133.0117381,34.8469595],[133.0117971,34.8471752],[133.0118776,34.8474367],[133.0120625,34.8475661],[133.0122128,34.8476969],[133.0122584,34.847774],[133.0123148,34.8478092],[133.0126286,34.8478686],[133.0128834,34.8479127],[133.0130202,34.8479281],[133.013216,34.8479347],[133.0132696,34.8479259],[133.0133796,34.8478136],[133.013393,34.8476881],[133.0133957,34.8476265],[133.0133018,34.8474768],[133.0132294,34.8473359],[133.0131436,34.8472633],[133.0130551,34.8471907],[133.0130121,34.8470696],[133.0129692,34.8469859],[133.0131355,34.8469419],[133.0133206,34.8468539],[133.013566,34.846746],[133.0133702,34.8467196],[133.014258,34.8463938]]]}}
