{"type":"Feature","id":"attraction-large-military-base-W695018324","properties":{"id":"attraction-large-military-base-W695018324","kind":"attraction","name":"陸上自衛隊相浦駐屯地","shortName":"陸上自衛隊相浦駐屯地","context":"日本","subtype":"military-base","subtypeLabel":"基地・駐屯地・演習場","statusLabel":"","aliases":["Camp Ainoura"],"osmType":"way","osmId":695018324,"osmDate":null,"officialAreaKm2":null,"areaSourceLabel":"","areaSourceUrl":"","boundarySourceLabel":"© OpenStreetMap contributors","boundarySourceUrl":"https://www.openstreetmap.org/copyright","geometryFile":"attractions/large-military-base-W695018324.geojson"},"geometry":{"type":"Polygon","coordinates":[[[129.6563529,33.1789482],[129.6568964,33.1790629],[129.6569876,33.1791662],[129.6569349,33.1792804],[129.6570574,33.1793884],[129.6576072,33.1794064],[129.6577134,33.1795584],[129.6577928,33.1796191],[129.658082,33.1795725],[129.6585684,33.1794039],[129.6587847,33.1792829],[129.6589591,33.1792762],[129.659019,33.1789594],[129.6597218,33.1787036],[129.6599202,33.1788226],[129.660277,33.1785644],[129.6602501,33.1782883],[129.6609448,33.1782771],[129.6610655,33.1786183],[129.6612309,33.1788519],[129.6614115,33.1788495],[129.6612667,33.1785285],[129.6614696,33.1781672],[129.6625291,33.1783647],[129.6625032,33.178524],[129.6628626,33.1786138],[129.6636834,33.178533],[129.664944,33.1749096],[129.6649279,33.1745729],[129.6646785,33.1737332],[129.6644666,33.1732258],[129.6640535,33.1726241],[129.6633883,33.1721302],[129.6627205,33.1717306],[129.6620285,33.1714477],[129.6616399,33.1713713],[129.6600564,33.1714436],[129.6522761,33.1720069],[129.6518432,33.1721101],[129.6517198,33.171706],[129.6516914,33.1709382],[129.6517627,33.1707631],[129.6517611,33.17057],[129.6517091,33.1704667],[129.6515197,33.1706508],[129.6513014,33.1706643],[129.650876,33.1703185],[129.6508078,33.1704981],[129.6511726,33.1708843],[129.6512837,33.1711178],[129.6510584,33.1713423],[129.6508829,33.171715],[129.6504484,33.1715174],[129.6501303,33.1708663],[129.6499962,33.1706014],[129.6497548,33.1703994],[129.6494506,33.1701614],[129.649397,33.1700536],[129.649508,33.1699728],[129.6497189,33.169865],[129.6497065,33.1697034],[129.6495847,33.1695058],[129.6493004,33.1694699],[129.6490429,33.1695013],[129.6488643,33.1697842],[129.6485854,33.1699189],[129.6486299,33.1700222],[129.6496438,33.1706643],[129.6498782,33.1711223],[129.650266,33.1721146],[129.6506882,33.1735605],[129.6505021,33.1740858],[129.650243,33.1742115],[129.6489126,33.174225],[129.6487034,33.1743911],[129.6485478,33.174647],[129.648344,33.1746201],[129.6482313,33.174445],[129.6478306,33.1745079],[129.6477126,33.1747683],[129.6477072,33.1750467],[129.6478558,33.175141],[129.6480704,33.1757785],[129.6484153,33.1758279],[129.6491164,33.1758594],[129.6495617,33.1757381],[129.6500659,33.1756079],[129.6505702,33.1755046],[129.6507579,33.1755316],[129.6510154,33.1756932],[129.6514231,33.176259],[129.6519328,33.1766137],[129.6531237,33.1766496],[129.653549,33.1769369],[129.6555178,33.1776194],[129.6561401,33.1786476],[129.6562688,33.1788811],[129.6563529,33.1789482]]]}}
