{"type":"Feature","id":"attraction-large-park-W496062448","properties":{"id":"attraction-large-park-W496062448","kind":"attraction","name":"鳥沼公園","shortName":"鳥沼公園","context":"日本","subtype":"large-park","subtypeLabel":"大型都市公園・広域公園","statusLabel":"著名な公園","aliases":["Torinuma Park"],"osmType":"way","osmId":496062448,"osmDate":null,"officialAreaKm2":null,"areaSourceLabel":"","areaSourceUrl":"","boundarySourceLabel":"© OpenStreetMap contributors","boundarySourceUrl":"https://www.openstreetmap.org/copyright","geometryFile":"attractions/large-park-W496062448.geojson"},"geometry":{"type":"Polygon","coordinates":[[[142.4331822,43.3401279],[142.4323927,43.3404281],[142.4331555,43.3409861],[142.4345149,43.3425818],[142.4347532,43.342906],[142.4348841,43.3430816],[142.4350217,43.343085],[142.4370382,43.3421651],[142.4383174,43.3415815],[142.4378108,43.3411542],[142.4374554,43.341066],[142.437213,43.3408722],[142.4369868,43.3404668],[142.4368414,43.3401906],[142.436284,43.3395973],[142.4356701,43.3390978],[142.4350642,43.3387982],[142.4349007,43.3387363],[142.4348641,43.3391706],[142.4339861,43.3396883],[142.4331822,43.3401279]]]}}
