{"type":"Feature","id":"attraction-large-industrial-complex-W736523294","properties":{"id":"attraction-large-industrial-complex-W736523294","kind":"attraction","name":"鹿島石油 貯油所","shortName":"鹿島石油 貯油所","context":"日本","subtype":"industrial-complex","subtypeLabel":"工業地帯・大規模工場","statusLabel":"","aliases":["Kashima Oil"],"osmType":"way","osmId":736523294,"osmDate":null,"officialAreaKm2":null,"areaSourceLabel":"","areaSourceUrl":"","boundarySourceLabel":"© OpenStreetMap contributors","boundarySourceUrl":"https://www.openstreetmap.org/copyright","geometryFile":"attractions/large-industrial-complex-W736523294.geojson"},"geometry":{"type":"Polygon","coordinates":[[[140.7044808,35.913349],[140.7110202,35.9163878],[140.7201791,35.9033285],[140.7147819,35.9008908],[140.7141872,35.901723],[140.7120244,35.902692],[140.7062456,35.9109693],[140.7044808,35.913349]]]}}
