{"type":"Feature","id":"attraction-large-park-R9287321","properties":{"id":"attraction-large-park-R9287321","kind":"attraction","name":"酒津公園","shortName":"酒津公園","context":"日本","subtype":"large-park","subtypeLabel":"大型都市公園・広域公園","statusLabel":"著名な公園","aliases":["Sakazu Park"],"osmType":"relation","osmId":9287321,"osmDate":null,"officialAreaKm2":null,"areaSourceLabel":"","areaSourceUrl":"","boundarySourceLabel":"© OpenStreetMap contributors","boundarySourceUrl":"https://www.openstreetmap.org/copyright","geometryFile":"attractions/large-park-R9287321.geojson"},"geometry":{"type":"MultiPolygon","coordinates":[[[[133.7501612,34.6125572],[133.7500489,34.6124346],[133.7496809,34.6120329],[133.749198,34.611514],[133.7490047,34.6113063],[133.7488522,34.6111424],[133.7487568,34.6110384],[133.7486881,34.6109636],[133.7486196,34.6108889],[133.7484543,34.6106953],[133.7482853,34.6104972],[133.7483855,34.6104683],[133.748896,34.6104613],[133.7491317,34.6104539],[133.7495212,34.6104477],[133.7501801,34.6104251],[133.7504825,34.610415],[133.7507463,34.6103947],[133.7511704,34.6103459],[133.7512823,34.6107178],[133.7513589,34.6109722],[133.7516249,34.6109429],[133.7516344,34.6109874],[133.751717,34.6113977],[133.7514411,34.6114155],[133.7514547,34.6116936],[133.7508793,34.6116924],[133.7508457,34.611982],[133.7508359,34.612066],[133.7508316,34.6122248],[133.7508117,34.6122902],[133.7507811,34.6123582],[133.7507222,34.6124529],[133.7506572,34.6125476],[133.7506116,34.6126045],[133.7505784,34.6127445],[133.7505543,34.6129083],[133.7505488,34.6129453],[133.7505313,34.6129563],[133.7501612,34.6125572]]],[[[133.7491355,34.6140552],[133.7490927,34.6138754],[133.7490552,34.613581],[133.7490404,34.6135537],[133.7490088,34.6134875],[133.7489913,34.6134511],[133.7489872,34.6134426],[133.7489666,34.6133974],[133.7489398,34.6133471],[133.7488624,34.6131933],[133.7486695,34.6129736],[133.7485727,34.6127122],[133.7484658,34.612429],[133.7483921,34.6122473],[133.7483665,34.6121699],[133.7483571,34.612079],[133.7483573,34.6117807],[133.7483568,34.6116057],[133.7483572,34.6115001],[133.748353,34.6114202],[133.7483555,34.6113579],[133.7483531,34.611309],[133.7483481,34.6112602],[133.7483352,34.6111637],[133.7483251,34.6111196],[133.7483118,34.6110767],[133.7482593,34.6110097],[133.7479513,34.6106006],[133.7479455,34.6105917],[133.7479468,34.6105815],[133.7479538,34.6105737],[133.7481489,34.6104517],[133.74817,34.6104526],[133.7481879,34.6104623],[133.7488519,34.611207],[133.7489278,34.6112902],[133.7492311,34.6116185],[133.7492954,34.6116975],[133.7496388,34.6120695],[133.7499346,34.6123874],[133.7503365,34.6128316],[133.7505207,34.6130546],[133.7506121,34.6131745],[133.750811,34.6134265],[133.750803,34.6134702],[133.7507388,34.613609],[133.7507118,34.6136928],[133.7507052,34.6137518],[133.7507193,34.6137734],[133.7507428,34.6137851],[133.7507623,34.6137988],[133.7507766,34.6138124],[133.7507803,34.6138388],[133.7507783,34.61394],[133.7507744,34.6140436],[133.7507685,34.6141331],[133.7507549,34.614394],[133.7507443,34.6147952],[133.750697,34.6149858],[133.7505645,34.615555],[133.7505412,34.6156079],[133.7505003,34.6156437],[133.7504526,34.615667],[133.7503986,34.6156823],[133.7503434,34.6156876],[133.7502853,34.6156942],[133.7502196,34.6157065],[133.7501823,34.615717],[133.750157,34.6157336],[133.750133,34.6157646],[133.7501177,34.6158142],[133.7501095,34.6158715],[133.7501143,34.6159579],[133.7502336,34.6164575],[133.7504553,34.6172462],[133.7504546,34.6172577],[133.7503047,34.617288],[133.7501788,34.6173135],[133.7501169,34.617294],[133.7500511,34.6172221],[133.7500078,34.617057],[133.7498361,34.6165145],[133.7496484,34.6158504],[133.7493146,34.6147528],[133.7492636,34.6145542],[133.7491355,34.6140552]]]]}}
