{"type":"Feature","id":"attraction-large-park-W546254659","properties":{"id":"attraction-large-park-W546254659","kind":"attraction","name":"マングローブ原生林","shortName":"マングローブ原生林","context":"日本","subtype":"large-park","subtypeLabel":"大型都市公園・広域公園","statusLabel":"","aliases":[],"osmType":"way","osmId":546254659,"osmDate":null,"officialAreaKm2":null,"areaSourceLabel":"","areaSourceUrl":"","boundarySourceLabel":"© OpenStreetMap contributors","boundarySourceUrl":"https://www.openstreetmap.org/copyright","geometryFile":"attractions/large-park-W546254659.geojson"},"geometry":{"type":"Polygon","coordinates":[[[129.4081683,28.251072],[129.4081284,28.2510153],[129.4081958,28.2508435],[129.4082036,28.2507478],[129.408165,28.2506846],[129.4081784,28.2505574],[129.4081197,28.2505021],[129.4080003,28.2505228],[129.407761,28.250435],[129.407188,28.249415],[129.4072103,28.2493068],[129.4074139,28.2488637],[129.4074667,28.2487921],[129.4076106,28.2485969],[129.4077658,28.2483863],[129.4079156,28.2480873],[129.4077874,28.2480498],[129.4076284,28.248091],[129.4074595,28.2481991],[129.4070441,28.2482854],[129.406835,28.2483813],[129.406722,28.2484734],[129.406684,28.2485199],[129.406634,28.248614],[129.4064944,28.249282],[129.4064464,28.2495364],[129.4064163,28.2497202],[129.4064237,28.2499236],[129.4065733,28.2503248],[129.406698,28.250555],[129.406787,28.25064],[129.407786,28.251282],[129.408308,28.252201],[129.4081327,28.2525528],[129.4076477,28.2525078],[129.4068568,28.2524084],[129.4055187,28.2525534],[129.404779,28.252464],[129.4046314,28.252468],[129.4043247,28.2526665],[129.4042242,28.2529712],[129.4043821,28.2534743],[129.4048756,28.2536822],[129.4051116,28.254495],[129.4051545,28.2549408],[129.4052973,28.2550331],[129.4060558,28.2554778],[129.4072145,28.2561393],[129.4073432,28.2565741],[129.4081801,28.2570655],[129.4093111,28.2569014],[129.4095432,28.2572382],[129.409844,28.257578],[129.4099721,28.2581276],[129.4105705,28.2583886],[129.4116213,28.2588311],[129.412094,28.259052],[129.412175,28.25908],[129.412344,28.259111],[129.412426,28.259114],[129.4124811,28.2591069],[129.412898,28.258781],[129.413156,28.258355],[129.413441,28.257633],[129.413573,28.257154],[129.413658,28.256045],[129.413591,28.255563],[129.4132944,28.2547886],[129.413275,28.253764],[129.41365,28.253195],[129.413873,28.252783],[129.413809,28.252258],[129.413694,28.25201],[129.4135538,28.2518176],[129.412949,28.251423],[129.412688,28.251237],[129.4123938,28.2511284],[129.4119763,28.2511121],[129.4113,28.251054],[129.4109743,28.2509982],[129.4106262,28.2509268],[129.4105182,28.2509175],[129.4102298,28.251032],[129.4101028,28.2510271],[129.4100004,28.2509734],[129.409861,28.251009],[129.4098332,28.2511599],[129.4096545,28.2512186],[129.4095886,28.251311],[129.4095601,28.2513994],[129.4089277,28.2515731],[129.4085626,28.2513664],[129.4083868,28.2512737],[129.4081683,28.251072]]]}}
