{"type":"Feature","id":"attraction-large-park-W798289286","properties":{"id":"attraction-large-park-W798289286","kind":"attraction","name":"芦北海浜総合公園","shortName":"芦北海浜総合公園","context":"日本","subtype":"large-park","subtypeLabel":"大型都市公園・広域公園","statusLabel":"著名な公園","aliases":[],"osmType":"way","osmId":798289286,"osmDate":null,"officialAreaKm2":null,"areaSourceLabel":"","areaSourceUrl":"","boundarySourceLabel":"© OpenStreetMap contributors","boundarySourceUrl":"https://www.openstreetmap.org/copyright","geometryFile":"attractions/large-park-W798289286.geojson"},"geometry":{"type":"Polygon","coordinates":[[[130.4741022,32.3200869],[130.4741934,32.3200484],[130.4743597,32.31996],[130.4746789,32.3198738],[130.4751644,32.3198444],[130.4753253,32.3197265],[130.4751027,32.3197084],[130.4746976,32.3194908],[130.474298,32.3192936],[130.4739493,32.3191802],[130.4737267,32.3189739],[130.4732358,32.3186974],[130.4727423,32.3185818],[130.4724044,32.3187223],[130.4722381,32.3186453],[130.4720905,32.3185274],[130.4719055,32.3184413],[130.4718894,32.3182033],[130.4716292,32.3181285],[130.4714924,32.3180718],[130.4712242,32.3185546],[130.4708943,32.3191304],[130.4707521,32.3194273],[130.4705644,32.3199464],[130.4705027,32.3201844],[130.4705295,32.3203974],[130.4706502,32.3205992],[130.4707333,32.32064],[130.4708943,32.3206513],[130.4710445,32.3207692],[130.4710525,32.3209369],[130.4711652,32.3211318],[130.4714146,32.3216305],[130.4714441,32.3219455],[130.4716587,32.3220566],[130.4718116,32.3222334],[130.471935,32.3224261],[130.4720905,32.3227434],[130.4721884,32.322936],[130.4722984,32.32291],[130.4727691,32.3228136],[130.4727785,32.3226901],[130.4727034,32.3224102],[130.4728053,32.3221484],[130.4727986,32.3220407],[130.4727155,32.3216735],[130.4726055,32.3213743],[130.4726163,32.3211885],[130.4728362,32.3207578],[130.4731634,32.320615],[130.4735041,32.3205402],[130.4737374,32.3204768],[130.4739144,32.3202864],[130.4741022,32.3200869]]]}}
