{"type":"Feature","id":"attraction-large-park-W486588967","properties":{"id":"attraction-large-park-W486588967","kind":"attraction","name":"府民の森 ほしだ園地","shortName":"府民の森 ほしだ園地","context":"日本","subtype":"large-park","subtypeLabel":"大型都市公園・広域公園","statusLabel":"","aliases":["Hoshida park (Forest of Osaka prefacture residents)"],"osmType":"way","osmId":486588967,"osmDate":null,"officialAreaKm2":null,"areaSourceLabel":"","areaSourceUrl":"","boundarySourceLabel":"© OpenStreetMap contributors","boundarySourceUrl":"https://www.openstreetmap.org/copyright","geometryFile":"attractions/large-park-W486588967.geojson"},"geometry":{"type":"Polygon","coordinates":[[[135.6902063,34.7573691],[135.690327,34.7572391],[135.6903994,34.7571179],[135.6903216,34.7569086],[135.6902921,34.7567918],[135.6902894,34.7566243],[135.6901848,34.7564436],[135.6901044,34.7563863],[135.6900212,34.7563224],[135.6899542,34.756177],[135.6899434,34.756058],[135.6899542,34.7558244],[135.6899971,34.7556547],[135.6899676,34.7555137],[135.689934,34.755387],[135.6898536,34.7551842],[135.6897986,34.7550575],[135.6897785,34.7549804],[135.6896403,34.7548261],[135.689529,34.7546906],[135.6894365,34.754544],[135.6894137,34.7543644],[135.6893963,34.7541959],[135.6893533,34.7540537],[135.6892179,34.7538565],[135.6890972,34.7537386],[135.6890516,34.7536747],[135.6890583,34.7535325],[135.6890851,34.7534091],[135.6891683,34.7533342],[135.6892192,34.7530653],[135.6892152,34.7528824],[135.6892742,34.7526863],[135.6893426,34.7524791],[135.6893305,34.7522544],[135.6893051,34.751991],[135.6893627,34.7517805],[135.6896309,34.7516042],[135.6900199,34.7513839],[135.6902827,34.7512538],[135.6904544,34.7510555],[135.6903873,34.7508087],[135.690272,34.7505618],[135.6900467,34.7503811],[135.6897382,34.7502842],[135.6892447,34.7501784],[135.6888531,34.750099],[135.688546,34.7499205],[135.688259,34.7497641],[135.6880873,34.7495811],[135.6881383,34.7494114],[135.6882751,34.7489288],[135.6885004,34.7484748],[135.6887686,34.748153],[135.6891012,34.7478842],[135.6892085,34.7476461],[135.6893909,34.7472847],[135.6894714,34.7468043],[135.6897315,34.7460461],[135.6899515,34.7452527],[135.6899582,34.7447215],[135.6897812,34.7447392],[135.68947,34.7447634],[135.6893198,34.7447083],[135.6892018,34.7446312],[135.6890811,34.7445055],[135.6890462,34.7443579],[135.6890087,34.744078],[135.6889684,34.7437738],[135.6887351,34.7437319],[135.6884052,34.7437319],[135.6882228,34.7437231],[135.6879465,34.7437319],[135.6877293,34.7437187],[135.6874262,34.7436416],[135.6872867,34.7435622],[135.6871284,34.7434608],[135.6870077,34.7433705],[135.6868388,34.7432184],[135.6867208,34.7431126],[135.6865571,34.7429495],[135.6865062,34.7429165],[135.6863694,34.7428878],[135.6862084,34.7429473],[135.6859617,34.7430156],[135.6857337,34.7430245],[135.6855647,34.7429958],[135.6853501,34.7428724],[135.6852241,34.7427886],[135.685031,34.742577],[135.6848968,34.7423787],[135.6847493,34.7421737],[135.6846528,34.742101],[135.6844918,34.7420899],[135.6844303,34.742091],[135.6843604,34.7420922],[135.6841834,34.7421473],[135.6839393,34.7422376],[135.6837703,34.7423302],[135.6835886,34.7424106],[135.6834585,34.742501],[135.6832936,34.7426795],[135.6832305,34.7428889],[135.6832077,34.7430774],[135.6832238,34.7432239],[135.683201,34.7434245],[135.6831259,34.7436295],[135.6830307,34.7438388],[135.6830052,34.7439953],[135.6829932,34.744262],[135.6829932,34.744586],[135.6829972,34.7448692],[135.6829408,34.7452461],[135.6827987,34.7454092],[135.6826297,34.7455194],[135.6824125,34.7456869],[135.6822944,34.7459447],[135.6822354,34.7460814],[135.6819323,34.7462643],[135.6815944,34.7463877],[135.6813074,34.7464186],[135.6810097,34.746348],[135.6805054,34.746412],[135.6803016,34.7465706],[135.6801728,34.7467646],[135.6799904,34.7471194],[135.679977,34.7473773],[135.6799207,34.7478269],[135.6800146,34.7480406],[135.6802291,34.748217],[135.6806046,34.7482566],[135.6810177,34.7481641],[135.6815327,34.7481619],[135.6821952,34.7482015],[135.682568,34.7484087],[135.6828255,34.7486379],[135.6829516,34.7489486],[135.6829328,34.7492153],[135.6829274,34.749634],[135.6827933,34.7498544],[135.6826083,34.750066],[135.6824446,34.7502401],[135.6822059,34.7505332],[135.6822113,34.7507932],[135.6821684,34.7510423],[135.6821925,34.7513618],[135.6822354,34.7517056],[135.6821952,34.752186],[135.6819162,34.7523712],[135.6814871,34.7525386],[135.6814281,34.7527326],[135.6814495,34.7530235],[135.6816534,34.7532703],[135.6820879,34.7534422],[135.6826994,34.7534642],[135.6830159,34.7534995],[135.6833271,34.7535744],[135.6835309,34.7536978],[135.6839064,34.7539314],[135.6842337,34.7541914],[135.6843731,34.754381],[135.6843356,34.7546278],[135.6843517,34.7549583],[135.6843785,34.755214],[135.6844107,34.7555666],[135.684341,34.7558266],[135.6843463,34.7562409],[135.6845448,34.7564524],[135.6847326,34.7567036],[135.6850035,34.7570694],[135.6853253,34.7577085],[135.6855077,34.758374],[135.6856579,34.7586693],[135.6861246,34.758894],[135.6870634,34.7588676],[135.6873578,34.7590119],[135.687534,34.7590276],[135.6875958,34.758894],[135.6877085,34.7586671],[135.6878345,34.7585525],[135.6880089,34.7584798],[135.6882905,34.7583431],[135.6885829,34.7582219],[135.6889021,34.7580038],[135.6891488,34.7578363],[135.6894117,34.7576887],[135.6895646,34.7576468],[135.6897069,34.757705],[135.6899079,34.7575873],[135.6901064,34.7574595],[135.6902063,34.7573691]]]}}
