{"type":"Feature","id":"attraction-large-park-R5975986","properties":{"id":"attraction-large-park-R5975986","kind":"attraction","name":"宜野湾海浜公園","shortName":"宜野湾海浜公園","context":"日本","subtype":"large-park","subtypeLabel":"大型都市公園・広域公園","statusLabel":"著名な公園","aliases":["Ginowan Seaside Park"],"osmType":"relation","osmId":5975986,"osmDate":null,"officialAreaKm2":null,"areaSourceLabel":"","areaSourceUrl":"","boundarySourceLabel":"© OpenStreetMap contributors","boundarySourceUrl":"https://www.openstreetmap.org/copyright","geometryFile":"attractions/large-park-R5975986.geojson"},"geometry":{"type":"Polygon","coordinates":[[[127.7316175,26.282286],[127.7312634,26.2826275],[127.7310703,26.2826901],[127.7308906,26.2827237],[127.7306385,26.2826732],[127.7304024,26.2825458],[127.7303085,26.2825337],[127.7302147,26.2825602],[127.7301342,26.2826347],[127.7301215,26.2826724],[127.7301006,26.282737],[127.7300698,26.2828422],[127.7301114,26.2829624],[127.7302871,26.2830929],[127.7307665,26.2832853],[127.7312185,26.2833857],[127.7315356,26.2833881],[127.7318951,26.2833659],[127.7321548,26.2833196],[127.7323551,26.2832576],[127.7325214,26.2831975],[127.7325831,26.2831278],[127.7326072,26.2830484],[127.7326045,26.2829786],[127.7325911,26.2829113],[127.7325509,26.2828512],[127.7324919,26.2828079],[127.7324087,26.2827887],[127.7323014,26.2827911],[127.73221,26.282774],[127.7321244,26.2827093],[127.7321673,26.282589],[127.7322371,26.2824549],[127.7322424,26.2824448],[127.7324463,26.2822812],[127.7325748,26.2822374],[127.7326417,26.2822524],[127.7327279,26.2822716],[127.7378187,26.2833298],[127.7380253,26.2833369],[127.7381889,26.2832047],[127.7383471,26.282969],[127.7386368,26.2814491],[127.7373037,26.2811509],[127.7376917,26.2796418],[127.7377007,26.2796069],[127.7371857,26.2794963],[127.7371294,26.279542],[127.7368102,26.279465],[127.7367727,26.2794121],[127.7346125,26.2789056],[127.734474,26.2794049],[127.7343516,26.2796053],[127.7342767,26.2797164],[127.7342666,26.2797862],[127.7342722,26.279824],[127.7342917,26.2798703],[127.7343352,26.279919],[127.7335639,26.280575],[127.7330652,26.2809921],[127.7329677,26.2810025],[127.7328674,26.2809808],[127.7316926,26.2800422],[127.7316769,26.2796196],[127.7316175,26.2795522],[127.7308087,26.2804021],[127.7314712,26.2809114],[127.7317682,26.2811398],[127.7320946,26.2814001],[127.7321032,26.2814513],[127.7321309,26.2814955],[127.7322006,26.2815508],[127.7322259,26.2816042],[127.7322304,26.2816135],[127.7322361,26.2816256],[127.7316784,26.2822252],[127.7316175,26.282286]]]}}
