{"type":"Feature","id":"attraction-large-airport-W454193654","properties":{"id":"attraction-large-airport-W454193654","kind":"attraction","name":"上五島空港","shortName":"上五島空港","context":"日本","subtype":"airport","subtypeLabel":"空港・飛行場","statusLabel":"","aliases":["Kamigoto Airport"],"osmType":"way","osmId":454193654,"osmDate":null,"officialAreaKm2":null,"areaSourceLabel":"","areaSourceUrl":"","boundarySourceLabel":"© OpenStreetMap contributors","boundarySourceUrl":"https://www.openstreetmap.org/copyright","geometryFile":"attractions/large-airport-W454193654.geojson"},"geometry":{"type":"Polygon","coordinates":[[[129.1908337,33.0180084],[129.191633,33.0181523],[129.1938681,33.0094814],[129.1939621,33.0087155],[129.1936331,33.0087],[129.1935024,33.009005],[129.1931133,33.0089858],[129.1927031,33.0106939],[129.1918211,33.010521],[129.1914529,33.0119733],[129.1923495,33.0121171],[129.1908337,33.0180084]]]}}
