{"type":"Feature","id":"attraction-large-industrial-complex-W996671568","properties":{"id":"attraction-large-industrial-complex-W996671568","kind":"attraction","name":"名村造船所伊万里事業所","shortName":"名村造船所伊万里事業所","context":"佐賀県・伊万里市","subtype":"industrial-complex","subtypeLabel":"工業地帯・大規模工場","statusLabel":"","aliases":["Namura Shipbuilding Co., Ltd. Imari Works"],"osmType":"way","osmId":996671568,"osmDate":null,"officialAreaKm2":null,"areaSourceLabel":"","areaSourceUrl":"","boundarySourceLabel":"© OpenStreetMap contributors","boundarySourceUrl":"https://www.openstreetmap.org/copyright","geometryFile":"attractions/large-industrial-complex-W996671568.geojson"},"geometry":{"type":"Polygon","coordinates":[[[129.8364767,33.3331681],[129.8418673,33.3353479],[129.8417711,33.3355138],[129.8419502,33.3355862],[129.8420464,33.3354203],[129.8421738,33.3354718],[129.8423186,33.335436],[129.8433888,33.3335715],[129.8465002,33.3348645],[129.846535,33.3349273],[129.8456077,33.3366028],[129.8442908,33.3388797],[129.8408635,33.3374963],[129.839765,33.3393957],[129.8386867,33.3389586],[129.8386035,33.3391018],[129.837093,33.3384895],[129.8369474,33.3384304],[129.8385885,33.335605],[129.8357075,33.334437],[129.8348533,33.3359078],[129.8340094,33.3373608],[129.8338854,33.3375742],[129.8334955,33.3382456],[129.8333154,33.3381824],[129.8331734,33.3381325],[129.8331133,33.3382381],[129.832789,33.3388076],[129.833095,33.3389351],[129.8328239,33.3394018],[129.8276747,33.3373223],[129.827731,33.3372194],[129.8275933,33.3371668],[129.8277054,33.3369618],[129.8278432,33.3370144],[129.827905,33.3369014],[129.8277451,33.3368403],[129.8277754,33.336785],[129.8282832,33.3369789],[129.828607,33.3364092],[129.8286725,33.3362939],[129.8283654,33.3361692],[129.8285914,33.335772],[129.8284029,33.3356971],[129.8284342,33.3356422],[129.8286227,33.3357171],[129.8289098,33.3352125],[129.8304825,33.3358497],[129.8328659,33.3317006],[129.8329791,33.3316869],[129.8350283,33.3325048],[129.8353087,33.3324453],[129.8353154,33.3323909],[129.8363961,33.3304957],[129.8377312,33.3310408],[129.837039,33.3322146],[129.8366236,33.332919],[129.8365841,33.3329861],[129.8364767,33.3331681]]]}}
