{"type":"Feature","id":"attraction-large-industrial-complex-W640548118","properties":{"id":"attraction-large-industrial-complex-W640548118","kind":"attraction","name":"本田技研工業（株）熊本製作所","shortName":"本田技研工業（株）熊本製作所","context":"日本","subtype":"industrial-complex","subtypeLabel":"工業地帯・大規模工場","statusLabel":"","aliases":[],"osmType":"way","osmId":640548118,"osmDate":null,"officialAreaKm2":null,"areaSourceLabel":"","areaSourceUrl":"","boundarySourceLabel":"© OpenStreetMap contributors","boundarySourceUrl":"https://www.openstreetmap.org/copyright","geometryFile":"attractions/large-industrial-complex-W640548118.geojson"},"geometry":{"type":"Polygon","coordinates":[[[130.8610371,32.897141],[130.8611705,32.8986124],[130.8612916,32.8999473],[130.8613208,32.9002691],[130.8611253,32.9002816],[130.8611927,32.9010243],[130.86133,32.9012203],[130.8616841,32.9013419],[130.8625397,32.9015041],[130.8627838,32.9020378],[130.8636609,32.9023914],[130.8663028,32.9027945],[130.8678505,32.9029566],[130.8782381,32.9024368],[130.878287,32.9016797],[130.8783728,32.9016257],[130.8782521,32.9003601],[130.8804005,32.9002339],[130.8799177,32.8949393],[130.8796549,32.8946442],[130.8787215,32.8939843],[130.8622312,32.8950609],[130.8612174,32.8960879],[130.8613113,32.8970292],[130.8610371,32.897141]]]}}
