{"type":"Feature","id":"attraction-large-park-W464948270","properties":{"id":"attraction-large-park-W464948270","kind":"attraction","name":"北勢中央公園","shortName":"北勢中央公園","context":"日本","subtype":"large-park","subtypeLabel":"大型都市公園・広域公園","statusLabel":"","aliases":[],"osmType":"way","osmId":464948270,"osmDate":null,"officialAreaKm2":null,"areaSourceLabel":"","areaSourceUrl":"","boundarySourceLabel":"© OpenStreetMap contributors","boundarySourceUrl":"https://www.openstreetmap.org/copyright","geometryFile":"attractions/large-park-W464948270.geojson"},"geometry":{"type":"Polygon","coordinates":[[[136.5393952,35.0634848],[136.5390723,35.0639747],[136.5389924,35.0642416],[136.5390101,35.0643659],[136.5387137,35.0646029],[136.5373698,35.0650977],[136.5364387,35.0659657],[136.5355828,35.067123],[136.5370429,35.0667492],[136.5380692,35.0663639],[136.5383321,35.0660926],[136.5387281,35.0658715],[136.53896,35.0661382],[136.5389689,35.0662512],[136.538866,35.0663651],[136.5387792,35.0665762],[136.5387556,35.0667719],[136.5387156,35.0671289],[136.5385069,35.0672764],[136.5383092,35.067449],[136.5382564,35.0676548],[136.5378035,35.0681109],[136.5375747,35.0679652],[136.5375066,35.0679657],[136.5367525,35.0686278],[136.5374758,35.0691588],[136.538016,35.0698823],[136.5392663,35.069778],[136.539483,35.0696992],[136.5396016,35.0696961],[136.539714,35.0697931],[136.5401851,35.0698342],[136.5407952,35.069874],[136.5412068,35.0699382],[136.5422941,35.0702038],[136.5430491,35.0704342],[136.5432963,35.0704882],[136.5434552,35.0705187],[136.5444521,35.0705316],[136.5446101,35.0704665],[136.544704,35.0703342],[136.5448357,35.0703979],[136.5448626,35.0704333],[136.5450127,35.0705298],[136.5450504,35.0705324],[136.5451415,35.0705269],[136.5454711,35.0704943],[136.5457097,35.0704629],[136.5459705,35.0704149],[136.5464068,35.0703608],[136.5464818,35.0703181],[136.5466253,35.0699655],[136.5466669,35.069747],[136.5466688,35.06947],[136.5466136,35.0693438],[136.5465615,35.0692577],[136.5467581,35.0691147],[136.5476269,35.0686465],[136.5480663,35.068421],[136.5483746,35.0682039],[136.5490673,35.0674513],[136.5497242,35.0666932],[136.5500788,35.0663014],[136.5503391,35.0660251],[136.5504933,35.0658947],[136.5506796,35.0657628],[136.550951,35.0656329],[136.5511169,35.0655729],[136.5514661,35.065491],[136.5528647,35.0652082],[136.5530802,35.0651767],[136.5532984,35.06517],[136.5536115,35.065229],[136.5539286,35.0653472],[136.5543537,35.0653686],[136.5545564,35.0652019],[136.5546233,35.0646896],[136.5538308,35.0644373],[136.5539266,35.0642322],[136.5546632,35.0643761],[136.5547019,35.0640857],[136.5542774,35.0639519],[136.5543497,35.0636848],[136.5536621,35.0638089],[136.5520061,35.0641727],[136.5520201,35.0643678],[136.5518635,35.064447],[136.5518551,35.064501],[136.551674,35.0645627],[136.5515304,35.0643311],[136.5512378,35.0644913],[136.551241,35.0645221],[136.5510834,35.0645902],[136.5505751,35.0647386],[136.5502193,35.0648679],[136.5500665,35.0649283],[136.5499599,35.0649519],[136.5498706,35.0648365],[136.5496666,35.064799],[136.5494863,35.0644687],[136.5493974,35.0643307],[136.5488664,35.0641155],[136.5483809,35.0638535],[136.5478953,35.0635422],[136.5464494,35.0635614],[136.545679,35.063238],[136.5453626,35.0632411],[136.5452651,35.06305],[136.5450624,35.0630017],[136.5450918,35.0626823],[136.5451459,35.0624826],[136.5451975,35.0623085],[136.5452951,35.0622336],[136.5453457,35.0620769],[136.5451936,35.0618921],[136.544655,35.0616062],[136.5439206,35.0612641],[136.5432124,35.0612043],[136.5429562,35.0612528],[136.5421857,35.0616142],[136.5418064,35.0624556],[136.5417958,35.0626497],[136.5418063,35.0628166],[136.541568,35.0631577],[136.5415006,35.0633275],[136.5413911,35.0634489],[136.5406576,35.063964],[136.5403536,35.0639737],[136.540277,35.0636483],[136.5402083,35.0632944],[136.5396909,35.0633545],[136.5395401,35.0634028],[136.5393952,35.0634848]]]}}
