{"type":"Feature","id":"attraction-large-industrial-complex-W849063770","properties":{"id":"attraction-large-industrial-complex-W849063770","kind":"attraction","name":"らくなん進都","shortName":"らくなん進都","context":"日本","subtype":"industrial-complex","subtypeLabel":"工業地帯・大規模工場","statusLabel":"","aliases":["Rakunan Shinto"],"osmType":"way","osmId":849063770,"osmDate":null,"officialAreaKm2":null,"areaSourceLabel":"","areaSourceUrl":"","boundarySourceLabel":"© OpenStreetMap contributors","boundarySourceUrl":"https://www.openstreetmap.org/copyright","geometryFile":"attractions/large-industrial-complex-W849063770.geojson"},"geometry":{"type":"Polygon","coordinates":[[[135.7447993,34.9735107],[135.754395,34.9734189],[135.7544401,34.9742164],[135.7570224,34.9741866],[135.7582034,34.9741827],[135.7582099,34.9733661],[135.7619869,34.9733876],[135.7626414,34.9711901],[135.7565944,34.9643603],[135.7575316,34.963811],[135.7583302,34.9633797],[135.7585166,34.96337],[135.7606612,34.9633406],[135.7602022,34.9627652],[135.7604125,34.9610786],[135.7613285,34.960679],[135.7606161,34.9575754],[135.760495,34.9574973],[135.7558567,34.9575367],[135.755864,34.956977],[135.7560458,34.9551713],[135.7561692,34.9511848],[135.7562269,34.9506852],[135.7557942,34.9504956],[135.7553592,34.9498096],[135.7550159,34.9471422],[135.753774,34.9455627],[135.7526555,34.9218757],[135.7442816,34.9200921],[135.744444,34.9221733],[135.7445213,34.923273],[135.7445228,34.9235523],[135.7445339,34.9239729],[135.7447993,34.9735107]]]}}
