{"type":"Feature","id":"attraction-large-industrial-complex-W353552076","properties":{"id":"attraction-large-industrial-complex-W353552076","kind":"attraction","name":"東洋鋼板株式会社","shortName":"東洋鋼板株式会社","context":"日本","subtype":"industrial-complex","subtypeLabel":"工業地帯・大規模工場","statusLabel":"","aliases":["Toyo Kohan Co., Ltd."],"osmType":"way","osmId":353552076,"osmDate":null,"officialAreaKm2":null,"areaSourceLabel":"","areaSourceUrl":"","boundarySourceLabel":"© OpenStreetMap contributors","boundarySourceUrl":"https://www.openstreetmap.org/copyright","geometryFile":"attractions/large-industrial-complex-W353552076.geojson"},"geometry":{"type":"Polygon","coordinates":[[[131.8686151,33.9960326],[131.8685733,33.9952192],[131.8686846,33.9952209],[131.86882,33.9953999],[131.8690252,33.9955661],[131.8705729,33.996285],[131.8710577,33.9964934],[131.8712736,33.9966397],[131.8714191,33.9968053],[131.8715274,33.9970138],[131.8715666,33.9972801],[131.8716109,33.9984709],[131.8716773,33.9986666],[131.8717088,33.9987383],[131.8716618,33.9988689],[131.8727159,33.9996139],[131.8727763,33.9997028],[131.8727723,33.9997984],[131.872213,34.0007857],[131.8717839,34.0015229],[131.8711227,34.0026747],[131.870373,34.0023923],[131.8696542,34.0036553],[131.8699318,34.0038409],[131.8695,34.0043223],[131.8696891,34.004458],[131.8689743,34.0051473],[131.8686524,34.0054108],[131.8671088,34.0066125],[131.8665931,34.006991],[131.8657824,34.0059844],[131.8651481,34.0052273],[131.8650395,34.0051873],[131.8638231,34.0052484],[131.8635093,34.0041934],[131.8633631,34.0042301],[131.8631726,34.0036508],[131.8626952,34.0033156],[131.8626845,34.0032778],[131.8646263,33.9999725],[131.8670464,34.0009486],[131.8683267,33.9988041],[131.8689065,33.999039],[131.8690588,33.9987861],[131.8686365,33.9985265],[131.8686672,33.9984837],[131.8687345,33.9984828],[131.86876,33.998398],[131.8690856,33.9983808],[131.869093,33.9985059],[131.86927,33.9984792],[131.869276,33.9984175],[131.8694302,33.9984192],[131.8694316,33.9984575],[131.8694758,33.9984503],[131.8695064,33.9984284],[131.8697407,33.9984259],[131.8697977,33.9985498],[131.8698849,33.9985776],[131.8699311,33.9985009],[131.8699948,33.9983708],[131.869972,33.9982869],[131.8698564,33.9983098],[131.8697447,33.9983329],[131.8695335,33.9983364],[131.8694913,33.9983664],[131.869392,33.9983658],[131.869386,33.9983241],[131.8686892,33.9983253],[131.8686685,33.9974102],[131.8686484,33.9962372],[131.8686151,33.9960326]]]}}
