{"type":"Feature","id":"attraction-large-park-W620374515","properties":{"id":"attraction-large-park-W620374515","kind":"attraction","name":"万葉クリエートパーク","shortName":"万葉クリエートパーク","context":"日本","subtype":"large-park","subtypeLabel":"大型都市公園・広域公園","statusLabel":"著名な公園","aliases":[],"osmType":"way","osmId":620374515,"osmDate":null,"officialAreaKm2":null,"areaSourceLabel":"","areaSourceUrl":"","boundarySourceLabel":"© OpenStreetMap contributors","boundarySourceUrl":"https://www.openstreetmap.org/copyright","geometryFile":"attractions/large-park-W620374515.geojson"},"geometry":{"type":"Polygon","coordinates":[[[140.8906504,38.4756317],[140.8907707,38.4756403],[140.8908582,38.4754947],[140.8918773,38.4736975],[140.8920997,38.4734813],[140.8924056,38.4733117],[140.892486,38.4730783],[140.8922037,38.4724031],[140.891415,38.4707593],[140.8909161,38.4710068],[140.8905301,38.4705703],[140.8892611,38.4690886],[140.8878172,38.4699108],[140.887489,38.4696367],[140.8873249,38.4697138],[140.8871608,38.4698851],[140.8870842,38.470005],[140.8868873,38.470142],[140.8866904,38.4702619],[140.8864498,38.4703562],[140.8862419,38.4705617],[140.8859466,38.4708786],[140.8857825,38.4710841],[140.8855746,38.4712726],[140.8853121,38.4714096],[140.8849839,38.4715466],[140.8848745,38.4716151],[140.8847323,38.4716836],[140.8844589,38.4718207],[140.8842182,38.4719491],[140.8840541,38.4721633],[140.8839119,38.4722403],[140.8837588,38.472326],[140.8836588,38.4723888],[140.8838251,38.4725064],[140.8839914,38.4726366],[140.8840826,38.4728088],[140.8841308,38.4729978],[140.884222,38.4731322],[140.8844098,38.4732792],[140.8848282,38.4735774],[140.8850535,38.4736572],[140.8852735,38.4737033],[140.8855041,38.4737705],[140.885649,38.4738965],[140.8856865,38.4740393],[140.8856436,38.4742031],[140.8864268,38.4744005],[140.8866146,38.4746567],[140.8868399,38.4746273],[140.8872744,38.4745895],[140.887725,38.4746273],[140.8881434,38.4747323],[140.8891251,38.4751061],[140.8905574,38.4756226],[140.8906504,38.4756317]]]}}
