{"type":"Feature","id":"attraction-large-park-W92357403","properties":{"id":"attraction-large-park-W92357403","kind":"attraction","name":"別府公園","shortName":"別府公園","context":"日本","subtype":"large-park","subtypeLabel":"大型都市公園・広域公園","statusLabel":"著名な公園","aliases":["Beppu Park"],"osmType":"way","osmId":92357403,"osmDate":null,"officialAreaKm2":null,"areaSourceLabel":"","areaSourceUrl":"","boundarySourceLabel":"© OpenStreetMap contributors","boundarySourceUrl":"https://www.openstreetmap.org/copyright","geometryFile":"attractions/large-park-W92357403.geojson"},"geometry":{"type":"Polygon","coordinates":[[[131.4930791,33.2839713],[131.4935496,33.2803857],[131.4894957,33.2800392],[131.4894725,33.2802869],[131.4890851,33.2802579],[131.4886595,33.2835656],[131.4887284,33.2836039],[131.4929727,33.2840284],[131.4930791,33.2839713]]]}}
