{"type":"Feature","id":"attraction-large-park-W90640111","properties":{"id":"attraction-large-park-W90640111","kind":"attraction","name":"一つ森公園","shortName":"一つ森公園","context":"日本","subtype":"large-park","subtypeLabel":"大型都市公園・広域公園","statusLabel":"","aliases":[],"osmType":"way","osmId":90640111,"osmDate":null,"officialAreaKm2":null,"areaSourceLabel":"","areaSourceUrl":"","boundarySourceLabel":"© OpenStreetMap contributors","boundarySourceUrl":"https://www.openstreetmap.org/copyright","geometryFile":"attractions/large-park-W90640111.geojson"},"geometry":{"type":"Polygon","coordinates":[[[140.147133,39.6910054],[140.1472391,39.6910466],[140.147314,39.6911273],[140.1473469,39.6911835],[140.1473115,39.6912694],[140.1467651,39.691774],[140.1465617,39.6919356],[140.1464242,39.6920804],[140.1463874,39.6921766],[140.1463738,39.6924416],[140.1464336,39.6925388],[140.1465666,39.692654],[140.1465877,39.6927496],[140.1465753,39.6930016],[140.1466403,39.6931871],[140.1466813,39.693306],[140.1466642,39.6933576],[140.1463828,39.6934026],[140.1461197,39.6934712],[140.1458825,39.6934087],[140.1457644,39.6934176],[140.1457323,39.6934976],[140.1457292,39.693571],[140.1456244,39.6936036],[140.1454437,39.6936331],[140.1453845,39.6936362],[140.145338,39.6938992],[140.1453975,39.6939242],[140.1455863,39.6938982],[140.1456429,39.6939414],[140.1458667,39.6942148],[140.146064,39.6944697],[140.1461333,39.6946094],[140.1461171,39.6949122],[140.1461385,39.6950498],[140.1461893,39.6952364],[140.1461275,39.6953978],[140.1460573,39.6955292],[140.1459202,39.6956978],[140.1456946,39.6959491],[140.1455655,39.6958594],[140.1455181,39.6957594],[140.1453847,39.6956963],[140.1452349,39.6956627],[140.1450567,39.6956294],[140.1449227,39.6957127],[140.1447336,39.6958443],[140.1445921,39.6959682],[140.1443289,39.6959275],[140.1440949,39.6959535],[140.1439639,39.6960875],[140.1439619,39.6962685],[140.1441578,39.6964685],[140.144384,39.6966135],[140.1444508,39.696699],[140.1446176,39.6968651],[140.1446811,39.6969625],[140.1448109,39.6971405],[140.144855,39.6973485],[140.1447765,39.6975709],[140.1447952,39.6977251],[140.1449554,39.6979493],[140.1450435,39.6980764],[140.1451149,39.6981375],[140.1451444,39.6981989],[140.1451864,39.698316],[140.1451308,39.6983686],[140.144965,39.6984349],[140.1448374,39.6984587],[140.1447207,39.6986693],[140.1444549,39.6987402],[140.1442194,39.6986874],[140.1439973,39.6987505],[140.1439679,39.6990331],[140.1440318,39.6990724],[140.1441127,39.6991454],[140.1443467,39.6991924],[140.1445768,39.6991273],[140.1447856,39.6991275],[140.1450546,39.6990783],[140.1452015,39.6989793],[140.1453803,39.6990277],[140.145559,39.6990856],[140.1457419,39.699197],[140.1459156,39.6993315],[140.1460369,39.6995248],[140.1460843,39.6995655],[140.1463758,39.6996488],[140.1465521,39.699666],[140.1467117,39.6997738],[140.1467697,39.6998278],[140.1467447,39.6999638],[140.1466257,39.7001168],[140.1463817,39.7004023],[140.1461107,39.7005274],[140.1460467,39.700626],[140.1460862,39.7006905],[140.1463437,39.7008119],[140.1464559,39.7009121],[140.1464845,39.7012451],[140.1463028,39.7012895],[140.1460138,39.7013303],[140.1460196,39.7014763],[140.1461613,39.7016026],[140.1462093,39.7016419],[140.1461997,39.7016813],[140.145868,39.701675],[140.1455574,39.701709],[140.1453835,39.7017595],[140.1445466,39.7016151],[140.1442328,39.701873],[140.144906,39.7024157],[140.1449557,39.7030443],[140.1444232,39.7030885],[140.144316,39.7027583],[140.1437795,39.703105],[140.1434576,39.702944],[140.1432297,39.7027356],[140.1429855,39.702847],[140.1428676,39.7028945],[140.1426798,39.7028346],[140.1425109,39.7028016],[140.1423258,39.7026716],[140.142256,39.7024942],[140.1426771,39.7021227],[140.1426959,39.7019741],[140.1425564,39.7018709],[140.142079,39.7018875],[140.141446,39.7023415],[140.1411724,39.7029193],[140.1407613,39.7030345],[140.1406443,39.7030615],[140.1405033,39.7030325],[140.1404003,39.7029145],[140.1402853,39.7027145],[140.1401953,39.7024435],[140.1401743,39.7021895],[140.1397766,39.7022156],[140.139527,39.7024172],[140.1394081,39.7025522],[140.1389202,39.7027716],[140.138595,39.70278],[140.1383945,39.7027626],[140.1382059,39.7026716],[140.1379259,39.7030278],[140.138072,39.703372],[140.1385438,39.7035301],[140.138458,39.7038933],[140.13812,39.7039511],[140.1381203,39.7044174],[140.1380798,39.7047497],[140.1376453,39.7047662],[140.1375192,39.7044835],[140.1371223,39.7045123],[140.1367038,39.7050282],[140.1367682,39.7053955],[140.1364008,39.7053213],[140.1362992,39.7051286],[140.1363069,39.7049849],[140.1363686,39.7048446],[140.1364705,39.704729],[140.1365966,39.7046857],[140.1364961,39.7039617],[140.1362051,39.703938],[140.1361138,39.7039511],[140.1359426,39.7044293],[140.1354952,39.7043527],[140.1353421,39.7044597],[140.1352122,39.7045037],[140.1350601,39.7044937],[140.1348258,39.7043255],[140.1346898,39.7040853],[140.1345742,39.7040749],[140.1343674,39.7042847],[140.1342201,39.7044061],[140.1338513,39.704535],[140.1334946,39.7047001],[140.1333954,39.704697],[140.1333779,39.7046661],[140.1333571,39.7046222],[140.1333618,39.704467],[140.1333924,39.704356],[140.1334184,39.7041731],[140.1334824,39.7040729],[140.1334713,39.7039675],[140.1333091,39.7039293],[140.1331053,39.7038952],[140.1329512,39.7039859],[140.1328361,39.7040621],[140.1327255,39.7040814],[140.1325834,39.7039535],[140.1324659,39.7037689],[140.1324679,39.7036419],[140.1325989,39.7034539],[140.1327889,39.7032289],[140.1328509,39.7029489],[140.1328736,39.7024488],[140.1334869,39.70192],[140.133504,39.7017224],[140.1337105,39.7017574],[140.1339063,39.7016625],[140.1341906,39.7014293],[140.1341102,39.7013241],[140.13447,39.7012301],[140.1346037,39.7012116],[140.1345634,39.7011239],[140.134711,39.7011414],[140.1350414,39.7012885],[140.1351531,39.7014604],[140.1356993,39.7015108],[140.1356927,39.701256],[140.1359233,39.7011084],[140.1362532,39.7010145],[140.1362734,39.7010702],[140.1359622,39.7011693],[140.1358294,39.7012735],[140.1358536,39.7014128],[140.1360266,39.7015232],[140.1363511,39.7014881],[140.1363216,39.701385],[140.1366322,39.7012985],[140.1365917,39.7011788],[140.1371802,39.7010009],[140.1377432,39.7008298],[140.137771,39.700733],[140.1376748,39.700641],[140.138275,39.7005725],[140.1385197,39.7005873],[140.1386363,39.7006545],[140.1388818,39.7008845],[140.1391044,39.7009485],[140.1392573,39.7011198],[140.1394712,39.7009856],[140.1395698,39.7008845],[140.1395912,39.7005327],[140.1395203,39.7000671],[140.1393912,39.6999352],[140.1394344,39.6998403],[140.1395805,39.6996319],[140.1396851,39.6994926],[140.1398729,39.6993822],[140.1402813,39.6992678],[140.140538,39.6986764],[140.1409042,39.6982863],[140.1413036,39.6978426],[140.1415023,39.6976816],[140.1415761,39.6976073],[140.1415935,39.6975103],[140.1416847,39.6972709],[140.1418527,39.6970644],[140.1419932,39.6968726],[140.1420575,39.6967354],[140.1425719,39.6967331],[140.1425858,39.6966913],[140.1426126,39.6958544],[140.1422874,39.6958163],[140.1421729,39.6956034],[140.1418976,39.6950814],[140.1415168,39.694637],[140.1413591,39.6945083],[140.1412118,39.6944458],[140.1411755,39.6944025],[140.1411794,39.6943247],[140.1412485,39.6942689],[140.1412899,39.6940605],[140.1412859,39.6940198],[140.141206,39.6939649],[140.141146,39.6939221],[140.1411072,39.6938284],[140.1411112,39.6937373],[140.1411557,39.6936935],[140.1412876,39.6936544],[140.1412911,39.6936167],[140.1410881,39.6933883],[140.1410905,39.6933175],[140.1411636,39.6932494],[140.1412652,39.6931781],[140.1412697,39.693139],[140.1412519,39.6930532],[140.141315,39.6929604],[140.1415609,39.6927269],[140.1418901,39.6924509],[140.1422902,39.6922729],[140.1427011,39.6921489],[140.1433121,39.6920539],[140.1438151,39.6920219],[140.1450491,39.6916127],[140.1455015,39.6911846],[140.1459598,39.6911774],[140.1463139,39.6910084],[140.1464225,39.6908955],[140.1464623,39.6907339],[140.146517,39.6906856],[140.1466635,39.6906301],[140.1467425,39.6906605],[140.1467704,39.6907226],[140.1467132,39.690842],[140.1467518,39.6910641],[140.1468237,39.691116],[140.1469958,39.6911007],[140.1470644,39.6910385],[140.147133,39.6910054]]]}}
