{"type":"Feature","id":"attraction-large-park-W303247716","properties":{"id":"attraction-large-park-W303247716","kind":"attraction","name":"万力公園","shortName":"万力公園","context":"日本","subtype":"large-park","subtypeLabel":"大型都市公園・広域公園","statusLabel":"著名な公園","aliases":[],"osmType":"way","osmId":303247716,"osmDate":null,"officialAreaKm2":null,"areaSourceLabel":"","areaSourceUrl":"","boundarySourceLabel":"© OpenStreetMap contributors","boundarySourceUrl":"https://www.openstreetmap.org/copyright","geometryFile":"attractions/large-park-W303247716.geojson"},"geometry":{"type":"Polygon","coordinates":[[[138.6777025,35.687771],[138.6776174,35.6876992],[138.6776423,35.6875707],[138.6776116,35.687464],[138.6774394,35.6873132],[138.6774845,35.687269],[138.677349,35.6871386],[138.6773505,35.6870474],[138.6779787,35.6868437],[138.6780562,35.6869834],[138.6781979,35.6869598],[138.678233,35.6873735],[138.6783052,35.6873808],[138.6788517,35.6872676],[138.6787561,35.6866739],[138.6790344,35.6865915],[138.680732,35.6886406],[138.6810352,35.6891141],[138.6818809,35.6904345],[138.6822971,35.6913936],[138.6828612,35.6926934],[138.682715,35.6940179],[138.6829124,35.6946733],[138.6831768,35.6950583],[138.6832324,35.6951394],[138.6835756,35.6956391],[138.6825426,35.6952826],[138.6823213,35.6952007],[138.6815678,35.6947805],[138.6811854,35.694027],[138.680938,35.693278],[138.6807243,35.6923783],[138.6804431,35.6913736],[138.6801676,35.6908712],[138.6799623,35.6906904],[138.6795659,35.6903414],[138.6797121,35.6901952],[138.6791484,35.689729],[138.6790992,35.6896883],[138.6790106,35.6896205],[138.6786887,35.6894371],[138.6785105,35.6892771],[138.6784488,35.6889068],[138.6783779,35.6887747],[138.6784895,35.6887298],[138.6784926,35.6886704],[138.6784345,35.6884733],[138.6784176,35.6883207],[138.6783501,35.687879],[138.6781318,35.6879141],[138.6780165,35.6878734],[138.6778689,35.6878916],[138.6777817,35.687803],[138.6777025,35.687771]]]}}
