{"type":"Feature","id":"attraction-large-airport-W893188183","properties":{"id":"attraction-large-airport-W893188183","kind":"attraction","name":"伊是名場外離着陸場","shortName":"伊是名場外離着陸場","context":"日本","subtype":"airport","subtypeLabel":"空港・飛行場","statusLabel":"","aliases":[],"osmType":"way","osmId":893188183,"osmDate":null,"officialAreaKm2":null,"areaSourceLabel":"","areaSourceUrl":"","boundarySourceLabel":"© OpenStreetMap contributors","boundarySourceUrl":"https://www.openstreetmap.org/copyright","geometryFile":"attractions/large-airport-W893188183.geojson"},"geometry":{"type":"Polygon","coordinates":[[[127.9184599,26.9357928],[127.9121152,26.9369777],[127.9121876,26.9374009],[127.9162726,26.9366046],[127.9163933,26.9371044],[127.9176673,26.9368438],[127.9175386,26.9363631],[127.9185417,26.9361718],[127.9184599,26.9357928]]]}}
