{"type":"Feature","id":"attraction-large-industrial-complex-W195668350","properties":{"id":"attraction-large-industrial-complex-W195668350","kind":"attraction","name":"川崎重工","shortName":"川崎重工","context":"日本","subtype":"industrial-complex","subtypeLabel":"工業地帯・大規模工場","statusLabel":"","aliases":["Kawasaki Heavy Industries"],"osmType":"way","osmId":195668350,"osmDate":null,"officialAreaKm2":null,"areaSourceLabel":"","areaSourceUrl":"","boundarySourceLabel":"© OpenStreetMap contributors","boundarySourceUrl":"https://www.openstreetmap.org/copyright","geometryFile":"attractions/large-industrial-complex-W195668350.geojson"},"geometry":{"type":"Polygon","coordinates":[[[134.9642029,34.6625415],[134.9657193,34.6615604],[134.9667047,34.660828],[134.9667099,34.6608241],[134.9671143,34.6605299],[134.9676855,34.660195],[134.9676914,34.6601924],[134.9678771,34.6601103],[134.9688564,34.6596299],[134.9696334,34.6591798],[134.9703761,34.6587589],[134.9705721,34.6586338],[134.9715847,34.6579873],[134.9718564,34.6577918],[134.9724125,34.6574021],[134.9727252,34.6565448],[134.9728939,34.6560944],[134.9729965,34.6558555],[134.9729906,34.6557639],[134.9714179,34.6542341],[134.9701915,34.6530046],[134.9701279,34.6529919],[134.9691658,34.6535884],[134.9684897,34.6540183],[134.9681048,34.654281],[134.9680395,34.654323],[134.9580164,34.6606302],[134.9589228,34.6615529],[134.9591332,34.6617142],[134.9592309,34.6617765],[134.959383,34.6619467],[134.9605895,34.6611939],[134.9615042,34.6621595],[134.962981,34.6612253],[134.9630534,34.6613059],[134.9642029,34.6625415]]]}}
