{"type":"Feature","id":"attraction-large-park-W617193985","properties":{"id":"attraction-large-park-W617193985","kind":"attraction","name":"甲南中央運動公園","shortName":"甲南中央運動公園","context":"日本","subtype":"large-park","subtypeLabel":"大型都市公園・広域公園","statusLabel":"著名な公園","aliases":[],"osmType":"way","osmId":617193985,"osmDate":null,"officialAreaKm2":null,"areaSourceLabel":"","areaSourceUrl":"","boundarySourceLabel":"© OpenStreetMap contributors","boundarySourceUrl":"https://www.openstreetmap.org/copyright","geometryFile":"attractions/large-park-W617193985.geojson"},"geometry":{"type":"Polygon","coordinates":[[[136.1760573,34.9324755],[136.1761677,34.9325828],[136.1770936,34.9325039],[136.1776255,34.9325416],[136.1778771,34.9325059],[136.1781898,34.9322879],[136.1783644,34.9321563],[136.1792147,34.9314239],[136.1794586,34.9309173],[136.1789463,34.9303973],[136.1791109,34.9299778],[136.1779925,34.9293626],[136.1773696,34.9289796],[136.1770864,34.9285618],[136.1767608,34.9283528],[136.1764115,34.9287537],[136.1761798,34.929017],[136.1760309,34.9290291],[136.1760075,34.9293756],[136.1738529,34.9293722],[136.1738001,34.9296826],[136.173466,34.9297628],[136.1734386,34.9302837],[136.173888,34.9306055],[136.174498,34.9308309],[136.1749902,34.9312052],[136.1756226,34.9307713],[136.17557,34.9309098],[136.1756442,34.9313827],[136.1757425,34.9318665],[136.1758728,34.9321827],[136.1760573,34.9324755]]]}}
