{"type":"Feature","id":"attraction-large-park-W457200982","properties":{"id":"attraction-large-park-W457200982","kind":"attraction","name":"新庄総合公園","shortName":"新庄総合公園","context":"日本","subtype":"large-park","subtypeLabel":"大型都市公園・広域公園","statusLabel":"著名な公園","aliases":[],"osmType":"way","osmId":457200982,"osmDate":null,"officialAreaKm2":null,"areaSourceLabel":"","areaSourceUrl":"","boundarySourceLabel":"© OpenStreetMap contributors","boundarySourceUrl":"https://www.openstreetmap.org/copyright","geometryFile":"attractions/large-park-W457200982.geojson"},"geometry":{"type":"Polygon","coordinates":[[[135.3972556,33.6982915],[135.3985994,33.6970508],[135.3988006,33.6969704],[135.3990259,33.6970017],[135.3998064,33.697477],[135.3997206,33.69766],[135.3996589,33.6977403],[135.3997984,33.6978496],[135.4000102,33.6978273],[135.4000693,33.6978675],[135.4000666,33.6979969],[135.4002704,33.6981174],[135.4004823,33.6981308],[135.4006084,33.6981174],[135.4006432,33.6981688],[135.4006137,33.6982759],[135.4007935,33.6984432],[135.4009249,33.6986552],[135.4011958,33.6986374],[135.4014291,33.6986195],[135.4014184,33.6983138],[135.4014721,33.6981978],[135.4016357,33.6981085],[135.4018932,33.6980416],[135.4020192,33.6978296],[135.4021989,33.6976287],[135.4022794,33.6974614],[135.4022365,33.6973632],[135.4022774,33.697135],[135.4023605,33.6970491],[135.4024195,33.6969821],[135.4024316,33.6969085],[135.4023699,33.6968148],[135.4024048,33.6967289],[135.4026422,33.6966296],[135.4027588,33.6965648],[135.4027964,33.6965079],[135.4028286,33.696441],[135.4028353,33.6963718],[135.4028567,33.6962892],[135.4029305,33.6962658],[135.4030056,33.6962692],[135.4031343,33.6964254],[135.403188,33.6963919],[135.4030579,33.696248],[135.403066,33.6962067],[135.4031102,33.696152],[135.4031625,33.6960315],[135.4031035,33.6958831],[135.4031994,33.6955947],[135.4033617,33.6953949],[135.4033476,33.6949358],[135.4033664,33.6947684],[135.4032685,33.6945631],[135.4033851,33.6944259],[135.402897,33.6941603],[135.4026448,33.694466],[135.4024598,33.6944906],[135.4021191,33.6941781],[135.4017892,33.6942005],[135.4016712,33.6939371],[135.4015036,33.6936526],[135.4009564,33.6933357],[135.4003033,33.6932364],[135.3998339,33.6933881],[135.3996649,33.6935265],[135.399386,33.6936626],[135.3992331,33.693917],[135.399166,33.6940688],[135.3990561,33.6940309],[135.3986886,33.6941938],[135.3985411,33.6944482],[135.3981307,33.6944928],[135.3980475,33.6945798],[135.398018,33.694678],[135.3977418,33.6946602],[135.3975862,33.6945731],[135.3972912,33.6946512],[135.3969854,33.6946267],[135.3969827,33.694919],[135.39709,33.6957871],[135.3970498,33.6960014],[135.3969425,33.6962245],[135.3966206,33.6965526],[135.3964543,33.6967534],[135.3963933,33.6969548],[135.396396,33.6971568],[135.3964362,33.6973286],[135.3965368,33.6974893],[135.3968446,33.6978257],[135.3969961,33.6980008],[135.3970082,33.6980555],[135.3972187,33.6983155],[135.3972556,33.6982915]]]}}
