{"type":"Feature","id":"attraction-large-park-W507290376","properties":{"id":"attraction-large-park-W507290376","kind":"attraction","name":"知北平和公園","shortName":"知北平和公園","context":"愛知県・大府市","subtype":"large-park","subtypeLabel":"大型都市公園・広域公園","statusLabel":"著名な公園","aliases":[],"osmType":"way","osmId":507290376,"osmDate":null,"officialAreaKm2":null,"areaSourceLabel":"","areaSourceUrl":"","boundarySourceLabel":"© OpenStreetMap contributors","boundarySourceUrl":"https://www.openstreetmap.org/copyright","geometryFile":"attractions/large-park-W507290376.geojson"},"geometry":{"type":"Polygon","coordinates":[[[136.9244516,34.9775929],[136.9243613,34.9773675],[136.9243527,34.977195],[136.9243184,34.9769696],[136.9242496,34.9763746],[136.9239101,34.9761774],[136.9236781,34.9761527],[136.923691,34.9764837],[136.9236136,34.9767865],[136.9230034,34.9777232],[136.922015,34.9786105],[136.9215165,34.9789872],[136.9209235,34.9792126],[136.920511,34.9794696],[136.9202488,34.9796351],[136.9199609,34.9806808],[136.9196386,34.9809836],[136.9196601,34.9811808],[136.9204723,34.9814167],[136.920786,34.9813392],[136.9206958,34.9810153],[136.9207808,34.9806232],[136.9210152,34.9805362],[136.9213575,34.9806456],[136.9223416,34.981054],[136.9225908,34.9813744],[136.9229604,34.9811949],[136.9233601,34.9815998],[136.9234589,34.9815153],[136.923879,34.98047],[136.9243098,34.9794414],[136.9244902,34.9789203],[136.9246836,34.9785682],[136.9247782,34.9781316],[136.9244516,34.9775929]]]}}
