{"type":"Feature","id":"attraction-large-large-port-W1324735496","properties":{"id":"attraction-large-large-port-W1324735496","kind":"attraction","name":"呼子港","shortName":"呼子港","context":"日本","subtype":"large-port","subtypeLabel":"港湾・埠頭","statusLabel":"","aliases":["Yobuko Port"],"osmType":"way","osmId":1324735496,"osmDate":null,"officialAreaKm2":null,"areaSourceLabel":"","areaSourceUrl":"","boundarySourceLabel":"© OpenStreetMap contributors","boundarySourceUrl":"https://www.openstreetmap.org/copyright","geometryFile":"attractions/large-large-port-W1324735496.geojson"},"geometry":{"type":"Polygon","coordinates":[[[129.8947518,33.539429],[129.8946753,33.5379429],[129.8946418,33.537935],[129.8945828,33.5378355],[129.8941107,33.5377137],[129.893357,33.5374991],[129.8930298,33.5372554],[129.8931089,33.5372185],[129.8928904,33.5370017],[129.8928957,33.5369871],[129.8927616,33.536834],[129.8926087,33.5366282],[129.8924048,33.5362292],[129.8925925,33.5361531],[129.8924705,33.5358301],[129.8924813,33.5356513],[129.8922613,33.5355562],[129.8919649,33.535981],[129.8919877,33.5360246],[129.8920253,33.5365724],[129.8919788,33.5366299],[129.8917356,33.5369052],[129.8913939,33.5366954],[129.8912471,33.5368758],[129.8910713,33.5370749],[129.8912193,33.5372241],[129.891226,33.5372755],[129.8913749,33.5373716],[129.8913681,33.5374052],[129.891623,33.5376142],[129.8918027,33.5377361],[129.8920239,33.5379406],[129.8922372,33.5380714],[129.8925081,33.5383341],[129.8925872,33.5384559],[129.892948,33.5388405],[129.8930445,33.5389634],[129.8930982,33.5391915],[129.8931532,33.5393781],[129.8930861,33.5395794],[129.8931169,33.5396006],[129.8930566,33.5398018],[129.8930217,33.5398409],[129.8929426,33.5400231],[129.8929158,33.540164],[129.8929614,33.5402635],[129.8928729,33.5405206],[129.8927468,33.5406144],[129.8924813,33.5407732],[129.892197,33.540923],[129.8920575,33.5409565],[129.8917946,33.5410526],[129.8915747,33.5412684],[129.8909363,33.5416372],[129.8907015,33.541329],[129.8905796,33.5411689],[129.8903945,33.5411733],[129.8902416,33.5412628],[129.8901826,33.5414327],[129.8901973,33.5415222],[129.8896623,33.5437375],[129.8926502,33.542271],[129.8930224,33.5423164],[129.8932998,33.5421133],[129.8934232,33.5420698],[129.8934852,33.5420331],[129.8935837,33.5419804],[129.8940052,33.5412275],[129.8942215,33.5408171],[129.8946348,33.5400763],[129.8947469,33.5398789],[129.8947647,33.5398102],[129.8947518,33.539429]]]}}
