{"type":"Feature","id":"attraction-large-park-W481633503","properties":{"id":"attraction-large-park-W481633503","kind":"attraction","name":"竜王公園","shortName":"竜王公園","context":"日本","subtype":"large-park","subtypeLabel":"大型都市公園・広域公園","statusLabel":"著名な公園","aliases":[],"osmType":"way","osmId":481633503,"osmDate":null,"officialAreaKm2":null,"areaSourceLabel":"","areaSourceUrl":"","boundarySourceLabel":"© OpenStreetMap contributors","boundarySourceUrl":"https://www.openstreetmap.org/copyright","geometryFile":"attractions/large-park-W481633503.geojson"},"geometry":{"type":"Polygon","coordinates":[[[132.4391019,34.4125193],[132.4390349,34.4124905],[132.4389919,34.4124396],[132.4389678,34.4123533],[132.4389571,34.4123024],[132.4388873,34.4122095],[132.4388069,34.4121033],[132.4387586,34.4120281],[132.4387452,34.4119152],[132.4387291,34.411809],[132.4385762,34.4118311],[132.4384206,34.4118842],[132.4383348,34.4119064],[132.4382329,34.4119196],[132.4380827,34.4119241],[132.4379432,34.4119152],[132.437793,34.4118997],[132.4376937,34.4118864],[132.4376535,34.4118245],[132.4375999,34.4117227],[132.4374577,34.4117603],[132.437388,34.4118112],[132.4371412,34.4120369],[132.4368435,34.4123312],[132.4365806,34.4125857],[132.4363392,34.4128313],[132.4361193,34.4130548],[132.4358377,34.4133225],[132.4355802,34.4135549],[132.4352637,34.4138514],[132.435151,34.413962],[132.4349498,34.4139886],[132.4348184,34.414066],[132.4347058,34.4140019],[132.4346333,34.4140771],[132.4345609,34.414201],[132.4344912,34.4143382],[132.4343598,34.4145573],[132.4341693,34.4148914],[132.4340701,34.4150927],[132.4343919,34.4152366],[132.4345904,34.4153162],[132.434856,34.4154136],[132.435151,34.415522],[132.4354139,34.4155707],[132.4356043,34.4155331],[132.4357787,34.4154313],[132.435953,34.4153074],[132.4361327,34.4152543],[132.4363124,34.4151901],[132.4365672,34.4151104],[132.4368328,34.4151193],[132.4371922,34.4151702],[132.4374175,34.4151613],[132.4376562,34.4151127],[132.4379056,34.415033],[132.4380022,34.4148715],[132.4380263,34.4147321],[132.4380639,34.4144842],[132.4380666,34.4144112],[132.4381041,34.414347],[132.4381578,34.4142917],[132.4382463,34.4142453],[132.4383563,34.4142276],[132.4384662,34.4142497],[132.4386111,34.4142917],[132.4387559,34.4143271],[132.4388686,34.4143515],[132.4389758,34.4143559],[132.4390805,34.4143227],[132.4391716,34.414263],[132.4392226,34.41417],[132.4392065,34.4140284],[132.4391475,34.4138647],[132.4390912,34.4137341],[132.4389973,34.4135748],[132.4388632,34.4133978],[132.43878,34.4132871],[132.4387908,34.4132075],[132.4389115,34.4130813],[132.4389866,34.413015],[132.4389222,34.4128601],[132.4390295,34.4128335],[132.4391368,34.412818],[132.4392172,34.4127782],[132.4392709,34.4127118],[132.4392816,34.4125945],[132.4392548,34.4125016],[132.4391019,34.4125193]]]}}
