{"type":"Feature","id":"attraction-large-park-W683628581","properties":{"id":"attraction-large-park-W683628581","kind":"attraction","name":"藤山健康文化公園","shortName":"藤山健康文化公園","context":"日本","subtype":"large-park","subtypeLabel":"大型都市公園・広域公園","statusLabel":"著名な公園","aliases":[],"osmType":"way","osmId":683628581,"osmDate":null,"officialAreaKm2":null,"areaSourceLabel":"","areaSourceUrl":"","boundarySourceLabel":"© OpenStreetMap contributors","boundarySourceUrl":"https://www.openstreetmap.org/copyright","geometryFile":"attractions/large-park-W683628581.geojson"},"geometry":{"type":"Polygon","coordinates":[[[132.9269807,34.0606509],[132.9270748,34.060537],[132.9270912,34.0604839],[132.9271244,34.0604386],[132.9272077,34.0604033],[132.9272226,34.0603061],[132.9274132,34.0596088],[132.9274883,34.059509],[132.9275422,34.0594779],[132.9276887,34.05933],[132.9280562,34.0589877],[132.9280652,34.0581926],[132.9283759,34.0580989],[132.9284178,34.0586245],[132.9285808,34.0587797],[132.9286691,34.0588637],[132.9287778,34.0588765],[132.929008,34.0589035],[132.9299666,34.0582927],[132.9309082,34.0583532],[132.9312787,34.0586614],[132.9312691,34.0591728],[132.9311974,34.0594266],[132.9310244,34.0595674],[132.9308213,34.0595403],[132.9304757,34.0594404],[132.9302604,34.0594236],[132.9305075,34.0596107],[132.930411,34.0598282],[132.9304079,34.0599458],[132.9303101,34.060092],[132.931653,34.0610066],[132.9316525,34.0611758],[132.9318598,34.0614826],[132.9313634,34.0618475],[132.9314863,34.0621983],[132.9315615,34.0624749],[132.9316024,34.0628306],[132.931393,34.0631662],[132.9307773,34.0632418],[132.930717,34.063098],[132.9307031,34.0626922],[132.9306076,34.0625379],[132.9305661,34.0623967],[132.9305817,34.0622073],[132.9305274,34.0620614],[132.9300675,34.0618613],[132.9294716,34.0618079],[132.9290166,34.0616509],[132.9285209,34.0620809],[132.9284617,34.062128],[132.9280641,34.0621998],[132.9279629,34.0622122],[132.927986,34.0621824],[132.9280385,34.0621148],[132.9280653,34.0620803],[132.9282159,34.0618865],[132.9281576,34.0616569],[132.9279053,34.0616841],[132.9274114,34.0613311],[132.9272317,34.0611717],[132.9270902,34.0609695],[132.9269807,34.0606509]]]}}
