{"type":"Feature","id":"attraction-large-park-W152610498","properties":{"id":"attraction-large-park-W152610498","kind":"attraction","name":"淵野辺公園","shortName":"淵野辺公園","context":"日本","subtype":"large-park","subtypeLabel":"大型都市公園・広域公園","statusLabel":"著名な公園","aliases":[],"osmType":"way","osmId":152610498,"osmDate":null,"officialAreaKm2":null,"areaSourceLabel":"","areaSourceUrl":"","boundarySourceLabel":"© OpenStreetMap contributors","boundarySourceUrl":"https://www.openstreetmap.org/copyright","geometryFile":"attractions/large-park-W152610498.geojson"},"geometry":{"type":"Polygon","coordinates":[[[139.3876325,35.5543074],[139.3894593,35.5520482],[139.3923161,35.5536282],[139.3924202,35.5537528],[139.3928258,35.5540177],[139.3929692,35.5540602],[139.3938136,35.5546052],[139.3945211,35.5550602],[139.3949841,35.5553554],[139.3949905,35.5553708],[139.3949878,35.5553844],[139.3949784,35.5554004],[139.3940103,35.5562832],[139.3935212,35.5567201],[139.3930654,35.5564586],[139.3907028,35.5551047],[139.3901638,35.5557133],[139.3876325,35.5543074]]]}}
