{"type":"Feature","id":"attraction-large-airport-R12537205","properties":{"id":"attraction-large-airport-R12537205","kind":"attraction","name":"沖永良部空港","shortName":"沖永良部空港","context":"日本","subtype":"airport","subtypeLabel":"空港・飛行場","statusLabel":"","aliases":["Okinoerabu Airport","えらぶゆりの島空港"],"osmType":"relation","osmId":12537205,"osmDate":null,"officialAreaKm2":null,"areaSourceLabel":"","areaSourceUrl":"","boundarySourceLabel":"© OpenStreetMap contributors","boundarySourceUrl":"https://www.openstreetmap.org/copyright","geometryFile":"attractions/large-airport-R12537205.geojson"},"geometry":{"type":"Polygon","coordinates":[[[128.705983,27.4336741],[128.7054043,27.4340601],[128.7050127,27.4338757],[128.7048121,27.433828],[128.7042577,27.433781],[128.7041399,27.4337515],[128.7040246,27.4337107],[128.7038069,27.4336184],[128.7038314,27.432368],[128.7045766,27.4319768],[128.7046186,27.4317916],[128.7038518,27.4307858],[128.7036274,27.4309143],[128.7029015,27.430221],[128.7013012,27.4294157],[128.701097,27.4291335],[128.7009776,27.4289568],[128.6998201,27.4269767],[128.6994631,27.4265968],[128.6993744,27.4264194],[128.6993744,27.4261028],[128.7001755,27.4256409],[128.7003358,27.4254627],[128.7005508,27.4251332],[128.7006316,27.4250389],[128.7007869,27.4249133],[128.7008945,27.4248947],[128.7010048,27.4249089],[128.7011223,27.4249502],[128.7014887,27.4253944],[128.7016198,27.4255328],[128.7017857,27.4256168],[128.7019855,27.4256799],[128.7022862,27.4258234],[128.7033515,27.4273187],[128.7053654,27.4298773],[128.7066194,27.4315745],[128.7086754,27.4343993],[128.7107969,27.436776],[128.7108878,27.4369828],[128.7099758,27.4376668],[128.7093045,27.4380721],[128.7091399,27.4379835],[128.7086079,27.4372362],[128.7082913,27.4368309],[128.7075214,27.4356174],[128.7071387,27.435045],[128.7060938,27.4336916],[128.705983,27.4336741]]]}}
