{"type":"Feature","id":"attraction-large-park-W389577792","properties":{"id":"attraction-large-park-W389577792","kind":"attraction","name":"笠間芸術の森公園","shortName":"笠間芸術の森公園","context":"日本","subtype":"large-park","subtypeLabel":"大型都市公園・広域公園","statusLabel":"","aliases":[],"osmType":"way","osmId":389577792,"osmDate":null,"officialAreaKm2":null,"areaSourceLabel":"","areaSourceUrl":"","boundarySourceLabel":"© OpenStreetMap contributors","boundarySourceUrl":"https://www.openstreetmap.org/copyright","geometryFile":"attractions/large-park-W389577792.geojson"},"geometry":{"type":"Polygon","coordinates":[[[140.2601243,36.3741722],[140.2602142,36.3742712],[140.260285,36.3743884],[140.2603295,36.3744958],[140.2603678,36.3746534],[140.26089,36.3746303],[140.2611408,36.3745904],[140.261668,36.3744535],[140.261957,36.3744474],[140.262073,36.3744008],[140.2623814,36.3742302],[140.2624788,36.3741867],[140.2626148,36.3741438],[140.2627175,36.3741102],[140.2629568,36.3739746],[140.263102,36.3742888],[140.2631432,36.3744548],[140.2629566,36.3750487],[140.263339,36.3750875],[140.2637038,36.3752625],[140.2644843,36.3751804],[140.2654793,36.3753381],[140.2653629,36.3750683],[140.2653882,36.3747917],[140.2658012,36.3748305],[140.2659622,36.3750767],[140.2662143,36.3750725],[140.2662973,36.3755398],[140.2663913,36.3756425],[140.2669197,36.3755993],[140.2669331,36.3755454],[140.26696,36.3752171],[140.2670967,36.3749758],[140.2682852,36.3742625],[140.2684037,36.3739855],[140.2690737,36.3735575],[140.2695444,36.3731106],[140.2697705,36.3728236],[140.2699069,36.3724449],[140.2710379,36.3725418],[140.2717088,36.3726409],[140.2717281,36.372519],[140.2717828,36.3724654],[140.2720532,36.3722505],[140.2718181,36.371757],[140.2717634,36.3715087],[140.2717862,36.3712581],[140.2718682,36.3706225],[140.2718591,36.370479],[140.2718796,36.3703036],[140.2720915,36.3696954],[140.271886,36.3695033],[140.2716281,36.3693853],[140.2712127,36.369102],[140.2714764,36.3686173],[140.271559,36.3684598],[140.2713816,36.368223],[140.2712845,36.3682101],[140.2707507,36.3683577],[140.2704101,36.3684382],[140.2698228,36.368372],[140.2697081,36.3681787],[140.2693329,36.3677221],[140.2690757,36.3676672],[140.2687694,36.3677401],[140.2683795,36.3678264],[140.2679374,36.3681605],[140.2676791,36.3682409],[140.2673587,36.3682452],[140.2673748,36.3686177],[140.2665889,36.3686439],[140.2664598,36.3687196],[140.2657382,36.3686792],[140.265234,36.3690858],[140.2643338,36.3689633],[140.263921,36.3692197],[140.2625186,36.3694159],[140.2622537,36.3694386],[140.2619255,36.369427],[140.2616465,36.3695437],[140.2614204,36.3693975],[140.2612662,36.3697302],[140.2611781,36.3698611],[140.2611538,36.3699021],[140.2610685,36.3700163],[140.261042,36.3700517],[140.2609024,36.3700768],[140.2607348,36.3701889],[140.2603896,36.3703512],[140.2602863,36.3703997],[140.2601472,36.3704853],[140.2600101,36.3705866],[140.2597401,36.370861],[140.2601035,36.3711435],[140.2596728,36.3715995],[140.2594696,36.3718906],[140.25938,36.3718597],[140.2592373,36.3720152],[140.2588433,36.3718306],[140.2587956,36.3719301],[140.2587685,36.3720209],[140.258749,36.3721086],[140.2592289,36.3723668],[140.2592177,36.3726305],[140.2592737,36.3728717],[140.2592373,36.3730115],[140.2591701,36.3730588],[140.2587582,36.3730441],[140.2587896,36.3731453],[140.2588262,36.3732259],[140.2588919,36.3733381],[140.2589576,36.3734171],[140.259052,36.3735078],[140.2591708,36.3735931],[140.2593317,36.3736846],[140.2599404,36.3740357],[140.2601243,36.3741722]]]}}
