{"type":"Feature","id":"attraction-large-park-R19268905","properties":{"id":"attraction-large-park-R19268905","kind":"attraction","name":"岡崎自然体験の森","shortName":"岡崎自然体験の森","context":"愛知県・岡崎市","subtype":"large-park","subtypeLabel":"大型都市公園・広域公園","statusLabel":"","aliases":[],"osmType":"relation","osmId":19268905,"osmDate":null,"officialAreaKm2":null,"areaSourceLabel":"","areaSourceUrl":"","boundarySourceLabel":"© OpenStreetMap contributors","boundarySourceUrl":"https://www.openstreetmap.org/copyright","geometryFile":"attractions/large-park-R19268905.geojson"},"geometry":{"type":"Polygon","coordinates":[[[137.1772256,35.0175788],[137.1776044,35.0174772],[137.1781725,35.0172633],[137.1786213,35.0170996],[137.1790058,35.0170711],[137.1795118,35.0169455],[137.1797927,35.0164639],[137.1803172,35.0162369],[137.1806433,35.0161898],[137.1810003,35.0161989],[137.1810474,35.0159959],[137.1807129,35.0158513],[137.1806868,35.0156641],[137.1808566,35.0155143],[137.1813203,35.0154234],[137.1814795,35.0153261],[137.1810672,35.0152304],[137.1808687,35.0151857],[137.1807642,35.0150325],[137.1809935,35.0146768],[137.1811939,35.0142056],[137.1814558,35.0139829],[137.1814323,35.0135549],[137.1810647,35.0135901],[137.1806304,35.0140433],[137.1806322,35.0144992],[137.1802819,35.015632],[137.1800004,35.0157879],[137.1796866,35.016171],[137.1788424,35.0163963],[137.1787104,35.0162429],[137.1783488,35.0163999],[137.177449,35.0163967],[137.1770009,35.0163212],[137.1770197,35.0160184],[137.1775105,35.0155835],[137.1783942,35.0147081],[137.1780836,35.0146698],[137.1776501,35.0149848],[137.1772648,35.0151934],[137.1770558,35.0151025],[137.1769709,35.0149741],[137.1774321,35.0147778],[137.1777829,35.0145168],[137.1777415,35.0144607],[137.1774859,35.0145321],[137.1771605,35.0142207],[137.1769219,35.0136696],[137.1765263,35.0139318],[137.1762755,35.01407],[137.1756732,35.0142665],[137.1753615,35.0141149],[137.1753844,35.0137193],[137.1755555,35.0136149],[137.1754817,35.0135462],[137.1752234,35.0135929],[137.1750055,35.01351],[137.1751619,35.0131021],[137.1753421,35.0129384],[137.1753352,35.0127508],[137.1748543,35.0127332],[137.1746013,35.0121956],[137.173623,35.0128271],[137.1735072,35.0123986],[137.1736748,35.0122295],[137.1734131,35.0120225],[137.1732634,35.0116626],[137.1733665,35.0114684],[137.1730406,35.0113498],[137.1730179,35.0111421],[137.1730429,35.0110108],[137.1732918,35.0107885],[137.1733335,35.0105419],[137.1735502,35.0102736],[137.1737777,35.0100654],[137.1738234,35.0100098],[137.1740751,35.0098891],[137.174442,35.009797],[137.1746163,35.0096285],[137.1743981,35.0095915],[137.1742328,35.0094454],[137.1745648,35.0090364],[137.1747982,35.0084133],[137.1752396,35.0072946],[137.1754918,35.0062535],[137.1743049,35.0060427],[137.1734787,35.0057567],[137.1731185,35.0052574],[137.1730178,35.0048838],[137.1731038,35.0048445],[137.1735532,35.0049426],[137.1735954,35.0045837],[137.1733839,35.004416],[137.1730843,35.0045399],[137.1728918,35.0044244],[137.172997,35.0042711],[137.1735224,35.0041664],[137.1738734,35.0036791],[137.1741968,35.0036601],[137.1744524,35.0030152],[137.1745846,35.0030772],[137.1748463,35.0032],[137.1751764,35.0032515],[137.1754945,35.003073],[137.1755045,35.0028577],[137.1755106,35.0027264],[137.1744615,35.0023921],[137.1744904,35.0018527],[137.1747084,35.0017511],[137.174846,35.0007452],[137.1744568,35.0007067],[137.1745675,35.0002615],[137.1747712,35.0000357],[137.1749992,34.9994676],[137.1753252,34.9990754],[137.1756752,34.9991009],[137.1763748,34.9994359],[137.1770469,35.0002675],[137.177553,35.0000831],[137.178264,35.000318],[137.1775702,35.0013188],[137.1773427,35.0023069],[137.1766715,35.0025105],[137.1764396,35.0032158],[137.1766845,35.0035126],[137.176708,35.0039633],[137.1770059,35.0040352],[137.1772549,35.0036665],[137.1771274,35.0033368],[137.1771475,35.0030674],[137.1773488,35.0030784],[137.1775837,35.0031774],[137.1776374,35.0033203],[137.1776885,35.003308],[137.1777514,35.0032928],[137.1778185,35.0030015],[137.177946,35.0031169],[137.1779594,35.0032818],[137.1778521,35.0034577],[137.177691,35.0035731],[137.1775636,35.0037984],[137.1777246,35.0038919],[137.1776709,35.0041942],[137.1783285,35.0041997],[137.1786103,35.0040623],[137.1788988,35.003749],[137.1790532,35.0033313],[137.1792859,35.0031615],[137.1795438,35.0032208],[137.1801201,35.0034797],[137.1804144,35.0035105],[137.180885,35.0032433],[137.1808984,35.0030894],[137.1810273,35.0030076],[137.1815358,35.0028943],[137.1815225,35.0031719],[137.181717,35.0032818],[137.1819452,35.0031554],[137.1821196,35.0029685],[137.1831296,35.0031351],[137.1834707,35.0033829],[137.1835343,35.0035572],[137.1830859,35.0048098],[137.183155,35.0050959],[137.1833342,35.0054418],[137.1837166,35.0058155],[137.1841461,35.0061178],[137.1844212,35.005843],[137.1841394,35.0055737],[137.1836629,35.0053044],[137.183522,35.0047108],[137.1840723,35.0034522],[137.1847298,35.0034632],[137.185166,35.0034907],[137.1853002,35.003749],[137.1856684,35.0037498],[137.1857558,35.0035654],[137.1860316,35.0036171],[137.1865281,35.0038259],[137.1862664,35.0041062],[137.1863485,35.0043692],[137.1867026,35.0043536],[137.1869066,35.0041766],[137.1875279,35.0042546],[137.1877158,35.0047053],[137.188219,35.0048592],[137.1881721,35.0042931],[137.1885411,35.0042326],[137.1889588,35.0044051],[137.1894523,35.0044512],[137.1904904,35.0047764],[137.1906137,35.0049236],[137.1908686,35.0055102],[137.1907103,35.00562],[137.190823,35.0063033],[137.1911877,35.0060748],[137.1921185,35.0062594],[137.1921533,35.0057453],[137.1922928,35.0055849],[137.1922928,35.0055036],[137.1923089,35.0053586],[137.192561,35.005207],[137.1926549,35.005251],[137.1925852,35.0054553],[137.1928239,35.0056179],[137.1928507,35.0060836],[137.1931967,35.0063121],[137.1933147,35.0065911],[137.1935347,35.006668],[137.1935695,35.0067427],[137.1937573,35.006679],[137.1937922,35.0065713],[137.1947216,35.0065982],[137.1949248,35.0065173],[137.194944,35.0060483],[137.1950781,35.0059731],[137.1957582,35.0057629],[137.1968713,35.0074897],[137.1967748,35.0076215],[137.1969518,35.0078456],[137.1970047,35.0081002],[137.1965709,35.0093131],[137.1964931,35.0092999],[137.1965978,35.0087155],[137.196587,35.0082893],[137.1964744,35.0078192],[137.1962008,35.0075644],[137.1953639,35.0072392],[137.1952593,35.0070371],[137.1950313,35.0070327],[137.1948463,35.007248],[137.1943608,35.0072766],[137.1936179,35.0076467],[137.1934014,35.0078638],[137.193549,35.0081771],[137.1934417,35.0083255],[137.1932202,35.0083145],[137.1930726,35.0084849],[137.1931751,35.0087526],[137.1926412,35.0100408],[137.1926499,35.0113867],[137.1917508,35.0113757],[137.191073,35.0113317],[137.1906776,35.0112848],[137.1906293,35.010892],[137.190657,35.0103645],[137.1905436,35.010204],[137.1901238,35.0103115],[137.1899142,35.0102333],[137.1896428,35.0102226],[137.189388,35.0098404],[137.1893075,35.0096932],[137.1895757,35.0094449],[137.1894684,35.0093439],[137.1893772,35.0094713],[137.1892163,35.009078],[137.1892565,35.0088474],[137.1892136,35.008709],[137.1893933,35.0086387],[137.1894953,35.0084014],[137.1892136,35.0081443],[137.1891493,35.0081839],[137.1891412,35.008285],[137.1889025,35.0083289],[137.1886155,35.0085244],[137.1892029,35.0098425],[137.1890983,35.0099392],[137.1882802,35.0098711],[137.1880066,35.0100051],[137.1878296,35.0101194],[137.1879066,35.0102694],[137.1885112,35.0104104],[137.1887043,35.0105867],[137.1887748,35.0108121],[137.1887087,35.0110352],[137.1885392,35.0113547],[137.1881269,35.0118237],[137.1880043,35.011862],[137.1878593,35.012106],[137.18766,35.012176],[137.187173,35.0126151],[137.1873136,35.0127511],[137.1874892,35.0127744],[137.1882417,35.0124843],[137.1887587,35.0124726],[137.1890644,35.0122537],[137.1893037,35.0119468],[137.1893918,35.0117174],[137.1901083,35.0113832],[137.1904499,35.0114143],[137.1902174,35.0116863],[137.1902126,35.0119078],[137.1905448,35.0122148],[137.1907867,35.0126423],[137.1908754,35.0130897],[137.1915628,35.0134576],[137.1920549,35.0134103],[137.1911711,35.0142472],[137.1914211,35.0144656],[137.1917902,35.0149234],[137.1919634,35.0149039],[137.1920631,35.0146436],[137.1935482,35.0146047],[137.1934533,35.014764],[137.1931686,35.0148729],[137.192751,35.0149545],[137.1917293,35.0153091],[137.1914605,35.0150322],[137.1913798,35.0151332],[137.1913608,35.015856],[137.1910857,35.0161435],[137.1907013,35.0163495],[137.1901644,35.0167071],[137.1898236,35.0168663],[137.1896955,35.0171849],[137.1892447,35.0172005],[137.1888974,35.0175739],[137.1885615,35.01776],[137.1881469,35.0178766],[137.1877881,35.017795],[137.1875177,35.0181758],[137.187286,35.0181483],[137.186953,35.0179815],[137.1865972,35.0181758],[137.1863041,35.0179948],[137.1863637,35.0177125],[137.1863807,35.01729],[137.1865316,35.0168668],[137.1866162,35.0165554],[137.1864368,35.0164535],[137.1859058,35.0164548],[137.1857806,35.0165475],[137.1856844,35.0168161],[137.1858782,35.0169784],[137.1859857,35.0173195],[137.1857305,35.0178271],[137.1852307,35.0180048],[137.1848749,35.0179699],[137.184519,35.0178378],[137.1844146,35.0178844],[137.1843577,35.018137],[137.1842391,35.0183196],[137.1839022,35.0184012],[137.1835511,35.0183002],[137.1831715,35.0181059],[137.1831051,35.017865],[137.1833471,35.0176124],[137.1836223,35.0173481],[137.1834325,35.0170451],[137.1832854,35.017014],[137.1831715,35.0172316],[137.1832237,35.017523],[137.1830055,35.0178378],[137.182996,35.0181175],[137.1827919,35.0181836],[137.1826543,35.0180748],[137.1828679,35.0174336],[137.1825105,35.017408],[137.1825381,35.0168596],[137.1828566,35.0165345],[137.1826327,35.016282],[137.1820658,35.0163641],[137.1811681,35.0167634],[137.1806628,35.017096],[137.1804479,35.016895],[137.1799058,35.0174746],[137.1801839,35.0177232],[137.1794917,35.0184399],[137.1791456,35.0184881],[137.1787568,35.019127],[137.1787357,35.0194821],[137.1779245,35.019328],[137.1778532,35.0198995],[137.177457,35.0203163],[137.1768556,35.0208448],[137.1761552,35.0208693],[137.1757592,35.0201247],[137.1759497,35.0196127],[137.176443,35.0195938],[137.176527,35.0190858],[137.1767489,35.0190229],[137.1772321,35.0194828],[137.1777023,35.0194668],[137.1777021,35.0191307],[137.1776775,35.0187085],[137.1775557,35.0184631],[137.1773719,35.0183828],[137.1772909,35.0180014],[137.1768533,35.0178944],[137.1768403,35.0177981],[137.1764289,35.0177874],[137.1763048,35.0179104],[137.1759717,35.0177393],[137.1758253,35.0179086],[137.1755995,35.0178088],[137.175175,35.0179104],[137.1749342,35.0182506],[137.174823,35.0183942],[137.1746788,35.018412],[137.1747478,35.0180467],[137.174855,35.0175448],[137.1749729,35.0173958],[137.1750758,35.0173993],[137.1752586,35.01722],[137.175413,35.0173011],[137.1759065,35.0174752],[137.1764057,35.0176004],[137.1768059,35.0176267],[137.1768569,35.0176209],[137.1768931,35.0176168],[137.1772256,35.0175788]]]}}
