{"type":"Feature","id":"attraction-large-park-W86645041","properties":{"id":"attraction-large-park-W86645041","kind":"attraction","name":"東高根森林公園","shortName":"東高根森林公園","context":"日本","subtype":"large-park","subtypeLabel":"大型都市公園・広域公園","statusLabel":"著名な公園","aliases":["Higashi-takane Forest Park"],"osmType":"way","osmId":86645041,"osmDate":null,"officialAreaKm2":null,"areaSourceLabel":"","areaSourceUrl":"","boundarySourceLabel":"© OpenStreetMap contributors","boundarySourceUrl":"https://www.openstreetmap.org/copyright","geometryFile":"attractions/large-park-W86645041.geojson"},"geometry":{"type":"Polygon","coordinates":[[[139.5836216,35.6040022],[139.5835251,35.6041091],[139.5836806,35.6045431],[139.5837182,35.604591],[139.5837665,35.6048135],[139.583981,35.605145],[139.5840399,35.6052063],[139.5840935,35.6052062],[139.5841473,35.6051537],[139.5842025,35.6050527],[139.5842707,35.604892],[139.5842024,35.6045868],[139.5842849,35.6043317],[139.5843781,35.6044647],[139.5846239,35.604504],[139.5851132,35.604582],[139.5849161,35.6049805],[139.5847832,35.604942],[139.5847243,35.6050628],[139.5845773,35.6050071],[139.5845897,35.6050543],[139.5845994,35.6050909],[139.5846891,35.6052453],[139.5846891,35.6052889],[139.5846838,35.605302],[139.5846301,35.6053369],[139.5846301,35.6053412],[139.584673,35.6053587],[139.5847213,35.6053543],[139.5852953,35.6053543],[139.5854563,35.6052409],[139.5855904,35.6053587],[139.5855689,35.6056117],[139.5847052,35.6055833],[139.5846999,35.6054067],[139.5845808,35.6053718],[139.5845223,35.605372],[139.5844913,35.6053804],[139.5844216,35.6054021],[139.5843345,35.6054592],[139.5842992,35.6055066],[139.584271,35.6055734],[139.5842869,35.6056316],[139.5844652,35.6059833],[139.5845361,35.6061413],[139.5847441,35.606287],[139.584905,35.6061564],[139.5852738,35.6063637],[139.5854183,35.6070379],[139.5859872,35.6070814],[139.5872523,35.6071503],[139.5877799,35.6069839],[139.5880491,35.6065845],[139.5885707,35.6065492],[139.5886721,35.6062056],[139.5885469,35.6059995],[139.5886902,35.6056436],[139.5886358,35.6053344],[139.5887022,35.6051848],[139.5893421,35.6049022],[139.5894095,35.6047349],[139.5893724,35.6046001],[139.5890024,35.6043554],[139.5886139,35.604437],[139.5884215,35.6043651],[139.5880526,35.6045256],[139.5879936,35.6044035],[139.5879078,35.604277],[139.5878112,35.6041854],[139.5877898,35.6041331],[139.5877844,35.6041004],[139.5877898,35.6040677],[139.5878488,35.6039674],[139.5879346,35.6038627],[139.5880151,35.6037929],[139.588058,35.6037406],[139.5881599,35.6035792],[139.5882404,35.6034963],[139.5882618,35.6034396],[139.5882619,35.6033829],[139.5882565,35.6033654],[139.5881814,35.6032869],[139.5881707,35.6032651],[139.5881545,35.6032106],[139.5881599,35.6031779],[139.5882565,35.6030034],[139.588294,35.6029075],[139.588294,35.6027199],[139.5882887,35.6026719],[139.5882887,35.6025629],[139.5883101,35.6024233],[139.5883101,35.6023797],[139.5882794,35.6022517],[139.5882672,35.6022009],[139.5882672,35.6020919],[139.5882833,35.6020715],[139.5879024,35.60207],[139.5878971,35.6018563],[139.5878863,35.6018389],[139.5878541,35.6018389],[139.5875477,35.6018832],[139.5874688,35.6019636],[139.5874807,35.602058],[139.5874793,35.6021496],[139.5874611,35.6021949],[139.5872564,35.6023621],[139.5871353,35.6023972],[139.5870656,35.6024146],[139.5869476,35.6024462],[139.5868788,35.6025628],[139.5867598,35.6025585],[139.5864755,35.6024669],[139.5864755,35.6024364],[139.5863521,35.6024233],[139.5863306,35.6024321],[139.5861912,35.6025716],[139.5859801,35.6026603],[139.5859873,35.6027177],[139.5860517,35.6028072],[139.5861469,35.602926],[139.586336,35.6031408],[139.5863816,35.6032204],[139.5860088,35.6033829],[139.5857566,35.6033872],[139.5856065,35.603396],[139.58507,35.6034832],[139.5849949,35.6034832],[139.5849466,35.6034745],[139.5846516,35.6033785],[139.5846087,35.6033785],[139.5843351,35.6034658],[139.5840508,35.6034658],[139.583922,35.603553],[139.5838416,35.603662],[139.5837825,35.6037754],[139.5836216,35.6040022]]]}}
