{"type":"Feature","id":"attraction-large-industrial-complex-W370299606","properties":{"id":"attraction-large-industrial-complex-W370299606","kind":"attraction","name":"玉島ハーバーアイランド","shortName":"玉島ハーバーアイランド","context":"日本","subtype":"industrial-complex","subtypeLabel":"工業地帯・大規模工場","statusLabel":"","aliases":[],"osmType":"way","osmId":370299606,"osmDate":null,"officialAreaKm2":null,"areaSourceLabel":"","areaSourceUrl":"","boundarySourceLabel":"© OpenStreetMap contributors","boundarySourceUrl":"https://www.openstreetmap.org/copyright","geometryFile":"attractions/large-industrial-complex-W370299606.geojson"},"geometry":{"type":"Polygon","coordinates":[[[133.6746923,34.5041617],[133.674766,34.5041613],[133.6747638,34.5042125],[133.6759525,34.5041889],[133.6759524,34.5042038],[133.6778882,34.5041811],[133.678148,34.5041644],[133.6788024,34.5041649],[133.6796232,34.5041503],[133.6796287,34.5042075],[133.6796678,34.5042049],[133.6796694,34.5043391],[133.6844226,34.5042635],[133.6843135,34.4987631],[133.6837539,34.4987732],[133.6836511,34.4931091],[133.6836463,34.4928424],[133.6836454,34.4927916],[133.683644,34.4927134],[133.6836264,34.4917445],[133.6836249,34.4916638],[133.6836167,34.4912082],[133.6836152,34.4911254],[133.6836029,34.4904498],[133.6833909,34.4904506],[133.6788904,34.4905187],[133.6781427,34.4905563],[133.6744095,34.4906068],[133.6688954,34.4906761],[133.6690647,34.4989516],[133.6691202,34.5016639],[133.6691855,34.5016644],[133.6691922,34.5020311],[133.6746923,34.5041617]]]}}
