{"type":"Feature","id":"attraction-large-park-R7414875","properties":{"id":"attraction-large-park-R7414875","kind":"attraction","name":"浦安総合公園","shortName":"浦安総合公園","context":"日本","subtype":"large-park","subtypeLabel":"大型都市公園・広域公園","statusLabel":"著名な公園","aliases":[],"osmType":"relation","osmId":7414875,"osmDate":null,"officialAreaKm2":null,"areaSourceLabel":"","areaSourceUrl":"","boundarySourceLabel":"© OpenStreetMap contributors","boundarySourceUrl":"https://www.openstreetmap.org/copyright","geometryFile":"attractions/large-park-R7414875.geojson"},"geometry":{"type":"MultiPolygon","coordinates":[[[[133.9155655,34.6013471],[133.9181327,34.6006456],[133.9182282,34.6006039],[133.918273,34.6005449],[133.9182998,34.6004786],[133.9182819,34.6004049],[133.9172642,34.5979064],[133.9170851,34.5979629],[133.9168523,34.5973855],[133.9154705,34.597786],[133.9157182,34.598366],[133.9144498,34.5987185],[133.9155655,34.6013471]]],[[[133.912283,34.6011043],[133.9146142,34.6004152],[133.9146284,34.6002836],[133.9143108,34.5995172],[133.9139905,34.5987739],[133.9136556,34.5980015],[133.9133741,34.5973439],[133.9109717,34.5980182],[133.9122416,34.6010906],[133.912283,34.6011043]]]]}}
