{"type":"Feature","id":"attraction-large-industrial-complex-W676665817","properties":{"id":"attraction-large-industrial-complex-W676665817","kind":"attraction","name":"トヨタ自動車北海道","shortName":"トヨタ自動車北海道","context":"日本","subtype":"industrial-complex","subtypeLabel":"工業地帯・大規模工場","statusLabel":"","aliases":["TOYOTA MOTOR HOKKAIDO,INC."],"osmType":"way","osmId":676665817,"osmDate":null,"officialAreaKm2":null,"areaSourceLabel":"","areaSourceUrl":"","boundarySourceLabel":"© OpenStreetMap contributors","boundarySourceUrl":"https://www.openstreetmap.org/copyright","geometryFile":"attractions/large-industrial-complex-W676665817.geojson"},"geometry":{"type":"Polygon","coordinates":[[[141.6782087,42.6477026],[141.6781935,42.647497],[141.6830403,42.6393929],[141.6837108,42.6391404],[141.6843277,42.6390891],[141.6852397,42.6391562],[141.6867954,42.639608],[141.688402,42.6402098],[141.6888472,42.640486],[141.6892683,42.6408353],[141.6896251,42.6412378],[141.6899979,42.642025],[141.6898531,42.6434219],[141.6908133,42.6437672],[141.6908267,42.6460913],[141.6902876,42.6470758],[141.6891342,42.6489815],[141.687541,42.6505558],[141.6871387,42.6507432],[141.6782087,42.6477026]]]}}
