{"type":"Feature","id":"attraction-large-park-W382268861","properties":{"id":"attraction-large-park-W382268861","kind":"attraction","name":"昭和の森","shortName":"昭和の森","context":"日本","subtype":"large-park","subtypeLabel":"大型都市公園・広域公園","statusLabel":"","aliases":[],"osmType":"way","osmId":382268861,"osmDate":null,"officialAreaKm2":null,"areaSourceLabel":"","areaSourceUrl":"","boundarySourceLabel":"© OpenStreetMap contributors","boundarySourceUrl":"https://www.openstreetmap.org/copyright","geometryFile":"attractions/large-park-W382268861.geojson"},"geometry":{"type":"Polygon","coordinates":[[[140.2730405,35.5070475],[140.2731961,35.5084722],[140.2732953,35.5089591],[140.2734268,35.5094285],[140.2735153,35.5096993],[140.2735381,35.5098488],[140.2735206,35.5100399],[140.2735099,35.5101119],[140.2734455,35.5102986],[140.2733544,35.51053],[140.2733463,35.5105791],[140.2733383,35.5106621],[140.2733476,35.5107243],[140.2735586,35.5110463],[140.2741278,35.5120793],[140.2744999,35.5128847],[140.2749516,35.5138622],[140.2750361,35.5139614],[140.275435,35.5144298],[140.2753331,35.5148753],[140.2752382,35.5150616],[140.2750407,35.515362],[140.2750205,35.5154761],[140.274987,35.5157463],[140.2746813,35.5165432],[140.2744327,35.5169954],[140.2739942,35.5173871],[140.2744181,35.5178118],[140.2746382,35.5183307],[140.2752527,35.5182978],[140.275868,35.5186799],[140.2761548,35.5193832],[140.2774952,35.5193041],[140.2777312,35.5194853],[140.2776972,35.5201778],[140.2776829,35.5204677],[140.2796564,35.5214181],[140.2802572,35.5219354],[140.2806891,35.5220533],[140.2809787,35.5222083],[140.2813033,35.522252],[140.2826772,35.5228341],[140.2826685,35.5233391],[140.2828375,35.5238347],[140.2828268,35.5240682],[140.2829663,35.5242887],[140.2831352,35.5243258],[140.2836315,35.5247035],[140.2844313,35.5252507],[140.2845826,35.5255848],[140.2848254,35.525485],[140.2854315,35.525044],[140.2859623,35.524328],[140.2867111,35.5234242],[140.286252,35.5229022],[140.2867308,35.5220209],[140.2860505,35.52079],[140.2859124,35.5203015],[140.2854227,35.5192142],[140.28494,35.518124],[140.2846926,35.5178232],[140.2843588,35.5174175],[140.2837999,35.5172059],[140.283345,35.516185],[140.283227,35.51601],[140.2831204,35.5152845],[140.283237,35.51502],[140.282813,35.514228],[140.28242,35.512923],[140.280591,35.5121228],[140.2792611,35.5121403],[140.2780452,35.5117639],[140.2771806,35.5119494],[140.2767447,35.5114612],[140.2762015,35.5105966],[140.2758123,35.510121],[140.2755982,35.5097705],[140.275535,35.5094635],[140.2754062,35.5091829],[140.2752185,35.5089034],[140.2746887,35.5084678],[140.274438,35.508208],[140.2743253,35.5079886],[140.2742314,35.5076818],[140.2742395,35.5074176],[140.2743709,35.5067429],[140.2745198,35.5064154],[140.2744862,35.5060857],[140.2747706,35.5058957],[140.2747813,35.5056315],[140.2746847,35.5056359],[140.2746123,35.5056654],[140.2741255,35.5060999],[140.2739632,35.5065639],[140.2738613,35.5066654],[140.2730405,35.5070475]]]}}
