{"type":"Feature","id":"attraction-large-industrial-complex-W180714903","properties":{"id":"attraction-large-industrial-complex-W180714903","kind":"attraction","name":"宇部興産","shortName":"宇部興産","context":"日本","subtype":"industrial-complex","subtypeLabel":"工業地帯・大規模工場","statusLabel":"同名の分割区域2区画","aliases":[],"osmType":"way","osmId":180714903,"osmDate":null,"officialAreaKm2":null,"areaSourceLabel":"","areaSourceUrl":"","boundarySourceLabel":"© OpenStreetMap contributors","boundarySourceUrl":"https://www.openstreetmap.org/copyright","geometryFile":"attractions/large-industrial-complex-W180714903.geojson"},"geometry":{"type":"MultiPolygon","coordinates":[[[[131.2417573,33.9487308],[131.2419908,33.9489116],[131.2422057,33.948706],[131.2426261,33.9489888],[131.2427591,33.9492118],[131.2428039,33.9493826],[131.2428203,33.9495855],[131.2428027,33.9498785],[131.2427787,33.9501246],[131.2427394,33.9503474],[131.2426267,33.9505939],[131.2425218,33.9507715],[131.2423525,33.950975],[131.2420346,33.9512719],[131.2416353,33.9515848],[131.2412827,33.9518144],[131.2413424,33.9518809],[131.2408553,33.952371],[131.2408968,33.9524307],[131.2407986,33.9526138],[131.2407194,33.9527655],[131.2405842,33.9529176],[131.2399234,33.9535678],[131.2396805,33.9537802],[131.239456,33.9539165],[131.2389228,33.9541354],[131.2387007,33.9541728],[131.2387336,33.9542826],[131.2387955,33.9543486],[131.2383805,33.9547409],[131.2383094,33.9546858],[131.238137,33.9548213],[131.2380328,33.9547531],[131.2379493,33.9548316],[131.2375541,33.9545112],[131.2369147,33.9550898],[131.2376713,33.9556367],[131.2331859,33.9598081],[131.2328049,33.9601775],[131.230272,33.9621224],[131.2300014,33.9622262],[131.2297737,33.9622822],[131.2294383,33.9623199],[131.2291082,33.9623346],[131.2288162,33.9623132],[131.2283692,33.9622347],[131.228063,33.9621351],[131.2277854,33.9620154],[131.2275804,33.9619054],[131.2274217,33.9618183],[131.2250492,33.9484736],[131.2260382,33.9467492],[131.2291069,33.9504288],[131.2308722,33.9533077],[131.2303382,33.9544364],[131.2309746,33.9546424],[131.2301565,33.9563175],[131.230937,33.9573901],[131.2324467,33.9565075],[131.2322583,33.9562859],[131.2333104,33.9556842],[131.2332321,33.9540027],[131.2315922,33.9520105],[131.2312764,33.9516027],[131.2313304,33.951568],[131.2310921,33.9512923],[131.2311499,33.9511865],[131.2283357,33.9477674],[131.2282071,33.947822],[131.2265554,33.9458513],[131.2271754,33.944722],[131.2166136,33.9398345],[131.21534,33.9367027],[131.2224862,33.9337681],[131.2270068,33.9364761],[131.2312352,33.9377936],[131.2306078,33.9388838],[131.2315167,33.9392465],[131.2347659,33.9433519],[131.2342381,33.9467208],[131.2334729,33.9466175],[131.2342368,33.9475164],[131.2332297,33.948099],[131.2333047,33.9481978],[131.2336458,33.9482527],[131.2337099,33.9483332],[131.2345403,33.9478316],[131.235141,33.9484021],[131.2357097,33.9490629],[131.235665,33.9490989],[131.2364533,33.9500355],[131.2363867,33.9500628],[131.236557,33.950248],[131.2365188,33.9503049],[131.2361828,33.9505298],[131.2364607,33.9508595],[131.237822,33.9500499],[131.2389854,33.9514503],[131.2393105,33.9511769],[131.2392825,33.9511529],[131.2395246,33.9509501],[131.2396203,33.9508145],[131.2417573,33.9487308]]],[[[131.2254935,33.960999],[131.2252541,33.9589052],[131.2241667,33.9589728],[131.2237713,33.9571616],[131.2240326,33.9568443],[131.2245732,33.956181],[131.2251438,33.9554269],[131.2250081,33.9545385],[131.2246595,33.9527385],[131.2243093,33.9508203],[131.2239839,33.9490139],[131.2222525,33.9492172],[131.2202073,33.9494632],[131.2177182,33.9497506],[131.2178456,33.9504487],[131.2181696,33.952389],[131.2184182,33.9537238],[131.2186726,33.9552707],[131.2188761,33.9564379],[131.2190461,33.9574555],[131.219511,33.9593879],[131.2196887,33.9606638],[131.2197965,33.9613282],[131.219936,33.9614172],[131.2204215,33.9613816],[131.2211457,33.9612659],[131.2249008,33.9609745],[131.2253326,33.9609834],[131.2254935,33.960999]]]]}}
