{"type":"Feature","id":"attraction-large-park-W488844726","properties":{"id":"attraction-large-park-W488844726","kind":"attraction","name":"岩舟総合運動公園","shortName":"岩舟総合運動公園","context":"日本","subtype":"large-park","subtypeLabel":"大型都市公園・広域公園","statusLabel":"著名な公園","aliases":[],"osmType":"way","osmId":488844726,"osmDate":null,"officialAreaKm2":null,"areaSourceLabel":"","areaSourceUrl":"","boundarySourceLabel":"© OpenStreetMap contributors","boundarySourceUrl":"https://www.openstreetmap.org/copyright","geometryFile":"attractions/large-park-W488844726.geojson"},"geometry":{"type":"Polygon","coordinates":[[[139.6489227,36.3440664],[139.6488073,36.344047],[139.6487537,36.3440535],[139.6483997,36.344114],[139.6483326,36.3441161],[139.6482682,36.3441053],[139.6482226,36.3440708],[139.6481368,36.3439779],[139.6481368,36.3438958],[139.6480081,36.3437121],[139.6478981,36.343468],[139.6478337,36.3432476],[139.6478096,36.3430489],[139.6477962,36.3428263],[139.6478444,36.3424374],[139.6479866,36.3415149],[139.6479893,36.3413161],[139.6479169,36.3410634],[139.6478015,36.3408667],[139.6476647,36.3406896],[139.6470854,36.3399788],[139.6470156,36.3398383],[139.6469915,36.3397195],[139.6469781,36.3395229],[139.6469352,36.3394019],[139.6468493,36.3393025],[139.6461654,36.3387883],[139.6460232,36.3387083],[139.6458194,36.3386176],[139.6446928,36.3382179],[139.6444809,36.3381617],[139.64421,36.3381012],[139.6440303,36.3380299],[139.643864,36.3379154],[139.6437594,36.337762],[139.6437085,36.3376345],[139.6436951,36.3374962],[139.6436951,36.337036],[139.6437085,36.336336],[139.6437836,36.3362798],[139.6456772,36.3363317],[139.6458355,36.3363273],[139.645983,36.3362863],[139.6463156,36.3361631],[139.6470666,36.3358801],[139.6471524,36.3358779],[139.6472302,36.3359082],[139.6484211,36.3379824],[139.6486223,36.3383],[139.6487618,36.3384815],[139.6489415,36.3386435],[139.6491185,36.3387602],[139.6492901,36.3388315],[139.6493331,36.3388985],[139.6494135,36.339471],[139.6494511,36.33978],[139.6494243,36.3399852],[139.6493813,36.3401905],[139.6494189,36.3403547],[139.6495262,36.3406939],[139.6495825,36.3408451],[139.6498105,36.3411757],[139.6498159,36.3414069],[139.6498105,36.3416056],[139.6496013,36.3419578],[139.6494699,36.3422581],[139.6494243,36.3424698],[139.6493438,36.343159],[139.6493223,36.3435803],[139.6494189,36.3439627],[139.6489804,36.3440718],[139.6489227,36.3440664]]]}}
