{"type":"Feature","id":"attraction-large-industrial-complex-W525299662","properties":{"id":"attraction-large-industrial-complex-W525299662","kind":"attraction","name":"マツダ 防府工場","shortName":"マツダ 防府工場","context":"日本","subtype":"industrial-complex","subtypeLabel":"工業地帯・大規模工場","statusLabel":"同名の分割区域2区画","aliases":["Mazda"],"osmType":"way","osmId":525299662,"osmDate":null,"officialAreaKm2":null,"areaSourceLabel":"","areaSourceUrl":"","boundarySourceLabel":"© OpenStreetMap contributors","boundarySourceUrl":"https://www.openstreetmap.org/copyright","geometryFile":"attractions/large-industrial-complex-W525299662.geojson"},"geometry":{"type":"MultiPolygon","coordinates":[[[[131.5532689,34.0062796],[131.5520471,34.0083713],[131.5515804,34.0091628],[131.5511338,34.009851],[131.550018,34.0115341],[131.5498517,34.0117875],[131.5605564,34.0150136],[131.5609735,34.0144022],[131.5610768,34.0141909],[131.5611465,34.0139775],[131.5611573,34.0137474],[131.5610835,34.0132594],[131.5609413,34.0122155],[131.5605658,34.0090739],[131.5605135,34.0086553],[131.5604652,34.0084625],[131.5603754,34.0083363],[131.5602426,34.0082318],[131.5600938,34.0081595],[131.5583155,34.0074753],[131.5566176,34.0068127],[131.555353,34.0063324],[131.5547924,34.00611],[131.5545215,34.0060055],[131.5542774,34.0059288],[131.5540199,34.0059099],[131.5538053,34.0059311],[131.5535089,34.00608],[131.5532689,34.0062796]]],[[[131.5201986,34.0163719],[131.5204279,34.0169099],[131.5204497,34.0172034],[131.5203783,34.0182205],[131.5201007,34.0202292],[131.519638,34.0212385],[131.5193765,34.0216142],[131.5189675,34.0219231],[131.5170926,34.0228535],[131.5165561,34.0231403],[131.5159661,34.0237516],[131.5147161,34.0265971],[131.5080254,34.0241862],[131.5079355,34.024154],[131.5079476,34.0240528],[131.5136003,34.0180271],[131.5155879,34.014152],[131.5157045,34.0141087],[131.5196139,34.0154838],[131.5198137,34.015855],[131.5198284,34.0159896],[131.5200216,34.0162575],[131.5201986,34.0163719]]]]}}
