{"type":"Feature","id":"attraction-large-industrial-complex-W619458040","properties":{"id":"attraction-large-industrial-complex-W619458040","kind":"attraction","name":"日本製紙 岩国工場","shortName":"日本製紙 岩国工場","context":"日本","subtype":"industrial-complex","subtypeLabel":"工業地帯・大規模工場","statusLabel":"","aliases":[],"osmType":"way","osmId":619458040,"osmDate":null,"officialAreaKm2":null,"areaSourceLabel":"","areaSourceUrl":"","boundarySourceLabel":"© OpenStreetMap contributors","boundarySourceUrl":"https://www.openstreetmap.org/copyright","geometryFile":"attractions/large-industrial-complex-W619458040.geojson"},"geometry":{"type":"Polygon","coordinates":[[[132.2320797,34.1781448],[132.2311221,34.1778563],[132.2313018,34.1774014],[132.2304891,34.1771773],[132.2309243,34.1760334],[132.2310014,34.1760411],[132.2311717,34.1755763],[132.2313675,34.1755663],[132.2321159,34.1757527],[132.2322104,34.1755951],[132.2322801,34.1755629],[132.2331204,34.1757904],[132.2331512,34.1757127],[132.2321601,34.1754193],[132.232258,34.1751735],[132.2314694,34.1749627],[132.2316948,34.1743325],[132.231963,34.1744057],[132.2322983,34.1736201],[132.2328937,34.1736645],[132.234452,34.1739707],[132.234845,34.1740473],[132.2353412,34.1741439],[132.2356349,34.1741927],[132.2356993,34.174145],[132.2358415,34.1738898],[132.2359172,34.1738604],[132.2359326,34.1738043],[132.2361124,34.1733084],[132.236631,34.172097],[132.2368768,34.1719491],[132.2370189,34.1717672],[132.237955,34.1692418],[132.2380234,34.1691663],[132.2381589,34.169133],[132.2382622,34.1691496],[132.2416095,34.1700085],[132.2440356,34.1706265],[132.2440812,34.1707153],[132.2433463,34.1724951],[132.2426194,34.17453],[132.2388321,34.1776521],[132.23965,34.178197],[132.240498,34.178896],[132.240151,34.180375],[132.23899,34.181789],[132.2389282,34.1839729],[132.238691,34.1841949],[132.2382636,34.1838731],[132.236806,34.1827573],[132.2369516,34.1826256],[132.2361346,34.1820159],[132.2353489,34.1814411],[132.2352836,34.1813999],[132.2335278,34.1808402],[132.2313702,34.1801741],[132.231387,34.1801285],[132.2313474,34.1800303],[132.2313266,34.179895],[132.2313514,34.1797674],[132.2320797,34.1781448]]]}}
