{"type":"Feature","id":"attraction-large-park-W479498744","properties":{"id":"attraction-large-park-W479498744","kind":"attraction","name":"寺ケ池公園","shortName":"寺ケ池公園","context":"日本","subtype":"large-park","subtypeLabel":"大型都市公園・広域公園","statusLabel":"著名な公園","aliases":["Teragaike Park"],"osmType":"way","osmId":479498744,"osmDate":null,"officialAreaKm2":null,"areaSourceLabel":"","areaSourceUrl":"","boundarySourceLabel":"© OpenStreetMap contributors","boundarySourceUrl":"https://www.openstreetmap.org/copyright","geometryFile":"attractions/large-park-W479498744.geojson"},"geometry":{"type":"Polygon","coordinates":[[[135.5596143,34.4660697],[135.5594292,34.4659271],[135.5593273,34.4658408],[135.5592106,34.4657546],[135.5590912,34.4656672],[135.5589518,34.4657479],[135.5588552,34.4656639],[135.558768,34.4655788],[135.5586862,34.4655047],[135.5586084,34.4654384],[135.5585159,34.4653742],[135.5584247,34.4653234],[135.5583281,34.4652913],[135.5582222,34.4652603],[135.5581082,34.4651796],[135.558009,34.4650989],[135.5579231,34.4650248],[135.5577702,34.4649131],[135.557679,34.4648413],[135.5575852,34.4647849],[135.5575221,34.4647407],[135.5573679,34.4646975],[135.55727,34.4646456],[135.5571989,34.4645892],[135.5571681,34.4645339],[135.557152,34.4644841],[135.5571506,34.4644067],[135.5571439,34.4643216],[135.5571185,34.4642121],[135.5571077,34.4641303],[135.5570957,34.464096],[135.5570635,34.4639954],[135.5570286,34.4638649],[135.556987,34.4636991],[135.5569575,34.4635973],[135.5569307,34.4634857],[135.5569066,34.4634105],[135.5568717,34.4633408],[135.5568301,34.4632468],[135.5567899,34.4631595],[135.5567215,34.4630478],[135.556633,34.4629052],[135.5565136,34.4627216],[135.5564171,34.4626132],[135.5563205,34.4624994],[135.5562789,34.4624419],[135.5562441,34.4623589],[135.5562025,34.4622616],[135.5561851,34.4621732],[135.5561542,34.4620383],[135.5561274,34.4618978],[135.5560872,34.4617309],[135.5560469,34.4615849],[135.555996,34.4614036],[135.5559638,34.461262],[135.555937,34.4611061],[135.5559289,34.4609325],[135.5559289,34.4607578],[135.5559249,34.4606074],[135.5559276,34.4604559],[135.5559517,34.4602779],[135.5559611,34.4601552],[135.555953,34.4600866],[135.5559584,34.4599296],[135.5559571,34.4597571],[135.5559624,34.4595713],[135.5560617,34.459474],[135.5561851,34.4594475],[135.5563809,34.4594298],[135.556464,34.4593988],[135.5566974,34.4591931],[135.5565659,34.4589565],[135.5564506,34.4587309],[135.5563218,34.4584899],[135.556177,34.4583328],[135.5559168,34.4584147],[135.5557237,34.4583771],[135.5556272,34.4582886],[135.5557827,34.4581073],[135.5562146,34.4578949],[135.5564291,34.4577379],[135.556574,34.4576782],[135.5568234,34.457707],[135.5569066,34.4577777],[135.5569453,34.4577833],[135.5571051,34.4578065],[135.5573679,34.4578021],[135.5574931,34.4578021],[135.5576442,34.4578021],[135.5577684,34.4577813],[135.5579607,34.457749],[135.558044,34.457731],[135.5581673,34.4577043],[135.5582302,34.4576907],[135.5582879,34.4576782],[135.5584006,34.4576428],[135.5586017,34.4575588],[135.5586741,34.4577047],[135.5588485,34.4576539],[135.5589236,34.4578065],[135.5590631,34.4577777],[135.5592213,34.4577357],[135.5593152,34.4575654],[135.5593527,34.4575521],[135.5594171,34.4577156],[135.5594198,34.4577224],[135.5594895,34.4579724],[135.5595727,34.4581957],[135.5596612,34.4584523],[135.5595727,34.4585982],[135.5594922,34.4587398],[135.5594118,34.4590074],[135.5593447,34.4592241],[135.559283,34.4593878],[135.5592401,34.4594895],[135.5592294,34.4596332],[135.5592481,34.4598345],[135.5592481,34.4601021],[135.5592642,34.4603741],[135.5592535,34.4605024],[135.5591811,34.4605975],[135.559232,34.4608142],[135.5592884,34.4611061],[135.5593313,34.4612631],[135.559334,34.4613781],[135.5593581,34.4616214],[135.5593581,34.4617541],[135.5593501,34.4618757],[135.5593688,34.4620173],[135.5594413,34.4620991],[135.559511,34.462161],[135.5596639,34.4621721],[135.5598087,34.462161],[135.5598892,34.4621875],[135.5599482,34.4622517],[135.559975,34.4623711],[135.5599911,34.462475],[135.5600233,34.4626542],[135.560085,34.4627913],[135.5601735,34.4628554],[135.5602969,34.4628908],[135.5604069,34.462893],[135.5605436,34.4628709],[135.5606751,34.4628244],[135.5610425,34.4627294],[135.5611418,34.4630699],[135.5611981,34.4633021],[135.5612571,34.4635454],[135.5613027,34.463751],[135.5613054,34.4640496],[135.5613,34.4642398],[135.5612571,34.4645007],[135.5613108,34.4647373],[135.5613805,34.4649253],[135.5614368,34.4650646],[135.5615119,34.465215],[135.5616058,34.4654074],[135.5616782,34.4656396],[135.5617989,34.4658519],[135.5619062,34.4659558],[135.5618713,34.4660288],[135.5617024,34.4659138],[135.5615441,34.4658032],[135.5611713,34.465916],[135.5609138,34.4653543],[135.5611445,34.4652548],[135.5610157,34.4650735],[135.5609031,34.4649386],[135.5607824,34.4648103],[135.5606456,34.4647263],[135.5605061,34.4647395],[135.5604712,34.4648767],[135.5604471,34.4650027],[135.5604337,34.4650867],[135.5605731,34.4652614],[135.5605034,34.4653123],[135.5605115,34.4653963],[135.5605329,34.4654605],[135.560431,34.4655334],[135.5604685,34.4655688],[135.5601386,34.4657391],[135.5600474,34.4656462],[135.5599938,34.4656595],[135.559916,34.4655909],[135.5597578,34.4656573],[135.5595727,34.4657391],[135.5594842,34.4658165],[135.5595029,34.4658917],[135.5595485,34.4659846],[135.5596143,34.4660697]]]}}
