{"type":"Feature","id":"attraction-large-industrial-complex-W703836119","properties":{"id":"attraction-large-industrial-complex-W703836119","kind":"attraction","name":"ジャパンマリンユナイテッド 有明事業所","shortName":"ジャパンマリンユナイテッド 有明事業所","context":"日本","subtype":"industrial-complex","subtypeLabel":"工業地帯・大規模工場","statusLabel":"","aliases":[],"osmType":"way","osmId":703836119,"osmDate":null,"officialAreaKm2":null,"areaSourceLabel":"","areaSourceUrl":"","boundarySourceLabel":"© OpenStreetMap contributors","boundarySourceUrl":"https://www.openstreetmap.org/copyright","geometryFile":"attractions/large-industrial-complex-W703836119.geojson"},"geometry":{"type":"Polygon","coordinates":[[[130.4517406,32.9210785],[130.451695,32.9207993],[130.4499838,32.9190904],[130.4496807,32.9193226],[130.4468054,32.9161971],[130.4463574,32.9165034],[130.4457915,32.9158909],[130.4455903,32.9159022],[130.445483,32.915972],[130.444475,32.914937],[130.4445982,32.9148509],[130.444484,32.914727],[130.444447,32.914721],[130.444338,32.914801],[130.4441974,32.9146575],[130.447688,32.91218],[130.4489746,32.9113056],[130.4487833,32.9111035],[130.4487833,32.9110685],[130.4491634,32.9108035],[130.4492607,32.9109097],[130.4499438,32.9102516],[130.4503821,32.9099611],[130.4504221,32.9099551],[130.4512959,32.9093095],[130.4516378,32.909074],[130.4517943,32.9092281],[130.4518987,32.9091635],[130.453576,32.910979],[130.4539092,32.911244],[130.4540032,32.9112534],[130.4541646,32.9113758],[130.4543073,32.9112756],[130.4547476,32.9117329],[130.4545283,32.9118891],[130.4567823,32.914225],[130.4570537,32.9140405],[130.459417,32.9164626],[130.459456,32.9165076],[130.4595266,32.918874],[130.4594508,32.9190611],[130.4582477,32.9187955],[130.4575181,32.9188315],[130.4553777,32.9199708],[130.4539293,32.9209569],[130.4530764,32.9212519],[130.4519176,32.9219566],[130.4517406,32.9210785]]]}}
