{"type":"Feature","id":"attraction-large-park-W493871608","properties":{"id":"attraction-large-park-W493871608","kind":"attraction","name":"三木総合防災公園","shortName":"三木総合防災公園","context":"日本","subtype":"large-park","subtypeLabel":"大型都市公園・広域公園","statusLabel":"","aliases":[],"osmType":"way","osmId":493871608,"osmDate":null,"officialAreaKm2":null,"areaSourceLabel":"","areaSourceUrl":"","boundarySourceLabel":"© OpenStreetMap contributors","boundarySourceUrl":"https://www.openstreetmap.org/copyright","geometryFile":"attractions/large-park-W493871608.geojson"},"geometry":{"type":"Polygon","coordinates":[[[135.0499421,34.7816144],[135.0500214,34.7812629],[135.0500317,34.7812186],[135.0500755,34.7809979],[135.0500924,34.7809099],[135.0501078,34.7808114],[135.0501192,34.7807432],[135.0501458,34.780552],[135.0501622,34.7803714],[135.0501677,34.7803126],[135.050171,34.7802386],[135.0501728,34.7802125],[135.0501815,34.7799258],[135.050182,34.7798104],[135.0501786,34.7796849],[135.0501668,34.7794694],[135.0501502,34.7792806],[135.0501249,34.7790697],[135.0501086,34.7789582],[135.0500872,34.7788346],[135.0500653,34.7787184],[135.050038,34.7785895],[135.0498562,34.7778234],[135.0498246,34.7776927],[135.0497974,34.7775814],[135.049749,34.7773866],[135.0497049,34.7772167],[135.0496684,34.7770572],[135.0496214,34.776858],[135.0495744,34.7766696],[135.049537,34.7765021],[135.0495131,34.7763734],[135.0494699,34.7760897],[135.049443,34.7758076],[135.0494269,34.7755038],[135.0494217,34.7753498],[135.0494268,34.775081],[135.0494408,34.7748443],[135.0494493,34.7747259],[135.0494548,34.7746704],[135.0440531,34.7744801],[135.0439866,34.7746978],[135.0438705,34.7747499],[135.0436685,34.7748358],[135.0436021,34.7748699],[135.0435943,34.7749038],[135.0435816,34.7749515],[135.0435198,34.7750378],[135.0435103,34.7750475],[135.0434848,34.7750678],[135.0434623,34.7750777],[135.0433814,34.7750912],[135.0433471,34.775097],[135.0432977,34.7751003],[135.0431577,34.7751073],[135.0429342,34.7751183],[135.0427584,34.775123],[135.0426758,34.7751425],[135.042659,34.7751448],[135.0426103,34.7751309],[135.0425649,34.7751783],[135.0425063,34.7752378],[135.042425,34.7752829],[135.0423358,34.7753145],[135.0422669,34.7753462],[135.0422299,34.7753749],[135.0421484,34.7754409],[135.0420511,34.7755269],[135.0419673,34.7755807],[135.0418107,34.7756515],[135.0417019,34.7756816],[135.0414871,34.7757082],[135.0412899,34.775729],[135.040995,34.78086],[135.0403623,34.7831167],[135.0405637,34.7832341],[135.0404518,34.7839526],[135.0399428,34.7845679],[135.0398275,34.7851],[135.0398901,34.7856441],[135.039857,34.787146],[135.0402422,34.7874198],[135.0408025,34.7874593],[135.0418111,34.7879682],[135.0434317,34.7882941],[135.0441679,34.787477],[135.044647,34.7877302],[135.0436157,34.7900305],[135.0437201,34.7900123],[135.0444398,34.7891005],[135.0491045,34.7903814],[135.0568145,34.787116],[135.0572057,34.786361],[135.0573481,34.7862219],[135.0575449,34.7861702],[135.0576091,34.7861227],[135.0577802,34.7858449],[135.0580927,34.7854805],[135.0581705,34.7853657],[135.0581778,34.7853324],[135.058183,34.7853056],[135.0581933,34.7852545],[135.058206,34.7851829],[135.0582141,34.785146],[135.0582349,34.7850778],[135.0582601,34.7850145],[135.0582693,34.7849933],[135.0583232,34.7846993],[135.058325,34.7846849],[135.058324,34.7846657],[135.0583222,34.7846448],[135.0583155,34.7845886],[135.0583069,34.7845525],[135.058277,34.7844571],[135.0582495,34.7843576],[135.0582431,34.7842819],[135.0576804,34.783359],[135.057611,34.7830836],[135.0575402,34.7827678],[135.0574941,34.7824856],[135.0574889,34.782476],[135.0574711,34.7824617],[135.057361,34.7823862],[135.0574562,34.7823279],[135.0574835,34.7823044],[135.0574913,34.7822641],[135.0574884,34.7821544],[135.0574729,34.7819456],[135.05726,34.781728],[135.0571278,34.7815958],[135.0568834,34.781357],[135.0566794,34.7812181],[135.0565516,34.781129],[135.0564502,34.7810071],[135.0563191,34.7809173],[135.0562774,34.7808577],[135.0562489,34.7807808],[135.0561277,34.7806843],[135.0560697,34.7806166],[135.0560127,34.7805617],[135.0558863,34.7803944],[135.0558138,34.7803131],[135.0558059,34.7802942],[135.0558399,34.780161],[135.0538315,34.780143],[135.0538378,34.7807331],[135.0539383,34.7807898],[135.0539534,34.7808296],[135.0540281,34.7809944],[135.0540489,34.7810307],[135.0539493,34.7810633],[135.0538435,34.7810979],[135.0528042,34.7814388],[135.0527192,34.781467],[135.0526789,34.7814815],[135.0526352,34.781495],[135.0525537,34.7815182],[135.0524204,34.7815538],[135.0523176,34.7815803],[135.0521605,34.781614],[135.052071,34.781629],[135.0519765,34.7816466],[135.0519148,34.7816555],[135.0518654,34.7816629],[135.0517681,34.7816769],[135.0516943,34.7816838],[135.0515396,34.7816953],[135.0514147,34.7817024],[135.0513014,34.7817049],[135.0512148,34.7817073],[135.0509665,34.7817026],[135.0507807,34.7816911],[135.050709,34.7816858],[135.05063,34.7816768],[135.0505429,34.7816633],[135.050433,34.781646],[135.0503247,34.7816291],[135.0499421,34.7816144]]]}}
