{"type":"Feature","id":"attraction-large-industrial-complex-W614885758","properties":{"id":"attraction-large-industrial-complex-W614885758","kind":"attraction","name":"鹿島石油","shortName":"鹿島石油","context":"日本","subtype":"industrial-complex","subtypeLabel":"工業地帯・大規模工場","statusLabel":"","aliases":["Kashima Oil"],"osmType":"way","osmId":614885758,"osmDate":null,"officialAreaKm2":null,"areaSourceLabel":"","areaSourceUrl":"","boundarySourceLabel":"© OpenStreetMap contributors","boundarySourceUrl":"https://www.openstreetmap.org/copyright","geometryFile":"attractions/large-industrial-complex-W614885758.geojson"},"geometry":{"type":"Polygon","coordinates":[[[140.6840991,35.9099462],[140.6868419,35.9060508],[140.6932703,35.909012],[140.6972051,35.911948],[140.6919774,35.9194706],[140.6929806,35.9200614],[140.6922942,35.9208844],[140.692113,35.92078],[140.691925,35.920452],[140.690924,35.919894],[140.690742,35.919792],[140.690377,35.919587],[140.687692,35.918074],[140.67897,35.913088],[140.6775232,35.912275],[140.6775273,35.9121505],[140.6771889,35.9117996],[140.6776021,35.9070189],[140.6780863,35.907173],[140.6840991,35.9099462]]]}}
