{"type":"Feature","id":"attraction-large-military-base-W343568385","properties":{"id":"attraction-large-military-base-W343568385","kind":"attraction","name":"沖大東島射爆撃場","shortName":"沖大東島射爆撃場","context":"日本","subtype":"military-base","subtypeLabel":"基地・駐屯地・演習場","statusLabel":"","aliases":["Oki Daito Jima Range"],"osmType":"way","osmId":343568385,"osmDate":null,"officialAreaKm2":null,"areaSourceLabel":"","areaSourceUrl":"","boundarySourceLabel":"© OpenStreetMap contributors","boundarySourceUrl":"https://www.openstreetmap.org/copyright","geometryFile":"attractions/large-military-base-W343568385.geojson"},"geometry":{"type":"Polygon","coordinates":[[[131.1811111,24.5541011],[131.1906707,24.5536452],[131.2001254,24.5522822],[131.2093713,24.5500272],[131.218307,24.5469049],[131.2268344,24.5429497],[131.2348601,24.5382048],[131.2422959,24.5327225],[131.2490604,24.5265628],[131.2550794,24.5197933],[131.260287,24.5124883],[131.2646264,24.5047279],[131.26805,24.4965972],[131.2705205,24.4881854],[131.272011,24.4795846],[131.2725054,24.4708892],[131.2719984,24.4621943],[131.2704959,24.4535954],[131.2680145,24.4451864],[131.2645815,24.4370596],[131.2602347,24.4293038],[131.2550219,24.4220041],[131.2490003,24.4152402],[131.2422358,24.4090863],[131.2348026,24.4036095],[131.2267821,24.3988699],[131.2182621,24.3949193],[131.2093358,24.3918009],[131.2001008,24.3895488],[131.1906582,24.3881876],[131.1811111,24.3877322],[131.1715641,24.3881876],[131.1621214,24.3895488],[131.1528865,24.3918009],[131.1439601,24.3949193],[131.1354401,24.3988699],[131.1274196,24.4036095],[131.1199864,24.4090863],[131.1132219,24.4152402],[131.1072003,24.4220041],[131.1019875,24.4293038],[131.0976407,24.4370596],[131.0942077,24.4451864],[131.0917263,24.4535954],[131.0902238,24.4621943],[131.0897169,24.4708892],[131.0902112,24.4795846],[131.0917018,24.4881854],[131.0941722,24.4965972],[131.0975958,24.5047279],[131.1019352,24.5124883],[131.1071429,24.5197933],[131.1131619,24.5265628],[131.1199263,24.5327225],[131.1273622,24.5382048],[131.1353878,24.5429497],[131.1439152,24.5469049],[131.1528509,24.5500272],[131.1620969,24.5522822],[131.1715515,24.5536452],[131.1811111,24.5541011]]]}}
