{"type":"Feature","id":"attraction-large-park-W400527731","properties":{"id":"attraction-large-park-W400527731","kind":"attraction","name":"南港中央公園","shortName":"南港中央公園","context":"日本","subtype":"large-park","subtypeLabel":"大型都市公園・広域公園","statusLabel":"著名な公園","aliases":["Nanko Central Park"],"osmType":"way","osmId":400527731,"osmDate":null,"officialAreaKm2":null,"areaSourceLabel":"","areaSourceUrl":"","boundarySourceLabel":"© OpenStreetMap contributors","boundarySourceUrl":"https://www.openstreetmap.org/copyright","geometryFile":"attractions/large-park-W400527731.geojson"},"geometry":{"type":"Polygon","coordinates":[[[135.4340244,34.6342632],[135.4341557,34.6342161],[135.4343677,34.6332752],[135.4346319,34.6319158],[135.4346708,34.6316995],[135.4349631,34.6302936],[135.4351401,34.6293534],[135.4349899,34.6291128],[135.432531,34.6281274],[135.4316781,34.6278879],[135.4315842,34.6279751],[135.4315037,34.6281075],[135.4313093,34.6284684],[135.4302974,34.6310661],[135.4303202,34.631076],[135.4301807,34.6314357],[135.4301512,34.6314357],[135.4297798,34.6324675],[135.4298119,34.6325469],[135.4340244,34.6342632]]]}}
