{"type":"Feature","id":"attraction-large-park-W277264434","properties":{"id":"attraction-large-park-W277264434","kind":"attraction","name":"俣野公園","shortName":"俣野公園","context":"神奈川県・横浜市","subtype":"large-park","subtypeLabel":"大型都市公園・広域公園","statusLabel":"著名な公園","aliases":["Matano Park"],"osmType":"way","osmId":277264434,"osmDate":null,"officialAreaKm2":null,"areaSourceLabel":"","areaSourceUrl":"","boundarySourceLabel":"© OpenStreetMap contributors","boundarySourceUrl":"https://www.openstreetmap.org/copyright","geometryFile":"attractions/large-park-W277264434.geojson"},"geometry":{"type":"Polygon","coordinates":[[[139.4896344,35.3885388],[139.4896582,35.3885697],[139.4909114,35.3889369],[139.4910476,35.3889608],[139.4913024,35.3890023],[139.4923359,35.3891706],[139.4924647,35.3891891],[139.4925697,35.3891854],[139.4926391,35.3891458],[139.4927221,35.3890509],[139.492996,35.3886862],[139.4930155,35.3886603],[139.4928755,35.3885964],[139.493458,35.3877723],[139.4933601,35.3877233],[139.4934242,35.3876233],[139.4934029,35.3876152],[139.4935198,35.3873516],[139.4937098,35.386958],[139.4940325,35.3870539],[139.4940588,35.3869975],[139.4940757,35.3869632],[139.4942149,35.3866632],[139.4942902,35.3864999],[139.4940487,35.3864205],[139.4941183,35.3862905],[139.4941299,35.3861652],[139.4941361,35.3860594],[139.4944642,35.3860798],[139.494472,35.3860073],[139.4944565,35.3858828],[139.4944358,35.3857288],[139.4943596,35.3855862],[139.4943558,35.3855288],[139.4943497,35.3854232],[139.4943415,35.3852913],[139.4943869,35.3851787],[139.4943803,35.3851491],[139.4942906,35.3851204],[139.494089,35.3850543],[139.4932118,35.3847822],[139.4930951,35.3847833],[139.4930079,35.3848358],[139.4929517,35.3849039],[139.4925521,35.3853918],[139.4924346,35.3855335],[139.4923056,35.3856516],[139.4918632,35.3860063],[139.4918025,35.3860586],[139.4914194,35.3863558],[139.4905929,35.3870436],[139.4898356,35.3874753],[139.4898039,35.3875312],[139.4897469,35.3879056],[139.4897261,35.388009],[139.4896344,35.3885388]]]}}
