{"type":"Feature","id":"attraction-large-military-base-W936765224","properties":{"id":"attraction-large-military-base-W936765224","kind":"attraction","name":"海上自衛隊 余市防備隊","shortName":"海上自衛隊 余市防備隊","context":"北海道・余市町","subtype":"military-base","subtypeLabel":"基地・駐屯地・演習場","statusLabel":"","aliases":["Coastal Defense Group Yoichi","海上自衛隊"],"osmType":"way","osmId":936765224,"osmDate":null,"officialAreaKm2":null,"areaSourceLabel":"","areaSourceUrl":"","boundarySourceLabel":"© OpenStreetMap contributors","boundarySourceUrl":"https://www.openstreetmap.org/copyright","geometryFile":"attractions/large-military-base-W936765224.geojson"},"geometry":{"type":"Polygon","coordinates":[[[140.7762498,43.2146846],[140.7770378,43.2143738],[140.7786349,43.2164933],[140.778172,43.216614],[140.7781059,43.2165084],[140.7780254,43.2162367],[140.7777491,43.2158086],[140.7776418,43.2156972],[140.7776955,43.21566],[140.777379,43.2153922],[140.7770866,43.2151909],[140.7768345,43.215056],[140.7764214,43.2148488],[140.7762498,43.2146846]]]}}
