{"type":"Feature","id":"attraction-large-park-R18418512","properties":{"id":"attraction-large-park-R18418512","kind":"attraction","name":"久屋大通公園","shortName":"久屋大通公園","context":"日本","subtype":"large-park","subtypeLabel":"大型都市公園・広域公園","statusLabel":"著名な公園","aliases":["Hisaya Odori Park"],"osmType":"relation","osmId":18418512,"osmDate":null,"officialAreaKm2":null,"areaSourceLabel":"","areaSourceUrl":"","boundarySourceLabel":"© OpenStreetMap contributors","boundarySourceUrl":"https://www.openstreetmap.org/copyright","geometryFile":"attractions/large-park-R18418512.geojson"},"geometry":{"type":"MultiPolygon","coordinates":[[[[136.9091586,35.1657174],[136.9091888,35.1657185],[136.9091858,35.1657633],[136.9092973,35.1657654],[136.9093332,35.1657596],[136.9093561,35.1657402],[136.9093609,35.1657141],[136.9093625,35.1656907],[136.9093986,35.1651518],[136.9094011,35.1651011],[136.9094407,35.164398],[136.9094427,35.1643597],[136.9094439,35.1643409],[136.9094374,35.1643178],[136.9094275,35.1643037],[136.9094044,35.1642935],[136.909363,35.1642871],[136.9093317,35.1642863],[136.9087881,35.1642452],[136.9087546,35.1642426],[136.9087057,35.1642496],[136.9086765,35.1642733],[136.9086685,35.1643088],[136.9086679,35.1643216],[136.9086665,35.1643507],[136.9086035,35.1656839],[136.9086056,35.1656901],[136.9086102,35.1657086],[136.9086304,35.1657311],[136.9086665,35.1657452],[136.9087423,35.1657476],[136.9087969,35.1657494],[136.9088123,35.1654831],[136.908846,35.1654841],[136.9088689,35.1654848],[136.9088532,35.1657515],[136.9091116,35.165759],[136.909126,35.1654989],[136.9091491,35.1654998],[136.9091707,35.1655006],[136.9091586,35.1657174]]],[[[136.9088631,35.1629507],[136.9088207,35.1629552],[136.9088074,35.1629573],[136.9087951,35.1629593],[136.9087657,35.162964],[136.9087442,35.1629706],[136.9087295,35.1629821],[136.9087161,35.1630018],[136.9087147,35.1630095],[136.9086831,35.1640629],[136.9086861,35.1641007],[136.9087187,35.1641231],[136.9087566,35.1641287],[136.9087912,35.1641315],[136.9093409,35.1641755],[136.9093746,35.1641773],[136.9094107,35.164166],[136.9094329,35.1641479],[136.9094478,35.1641239],[136.9094492,35.1640599],[136.9094724,35.1629174],[136.909459,35.1628999],[136.9094403,35.1628889],[136.9094175,35.1628845],[136.9093728,35.1628899],[136.9093631,35.1628911],[136.909341,35.1628937],[136.9088631,35.1629507]]],[[[136.9088362,35.1669365],[136.9089615,35.1669416],[136.9089751,35.1667457],[136.9090389,35.1667487],[136.9090253,35.1669435],[136.9091771,35.1669502],[136.9092139,35.1669516],[136.9092463,35.1669405],[136.9092558,35.1669154],[136.9092721,35.1666968],[136.90933,35.1659305],[136.9093331,35.1658895],[136.9093214,35.1658722],[136.9093087,35.1658638],[136.9092845,35.1658591],[136.9092697,35.1658586],[136.9087385,35.1658419],[136.9086485,35.1658391],[136.9086177,35.1658467],[136.9086005,35.1658683],[136.9085916,35.16592],[136.9084995,35.1668293],[136.9084987,35.1668661],[136.9084983,35.1668853],[136.908524,35.1669132],[136.9085688,35.1669262],[136.9086447,35.1669299],[136.9087814,35.1669344],[136.9087958,35.1667307],[136.9088506,35.1667333],[136.9088362,35.1669365]]],[[[136.9082063,35.1771389],[136.9082062,35.1771028],[136.9081977,35.1770868],[136.9081782,35.1770715],[136.9081532,35.1770663],[136.9075512,35.1770315],[136.9075142,35.1770387],[136.907487,35.17706],[136.9074733,35.1770829],[136.9074692,35.1771233],[136.9073908,35.1778941],[136.9073791,35.1780108],[136.9073776,35.1780222],[136.9073778,35.1780478],[136.9073846,35.1780638],[136.9073888,35.1780704],[136.907399,35.1780758],[136.907408,35.1780836],[136.9074215,35.1780881],[136.907437,35.1780893],[136.9080785,35.1780953],[136.9080982,35.1780863],[136.9081111,35.1780759],[136.9081186,35.1780551],[136.9081225,35.1780128],[136.9081254,35.1779424],[136.9082036,35.1771667],[136.9082063,35.1771389]]],[[[136.907608,35.1757796],[136.9076117,35.1757541],[136.9076151,35.1757308],[136.9076378,35.1757112],[136.9076644,35.1757066],[136.9076757,35.1757075],[136.9082847,35.1757535],[136.9082961,35.1757544],[136.9083251,35.1757575],[136.908343,35.1757645],[136.9083485,35.1757845],[136.9083482,35.1758185],[136.9083449,35.1758506],[136.9082334,35.1769238],[136.9082308,35.1769508],[136.9082239,35.1769759],[136.9082036,35.1769993],[136.9081598,35.1770102],[136.9075498,35.1769711],[136.9075167,35.1769587],[136.9074967,35.1769333],[136.9074946,35.1768991],[136.907498,35.1768659],[136.9076046,35.1758135],[136.907608,35.1757796]]],[[[136.9084535,35.1747585],[136.90852,35.1740748],[136.9085253,35.1740396],[136.9085293,35.1739805],[136.9085256,35.1739621],[136.9085048,35.173945],[136.9084731,35.1739383],[136.9078646,35.1738927],[136.9078457,35.1738935],[136.9078312,35.1738962],[136.9078168,35.173902],[136.9078077,35.1739065],[136.9077969,35.1739167],[136.9077888,35.1739309],[136.9077858,35.1739455],[136.9077829,35.1739989],[136.9077818,35.17402],[136.9077136,35.1747112],[136.9084535,35.1747585]]],[[[136.9077065,35.1747605],[136.9076318,35.1755418],[136.9076294,35.1755634],[136.9076268,35.1755865],[136.9076294,35.1756048],[136.9076447,35.1756217],[136.9076736,35.1756363],[136.907682,35.1756368],[136.9082923,35.1756757],[136.9083113,35.1756769],[136.9083376,35.1756714],[136.9083597,35.1756552],[136.9083662,35.1756358],[136.9083679,35.1756183],[136.9083707,35.1755895],[136.9084495,35.1748004],[136.9077065,35.1747605]]],[[[136.907835,35.1734494],[136.907833,35.1734735],[136.9078281,35.1735337],[136.9078366,35.1735626],[136.9078603,35.1735823],[136.9079064,35.1735938],[136.9085134,35.1736339],[136.9085517,35.1736215],[136.9085714,35.1736015],[136.9085796,35.1735506],[136.9085842,35.1735221],[136.9085871,35.1735045],[136.9087606,35.1719038],[136.9087772,35.1717505],[136.9087795,35.1717279],[136.90892,35.1703537],[136.9089225,35.17033],[136.9089249,35.1703071],[136.9089161,35.1702661],[136.9088918,35.1702408],[136.9088394,35.1702223],[136.9082831,35.1701899],[136.9082606,35.1701894],[136.9082172,35.1701917],[136.9082049,35.1701963],[136.9081931,35.1702039],[136.908184,35.1702142],[136.908174,35.1702351],[136.9081683,35.1702843],[136.9081666,35.1702987],[136.908095,35.1709791],[136.9080205,35.1716873],[136.908006,35.1718249],[136.9080022,35.1718614],[136.9078999,35.1728327],[136.907835,35.1734494]]],[[[136.9082347,35.1696645],[136.9082342,35.1696896],[136.9082307,35.1697797],[136.9082309,35.1697972],[136.9082408,35.1698189],[136.9082632,35.1698351],[136.9082968,35.1698487],[136.9083019,35.1698489],[136.9088723,35.1698845],[136.9088922,35.1698857],[136.908922,35.169881],[136.9089486,35.1698697],[136.9089685,35.1698442],[136.9089765,35.1698244],[136.9089782,35.1698032],[136.9089821,35.1697531],[136.9089849,35.1697181],[136.9090234,35.169279],[136.909024,35.1692719],[136.9090256,35.1692486],[136.9090228,35.1692379],[136.9090205,35.1692275],[136.90901,35.1692147],[136.9089995,35.1692037],[136.9089912,35.1691977],[136.9089679,35.1691929],[136.9083862,35.1691485],[136.9083395,35.1691449],[136.9083173,35.1691502],[136.9083001,35.1691628],[136.9082948,35.1691707],[136.9082872,35.1691804],[136.9082764,35.169213],[136.9082696,35.1692896],[136.9082347,35.1696645]]],[[[136.9083206,35.1686982],[136.9083937,35.1679297],[136.9084069,35.1679104],[136.9084255,35.1678978],[136.9084573,35.1678933],[136.9084881,35.1678953],[136.9090769,35.1679334],[136.909104,35.1679352],[136.9091136,35.1679358],[136.9091348,35.1679474],[136.9091464,35.1679597],[136.9091534,35.1679754],[136.9090803,35.1687503],[136.9090758,35.1687981],[136.9090748,35.1688087],[136.9090731,35.168827],[136.9090707,35.1688522],[136.9090647,35.1688629],[136.909052,35.1688784],[136.9090293,35.1688882],[136.9089921,35.1688912],[136.9084132,35.1688507],[136.9083781,35.1688483],[136.9083465,35.1688358],[136.9083241,35.1688106],[136.9083156,35.1687941],[136.9083176,35.1687546],[136.9083206,35.1686982]]],[[[136.9084636,35.1676442],[136.9084948,35.1676463],[136.9085632,35.1676508],[136.9090144,35.1676806],[136.9090607,35.1676836],[136.9091023,35.1676864],[136.9091208,35.1676876],[136.9091407,35.1676876],[136.9091613,35.167686],[136.9091782,35.1676775],[136.909191,35.167669],[136.9092019,35.1676554],[136.9092052,35.1676368],[136.909232,35.1671507],[136.9092324,35.1671259],[136.9092315,35.1671228],[136.9092248,35.1670994],[136.9092061,35.1670748],[136.9091792,35.1670651],[136.9091701,35.1670648],[136.9086346,35.1670469],[136.9085522,35.1670442],[136.9085034,35.1670551],[136.908467,35.1670826],[136.9084623,35.1670989],[136.9084569,35.1671178],[136.9084195,35.1675805],[136.9084209,35.1676081],[136.9084305,35.1676223],[136.9084385,35.1676308],[136.9084636,35.1676442]]],[[[136.9094907,35.1624576],[136.9094905,35.1624641],[136.9094825,35.1627863],[136.9094677,35.1628049],[136.9094489,35.1628225],[136.9094235,35.162828],[136.9093698,35.1628302],[136.9088391,35.1628947],[136.9087761,35.1629036],[136.9087614,35.1628989],[136.9087476,35.1628919],[136.9087372,35.1628823],[136.9087263,35.1628687],[136.9087192,35.1628547],[136.9087182,35.1626944],[136.9087067,35.1626235],[136.9087003,35.1625781],[136.9086938,35.1625491],[136.908687,35.1625196],[136.9086838,35.1624959],[136.9086985,35.1624723],[136.9087174,35.1624554],[136.9087585,35.1624495],[136.9094423,35.1623736],[136.909469,35.1623755],[136.9094894,35.1623882],[136.9094901,35.1624256],[136.9094907,35.1624576]]]]}}
