{"type":"Feature","id":"attraction-large-park-W459329526","properties":{"id":"attraction-large-park-W459329526","kind":"attraction","name":"秩父ミューズパーク","shortName":"秩父ミューズパーク","context":"日本","subtype":"large-park","subtypeLabel":"大型都市公園・広域公園","statusLabel":"","aliases":[],"osmType":"way","osmId":459329526,"osmDate":null,"officialAreaKm2":null,"areaSourceLabel":"","areaSourceUrl":"","boundarySourceLabel":"© OpenStreetMap contributors","boundarySourceUrl":"https://www.openstreetmap.org/copyright","geometryFile":"attractions/large-park-W459329526.geojson"},"geometry":{"type":"Polygon","coordinates":[[[139.0408725,35.9837005],[139.0408189,35.9834748],[139.0411354,35.9827585],[139.0417614,35.9816842],[139.0409691,35.9807226],[139.0412266,35.9804275],[139.042101,35.9799977],[139.0422512,35.9797199],[139.0428895,35.9793552],[139.0439302,35.9792293],[139.0440536,35.9795723],[139.044472,35.980154],[139.0450621,35.9810786],[139.0448046,35.9813868],[139.045089,35.9815735],[139.0454269,35.9818513],[139.0463469,35.9814063],[139.0470604,35.9820401],[139.0457729,35.9833554],[139.0464435,35.9836115],[139.04676,35.9835941],[139.0471623,35.9837287],[139.04757,35.9840412],[139.0478597,35.9842018],[139.0482942,35.9843581],[139.0487797,35.9846685],[139.0491176,35.9853977],[139.0495253,35.9862007],[139.0500886,35.9874378],[139.0498204,35.9881063],[139.0499116,35.9885751],[139.0496648,35.9889831],[139.0502656,35.9897427],[139.0506626,35.990333],[139.0515692,35.9906585],[139.0518589,35.9910882],[139.0525429,35.9904827],[139.0532188,35.9904436],[139.0542058,35.9906911],[139.0565554,35.992896],[139.0571509,35.9936555],[139.0578483,35.9942197],[139.0582452,35.9946711],[139.059243,35.9949836],[139.0599189,35.9955652],[139.0596936,35.9961554],[139.0596936,35.9968672],[139.0600504,35.9973815],[139.0601952,35.9976897],[139.0603776,35.9978763],[139.0606619,35.9978676],[139.0609033,35.9978676],[139.0613674,35.9994669],[139.061936,35.9998922],[139.0622064,36.0004691],[139.0626031,36.0011827],[139.062644,36.001439],[139.0626616,36.0029911],[139.0629967,36.0035385],[139.063204,36.0041815],[139.0635373,36.0046398],[139.0643527,36.0049936],[139.0654013,36.0052456],[139.065683,36.0049415],[139.0657769,36.0045184],[139.0667747,36.004436],[139.0672686,36.0056922],[139.0672963,36.0057628],[139.0678703,36.0060253],[139.0680393,36.0064658],[139.0678006,36.0066524],[139.0675967,36.0066546],[139.0673285,36.00657],[139.0669879,36.0063573],[139.0666955,36.0062467],[139.0664622,36.0062076],[139.0661215,36.0058735],[139.0652605,36.0061425],[139.0643655,36.0065117],[139.0639292,36.0066201],[139.0635218,36.0063725],[139.0631998,36.0063476],[139.0621847,36.0065748],[139.0620184,36.0066963],[139.0615356,36.0067007],[139.061262,36.0065228],[139.060985,36.0061775],[139.0609631,36.0052407],[139.0607456,36.0047923],[139.0604523,36.0045647],[139.0599799,36.0044701],[139.059869,36.0043537],[139.0598995,36.0041707],[139.0599571,36.0036358],[139.0598753,36.0035002],[139.059371,36.0020985],[139.0591671,36.0018254],[139.0591647,36.0013052],[139.058818,36.0010478],[139.0585434,36.0008939],[139.0584645,36.0003365],[139.0584231,35.9999895],[139.0583697,35.9997255],[139.0582535,35.9995624],[139.0579403,35.9992104],[139.0574769,35.9989549],[139.0564838,35.9985938],[139.0561579,35.9984547],[139.0556693,35.9985693],[139.0554389,35.9982366],[139.0550627,35.9978586],[139.0543885,35.9979693],[139.0539513,35.9973298],[139.0535758,35.9969512],[139.0534575,35.9964635],[139.0529345,35.9962256],[139.0526557,35.9959497],[139.0526754,35.9952292],[139.052466,35.9949299],[139.0516,35.9951216],[139.0510907,35.9942089],[139.0509488,35.9941797],[139.0502581,35.9947387],[139.0496161,35.9944438],[139.0496208,35.9942573],[139.0496772,35.9939996],[139.0494319,35.9939638],[139.048996,35.994203],[139.0489885,35.994404],[139.0492752,35.994806],[139.0490373,35.9951714],[139.048621,35.9954159],[139.0482164,35.995384],[139.0478207,35.9954673],[139.0475853,35.9955169],[139.0473485,35.9957234],[139.0471782,35.9957763],[139.0472887,35.9953201],[139.0475853,35.9950862],[139.0477349,35.99488],[139.0473182,35.9949275],[139.0469702,35.9950797],[139.0468405,35.9950077],[139.0468666,35.9947783],[139.0467107,35.9946308],[139.0466922,35.9943274],[139.0470734,35.9937693],[139.0474395,35.9934353],[139.0476413,35.9931922],[139.0474713,35.9930659],[139.0473131,35.9930826],[139.047069,35.993111],[139.0468752,35.9929011],[139.0471085,35.9925449],[139.0469803,35.9923503],[139.047064,35.9921413],[139.0464661,35.9922379],[139.0465538,35.9924693],[139.0464349,35.9927796],[139.0463127,35.992901],[139.045736,35.9931453],[139.0452788,35.99275],[139.0454234,35.9924204],[139.0456489,35.9921235],[139.04566,35.9918613],[139.0452919,35.9915828],[139.0449097,35.9916965],[139.0445342,35.9917677],[139.0440453,35.992069],[139.0438306,35.9919891],[139.0435032,35.9919071],[139.0435032,35.9915086],[139.0437941,35.99132],[139.0443239,35.9909234],[139.0447027,35.9904893],[139.044762,35.9903664],[139.0445786,35.9901454],[139.0444872,35.9899029],[139.0441229,35.9899632],[139.0437683,35.9904602],[139.0436254,35.9904151],[139.0433677,35.9901814],[139.0428673,35.9901767],[139.0427514,35.9900611],[139.0429138,35.9897645],[139.0434314,35.9894218],[139.0437781,35.9892638],[139.0438554,35.989013],[139.0439168,35.9888712],[139.043948,35.9886804],[139.0433328,35.9887322],[139.0432653,35.9886068],[139.0428372,35.9885713],[139.0426545,35.9880644],[139.0429559,35.9878361],[139.0429714,35.9874979],[139.0430983,35.9873482],[139.0431073,35.9872081],[139.0427481,35.9868551],[139.042738,35.986627],[139.0428714,35.9860518],[139.0431551,35.9860107],[139.0442004,35.9859484],[139.0442215,35.985442],[139.0441129,35.9850975],[139.0443549,35.9848756],[139.0441906,35.9842344],[139.0440665,35.984003],[139.0434595,35.9838383],[139.0422719,35.9836705],[139.0415299,35.9838771],[139.0408725,35.9837005]]]}}
