{"type":"Feature","id":"attraction-large-park-R1969709","properties":{"id":"attraction-large-park-R1969709","kind":"attraction","name":"広島市中央公園","shortName":"広島市中央公園","context":"日本","subtype":"large-park","subtypeLabel":"大型都市公園・広域公園","statusLabel":"著名な公園","aliases":["Central Park"],"osmType":"relation","osmId":1969709,"osmDate":null,"officialAreaKm2":null,"areaSourceLabel":"","areaSourceUrl":"","boundarySourceLabel":"© OpenStreetMap contributors","boundarySourceUrl":"https://www.openstreetmap.org/copyright","geometryFile":"attractions/large-park-R1969709.geojson"},"geometry":{"type":"MultiPolygon","coordinates":[[[[132.457054,34.3995875],[132.4568239,34.3996414],[132.4567784,34.399624],[132.4564315,34.3988648],[132.4564375,34.3986594],[132.4564798,34.3984296],[132.4564664,34.3982119],[132.4582569,34.3977495],[132.4583346,34.397784],[132.458828,34.3990753],[132.4588462,34.3991226],[132.4588014,34.3991941],[132.4577493,34.3994561],[132.4573293,34.3995234],[132.457054,34.3995875]]],[[[132.4552408,34.3984579],[132.4542292,34.3987432],[132.4542129,34.3987432],[132.4541981,34.3987386],[132.4541896,34.3987332],[132.4540838,34.3987617],[132.4538017,34.3980351],[132.4537937,34.3979977],[132.453795,34.3979602],[132.4538011,34.3979351],[132.4538131,34.3979131],[132.4538239,34.3978956],[132.4538403,34.3978765],[132.4538888,34.3978415],[132.4539405,34.397809],[132.4539821,34.3977841],[132.4540231,34.3977598],[132.454069,34.3977393],[132.4540992,34.3977287],[132.454066,34.3976504],[132.454043,34.3975962],[132.4540197,34.3975412],[132.4540086,34.3975447],[132.4539723,34.3974616],[132.4539361,34.3973785],[132.4538989,34.3972931],[132.4538823,34.3972305],[132.4538299,34.3970256],[132.4538211,34.3969895],[132.4537515,34.3967092],[132.4539185,34.3966698],[132.4538569,34.3965084],[132.4537726,34.3963787],[132.4545179,34.3962052],[132.4545564,34.396218],[132.454607,34.3962048],[132.4547221,34.3961777],[132.4547152,34.3961567],[132.4550741,34.3960788],[132.4550926,34.3961283],[132.4551455,34.3961165],[132.4551624,34.3961623],[132.4553082,34.3961286],[132.4552906,34.3960789],[132.455312,34.3960738],[132.4552942,34.3960233],[132.4554006,34.3959993],[132.4554737,34.3960309],[132.4555223,34.3961561],[132.4555083,34.3961605],[132.4554901,34.3961863],[132.4555427,34.3962109],[132.4555689,34.3962363],[132.4556101,34.3962858],[132.4555739,34.3962945],[132.4560365,34.3975199],[132.4559878,34.3975563],[132.4554949,34.3978534],[132.4551449,34.3979486],[132.4551177,34.3979535],[132.4551027,34.3979538],[132.4550809,34.3979516],[132.4550671,34.3979524],[132.4550584,34.3979563],[132.4550507,34.3979635],[132.455047,34.397971],[132.4550467,34.3979815],[132.4552408,34.3984579]]],[[[132.4555103,34.4020631],[132.4554387,34.4020828],[132.4553802,34.4020989],[132.4522338,34.4029656],[132.4522035,34.4029423],[132.4519998,34.4030016],[132.4519604,34.4030336],[132.4518877,34.4030569],[132.4517895,34.4030884],[132.4516401,34.4028665],[132.4516337,34.4028485],[132.4516275,34.4028294],[132.4516313,34.4028088],[132.4516487,34.4027849],[132.4516522,34.4026375],[132.4516681,34.4024659],[132.4516731,34.4024568],[132.4516838,34.4024518],[132.4517418,34.4024549],[132.4517613,34.4022911],[132.4517202,34.402288],[132.451708,34.4022832],[132.451701,34.4022757],[132.4516989,34.4022652],[132.4517006,34.4022428],[132.4518116,34.4018774],[132.4518118,34.4018585],[132.4518083,34.4018351],[132.4518079,34.4018146],[132.4518116,34.4017943],[132.4519859,34.4012737],[132.4519894,34.4012636],[132.4519989,34.4012581],[132.4520136,34.4012581],[132.4520318,34.401208],[132.4520774,34.4012232],[132.4520919,34.4011898],[132.4520478,34.4011684],[132.4521001,34.4010593],[132.4520874,34.4010445],[132.4521726,34.4008725],[132.4521437,34.4008454],[132.4521276,34.4008122],[132.4521232,34.400784],[132.4521368,34.4007508],[132.4521589,34.4007237],[132.452352,34.4007167],[132.4525197,34.4007442],[132.4526148,34.4007477],[132.4527173,34.4007497],[132.4528181,34.400748],[132.4533687,34.4007455],[132.4534848,34.400746],[132.4536002,34.4007419],[132.4536812,34.4007369],[132.4537432,34.4007312],[132.4537992,34.4007233],[132.4539519,34.4006874],[132.4547823,34.4004779],[132.4556666,34.4002532],[132.4559428,34.4002256],[132.4565508,34.4000758],[132.4565937,34.400086],[132.4567562,34.4005281],[132.4567884,34.4005191],[132.4568177,34.4005738],[132.456826,34.4005913],[132.4568459,34.400619],[132.4568573,34.4006423],[132.45719,34.4015484],[132.4571922,34.4015715],[132.4571807,34.4015835],[132.4571113,34.4016029],[132.4570821,34.4016134],[132.4570888,34.4016283],[132.4562598,34.4018588],[132.4558855,34.4019597],[132.4555103,34.4020631]]],[[[132.4594416,34.3990203],[132.4613892,34.3985365],[132.461419,34.3984865],[132.4612078,34.3979075],[132.4611661,34.3978866],[132.4590634,34.3984089],[132.4590425,34.3984441],[132.4592162,34.3989202],[132.4594416,34.3990203]]],[[[132.4560365,34.3975199],[132.4562811,34.3981616],[132.4562875,34.398206],[132.4562893,34.3982411],[132.4562835,34.3983103],[132.4563066,34.3984016],[132.45631,34.3984511],[132.4563046,34.3984986],[132.4562748,34.3986445],[132.4562563,34.3987867],[132.45626,34.398873],[132.4562815,34.3989525],[132.4562889,34.3990096],[132.4562808,34.3990622],[132.4562894,34.3991067],[132.4565006,34.3996658],[132.4565053,34.3996834],[132.4565054,34.3996989],[132.4564536,34.3997119],[132.4564306,34.3997412],[132.4561853,34.3998044],[132.4558396,34.3998974],[132.4551838,34.4000963],[132.4548502,34.400178],[132.4547974,34.400167],[132.4546456,34.4002064],[132.4545999,34.4002356],[132.4544096,34.4002873],[132.4541117,34.4003659],[132.4537433,34.4004492],[132.4536422,34.4004648],[132.4535224,34.4004776],[132.4530619,34.4005048],[132.4528232,34.4005145],[132.4527935,34.4004835],[132.4527794,34.4003358],[132.4527815,34.4002452],[132.45281,34.4001781],[132.4528752,34.4000579],[132.4529836,34.3998995],[132.4532141,34.3991266],[132.4534638,34.3981692],[132.4534779,34.3980867],[132.4534854,34.3980047],[132.4534886,34.3979324],[132.4534886,34.3978715],[132.4534839,34.3977747],[132.4534749,34.3977243],[132.4534632,34.397677],[132.4534323,34.3975843],[132.4533643,34.3973906],[132.4538823,34.3972305],[132.4538989,34.3972931],[132.4539361,34.3973785],[132.4539723,34.3974616],[132.4540086,34.3975447],[132.4540197,34.3975412],[132.454043,34.3975962],[132.454066,34.3976504],[132.4540992,34.3977287],[132.454069,34.3977393],[132.4540231,34.3977598],[132.4539821,34.3977841],[132.4539405,34.397809],[132.4538888,34.3978415],[132.4538403,34.3978765],[132.4538239,34.3978956],[132.4538131,34.3979131],[132.4538011,34.3979351],[132.453795,34.3979602],[132.4537937,34.3979977],[132.4538017,34.3980351],[132.4540838,34.3987617],[132.4541896,34.3987332],[132.4541981,34.3987386],[132.4542129,34.3987432],[132.4542292,34.3987432],[132.4552408,34.3984579],[132.4550467,34.3979815],[132.455047,34.397971],[132.4550507,34.3979635],[132.4550584,34.3979563],[132.4550671,34.3979524],[132.4550809,34.3979516],[132.4551027,34.3979538],[132.4551177,34.3979535],[132.4551449,34.3979486],[132.4554949,34.3978534],[132.4559878,34.3975563],[132.4560365,34.3975199]]],[[[132.4552408,34.3984579],[132.4550467,34.3979815],[132.455047,34.397971],[132.4550507,34.3979635],[132.4550584,34.3979563],[132.4550671,34.3979524],[132.4550809,34.3979516],[132.4551027,34.3979538],[132.4551177,34.3979535],[132.4551449,34.3979486],[132.4554949,34.3978534],[132.4559878,34.3975563],[132.4560365,34.3975199],[132.4562811,34.3981616],[132.4562875,34.398206],[132.4562893,34.3982411],[132.4562835,34.3983103],[132.4563066,34.3984016],[132.45631,34.3984511],[132.4563046,34.3984986],[132.4562748,34.3986445],[132.4562563,34.3987867],[132.45626,34.398873],[132.4562815,34.3989525],[132.4562889,34.3990096],[132.4562808,34.3990622],[132.4562894,34.3991067],[132.4565006,34.3996658],[132.4565053,34.3996834],[132.4565054,34.3996989],[132.4564536,34.3997119],[132.4564306,34.3997412],[132.4561853,34.3998044],[132.4558396,34.3998974],[132.4551838,34.4000963],[132.4548502,34.400178],[132.4547974,34.400167],[132.4547932,34.4001546],[132.4547332,34.4001693],[132.4542433,34.3988815],[132.4542391,34.3988571],[132.4542388,34.3988492],[132.4542403,34.398842],[132.4542438,34.3988338],[132.4542494,34.3988273],[132.4542564,34.3988222],[132.4542663,34.3988176],[132.4543278,34.3988008],[132.455274,34.3985346],[132.4552408,34.3984579]]]]}}
