{"type":"Feature","id":"attraction-large-park-W472957075","properties":{"id":"attraction-large-park-W472957075","kind":"attraction","name":"あたご天狗の森公園","shortName":"あたご天狗の森公園","context":"日本","subtype":"large-park","subtypeLabel":"大型都市公園・広域公園","statusLabel":"","aliases":[],"osmType":"way","osmId":472957075,"osmDate":null,"officialAreaKm2":null,"areaSourceLabel":"","areaSourceUrl":"","boundarySourceLabel":"© OpenStreetMap contributors","boundarySourceUrl":"https://www.openstreetmap.org/copyright","geometryFile":"attractions/large-park-W472957075.geojson"},"geometry":{"type":"Polygon","coordinates":[[[140.2612366,36.2908439],[140.259453,36.2904701],[140.2526752,36.2853375],[140.2529962,36.2809091],[140.2511234,36.2804778],[140.2494825,36.2813261],[140.247895,36.2831809],[140.2470567,36.2853088],[140.2470389,36.2886012],[140.2486085,36.2901107],[140.2505705,36.2912752],[140.2504991,36.2934029],[140.2549761,36.2935467],[140.2575624,36.2941073],[140.2592746,36.2931729],[140.2613615,36.2920228],[140.2612366,36.2908439]]]}}
