{"type":"Feature","id":"attraction-large-military-base-W1135381679","properties":{"id":"attraction-large-military-base-W1135381679","kind":"attraction","name":"海上自衛隊 舞鶴航空基地","shortName":"海上自衛隊 舞鶴航空基地","context":"日本","subtype":"military-base","subtypeLabel":"基地・駐屯地・演習場","statusLabel":"","aliases":["JMSDF Maizuru Air Base"],"osmType":"way","osmId":1135381679,"osmDate":null,"officialAreaKm2":null,"areaSourceLabel":"","areaSourceUrl":"","boundarySourceLabel":"© OpenStreetMap contributors","boundarySourceUrl":"https://www.openstreetmap.org/copyright","geometryFile":"attractions/large-military-base-W1135381679.geojson"},"geometry":{"type":"Polygon","coordinates":[[[135.3786759,35.4878497],[135.3751713,35.4881662],[135.3749031,35.4876639],[135.3735566,35.4880745],[135.3735566,35.4881302],[135.3736961,35.48827],[135.3738637,35.4884086],[135.37379,35.4885102],[135.374066,35.489309],[135.3737765,35.4897081],[135.3734869,35.4900051],[135.373201,35.490458],[135.3732005,35.4905953],[135.373364,35.4911252],[135.3735317,35.4912624],[135.374541,35.4916168],[135.3749244,35.4917012],[135.3784562,35.4906729],[135.3786742,35.490732],[135.3789346,35.4907234],[135.3792695,35.4906089],[135.3795149,35.4904575],[135.3796306,35.4903514],[135.3797517,35.4901966],[135.3797606,35.4900029],[135.379322,35.489056],[135.3790266,35.4887684],[135.3787969,35.4881992],[135.3786759,35.4878497]]]}}
