{"type":"Feature","id":"attraction-large-park-W480323927","properties":{"id":"attraction-large-park-W480323927","kind":"attraction","name":"富田林市農業公園","shortName":"富田林市農業公園","context":"日本","subtype":"large-park","subtypeLabel":"大型都市公園・広域公園","statusLabel":"著名な公園","aliases":[],"osmType":"way","osmId":480323927,"osmDate":null,"officialAreaKm2":null,"areaSourceLabel":"","areaSourceUrl":"","boundarySourceLabel":"© OpenStreetMap contributors","boundarySourceUrl":"https://www.openstreetmap.org/copyright","geometryFile":"attractions/large-park-W480323927.geojson"},"geometry":{"type":"Polygon","coordinates":[[[135.6090968,34.4527056],[135.6089989,34.4527056],[135.6089292,34.4527167],[135.6088326,34.4527266],[135.6087334,34.4527531],[135.6086368,34.4527598],[135.6085536,34.4527642],[135.608496,34.452752],[135.608386,34.4527332],[135.6082962,34.4527277],[135.6082143,34.4527355],[135.6081178,34.4527642],[135.608044,34.4527941],[135.6079354,34.4528416],[135.6078603,34.452877],[135.6077436,34.4529301],[135.6076202,34.4529909],[135.6074901,34.453055],[135.6074352,34.4530838],[135.6073118,34.4531424],[135.6072769,34.4531203],[135.6072112,34.4531667],[135.6071535,34.4532209],[135.6070556,34.4533216],[135.6069564,34.4534089],[135.6068357,34.4535394],[135.6067364,34.4536279],[135.606601,34.453754],[135.6065165,34.4538457],[135.6064106,34.4539442],[135.6062671,34.4540923],[135.6061075,34.4542527],[135.606027,34.4543279],[135.605909,34.4544429],[135.6058218,34.4545236],[135.6057668,34.4545789],[135.605628,34.4547874],[135.6056227,34.4549687],[135.6054148,34.4551036],[135.6053611,34.4553027],[135.6051747,34.4554155],[135.6051023,34.4554774],[135.6050487,34.4555968],[135.6049789,34.4557395],[135.6049615,34.4560491],[135.6050165,34.4562238],[135.6050326,34.456372],[135.6052847,34.4564052],[135.6055248,34.4564373],[135.6058064,34.456455],[135.6059325,34.4564815],[135.6060639,34.4565169],[135.6060988,34.4566839],[135.6059606,34.4568022],[135.6058627,34.4569891],[135.605797,34.4571195],[135.6057755,34.4572567],[135.6057715,34.4573451],[135.6058051,34.4574424],[135.6058453,34.4575409],[135.6058895,34.4576205],[135.6059472,34.4576979],[135.6060411,34.4577399],[135.606147,34.4577764],[135.6061956,34.457785],[135.6062748,34.4578043],[135.6063599,34.4578264],[135.6064364,34.4578485],[135.6064954,34.4578618],[135.6065819,34.4578911],[135.6066711,34.4579237],[135.6067703,34.4579569],[135.6068783,34.4579945],[135.6069668,34.4580282],[135.6070506,34.4580542],[135.6071338,34.458083],[135.6072249,34.458115],[135.6073275,34.4581548],[135.6073537,34.4581714],[135.6073832,34.4582046],[135.6074114,34.4582417],[135.6074368,34.4582787],[135.6074697,34.4583207],[135.6075086,34.4583721],[135.6075495,34.4584269],[135.6076165,34.4585131],[135.6076621,34.4585728],[135.6076903,34.4586248],[135.6077144,34.4586878],[135.6077466,34.4587697],[135.6077587,34.4588261],[135.6077761,34.4588957],[135.607807,34.4590251],[135.6078365,34.4591324],[135.6078687,34.4592452],[135.6078928,34.4593159],[135.6079518,34.4592861],[135.6080296,34.459254],[135.6080752,34.4592982],[135.6081356,34.4593535],[135.6081664,34.4593944],[135.6081892,34.4594199],[135.6082791,34.4594265],[135.6083904,34.4593911],[135.6085047,34.4593837],[135.6085469,34.459361],[135.6085945,34.4593333],[135.6086495,34.4592996],[135.6086958,34.4592698],[135.6087535,34.4591979],[135.6087944,34.4591409],[135.6088279,34.4591172],[135.6088333,34.4590464],[135.608842,34.4589679],[135.6088748,34.4589087],[135.6089245,34.4588601],[135.6090049,34.4588451],[135.6091062,34.4588385],[135.6091659,34.4588297],[135.6092369,34.4587854],[135.6093053,34.4587268],[135.6093778,34.4586594],[135.6094368,34.4586096],[135.6094716,34.4585532],[135.6095119,34.4584692],[135.6095333,34.4584028],[135.6095508,34.458311],[135.6095776,34.4582248],[135.6095937,34.4581419],[135.6096124,34.45807],[135.6096299,34.4579837],[135.6096527,34.4578842],[135.6096701,34.4578057],[135.6096916,34.4577139],[135.6097103,34.457621],[135.6097345,34.4575359],[135.6097533,34.4574408],[135.6097841,34.4573446],[135.6098056,34.4572694],[135.6098495,34.4571862],[135.6098803,34.4571314],[135.6099125,34.4570739],[135.6099528,34.4569877],[135.6099923,34.4569258],[135.6100292,34.4568566],[135.6100607,34.4567991],[135.610103,34.4567134],[135.6101459,34.4566344],[135.6101888,34.456552],[135.6102203,34.4564867],[135.6102585,34.456385],[135.6102941,34.4563026],[135.6103296,34.4561965],[135.6103558,34.4561174],[135.6103692,34.456077],[135.6103249,34.4560704],[135.6102511,34.4560687],[135.6101848,34.4560577],[135.6101271,34.4560334],[135.6100989,34.4560112],[135.610058,34.4559875],[135.610003,34.4559814],[135.6099427,34.4559886],[135.6099115,34.4559225],[135.6098941,34.4558827],[135.6098699,34.4558484],[135.6098344,34.4558086],[135.6098411,34.4557915],[135.6098679,34.455729],[135.6098894,34.4556831],[135.6099082,34.4556322],[135.6099276,34.4555736],[135.6099477,34.4555161],[135.6099705,34.4554509],[135.6099933,34.4553928],[135.6100168,34.4553231],[135.6100389,34.4552678],[135.6099645,34.4552391],[135.6098424,34.4552081],[135.6097466,34.4551882],[135.6096922,34.4551716],[135.6095876,34.4551445],[135.6095052,34.4551235],[135.6094287,34.4551075],[135.6093617,34.4550887],[135.6092913,34.4550705],[135.6092483,34.4550616],[135.6092121,34.4551069],[135.6091451,34.4551545],[135.6090901,34.4551855],[135.6090847,34.455149],[135.609141,34.4550771],[135.6091866,34.4549986],[135.6092001,34.4549035],[135.6092229,34.4548084],[135.6092631,34.4547188],[135.6092926,34.4546569],[135.6092899,34.4546226],[135.6092336,34.4545828],[135.6091692,34.4545441],[135.6091022,34.4545175],[135.6090579,34.4545065],[135.608964,34.4545618],[135.6088192,34.4546436],[135.6087307,34.4547321],[135.60861,34.4548603],[135.6084973,34.4549886],[135.6084336,34.4550412],[135.6084215,34.4549892],[135.6084202,34.4549449],[135.6084001,34.454914],[135.6083371,34.4548885],[135.6083438,34.4548299],[135.6083277,34.454799],[135.6082848,34.4547691],[135.6082217,34.4547216],[135.6081882,34.4545933],[135.6081949,34.4545424],[135.6082056,34.4544993],[135.6081869,34.454444],[135.6081506,34.4543776],[135.6081332,34.4543467],[135.6081734,34.4543069],[135.608278,34.4543013],[135.6084041,34.4542991],[135.6084873,34.4543002],[135.6085422,34.454287],[135.6085865,34.4541941],[135.6086241,34.4540979],[135.6086603,34.4539972],[135.6087005,34.4538811],[135.6087367,34.4537904],[135.6087582,34.4536854],[135.6087689,34.4536212],[135.6087877,34.4535693],[135.6087997,34.4534775],[135.6088024,34.4533945],[135.6087904,34.4533238],[135.6087501,34.453211],[135.6088333,34.4531247],[135.6089265,34.453102],[135.6089583,34.4530824],[135.608963,34.4530376],[135.6090012,34.4529635],[135.6090522,34.4529215],[135.6090978,34.4528651],[135.6090951,34.4527811],[135.6090968,34.4527056]]]}}
