{"type":"Feature","id":"attraction-large-park-W434939964","properties":{"id":"attraction-large-park-W434939964","kind":"attraction","name":"野付牛公園","shortName":"野付牛公園","context":"北海道・北見市","subtype":"large-park","subtypeLabel":"大型都市公園・広域公園","statusLabel":"著名な公園","aliases":["Notsukeushi Park"],"osmType":"way","osmId":434939964,"osmDate":null,"officialAreaKm2":null,"areaSourceLabel":"","areaSourceUrl":"","boundarySourceLabel":"© OpenStreetMap contributors","boundarySourceUrl":"https://www.openstreetmap.org/copyright","geometryFile":"attractions/large-park-W434939964.geojson"},"geometry":{"type":"Polygon","coordinates":[[[143.9048016,43.8196174],[143.9040072,43.8200504],[143.9035063,43.8204952],[143.9034329,43.8205604],[143.9035377,43.8205833],[143.9040028,43.8206847],[143.9042297,43.8206924],[143.9049483,43.8207166],[143.9054033,43.8207612],[143.9057025,43.8208656],[143.9059424,43.8209493],[143.9077228,43.8200599],[143.9075309,43.8198688],[143.9075478,43.8198603],[143.9078841,43.8196909],[143.9078897,43.8196531],[143.9076597,43.819418],[143.9074382,43.8191916],[143.9071231,43.8188776],[143.9068874,43.8188064],[143.9068852,43.8187165],[143.9068117,43.8185934],[143.9067082,43.8184417],[143.9068222,43.8183555],[143.9066596,43.8181289],[143.9063461,43.8179143],[143.9062122,43.8177824],[143.9060528,43.8175033],[143.9061633,43.8174491],[143.9061223,43.8174073],[143.9051583,43.8164238],[143.904829,43.8160879],[143.9024874,43.8173248],[143.9037423,43.8186292],[143.9048016,43.8196174]]]}}
