{"type":"Feature","id":"attraction-large-park-R7325899","properties":{"id":"attraction-large-park-R7325899","kind":"attraction","name":"佐鳴湖公園","shortName":"佐鳴湖公園","context":"日本","subtype":"large-park","subtypeLabel":"大型都市公園・広域公園","statusLabel":"","aliases":[],"osmType":"relation","osmId":7325899,"osmDate":null,"officialAreaKm2":null,"areaSourceLabel":"","areaSourceUrl":"","boundarySourceLabel":"© OpenStreetMap contributors","boundarySourceUrl":"https://www.openstreetmap.org/copyright","geometryFile":"attractions/large-park-R7325899.geojson"},"geometry":{"type":"MultiPolygon","coordinates":[[[[137.6897368,34.7211496],[137.6905656,34.7208993],[137.6906788,34.7208652],[137.6906799,34.7209116],[137.6906871,34.7209686],[137.6907094,34.7210197],[137.6907462,34.721065],[137.6907945,34.7211015],[137.6908639,34.7211311],[137.6909402,34.7211436],[137.6910195,34.7211377],[137.6914524,34.7210305],[137.6915139,34.7210058],[137.6919988,34.7208369],[137.6920518,34.7209612],[137.6927361,34.7207229],[137.692769,34.7206982],[137.6927716,34.7206647],[137.6927565,34.7206346],[137.6926345,34.7205316],[137.6925851,34.720509],[137.6932311,34.720195],[137.6932507,34.7201366],[137.6933113,34.7200324],[137.693318,34.7200098],[137.6933067,34.7199846],[137.6932761,34.7199757],[137.6927147,34.7199285],[137.6926814,34.7199204],[137.6926705,34.7198911],[137.692689,34.7198654],[137.6930369,34.7196085],[137.6930572,34.7195773],[137.6930478,34.7195305],[137.6930179,34.7195061],[137.6930381,34.7194643],[137.6933481,34.719565],[137.6934281,34.7196078],[137.6934322,34.7197537],[137.6936523,34.7200341],[137.6937654,34.7201781],[137.6938969,34.7203096],[137.6939365,34.7203493],[137.694104,34.7202363],[137.6946377,34.7205606],[137.6948054,34.7206329],[137.694944,34.7206928],[137.6949828,34.7207095],[137.6950132,34.7207226],[137.6951015,34.720743],[137.6954171,34.7208159],[137.6956429,34.7208681],[137.6965227,34.7208847],[137.6967765,34.721376],[137.6969832,34.7214931],[137.6970225,34.7214903],[137.6971087,34.7214606],[137.6966366,34.7207595],[137.6964028,34.7206319],[137.6963282,34.7205666],[137.6962973,34.7205468],[137.6961686,34.720538],[137.6960747,34.7205269],[137.6960197,34.7205247],[137.6959691,34.7205391],[137.6958413,34.7205049],[137.6957676,34.7204619],[137.6957354,34.7204773],[137.6956992,34.7204696],[137.6950501,34.7202492],[137.6948597,34.7201764],[137.6947886,34.7201323],[137.6946142,34.7200618],[137.6941971,34.7198953],[137.6941882,34.7198554],[137.6941284,34.7198533],[137.6937854,34.7197046],[137.6936044,34.7195117],[137.6934595,34.7193971],[137.693304,34.7193034],[137.6931752,34.7192372],[137.6930389,34.7191872],[137.6929435,34.7191547],[137.6928342,34.7191052],[137.692741,34.719062],[137.6926113,34.7190162],[137.6924993,34.7190135],[137.6922764,34.7189278],[137.6921081,34.7188526],[137.691937,34.718722],[137.6918286,34.7186759],[137.6916439,34.7185686],[137.6915987,34.7185298],[137.6915177,34.7185163],[137.691358,34.7184094],[137.6913555,34.7183519],[137.6913603,34.7182876],[137.6913154,34.718271],[137.6912011,34.7179239],[137.6911703,34.7179233],[137.6911104,34.7178524],[137.6910741,34.7177757],[137.6909865,34.7176995],[137.6908536,34.7174176],[137.6908964,34.7173733],[137.6908175,34.7169676],[137.6908136,34.7168268],[137.6908032,34.7167295],[137.6907729,34.7166169],[137.6907724,34.7165377],[137.6907405,34.7165387],[137.6906744,34.7164459],[137.6906268,34.7164062],[137.690591,34.7163677],[137.690607,34.7163488],[137.6905761,34.7163281],[137.6905208,34.7163216],[137.6904739,34.7162795],[137.6904321,34.7162342],[137.6904106,34.7162113],[137.6904164,34.716183],[137.6903841,34.7161739],[137.6903291,34.7161269],[137.6903189,34.7160692],[137.6902984,34.7159005],[137.6903008,34.7157566],[137.6902669,34.7156314],[137.6902484,34.7154956],[137.6902112,34.7154022],[137.6901858,34.7153499],[137.6901249,34.715274],[137.6900807,34.715214],[137.6900011,34.7151513],[137.6899616,34.7150939],[137.6899163,34.7150385],[137.6898797,34.7149314],[137.689863,34.7148639],[137.689842,34.7147572],[137.6897782,34.7146411],[137.6896698,34.7145499],[137.6895794,34.7144728],[137.6895394,34.7143954],[137.6894933,34.7143189],[137.689315,34.7141276],[137.6892297,34.7141837],[137.6890106,34.7139421],[137.6891161,34.7138689],[137.6890326,34.7137715],[137.6889385,34.7136668],[137.6888497,34.7135833],[137.6888096,34.7135417],[137.688707,34.7134064],[137.6886061,34.7132959],[137.6885677,34.7132512],[137.6885313,34.713182],[137.6885025,34.7131523],[137.6884121,34.713042],[137.6883804,34.7128492],[137.6883672,34.7127678],[137.6883035,34.7126689],[137.6883195,34.7125934],[137.6882866,34.7125086],[137.6882255,34.7124276],[137.6881379,34.7123355],[137.6880245,34.712216],[137.687888,34.7121],[137.6877957,34.7120075],[137.6875461,34.7119035],[137.6870343,34.7117047],[137.68686,34.7115614],[137.685818,34.7103306],[137.6857393,34.7102198],[137.6856143,34.710016],[137.6854285,34.709842],[137.685013,34.7095637],[137.6849145,34.7094844],[137.6847158,34.7092261],[137.6845195,34.7089742],[137.6842779,34.7086661],[137.6841853,34.7084362],[137.684002,34.7080332],[137.6838645,34.7078359],[137.6838046,34.7077483],[137.6837365,34.7076912],[137.683642,34.7076389],[137.6835689,34.7076256],[137.6829446,34.7076755],[137.6819852,34.7077659],[137.6816016,34.7078058],[137.6816024,34.707811],[137.681462,34.7078251],[137.6814647,34.7079663],[137.6822975,34.7077833],[137.6828393,34.7077348],[137.6829238,34.7077943],[137.6824097,34.7078372],[137.6822774,34.7078483],[137.6821079,34.7078851],[137.6819623,34.7079167],[137.6820053,34.7080598],[137.6818938,34.7082023],[137.6818433,34.7082881],[137.6818194,34.7083803],[137.6818021,34.70853],[137.6818124,34.7086209],[137.6818414,34.7087047],[137.6820578,34.7090662],[137.6820886,34.7091395],[137.6821,34.7092242],[137.6820892,34.7096734],[137.6820789,34.7097363],[137.6820554,34.7097897],[137.6819447,34.7099675],[137.6819274,34.7100139],[137.6819186,34.7100659],[137.6819275,34.7102446],[137.6819589,34.7102898],[137.6820126,34.7103068],[137.682091,34.7103047],[137.6821507,34.7102781],[137.6821713,34.7102275],[137.6821663,34.7101007],[137.6821728,34.7100257],[137.6821943,34.7099589],[137.6822342,34.7098724],[137.6822583,34.7097863],[137.682258,34.7096999],[137.6822351,34.7095379],[137.6822435,34.7094601],[137.682285,34.7093927],[137.6824731,34.7092021],[137.6825247,34.7091693],[137.6825906,34.7091523],[137.6826571,34.7091548],[137.6830015,34.7092279],[137.6830956,34.7092321],[137.6831859,34.7092197],[137.6832841,34.7091883],[137.683352,34.7091786],[137.6834187,34.7091922],[137.6834694,34.7092257],[137.6837658,34.709527],[137.6838071,34.7095834],[137.6838282,34.7096494],[137.6838514,34.7098133],[137.6838503,34.7098905],[137.6838363,34.7099559],[137.6837925,34.7100662],[137.6837779,34.7101332],[137.683776,34.7102054],[137.6837953,34.710341],[137.6838108,34.7103941],[137.6838395,34.7104422],[137.6839144,34.7105366],[137.6839584,34.7105811],[137.6840087,34.7106229],[137.6841287,34.7107059],[137.6841612,34.7107204],[137.6842032,34.7107191],[137.6842407,34.7107022],[137.684336,34.7106335],[137.6843982,34.7105752],[137.6844426,34.7105124],[137.6845161,34.7103683],[137.6845358,34.7103465],[137.6845704,34.7103407],[137.6845993,34.7103535],[137.6847744,34.7104842],[137.6847933,34.7105077],[137.6847956,34.7105382],[137.6847821,34.710563],[137.6845227,34.7108241],[137.6844754,34.7108826],[137.684447,34.7109498],[137.6843877,34.7111639],[137.6843701,34.7111886],[137.6843321,34.7112005],[137.6842888,34.7112046],[137.6842544,34.7112185],[137.684247,34.7112466],[137.6843068,34.7116678],[137.684322,34.7117279],[137.6843425,34.7117869],[137.6843514,34.7118068],[137.6843705,34.7118333],[137.6844011,34.7118518],[137.6844858,34.7118873],[137.6844971,34.7118963],[137.6844998,34.7119087],[137.6844929,34.7119205],[137.684465,34.7119436],[137.684457,34.7119566],[137.6844555,34.711971],[137.6844609,34.7119863],[137.6844763,34.7120058],[137.6845368,34.7120693],[137.6847373,34.7122575],[137.6847705,34.7122741],[137.6848141,34.7122763],[137.6848558,34.7122632],[137.685015,34.7121529],[137.6850441,34.7121165],[137.6850481,34.7120757],[137.6850281,34.7120371],[137.684927,34.7119151],[137.6848919,34.7118238],[137.6849083,34.7117348],[137.6850271,34.7115546],[137.6850978,34.7114804],[137.6851972,34.7114227],[137.6854353,34.7113472],[137.6854952,34.7113447],[137.68554,34.7113726],[137.6855469,34.7114174],[137.6855235,34.7115721],[137.6855372,34.7116285],[137.6855829,34.711663],[137.685781,34.7117367],[137.6858279,34.7117691],[137.6858366,34.7118228],[137.6858005,34.7120612],[137.6857812,34.7121292],[137.6857423,34.7121882],[137.6856766,34.7122615],[137.685657,34.7123022],[137.6856596,34.7123465],[137.685708,34.7124701],[137.685716,34.7125153],[137.6857008,34.7125541],[137.6856703,34.712597],[137.6856397,34.7126282],[137.6855934,34.712648],[137.6852757,34.712735],[137.685194,34.7127668],[137.6851297,34.7128091],[137.6850215,34.7129026],[137.6850076,34.7129207],[137.6850065,34.7129441],[137.6850145,34.7129643],[137.6850755,34.7130387],[137.6851164,34.7130699],[137.6851732,34.7130882],[137.6852619,34.7131013],[137.6853093,34.7131159],[137.6853431,34.7131436],[137.6853946,34.7132064],[137.6854157,34.7132228],[137.6854471,34.7132277],[137.685479,34.7132208],[137.6855362,34.7131891],[137.6855607,34.7131844],[137.6855807,34.713194],[137.6860589,34.7137768],[137.6861346,34.713876],[137.6861762,34.7139356],[137.6861948,34.7139503],[137.6862203,34.713955],[137.6862488,34.7139498],[137.6865961,34.7138239],[137.6866214,34.7138049],[137.686631,34.71378],[137.6866234,34.7137505],[137.6864881,34.7135508],[137.686459,34.7134801],[137.6864538,34.7134006],[137.686489,34.7131402],[137.6865106,34.7130441],[137.6865507,34.7129617],[137.6866386,34.7128134],[137.6866903,34.7127564],[137.6867669,34.7127086],[137.6869141,34.7126471],[137.6869557,34.7126384],[137.6869921,34.7126517],[137.6870062,34.712679],[137.6871493,34.7134849],[137.6871665,34.7135663],[137.6871897,34.7136447],[137.6872398,34.7137954],[137.6872442,34.7138497],[137.6872316,34.7138991],[137.6871999,34.7139581],[137.687156,34.7140049],[137.6870868,34.7140354],[137.6869481,34.7140676],[137.6868778,34.7140972],[137.6868383,34.7141446],[137.6867494,34.7143388],[137.6867402,34.7143839],[137.686748,34.7144351],[137.6867685,34.7144935],[137.6867708,34.7145359],[137.6867463,34.7145734],[137.6865888,34.7147085],[137.686549,34.714747],[137.6865157,34.7147886],[137.6864162,34.7149336],[137.6863959,34.7149904],[137.6864056,34.7150543],[137.6864689,34.7151966],[137.6865093,34.7152556],[137.6865654,34.7152987],[137.6867658,34.7154048],[137.6867922,34.7154347],[137.6867943,34.7154677],[137.6867646,34.7154955],[137.6866113,34.7155634],[137.6865652,34.7156004],[137.6865626,34.7156569],[137.6866042,34.7156954],[137.6866691,34.715705],[137.6867975,34.715693],[137.6868291,34.7156937],[137.6868592,34.715703],[137.6868947,34.71572],[137.6869204,34.7157281],[137.6869533,34.7157289],[137.687778,34.7156515],[137.6879221,34.715638],[137.6879193,34.7156716],[137.6878936,34.7157681],[137.6878883,34.7158043],[137.6878891,34.7158411],[137.6880126,34.7167307],[137.6880323,34.7167848],[137.6880726,34.7168283],[137.6884874,34.7171328],[137.6885394,34.7171924],[137.6885664,34.7172586],[137.6885658,34.7173295],[137.6885134,34.7175482],[137.6884867,34.717624],[137.6884428,34.7176942],[137.6883837,34.7177537],[137.6882126,34.717895],[137.6881897,34.7179247],[137.6881836,34.7179617],[137.6882621,34.7185268],[137.6882729,34.7185717],[137.6882905,34.7186123],[137.6888974,34.7197073],[137.6889216,34.7197329],[137.6889607,34.7197449],[137.6891379,34.7197662],[137.6891791,34.7197768],[137.6892085,34.7198015],[137.6892642,34.7198709],[137.6892967,34.7198992],[137.6893418,34.7199171],[137.6895035,34.7199569],[137.6895633,34.7199656],[137.6896281,34.719968],[137.6898199,34.7199579],[137.6898563,34.7199631],[137.6898724,34.719989],[137.6898614,34.7200157],[137.6897473,34.7201476],[137.6897319,34.7201822],[137.6897386,34.7202202],[137.689769,34.7202466],[137.6900102,34.7203584],[137.6900246,34.7203743],[137.6900294,34.7203941],[137.6900173,34.7204115],[137.6899951,34.7204192],[137.689886,34.720434],[137.6898154,34.7204358],[137.6897531,34.7204258],[137.6894768,34.7203443],[137.6894054,34.7203456],[137.6893436,34.7203691],[137.6893168,34.7204167],[137.6893209,34.7204713],[137.6893954,34.7206058],[137.6894402,34.7210055],[137.6897368,34.7211496]]],[[[137.6973903,34.7217714],[137.6977739,34.7214716],[137.6975888,34.7213283],[137.6980363,34.7209694],[137.6979685,34.7209115],[137.6979917,34.7208864],[137.6984262,34.7205521],[137.6984572,34.7205264],[137.6989219,34.7209094],[137.6992691,34.7206327],[137.6993497,34.7205633],[137.6991378,34.7202899],[137.6988628,34.7200937],[137.6987073,34.7199284],[137.6984672,34.7197344],[137.698364,34.7196484],[137.6980327,34.7194599],[137.6976947,34.719278],[137.6971288,34.7189859],[137.6970711,34.7189881],[137.6969594,34.7189448],[137.6969303,34.7189278],[137.6965887,34.7187291],[137.6965056,34.7187303],[137.6964303,34.7186987],[137.696375,34.7186523],[137.6963315,34.7186146],[137.6962585,34.7185793],[137.6961187,34.7185215],[137.6960739,34.7185267],[137.6960798,34.7185545],[137.696073,34.7185989],[137.6961742,34.718679],[137.6962316,34.7187165],[137.6962955,34.7187771],[137.6963092,34.7187992],[137.6963394,34.7188246],[137.6963741,34.7188534],[137.6963714,34.7190609],[137.6963927,34.7191228],[137.6964157,34.719178],[137.6964802,34.7192768],[137.6965545,34.7193941],[137.6966298,34.7195062],[137.6966909,34.7195963],[137.6967438,34.7196466],[137.6967625,34.7197057],[137.6967864,34.7197403],[137.6968086,34.7197725],[137.6967975,34.7198435],[137.6967883,34.7199236],[137.6967297,34.7199617],[137.6966916,34.7199967],[137.6965606,34.7201043],[137.6963414,34.7200943],[137.6962852,34.7200728],[137.6962844,34.72005],[137.6962289,34.7200221],[137.6961767,34.7200333],[137.6960412,34.7200695],[137.6960519,34.7201478],[137.695943,34.7201511],[137.6959067,34.7201141],[137.6959071,34.7200089],[137.6960412,34.7197796],[137.6959272,34.7198038],[137.6958695,34.7197785],[137.6957676,34.719827],[137.6957689,34.7199537],[137.695435,34.7200926],[137.6949669,34.7199317],[137.6948637,34.7198667],[137.6947832,34.719827],[137.6946028,34.7197675],[137.6944305,34.7197289],[137.6943842,34.7196925],[137.6940543,34.7195872],[137.6939873,34.71952],[137.6939028,34.7194682],[137.6937787,34.7193464],[137.6937063,34.7193122],[137.6936386,34.7193094],[137.6935836,34.7193337],[137.6935628,34.7193585],[137.6936238,34.7193849],[137.6936929,34.7193712],[137.6937237,34.7193965],[137.6938592,34.7195211],[137.6939316,34.7195889],[137.6940563,34.7196644],[137.6942649,34.7197404],[137.6947725,34.7198876],[137.6951708,34.7200706],[137.6955423,34.720204],[137.695832,34.72028],[137.6958876,34.7202383],[137.695957,34.7203082],[137.6960609,34.7203148],[137.69613,34.7202714],[137.6962114,34.7202915],[137.6963171,34.7203215],[137.6965481,34.7204697],[137.6966044,34.720528],[137.6966245,34.7206504],[137.6970242,34.7211729],[137.6971918,34.7214408],[137.6972347,34.7215477],[137.6973152,34.7217626],[137.6973903,34.7217714]]],[[[137.6985571,34.7194235],[137.6985635,34.7193701],[137.698787,34.7191729],[137.6989823,34.7190015],[137.6988991,34.7189576],[137.6980847,34.7184763],[137.6972991,34.7180522],[137.6972299,34.7179915],[137.6972656,34.7174029],[137.6973045,34.7173511],[137.6980877,34.71749],[137.6984578,34.7177039],[137.6986322,34.7174746],[137.6985671,34.7174315],[137.6982057,34.7171924],[137.6973608,34.7169091],[137.6969504,34.717029],[137.6957408,34.7161606],[137.6955932,34.7160325],[137.6953438,34.7156822],[137.6952553,34.7154837],[137.6952204,34.7152368],[137.6952928,34.7148267],[137.6950217,34.7147031],[137.6949816,34.7147654],[137.6949954,34.7147666],[137.6949195,34.7148906],[137.6948851,34.714959],[137.6947966,34.7151255],[137.6947984,34.7152274],[137.6947895,34.7153549],[137.6948821,34.7154137],[137.6948341,34.7155045],[137.6948702,34.7155746],[137.6949271,34.7156417],[137.694984,34.715718],[137.6950281,34.7157741],[137.6950662,34.7157818],[137.6951286,34.7158607],[137.6952449,34.7159708],[137.6952543,34.7160541],[137.6953328,34.7161645],[137.6954344,34.7162629],[137.6954778,34.7163222],[137.6955056,34.7163331],[137.69555,34.7163009],[137.6957492,34.716442],[137.6958518,34.7165303],[137.6959987,34.7166204],[137.6960403,34.7166095],[137.6961391,34.7166754],[137.6963019,34.7167725],[137.6964475,34.7168672],[137.6965866,34.7169568],[137.6967258,34.717063],[137.6967593,34.7171039],[137.6968043,34.7171521],[137.6968822,34.7172329],[137.6969046,34.7172874],[137.696961,34.717327],[137.6970586,34.717408],[137.697096,34.7174899],[137.6971198,34.7175684],[137.69713,34.7177004],[137.6971393,34.7180312],[137.697137,34.7181105],[137.6970934,34.7184569],[137.6970916,34.718589],[137.6970906,34.7186683],[137.6971085,34.7186964],[137.6982969,34.7193111],[137.698431,34.7193927],[137.6985222,34.7194522],[137.6985571,34.7194235]]],[[[137.6895113,34.7041306],[137.6897032,34.7041989],[137.6897172,34.7041778],[137.6898627,34.7042481],[137.6900806,34.7043931],[137.6901712,34.7044847],[137.690279,34.704601],[137.69042,34.7045127],[137.6904525,34.704501],[137.6904897,34.7045009],[137.6905209,34.7045133],[137.6906073,34.7045693],[137.6906352,34.7045974],[137.6906562,34.7046301],[137.690733,34.7048445],[137.6907445,34.7048681],[137.6907617,34.7048881],[137.6908125,34.7049364],[137.6908314,34.7049573],[137.6908468,34.7049793],[137.6910049,34.7052513],[137.6910145,34.7052752],[137.6910173,34.7052984],[137.6910122,34.7053956],[137.6910207,34.7054461],[137.6910541,34.7054885],[137.6911753,34.7055929],[137.6912035,34.705621],[137.6912256,34.7056532],[137.6912885,34.7057615],[137.6913093,34.7057913],[137.6913318,34.7058156],[137.6921822,34.7066134],[137.6922318,34.7066695],[137.6922717,34.7067271],[137.6923609,34.7068889],[137.6923878,34.7069204],[137.6924222,34.7069436],[137.6925654,34.707016],[137.6926265,34.7070521],[137.6926766,34.7070996],[137.6928071,34.7072463],[137.6928217,34.7072564],[137.6928393,34.7072593],[137.692859,34.7072562],[137.6929862,34.7072088],[137.6930159,34.7072051],[137.6930401,34.7072169],[137.6930404,34.7072381],[137.6930257,34.7072569],[137.6928425,34.7073824],[137.6928138,34.7074118],[137.6928014,34.7074461],[137.692808,34.7074857],[137.6929722,34.7078631],[137.6929923,34.7078978],[137.6930201,34.7079265],[137.6931137,34.7080062],[137.6931412,34.7080372],[137.693161,34.7080737],[137.6932585,34.7083505],[137.6933119,34.7085021],[137.6934138,34.7087914],[137.6934249,34.7088053],[137.6934458,34.7088098],[137.693467,34.7088044],[137.693502,34.7087851],[137.6935441,34.708773],[137.6935903,34.7087826],[137.693654,34.7088132],[137.6936771,34.7088317],[137.6936912,34.7088565],[137.6936939,34.7088835],[137.6936223,34.7092059],[137.6936241,34.7092204],[137.6936337,34.7092321],[137.693648,34.709238],[137.6939604,34.7092888],[137.6941421,34.7093183],[137.6941505,34.7093235],[137.6941526,34.7093324],[137.6941326,34.7094156],[137.6941328,34.709425],[137.6941365,34.7094333],[137.6941633,34.7094662],[137.6941705,34.7094716],[137.69418,34.7094748],[137.6945065,34.7095279],[137.6945244,34.7095258],[137.6945343,34.7095129],[137.6946335,34.7091014],[137.6946317,34.7090908],[137.6946206,34.7090854],[137.6945492,34.7090737],[137.6945363,34.7090665],[137.694533,34.7090529],[137.6945925,34.7088059],[137.6945998,34.7087959],[137.6946129,34.7087945],[137.6946213,34.7088036],[137.6946262,34.7088158],[137.6946366,34.7088735],[137.6946716,34.7089864],[137.6947603,34.7092159],[137.6947858,34.7093044],[137.6947959,34.7093944],[137.6947906,34.7094839],[137.6947688,34.7095523],[137.6947314,34.7096162],[137.6946795,34.7096729],[137.6946155,34.7097204],[137.6945406,34.7097572],[137.694282,34.709851],[137.6941951,34.7098565],[137.6941113,34.7098367],[137.6940507,34.709801],[137.6938755,34.7096637],[137.6938307,34.7096327],[137.6937798,34.709605],[137.6936088,34.7095238],[137.6938568,34.7100004],[137.6937201,34.7100499],[137.6943162,34.7111954],[137.694464,34.7115158],[137.6944859,34.7115601],[137.6945101,34.7116038],[137.6945364,34.7116469],[137.6951832,34.7125921],[137.6952528,34.7126907],[137.6953299,34.7127863],[137.6954142,34.7128779],[137.6955054,34.7129649],[137.6956103,34.7130531],[137.6955989,34.7130712],[137.6956014,34.7131008],[137.6954527,34.7131453],[137.6953598,34.7131445],[137.6952925,34.7131218],[137.6952469,34.7130927],[137.6951477,34.7130143],[137.6949954,34.7128779],[137.6949072,34.7128056],[137.694786,34.712706],[137.6946781,34.7126135],[137.6946457,34.7125765],[137.6946161,34.7125161],[137.6946085,34.7124965],[137.6945876,34.7122695],[137.6943037,34.7118158],[137.6940488,34.7115772],[137.6940057,34.7115032],[137.693927,34.7111767],[137.6939626,34.7110948],[137.6940015,34.7109724],[137.6940042,34.7109139],[137.6939439,34.7109205],[137.693941,34.7109418],[137.6939047,34.7109767],[137.6938614,34.7109825],[137.6938055,34.7109154],[137.693831,34.7108636],[137.6937318,34.7108658],[137.6936647,34.710858],[137.6935848,34.710808],[137.6935312,34.7107459],[137.6934649,34.7106365],[137.6934193,34.7105336],[137.6933603,34.710373],[137.6933509,34.7103223],[137.693308,34.7101558],[137.6932709,34.710091],[137.6932136,34.7100241],[137.6931702,34.7099683],[137.6931587,34.7099215],[137.6931534,34.7098555],[137.6931557,34.7098173],[137.693178,34.7097865],[137.6931629,34.7097528],[137.6931618,34.7097289],[137.6930597,34.709663],[137.6929738,34.7095877],[137.6928582,34.7094539],[137.6927785,34.7093271],[137.6927123,34.7091728],[137.6926636,34.7090292],[137.6926415,34.7089031],[137.6926341,34.708768],[137.6926489,34.7086304],[137.6926776,34.7085527],[137.6925494,34.7083657],[137.6924613,34.7082248],[137.6924154,34.7081219],[137.6923873,34.7080383],[137.6922813,34.707935],[137.6921264,34.7077513],[137.6919546,34.7075128],[137.6918663,34.7073257],[137.691841,34.7072604],[137.6918191,34.7072547],[137.6916695,34.7069865],[137.6915252,34.7068177],[137.6914326,34.7066836],[137.6912753,34.7065213],[137.6911221,34.7063572],[137.690965,34.7061791],[137.6908869,34.7060803],[137.6908514,34.7060666],[137.6906921,34.7058135],[137.6905278,34.705569],[137.690431,34.7053913],[137.6902932,34.7051941],[137.6901843,34.7050061],[137.6901749,34.7049835],[137.6900222,34.7049357],[137.689831,34.7048487],[137.6895773,34.7047152],[137.6894305,34.7046038],[137.6892309,34.7044078],[137.6891332,34.704326],[137.6890051,34.7042443],[137.6888512,34.7041636],[137.6886918,34.704103],[137.6886143,34.7040848],[137.6883207,34.7040027],[137.6882347,34.7039787],[137.688142,34.7039413],[137.6880692,34.7038984],[137.6879729,34.7038278],[137.6879028,34.7037416],[137.6878692,34.7036708],[137.6878569,34.7035989],[137.687767,34.7035429],[137.6877243,34.7034828],[137.6876458,34.7034377],[137.6875771,34.7033507],[137.6874159,34.7032369],[137.6873457,34.7032001],[137.687277,34.703158],[137.6872381,34.7032086],[137.6868844,34.7029918],[137.6866715,34.7029339],[137.6866942,34.7028627],[137.6865468,34.7028229],[137.6865338,34.7028194],[137.6865303,34.7028183],[137.6863611,34.7027664],[137.6863389,34.7028157],[137.6863311,34.7028469],[137.6863245,34.7028732],[137.6862699,34.7029512],[137.6862374,34.7029436],[137.6862464,34.702903],[137.686292,34.7028438],[137.686321,34.7027572],[137.6862541,34.7027715],[137.686177,34.7027665],[137.6860856,34.7027489],[137.6860083,34.7027576],[137.6859579,34.7027847],[137.6859453,34.7028258],[137.6859272,34.7028376],[137.6858995,34.7028344],[137.6858174,34.7028054],[137.6857306,34.7027944],[137.6856084,34.7028242],[137.6855206,34.7028321],[137.6853565,34.7028501],[137.6853007,34.7028734],[137.6852602,34.7028995],[137.6852258,34.7029419],[137.6852086,34.7029498],[137.6851895,34.7029411],[137.6851017,34.7029364],[137.6850588,34.7029498],[137.6850196,34.7029968],[137.6849805,34.7030047],[137.6849268,34.7029946],[137.6848132,34.7030092],[137.6846312,34.703069],[137.684451,34.7030653],[137.6842369,34.7031198],[137.6837191,34.703226],[137.6836024,34.7032176],[137.6835291,34.7032066],[137.6834822,34.7031887],[137.6834166,34.703155],[137.6833695,34.7031406],[137.6833345,34.7031424],[137.6833089,34.7031544],[137.6832614,34.7032165],[137.6832337,34.7032353],[137.6832054,34.7033021],[137.6831566,34.7033479],[137.6830853,34.7033742],[137.6829984,34.7033514],[137.6829183,34.7033248],[137.6827494,34.7032345],[137.6825279,34.7031097],[137.6825659,34.7030433],[137.6826824,34.7030849],[137.6830136,34.703208],[137.6830736,34.7030467],[137.6830984,34.7029799],[137.6831611,34.7029792],[137.6831908,34.7029743],[137.6833697,34.702934],[137.68385,34.702826],[137.684262,34.7027333],[137.6842754,34.7027396],[137.6847805,34.702626],[137.6847881,34.7026149],[137.6854608,34.7024636],[137.6866061,34.7022513],[137.6868278,34.7023058],[137.6869353,34.7023021],[137.6869912,34.7022954],[137.6870112,34.702293],[137.6870535,34.7022879],[137.6870854,34.7023088],[137.6872022,34.7023855],[137.687325,34.702466],[137.6873417,34.7024769],[137.6877668,34.7026587],[137.6877955,34.7026814],[137.6878097,34.7027145],[137.6878126,34.7027857],[137.6878257,34.7028737],[137.6878482,34.7029613],[137.6879487,34.7032228],[137.6879758,34.7032802],[137.6880108,34.7033336],[137.6880543,34.7033839],[137.6883351,34.7036739],[137.6884008,34.7037223],[137.6884825,34.7037618],[137.6885747,34.7037894],[137.688718,34.7038375],[137.6888547,34.7038996],[137.6889805,34.7039739],[137.6891372,34.7040746],[137.6892112,34.7041061],[137.6892987,34.704122],[137.6894067,34.7041264],[137.6895113,34.7041306]]],[[[137.6820092,34.7032035],[137.6819542,34.7034074],[137.6817396,34.7043986],[137.6815747,34.7043744],[137.6815331,34.7044041],[137.6815841,34.7045695],[137.6816203,34.704725],[137.681631,34.7048363],[137.681627,34.7049223],[137.6815364,34.7053964],[137.6812984,34.7054036],[137.6812669,34.7054388],[137.6813182,34.7062409],[137.6813574,34.7068269],[137.6814059,34.7073557],[137.6814372,34.70742],[137.6814379,34.70743],[137.6814422,34.707493],[137.6829194,34.7073735],[137.6829559,34.7073665],[137.6829803,34.7073578],[137.6830025,34.7073456],[137.6830197,34.707328],[137.6830311,34.7073093],[137.6830351,34.7072866],[137.6830311,34.707261],[137.6830199,34.7072397],[137.6830005,34.7072159],[137.682826,34.7071038],[137.6815961,34.7063134],[137.6815147,34.7063327],[137.6814754,34.7063057],[137.6814942,34.7062679],[137.6817058,34.706249],[137.6817352,34.7062463],[137.6817812,34.7062221],[137.6818334,34.7061779],[137.6818608,34.7061889],[137.6819145,34.7060982],[137.6818948,34.7060903],[137.6818774,34.7058947],[137.6819173,34.7057542],[137.6819112,34.7057207],[137.6819471,34.7057131],[137.6820313,34.7056948],[137.6820678,34.7056709],[137.6821262,34.7055999],[137.6821401,34.7055544],[137.6821472,34.7054053],[137.6821884,34.7053317],[137.6822617,34.7052748],[137.6823657,34.7052014],[137.6823983,34.7051606],[137.6824192,34.7051182],[137.682414,34.7050101],[137.6823667,34.704915],[137.6823551,34.7048648],[137.6823743,34.7047565],[137.6824243,34.7047671],[137.682443,34.7047593],[137.6824464,34.7047387],[137.6824355,34.7047221],[137.682379,34.7047098],[137.6823944,34.7046734],[137.6824268,34.704631],[137.682507,34.7045573],[137.6825537,34.7045078],[137.6825776,34.7044655],[137.6825759,34.704396],[137.6825515,34.7043138],[137.6825397,34.7042603],[137.6825589,34.7041855],[137.6826711,34.7040042],[137.6826883,34.7039398],[137.682686,34.7038729],[137.6826643,34.7037891],[137.6825762,34.7036874],[137.6825842,34.7036069],[137.68257,34.703506],[137.6824631,34.7033232],[137.6824793,34.7032981],[137.6824679,34.703262],[137.682445,34.7032557],[137.6824551,34.7032395],[137.6824591,34.7032331],[137.6824124,34.703217],[137.6824095,34.7032219],[137.6823688,34.7032061],[137.682349,34.7031985],[137.6823226,34.7031883],[137.6823155,34.7032005],[137.6822193,34.7031697],[137.6821902,34.7031741],[137.6821634,34.7032465],[137.6820092,34.7032035]]]]}}
