{"type":"Feature","id":"attraction-large-park-W448257945","properties":{"id":"attraction-large-park-W448257945","kind":"attraction","name":"ネーブルパーク","shortName":"ネーブルパーク","context":"日本","subtype":"large-park","subtypeLabel":"大型都市公園・広域公園","statusLabel":"著名な公園","aliases":[],"osmType":"way","osmId":448257945,"osmDate":null,"officialAreaKm2":null,"areaSourceLabel":"","areaSourceUrl":"","boundarySourceLabel":"© OpenStreetMap contributors","boundarySourceUrl":"https://www.openstreetmap.org/copyright","geometryFile":"attractions/large-park-W448257945.geojson"},"geometry":{"type":"Polygon","coordinates":[[[139.7490574,36.1678134],[139.7496059,36.1692514],[139.7508779,36.1685767],[139.7523081,36.1681052],[139.7529939,36.1678833],[139.7529881,36.1680428],[139.753059,36.168068],[139.754655,36.168124],[139.755509,36.167848],[139.7568246,36.1676916],[139.7567665,36.1674495],[139.7567944,36.1671766],[139.7569174,36.1668187],[139.756996,36.1665904],[139.756413,36.166074],[139.756256,36.165829],[139.7546774,36.1652314],[139.7544508,36.1651749],[139.7541759,36.1651599],[139.7539039,36.165113],[139.753783,36.1650802],[139.7537346,36.1650032],[139.7536808,36.1646758],[139.7520113,36.1644272],[139.7520538,36.1662175],[139.7515396,36.1668587],[139.7506606,36.1671351],[139.7490574,36.1678134]]]}}
