{"type":"Feature","id":"attraction-large-park-W146995819","properties":{"id":"attraction-large-park-W146995819","kind":"attraction","name":"旭山記念公園","shortName":"旭山記念公園","context":"北海道・札幌市","subtype":"large-park","subtypeLabel":"大型都市公園・広域公園","statusLabel":"著名な公園","aliases":["Asahiyama Memorial Park"],"osmType":"way","osmId":146995819,"osmDate":null,"officialAreaKm2":null,"areaSourceLabel":"","areaSourceUrl":"","boundarySourceLabel":"© OpenStreetMap contributors","boundarySourceUrl":"https://www.openstreetmap.org/copyright","geometryFile":"attractions/large-park-W146995819.geojson"},"geometry":{"type":"Polygon","coordinates":[[[141.3165434,43.0385502],[141.3142266,43.0374498],[141.3136008,43.0371525],[141.3133852,43.0370901],[141.3129858,43.0367303],[141.3131003,43.0366501],[141.3122301,43.0364545],[141.311831,43.036413],[141.311639,43.036343],[141.310468,43.036048],[141.310238,43.036062],[141.310257,43.036188],[141.31066,43.036751],[141.310935,43.037087],[141.311293,43.037526],[141.311313,43.037652],[141.310468,43.039257],[141.310449,43.039383],[141.312042,43.040045],[141.312311,43.040186],[141.3132011,43.0405714],[141.31486,43.0409912],[141.3150109,43.0410841],[141.3153713,43.0411065],[141.3169315,43.0413086],[141.317243,43.041452],[141.3174027,43.0414125],[141.3176954,43.0413212],[141.3174497,43.0407118],[141.3177828,43.0406327],[141.3177537,43.040554],[141.3174068,43.0406419],[141.3173145,43.0404116],[141.3172566,43.0402577],[141.3171189,43.0399236],[141.3174,43.0398563],[141.3172625,43.0397548],[141.3170364,43.0398135],[141.3168586,43.0395542],[141.3170984,43.0395048],[141.3170609,43.0393793],[141.3168356,43.0394244],[141.3167953,43.0393009],[141.3165434,43.0385502]]]}}
