{"type":"Feature","id":"attraction-large-industrial-complex-W477818655","properties":{"id":"attraction-large-industrial-complex-W477818655","kind":"attraction","name":"SUBARU本工場","shortName":"SUBARU本工場","context":"日本","subtype":"industrial-complex","subtypeLabel":"工業地帯・大規模工場","statusLabel":"","aliases":[],"osmType":"way","osmId":477818655,"osmDate":null,"officialAreaKm2":null,"areaSourceLabel":"","areaSourceUrl":"","boundarySourceLabel":"© OpenStreetMap contributors","boundarySourceUrl":"https://www.openstreetmap.org/copyright","geometryFile":"attractions/large-industrial-complex-W477818655.geojson"},"geometry":{"type":"Polygon","coordinates":[[[139.3804998,36.2956082],[139.3800667,36.2956525],[139.3800345,36.2956861],[139.3801857,36.2963486],[139.3812469,36.3010276],[139.381259,36.3011346],[139.3812972,36.3012963],[139.3813562,36.3014815],[139.3814387,36.3017059],[139.3814937,36.3018534],[139.3815379,36.3019533],[139.3816265,36.3021674],[139.3816439,36.302163],[139.3816868,36.302236],[139.3817605,36.3022835],[139.3820717,36.3023278],[139.3831204,36.3022759],[139.3840806,36.3022165],[139.3860574,36.3020803],[139.386099,36.3020393],[139.3862586,36.3020144],[139.3863484,36.3020663],[139.3879283,36.3019744],[139.3897468,36.3018588],[139.3894041,36.2999516],[139.3892741,36.2992405],[139.3892352,36.2986082],[139.3897015,36.2979217],[139.3889777,36.2973652],[139.3887014,36.2970798],[139.3885941,36.2970539],[139.388557,36.2970131],[139.3885351,36.296989],[139.3885351,36.2968874],[139.3869821,36.2954823],[139.3863766,36.2950148],[139.3861285,36.2952072],[139.3849094,36.2953456],[139.384892,36.2952191],[139.3847861,36.2952223],[139.3847311,36.2953023],[139.3846358,36.2953153],[139.3845125,36.2952137],[139.3842174,36.2952569],[139.3842376,36.2954871],[139.3819429,36.2956946],[139.3819081,36.2954709],[139.3817833,36.2954839],[139.3816278,36.2955995],[139.3814749,36.2956028],[139.3812831,36.295546],[139.3812268,36.295552],[139.3812747,36.2957901],[139.3805787,36.2958992],[139.3804998,36.2956082]]]}}
