{"type":"Feature","id":"attraction-large-industrial-complex-W441721549","properties":{"id":"attraction-large-industrial-complex-W441721549","kind":"attraction","name":"日立アプライアンス","shortName":"日立アプライアンス","context":"日本","subtype":"industrial-complex","subtypeLabel":"工業地帯・大規模工場","statusLabel":"","aliases":[],"osmType":"way","osmId":441721549,"osmDate":null,"officialAreaKm2":null,"areaSourceLabel":"","areaSourceUrl":"","boundarySourceLabel":"© OpenStreetMap contributors","boundarySourceUrl":"https://www.openstreetmap.org/copyright","geometryFile":"attractions/large-industrial-complex-W441721549.geojson"},"geometry":{"type":"Polygon","coordinates":[[[139.7062145,36.3449789],[139.7044228,36.3429827],[139.7038757,36.3422827],[139.7033821,36.341453],[139.7027116,36.3399402],[139.7024863,36.3393785],[139.7024595,36.3390678],[139.7025024,36.3384887],[139.7023307,36.3378492],[139.7020839,36.3371491],[139.7039765,36.3366625],[139.705882,36.3361725],[139.7064706,36.3361156],[139.7097336,36.3359651],[139.7098409,36.3372874],[139.7103612,36.3372956],[139.7103934,36.338255],[139.7117453,36.338255],[139.7118847,36.3382722],[139.7124319,36.3436217],[139.7091167,36.344002],[139.7082745,36.3441407],[139.7074376,36.3444777],[139.7062145,36.3449789]]]}}
