{"type":"Feature","id":"attraction-large-industrial-complex-W619430687","properties":{"id":"attraction-large-industrial-complex-W619430687","kind":"attraction","name":"トヨタ自動車　堤工場","shortName":"トヨタ自動車　堤工場","context":"日本","subtype":"industrial-complex","subtypeLabel":"工業地帯・大規模工場","statusLabel":"","aliases":[],"osmType":"way","osmId":619430687,"osmDate":null,"officialAreaKm2":null,"areaSourceLabel":"","areaSourceUrl":"","boundarySourceLabel":"© OpenStreetMap contributors","boundarySourceUrl":"https://www.openstreetmap.org/copyright","geometryFile":"attractions/large-industrial-complex-W619430687.geojson"},"geometry":{"type":"Polygon","coordinates":[[[137.1018145,35.0586579],[137.107079,35.0562734],[137.1069784,35.0559002],[137.1062435,35.0547574],[137.1102923,35.0529053],[137.1103272,35.0527834],[137.1068189,35.0477474],[137.1058533,35.0479011],[137.1058559,35.0480416],[137.1045014,35.0482129],[137.1020928,35.0489463],[137.1019077,35.0487575],[137.0965192,35.050872],[137.0972381,35.051835],[137.1018145,35.0586579]]]}}
