{"type":"Feature","id":"attraction-large-park-R2797943","properties":{"id":"attraction-large-park-R2797943","kind":"attraction","name":"国営昭和記念公園","shortName":"国営昭和記念公園","context":"日本","subtype":"large-park","subtypeLabel":"大型都市公園・広域公園","statusLabel":"","aliases":["Shōwa Memorial Park"],"osmType":"relation","osmId":2797943,"osmDate":null,"officialAreaKm2":null,"areaSourceLabel":"","areaSourceUrl":"","boundarySourceLabel":"© OpenStreetMap contributors","boundarySourceUrl":"https://www.openstreetmap.org/copyright","geometryFile":"attractions/large-park-R2797943.geojson"},"geometry":{"type":"MultiPolygon","coordinates":[[[[139.4066227,35.7053426],[139.406607,35.7032334],[139.4065621,35.7029573],[139.4064984,35.7026699],[139.4064247,35.702451],[139.4063398,35.7022484],[139.4062456,35.7020584],[139.4061062,35.7020594],[139.4059696,35.7020635],[139.4059208,35.7020346],[139.4059076,35.7018931],[139.4014602,35.7018584],[139.4004019,35.7020089],[139.3892618,35.7054895],[139.389086,35.7058747],[139.3891104,35.7080368],[139.3891181,35.7087198],[139.3893966,35.7088913],[139.3896898,35.7090815],[139.3896197,35.7091783],[139.3895542,35.7093081],[139.3894468,35.7097156],[139.3894447,35.7100442],[139.3895693,35.7144741],[139.3895544,35.7162729],[139.3895526,35.7165197],[139.3895328,35.716698],[139.3894833,35.7168797],[139.3893767,35.717106],[139.389463,35.7171162],[139.3896248,35.7172877],[139.3965019,35.7171882],[139.3965383,35.7172205],[139.3966211,35.720641],[139.3967971,35.7206099],[139.3974043,35.7205025],[139.3990285,35.7205082],[139.3991282,35.7205086],[139.3991705,35.7205087],[139.3991674,35.7197776],[139.3991074,35.70533],[139.4066227,35.7053426]]],[[[139.4073658,35.704518],[139.4073568,35.7053294],[139.4106032,35.705311],[139.4109173,35.7050507],[139.4108947,35.7019124],[139.4069489,35.7018968],[139.4071799,35.702585],[139.4072559,35.7029162],[139.4073654,35.7033987],[139.4073658,35.704518]]]]}}
