{"type":"Feature","id":"attraction-large-large-farm-R12128194","properties":{"id":"attraction-large-large-farm-R12128194","kind":"attraction","name":"住吉牧野","shortName":"住吉牧野","context":"日本","subtype":"large-farm","subtypeLabel":"大規模農場・牧場","statusLabel":"","aliases":["Sumiyoshi"],"osmType":"relation","osmId":12128194,"osmDate":null,"officialAreaKm2":null,"areaSourceLabel":"","areaSourceUrl":"","boundarySourceLabel":"© OpenStreetMap contributors","boundarySourceUrl":"https://www.openstreetmap.org/copyright","geometryFile":"attractions/large-large-farm-R12128194.geojson"},"geometry":{"type":"MultiPolygon","coordinates":[[[[144.0717512,43.9290168],[144.0722769,43.9291868],[144.0723145,43.9297856],[144.0722716,43.9301101],[144.0717298,43.930087],[144.071762,43.9306201],[144.0720034,43.9306587],[144.0722233,43.9308519],[144.0724754,43.9311996],[144.0728295,43.931443],[144.0731782,43.9314932],[144.0733874,43.9314778],[144.0737361,43.9314198],[144.0739399,43.9313928],[144.0740633,43.9315241],[144.0744656,43.9315125],[144.0744281,43.9313503],[144.0746105,43.9311532],[144.0744978,43.9310605],[144.0740472,43.9312382],[144.073779,43.931246],[144.0732908,43.9312498],[144.0731031,43.9312228],[144.0729153,43.9308828],[144.0729207,43.9304926],[144.0737039,43.9302067],[144.0744442,43.9300831],[144.0749552,43.929922],[144.0749745,43.9297552],[144.075281,43.9294572],[144.0756887,43.9292022],[144.0758282,43.9290709],[144.0763432,43.929067],[144.076613,43.9293109],[144.076887,43.929382],[144.0772303,43.9289142],[144.0773899,43.9288482],[144.0774394,43.929145],[144.077856,43.9295502],[144.0778854,43.9297209],[144.0789265,43.929552],[144.0793417,43.9293326],[144.0796259,43.9294411],[144.0798885,43.9292658],[144.0794436,43.9291405],[144.079162,43.9289745],[144.0789825,43.9289163],[144.0785748,43.928615],[144.0781832,43.9282402],[144.077974,43.928163],[144.0777326,43.9276684],[144.0774868,43.9273996],[144.0770977,43.9272851],[144.076964,43.926976],[144.0767303,43.9267733],[144.0760977,43.9263931],[144.0759192,43.92653],[144.0755331,43.9267334],[144.0748733,43.9268107],[144.0744817,43.9269537],[144.0742564,43.9271932],[144.0740311,43.9276066],[144.0739614,43.9277611],[144.0737897,43.9278268],[144.0735698,43.9277689],[144.0735054,43.9276491],[144.0735108,43.92751],[144.0737496,43.9268218],[144.0734117,43.927045],[144.0731435,43.9272194],[144.0728885,43.9271468],[144.0725216,43.9273716],[144.0724339,43.9275095],[144.07188,43.927823],[144.0716064,43.9280895],[144.0711343,43.9282673],[144.0707749,43.9282016],[144.0708446,43.9284373],[144.0708017,43.9286807],[144.0709037,43.9288738],[144.0711343,43.9289395],[144.0714025,43.9289202],[144.0717512,43.9290168]]],[[[144.0688008,43.927993],[144.0686023,43.9275834],[144.0683502,43.9272937],[144.0682483,43.927085],[144.0682214,43.9268223],[144.0680015,43.9265094],[144.0673846,43.9256323],[144.067052,43.9253812],[144.066655,43.925018],[144.0664405,43.9248132],[144.0662849,43.9244577],[144.0662834,43.924353],[144.065979,43.924041],[144.0656084,43.9237917],[144.0652146,43.9239374],[144.0649192,43.9243705],[144.0651102,43.9249198],[144.0649253,43.92511],[144.0652296,43.9256023],[144.0652549,43.9258873],[144.0651691,43.926235],[144.0649009,43.9265828],[144.0650511,43.9269228],[144.0649867,43.9274096],[144.0652442,43.9272009],[144.0656412,43.9270928],[144.0657377,43.92717],[144.0655553,43.927425],[144.0652978,43.9276723],[144.0652657,43.9280509],[144.0655339,43.9280895],[144.0656787,43.9281514],[144.0656573,43.9283484],[144.0664125,43.928051],[144.0664533,43.9281538],[144.0661336,43.9285053],[144.0657002,43.9286807],[144.0657163,43.9291366],[144.0661401,43.9290129],[144.0661401,43.9293027],[144.0659577,43.9294379],[144.0662152,43.929689],[144.0665263,43.9295268],[144.067297,43.929669],[144.0673589,43.9298419],[144.0671754,43.9299517],[144.0670037,43.9299942],[144.0667462,43.9301526],[144.0662795,43.9302492],[144.0660059,43.9302956],[144.0659898,43.9304424],[144.0661401,43.930481],[144.0660542,43.9306008],[144.0656251,43.9307437],[144.0653998,43.9307128],[144.0652764,43.9309176],[144.065507,43.9310335],[144.0656163,43.9311525],[144.0653836,43.9321702],[144.0652588,43.9322305],[144.0649491,43.9321422],[144.0646005,43.9321577],[144.0644288,43.932517],[144.0641713,43.9325904],[144.0640372,43.9328878],[144.0640136,43.9331207],[144.0638655,43.9332626],[144.0639299,43.933475],[144.0653145,43.9337627],[144.0653174,43.9340425],[144.0651315,43.9342747],[144.0655319,43.9342601],[144.0657699,43.9342168],[144.0659908,43.934319],[144.0660059,43.9344833],[144.0657055,43.9349701],[144.0658235,43.9351748],[144.066183,43.9352907],[144.0663439,43.9352521],[144.0663654,43.9354761],[144.0661186,43.9356809],[144.0659312,43.9358071],[144.0657692,43.9361524],[144.0659626,43.9363272],[144.0659791,43.9366428],[144.0661561,43.9369209],[144.0663171,43.9369054],[144.0665263,43.9371527],[144.0667409,43.937311],[144.0668374,43.9371565],[144.0670466,43.9370561],[144.067331,43.9369634],[144.0674168,43.9370059],[144.0676767,43.9365333],[144.0679318,43.9363414],[144.0678272,43.9359317],[144.0675723,43.935422],[144.0675843,43.9348293],[144.0673953,43.9346572],[144.0673095,43.9344756],[144.0675402,43.9343018],[144.067626,43.9341125],[144.0674543,43.9337802],[144.067647,43.9332475],[144.0677226,43.9328956],[144.0680605,43.9323277],[144.0683056,43.9315621],[144.068774,43.9311687],[144.0690798,43.9306317],[144.0693748,43.9300792],[144.069407,43.9297586],[144.0695733,43.9296543],[144.0697128,43.9297431],[144.0702385,43.9296427],[144.0699756,43.9293606],[144.0697557,43.9289897],[144.0691353,43.9285403],[144.0689242,43.9283175],[144.0688008,43.927993]]],[[[144.0732715,43.9329434],[144.073465,43.9332719],[144.0737976,43.9332668],[144.0742205,43.9339375],[144.0745083,43.9340299],[144.074942,43.9339636],[144.0755463,43.9334106],[144.0758818,43.9337455],[144.0757745,43.9342284],[144.075914,43.9343249],[144.0760048,43.9349031],[144.0766639,43.9347486],[144.076896,43.9346318],[144.0773946,43.9348349],[144.0779847,43.9349932],[144.0775555,43.9346803],[144.0771993,43.9342534],[144.0771425,43.9339425],[144.0778194,43.9338035],[144.077856,43.9336138],[144.0781677,43.9333464],[144.078462,43.9334047],[144.078585,43.933666],[144.0791001,43.9338542],[144.0801036,43.9342902],[144.0803182,43.9342438],[144.0798622,43.9340275],[144.0791756,43.9336218],[144.0789449,43.933278],[144.0789825,43.9330501],[144.0800661,43.9325788],[144.080801,43.9326483],[144.0815252,43.9326792],[144.081943,43.932863],[144.0822343,43.9328211],[144.0828341,43.933025],[144.0829816,43.9332085],[144.0831372,43.933193],[144.0832204,43.933054],[144.0834698,43.9330675],[144.0837193,43.9330037],[144.0840411,43.9328106],[144.0843737,43.9325711],[144.0841296,43.9325112],[144.0840277,43.9326155],[144.083797,43.9327507],[144.0834269,43.9326193],[144.083223,43.9325305],[144.0831399,43.932602],[144.0828931,43.9325962],[144.0828958,43.932461],[144.0830541,43.9323972],[144.0830648,43.9322214],[144.083333,43.9321017],[144.0833196,43.9319858],[144.0831667,43.9319568],[144.0830567,43.932007],[144.0830043,43.9321402],[144.0827258,43.9321811],[144.0824543,43.9321163],[144.0820233,43.9319422],[144.081729,43.931783],[144.0815735,43.9318177],[144.0809941,43.9323895],[144.080559,43.9324069],[144.0801347,43.9323034],[144.0800339,43.9321345],[144.0797603,43.9324745],[144.0785479,43.932969],[144.0779418,43.9329612],[144.0775233,43.9330269],[144.077298,43.9331196],[144.0771317,43.9329844],[144.0771478,43.9328299],[144.0772176,43.9326097],[144.0770942,43.9323933],[144.0768958,43.9328182],[144.0766764,43.9329935],[144.0763553,43.933029],[144.076004,43.932761],[144.0758084,43.932682],[144.075558,43.932814],[144.0755224,43.9329728],[144.07556,43.9331158],[144.0754205,43.9332317],[144.074986,43.9332046],[144.0744567,43.9328586],[144.0742227,43.932604],[144.0736868,43.9324553],[144.0732715,43.9329434]]],[[[144.0805328,43.9376452],[144.0811309,43.937904],[144.0814474,43.9381222],[144.0815359,43.9381763],[144.0819275,43.9385935],[144.0821582,43.9388098],[144.0833115,43.9392772],[144.083848,43.9399262],[144.0841913,43.940127],[144.084717,43.9399185],[144.0848565,43.9403434],[144.0848565,43.9409846],[144.0850925,43.9411159],[144.0848994,43.9414095],[144.084481,43.9415562],[144.0842879,43.9414558],[144.0840304,43.941479],[144.0838695,43.9416914],[144.0839875,43.9421511],[144.0838319,43.9433562],[144.0834564,43.9432171],[144.0831721,43.9431669],[144.0831238,43.9436227],[144.0830111,43.9436266],[144.0829092,43.9438854],[144.0829843,43.9442059],[144.0826356,43.9444222],[144.0825069,43.9439278],[144.0820616,43.9437],[144.0820402,43.9435377],[144.082405,43.9433214],[144.0828931,43.9425373],[144.0830809,43.9421009],[144.0832847,43.9410695],[144.0834832,43.9401309],[144.0833974,43.9398257],[144.0831077,43.9393893],[144.0828019,43.9392734],[144.0824425,43.9392811],[144.0821153,43.9393815],[144.081949,43.9395824],[144.0818685,43.9399378],[144.0818363,43.9401966],[144.0816432,43.9407451],[144.0815896,43.9409343],[144.0813643,43.9415099],[144.0810209,43.9420893],[144.0807098,43.9422399],[144.0805972,43.9423828],[144.0804255,43.9424176],[144.0802807,43.9423635],[144.0810853,43.9416412],[144.0813374,43.9411004],[144.0809298,43.9409614],[144.0794492,43.9412086],[144.0789181,43.9409961],[144.0784728,43.9409343],[144.0782261,43.9408069],[144.0783602,43.9405172],[144.078725,43.9406871],[144.0793204,43.9408223],[144.079932,43.9405635],[144.0797871,43.9401116],[144.0795833,43.9400073],[144.0792292,43.9400266],[144.0788591,43.9400768],[144.0787411,43.9399803],[144.0788162,43.9398142],[144.0792292,43.9397253],[144.0801412,43.940015],[144.0804201,43.9400536],[144.0809512,43.939988],[144.0813589,43.9398991],[144.0816325,43.9396481],[144.0817934,43.9394858],[144.0818095,43.9392927],[144.0814877,43.9392309],[144.0814608,43.9391304],[144.0815252,43.9389643],[144.0814501,43.9388485],[144.0815467,43.9386824],[144.0814179,43.9385124],[144.0811658,43.938412],[144.0810907,43.9384622],[144.0807795,43.9383849],[144.0800822,43.938609],[144.0798247,43.9387982],[144.0797013,43.9390648],[144.0794814,43.9391536],[144.0793633,43.939003],[144.0795082,43.9387442],[144.0793794,43.9384351],[144.0797925,43.9382304],[144.0797979,43.9380952],[144.0800661,43.9378596],[144.0802377,43.9376935],[144.0805328,43.9376452]]],[[[144.0738702,43.9443682],[144.0734786,43.9443218],[144.0744013,43.9448046],[144.0745757,43.9451438],[144.0746587,43.9450904],[144.0747982,43.9449128],[144.0748143,43.9447737],[144.0750825,43.9446926],[144.0756404,43.9447467],[144.0755546,43.9450557],[144.0748787,43.9451291],[144.0749055,43.9453685],[144.0748272,43.9454401],[144.075104,43.9456273],[144.0756351,43.9462492],[144.0764183,43.9474272],[144.0763754,43.9479099],[144.0763861,43.9483618],[144.0769815,43.9486553],[144.0774161,43.9490338],[144.0777272,43.9494625],[144.0780383,43.9497599],[144.0782301,43.9499762],[144.0783481,43.9500863],[144.0784319,43.9500973],[144.0785748,43.9499916],[144.0783602,43.9498565],[144.0782636,43.9496788],[144.0782851,43.9493389],[144.0781563,43.9490725],[144.0781563,43.9487635],[144.0775448,43.9484931],[144.0773946,43.9483966],[144.077357,43.9481726],[144.0774912,43.9480606],[144.0776306,43.947852],[144.0777808,43.9476975],[144.0780169,43.9476589],[144.0783334,43.9477941],[144.0785962,43.9478983],[144.0788698,43.9481069],[144.0790737,43.9486051],[144.0792239,43.9492347],[144.0795726,43.9497136],[144.0797067,43.949588],[144.0801224,43.9488369],[144.0803263,43.9482479],[144.0804148,43.9480857],[144.0804765,43.9479524],[144.0805487,43.9476367],[144.0803665,43.9476936],[144.0802163,43.9479795],[144.0798193,43.9477979],[144.0794975,43.9475314],[144.079299,43.9472688],[144.0792131,43.9470448],[144.0790093,43.946898],[144.0785748,43.9467628],[144.0781242,43.9465118],[144.0777218,43.9463109],[144.0770942,43.9463727],[144.0769547,43.9462839],[144.0769064,43.9461178],[144.0769494,43.9459247],[144.0768045,43.9458011],[144.0767616,43.9456582],[144.0768689,43.9454496],[144.0771049,43.945272],[144.0773678,43.9452797],[144.0778184,43.9453492],[144.0782422,43.9454805],[144.0786982,43.9456659],[144.0791327,43.9458475],[144.0792936,43.9458629],[144.0793526,43.9457548],[144.0795618,43.945693],[144.0797871,43.9458513],[144.0800929,43.9459131],[144.0802485,43.946114],[144.080345,43.9463998],[144.080506,43.9467474],[144.0808266,43.9466222],[144.0808278,43.9462685],[144.0807688,43.9459363],[144.0806079,43.9455192],[144.0806025,43.9453647],[144.080506,43.9452411],[144.0800446,43.9449862],[144.0795886,43.9446656],[144.0796423,43.944484],[144.0794009,43.944318],[144.0789717,43.9441017],[144.0787035,43.9439124],[144.0785909,43.9437231],[144.0786284,43.9436536],[144.0789342,43.9436691],[144.0791005,43.9435493],[144.0789717,43.9433523],[144.0785211,43.943221],[144.0780705,43.9432905],[144.0771317,43.9427961],[144.0767509,43.9426648],[144.0768635,43.9424794],[144.077121,43.9424485],[144.0775019,43.9425219],[144.0779149,43.9426493],[144.0781993,43.9428309],[144.0784889,43.9429854],[144.0787142,43.9430279],[144.0784728,43.9427884],[144.0778774,43.9424524],[144.0776789,43.9422322],[144.0776092,43.9420545],[144.0772766,43.9418807],[144.0770835,43.9418343],[144.0768367,43.9421472],[144.0766275,43.9420043],[144.0765148,43.9421356],[144.0762681,43.9424446],[144.0757745,43.9429545],[144.0753239,43.9432287],[144.0748358,43.9436188],[144.0746319,43.9438815],[144.074471,43.9439781],[144.0742189,43.9441712],[144.0738702,43.9443682]]],[[[144.0688098,43.9379477],[144.0690935,43.9379254],[144.0691885,43.9380455],[144.0696951,43.9379574],[144.0699727,43.9379685],[144.0704196,43.9381351],[144.0704574,43.9381491],[144.0706342,43.9382171],[144.0707964,43.9384622],[144.07107,43.9381338],[144.0711697,43.9379645],[144.0712836,43.937016],[144.0713328,43.9365153],[144.0715367,43.9363144],[144.071601,43.9358972],[144.0717405,43.9356847],[144.0718746,43.9353448],[144.0720527,43.9352042],[144.0719712,43.935113],[144.0719765,43.9349353],[144.0721857,43.9348889],[144.0723842,43.9350164],[144.0725881,43.9350666],[144.0726739,43.9352714],[144.0723896,43.9354259],[144.0721375,43.9358315],[144.0722104,43.9359929],[144.0720096,43.9362116],[144.0717655,43.9366332],[144.0716732,43.936695],[144.0717031,43.9369716],[144.071404,43.937943],[144.0713274,43.938354],[144.070968,43.9386901],[144.0716171,43.9388021],[144.0721039,43.9387992],[144.0724969,43.9389759],[144.0727015,43.9383234],[144.0725831,43.9379516],[144.0732157,43.9369711],[144.0732157,43.9367857],[144.0737505,43.9360896],[144.0737271,43.935785],[144.0739469,43.9356031],[144.074495,43.9354532],[144.0742806,43.9349869],[144.073956,43.934634],[144.0730548,43.933363],[144.0728778,43.9332317],[144.0725183,43.9333707],[144.0723467,43.9333785],[144.0725398,43.9332046],[144.0726578,43.9330192],[144.0726364,43.9327874],[144.0724164,43.9326251],[144.072234,43.9325054],[144.0722287,43.9323277],[144.0722394,43.9320379],[144.0721106,43.9318486],[144.0719497,43.9315048],[144.0713274,43.9316439],[144.0712523,43.9315048],[144.0714616,43.9312962],[144.0716869,43.9312228],[144.0713838,43.9307708],[144.0710592,43.930481],[144.0707749,43.930369],[144.0705854,43.9305502],[144.0703617,43.9306598],[144.070158,43.9309098],[144.0703921,43.9310938],[144.0702075,43.9315797],[144.0700936,43.9316323],[144.0698254,43.9315589],[144.0694284,43.9318139],[144.0693587,43.9321229],[144.0694123,43.9323084],[144.0697503,43.9323045],[144.0699416,43.9323108],[144.0699475,43.9324154],[144.0696526,43.9325626],[144.0691892,43.9328112],[144.0689447,43.9331879],[144.0686872,43.9334414],[144.0685862,43.9339077],[144.0686721,43.9341781],[144.0688598,43.9343018],[144.0691227,43.934352],[144.0695894,43.9340468],[144.069863,43.9339695],[144.0699863,43.9337339],[144.0702492,43.9335678],[144.0705969,43.9337425],[144.0707949,43.9338405],[144.0709156,43.9340662],[144.0708861,43.9341952],[144.0706516,43.9341602],[144.0702102,43.9342529],[144.0700472,43.9344223],[144.0695233,43.9347009],[144.0690863,43.9347696],[144.0689188,43.9355032],[144.0687203,43.9356268],[144.0686345,43.935874],[144.068774,43.9362217],[144.0686828,43.9364187],[144.0687943,43.9369239],[144.0685975,43.9377435],[144.0684903,43.9379444],[144.0683467,43.9379547],[144.0682375,43.9378016],[144.068023,43.9376568],[144.0677038,43.9375949],[144.0673625,43.9376916],[144.0672612,43.9377784],[144.0669132,43.9377941],[144.0666389,43.9375119],[144.0663332,43.9372376],[144.0658584,43.9372473],[144.065524,43.9372628],[144.0650779,43.9374037],[144.0647413,43.9373532],[144.0644851,43.9374269],[144.064079,43.9374205],[144.0634579,43.9373175],[144.063251,43.9373686],[144.0628976,43.9374356],[144.0624171,43.9372415],[144.0616554,43.9370947],[144.0613335,43.9369209],[144.0608936,43.9370638],[144.0604699,43.9368938],[144.0601571,43.9366737],[144.0596952,43.9367537],[144.0592533,43.936665],[144.0588001,43.9365982],[144.0582823,43.9366049],[144.0578376,43.936397],[144.0576183,43.9363961],[144.0573265,43.9363269],[144.0572036,43.9363854],[144.0572847,43.9364951],[144.0575091,43.9365455],[144.0575254,43.936643],[144.057415,43.9367422],[144.0572727,43.936693],[144.0571064,43.9367471],[144.0569776,43.9369325],[144.0568542,43.9370638],[144.0566987,43.9370715],[144.0561461,43.9367586],[144.0554112,43.9363183],[144.05532,43.9363723],[144.0546658,43.9361486],[144.054746,43.9365578],[144.0547782,43.9370329],[144.0545422,43.9373728],[144.0541184,43.9375544],[144.0535873,43.9376626],[144.0540808,43.9381493],[144.0543276,43.9383733],[144.0544403,43.9387558],[144.0542257,43.9388021],[144.0540916,43.9386437],[144.0538984,43.9386012],[144.0537804,43.9386476],[144.053421,43.9382729],[144.0533405,43.9376664],[144.053024,43.9376703],[144.0524715,43.9378866],[144.0526043,43.9382485],[144.052788,43.9382729],[144.0528792,43.9385549],[144.0529811,43.9387326],[144.053244,43.9387635],[144.0532386,43.9389798],[144.05348,43.939115],[144.0535229,43.9392734],[144.053359,43.9398117],[144.053641,43.9401077],[144.0536195,43.9402506],[144.053657,43.9405983],[144.0539145,43.9407064],[144.0543652,43.9408455],[144.0547782,43.9410657],[144.0551645,43.9414095],[144.0554917,43.9417185],[144.0557975,43.9420236],[144.056171,43.941611],[144.0564702,43.9413384],[144.057033,43.9406044],[144.0583872,43.9400969],[144.0587848,43.9400421],[144.0598389,43.9396115],[144.0613471,43.9399628],[144.0619795,43.9401976],[144.0625137,43.9402931],[144.0627015,43.9401657],[144.0627444,43.9403434],[144.0632057,43.9405828],[144.0638387,43.9411159],[144.0649438,43.9413515],[144.0664351,43.9417146],[144.0670788,43.9417648],[144.0675455,43.9417339],[144.0678835,43.9416412],[144.0681356,43.9417223],[144.0682322,43.9420197],[144.0684628,43.9422515],[144.0689832,43.9424099],[144.0695411,43.9426957],[144.0703779,43.9428811],[144.0711075,43.9430511],[144.0717834,43.9431824],[144.072293,43.9434025],[144.0727705,43.9434605],[144.0731138,43.943727],[144.0737039,43.9439085],[144.0742886,43.9439395],[144.0745622,43.9437347],[144.0747124,43.943445],[144.0750933,43.9432287],[144.0757048,43.9428193],[144.0759623,43.9425335],[144.0761983,43.9422631],[144.0761983,43.942097],[144.0761071,43.9417301],[144.075854,43.941421],[144.0757725,43.9411701],[144.0753615,43.9407914],[144.0753828,43.9405232],[144.0751446,43.9403658],[144.0749438,43.9405217],[144.0748553,43.9407232],[144.0745836,43.9407876],[144.0739614,43.9407451],[144.0735698,43.9406292],[144.0731651,43.9404013],[144.0731657,43.9399396],[144.0730387,43.9395013],[144.072513,43.9391459],[144.0722501,43.9392888],[144.071998,43.9393506],[144.071424,43.939312],[144.0712577,43.9391845],[144.0714025,43.9391304],[144.0718853,43.9391266],[144.0716064,43.9389721],[144.0712738,43.9389643],[144.0710163,43.9389875],[144.0705979,43.9388523],[144.0705774,43.9385986],[144.0698532,43.9382618],[144.0695431,43.9382706],[144.0685742,43.9381715],[144.0685197,43.9380136],[144.0688098,43.9379477]]],[[[144.0779345,43.9418928],[144.0779284,43.9420449],[144.0781,43.942265],[144.0783012,43.9423345],[144.0786445,43.9426899],[144.0788645,43.9429757],[144.0791166,43.9431032],[144.0794331,43.9433137],[144.0796584,43.9433658],[144.0797389,43.9434914],[144.0797657,43.943586],[144.0799454,43.9436324],[144.0800098,43.9437077],[144.0801358,43.9438834],[144.0802619,43.9438371],[144.0804067,43.9438274],[144.0805301,43.9439008],[144.0806106,43.9440862],[144.0806884,43.9440978],[144.0806829,43.9440051],[144.0806293,43.9437811],[144.0806723,43.9435416],[144.0801548,43.9431671],[144.0793374,43.9427689],[144.0791209,43.9424464],[144.0785875,43.9422718],[144.0781311,43.9419974],[144.0779345,43.9418928]]],[[[144.0770648,43.9416522],[144.0772685,43.9417407],[144.0774053,43.9418343],[144.0774898,43.9417523],[144.0775783,43.9417407],[144.0776615,43.9417986],[144.0777368,43.9417877],[144.0775289,43.9414996],[144.0771156,43.9412356],[144.0770459,43.9414674],[144.0770648,43.9416522]]],[[[144.0762037,43.9479949],[144.0762627,43.9476434],[144.0762305,43.9474426],[144.0757531,43.9466431],[144.0750718,43.9457895],[144.0747391,43.9455206],[144.0746266,43.9456235],[144.0743798,43.9457509],[144.0741599,43.9456737],[144.0740257,43.9456389],[144.0743583,43.9452836],[144.0744512,43.9452238],[144.0743127,43.9449186],[144.0738407,43.9446482],[144.0731996,43.9443546],[144.0726712,43.9441306],[144.0721858,43.9439684],[144.0711451,43.9434759],[144.0705979,43.9432635],[144.0699381,43.9431824],[144.0691388,43.9433137],[144.068951,43.9432171],[144.0684146,43.9426069],[144.0679237,43.94207],[144.0678486,43.9419811],[144.067744,43.9419155],[144.0674597,43.9419019],[144.0671647,43.9419193],[144.0671352,43.9419444],[144.0673578,43.9419599],[144.0675268,43.9420159],[144.0677255,43.942073],[144.067862,43.9420931],[144.0679774,43.9423577],[144.0680605,43.9426918],[144.068149,43.9428869],[144.0684789,43.9430124],[144.068546,43.9432249],[144.0684226,43.9434721],[144.0681651,43.9438216],[144.0678272,43.9442813],[144.0678781,43.9445304],[144.0681356,43.944766],[144.0684387,43.9449263],[144.068251,43.9449514],[144.0683931,43.9450113],[144.0685958,43.9450567],[144.0685862,43.9450055],[144.0688384,43.9449553],[144.0690422,43.9447428],[144.0693426,43.9445574],[144.0696806,43.9442484],[144.0698576,43.9439626],[144.0703243,43.9435416],[144.0707749,43.9435455],[144.0709358,43.9437733],[144.0710753,43.9438081],[144.0711451,43.9441017],[144.0711558,43.9445767],[144.071255,43.9445787],[144.0713757,43.9443604],[144.0715098,43.9442562],[144.0717351,43.9441866],[144.0719873,43.9442793],[144.0718102,43.9445072],[144.0717995,43.9449359],[144.0717325,43.9450731],[144.0715581,43.9451368],[144.071086,43.9451291],[144.0709948,43.9453183],[144.0705872,43.9460522],[144.0709948,43.9460599],[144.071145,43.9459595],[144.0717244,43.9458204],[144.0721428,43.9453724],[144.0723681,43.9448471],[144.0726578,43.9447003],[144.0728509,43.944739],[144.0731728,43.9451329],[144.0731299,43.9462762],[144.0730655,43.9468555],[144.0728831,43.9471722],[144.072572,43.9474503],[144.0721106,43.9477825],[144.072454,43.9481455],[144.0727955,43.9483477],[144.0729046,43.9480026],[144.0730762,43.9478018],[144.0734088,43.9478443],[144.0737039,43.9478404],[144.0738863,43.9477748],[144.0739453,43.9475469],[144.0741652,43.9473769],[144.0743691,43.9470873],[144.0743315,43.9469521],[144.0743959,43.9465813],[144.0745676,43.9464577],[144.074868,43.9464036],[144.0751737,43.9464268],[144.0753025,43.9466161],[144.0757263,43.9473499],[144.0755975,43.9478559],[144.0752435,43.9484893],[144.0752274,43.9486785],[144.0757102,43.948833],[144.0758443,43.9487133],[144.0757745,43.9485086],[144.0759569,43.9478868],[144.0762037,43.9479949]]],[[[144.0783522,43.9501519],[144.0781993,43.9500573],[144.0777487,43.9496247],[144.0776038,43.9495205],[144.0773463,43.9491536],[144.0770405,43.9488446],[144.0769386,43.9487442],[144.0762803,43.9484436],[144.0763056,43.9485163],[144.0764075,43.948694],[144.0761393,43.9493158],[144.0759516,43.949505],[144.0756512,43.9495591],[144.0753829,43.949532],[144.0751791,43.9493853],[144.0751415,43.949169],[144.0750235,43.9490145],[144.0747982,43.948972],[144.0745461,43.9492617],[144.0744764,43.9495011],[144.0746427,43.9496289],[144.0753615,43.9499105],[144.0761554,43.9501075],[144.076311,43.9502697],[144.0766919,43.9503933],[144.077062,43.9504396],[144.0775502,43.9505323],[144.0782475,43.9506482],[144.0783709,43.9505401],[144.0783709,43.9503469],[144.0783522,43.9501519]]],[[[144.0669769,43.9419637],[144.0670113,43.9418455],[144.066875,43.9418498],[144.0664244,43.9419579],[144.065786,43.9417416],[144.0655231,43.9420043],[144.0651154,43.9420429],[144.0644395,43.9416567],[144.0643805,43.9415369],[144.0646112,43.9415562],[144.0646595,43.9414481],[144.0638226,43.9412163],[144.06268,43.9406871],[144.0621918,43.9403858],[144.0618163,43.9404129],[144.0611082,43.9400961],[144.060663,43.9400189],[144.0604699,43.9403588],[144.0612906,43.9407721],[144.0614515,43.9409846],[144.0617037,43.9413901],[144.0621865,43.9414867],[144.0627068,43.9417146],[144.0632915,43.9421665],[144.0634203,43.9428232],[144.0635866,43.9428077],[144.0638065,43.942576],[144.064064,43.9424215],[144.064343,43.9423635],[144.064579,43.9424408],[144.0646809,43.9425142],[144.0648204,43.9424987],[144.0648687,43.9426648],[144.0648097,43.9428154],[144.0643537,43.9432249],[144.0638065,43.9434103],[144.064077,43.94375],[144.0643698,43.9440128],[144.0647775,43.9445034],[144.0652293,43.9448382],[144.0661401,43.9436691],[144.0662688,43.9436073],[144.0664566,43.9434412],[144.0666282,43.943136],[144.0668642,43.9429236],[144.0671217,43.9428541],[144.0672988,43.9429777],[144.06739,43.9431901],[144.0674758,43.9432751],[144.0673041,43.9435725],[144.0668911,43.9440128],[144.0662795,43.94499],[144.0664887,43.9451831],[144.0665102,43.9452565],[144.066875,43.9454883],[144.0677226,43.9457084],[144.0681478,43.9460802],[144.0681142,43.946253],[144.0685503,43.9463767],[144.0696992,43.9450508],[144.0699273,43.9446501],[144.0698039,43.9446154],[144.0696484,43.9448355],[144.0693802,43.9449862],[144.0692729,43.9449514],[144.0690315,43.9452797],[144.0687633,43.9452372],[144.0687311,43.9451426],[144.0685809,43.94516],[144.0684119,43.9451252],[144.0682965,43.9452237],[144.0678593,43.9450306],[144.067567,43.9447699],[144.0673873,43.9445709],[144.0673685,43.9442156],[144.067516,43.944009],[144.067685,43.9438255],[144.0679908,43.9433407],[144.0676394,43.9426551],[144.0675455,43.942377],[144.0675107,43.9422264],[144.0673444,43.9421298],[144.0671056,43.942124],[144.0667972,43.9422341],[144.0665746,43.9424137],[144.0665558,43.942321],[144.0665397,43.9421936],[144.0667731,43.9420371],[144.0669769,43.9419637]]],[[[144.0693721,43.9465678],[144.069348,43.9467822],[144.0696591,43.9470583],[144.0699354,43.9472418],[144.0703511,43.9473441],[144.0704718,43.9471838],[144.0708795,43.9468671],[144.0712282,43.9466721],[144.0715983,43.9464287],[144.0715447,43.9462221],[144.0711263,43.9463071],[144.07074,43.9463515],[144.0705603,43.9462492],[144.0703645,43.9462163],[144.0699676,43.9463612],[144.0696457,43.9464712],[144.0693721,43.9465678]]],[[[144.0822816,43.9463457],[144.082126,43.9458513],[144.0824962,43.9456003],[144.0822172,43.9452874],[144.0814984,43.9446926],[144.0813455,43.9445671],[144.0811899,43.9445922],[144.0809995,43.9445709],[144.0810156,43.9444956],[144.0809378,43.9444319],[144.081037,43.9443334],[144.0810236,43.9442484],[144.0808332,43.9442349],[144.0807232,43.9442137],[144.0806052,43.9442484],[144.0804362,43.944119],[144.0803128,43.9440283],[144.0801224,43.9440456],[144.0799668,43.9439858],[144.0798435,43.943868],[144.0796906,43.9437424],[144.0795243,43.9435261],[144.0796208,43.9437811],[144.0797818,43.9440437],[144.0794867,43.9439665],[144.0793365,43.9438622],[144.079417,43.9436922],[144.0792775,43.9436536],[144.07902,43.9438081],[144.0792668,43.9440785],[144.0796637,43.9442832],[144.0796481,43.9444292],[144.0798622,43.9446076],[144.0798864,43.9447235],[144.0802002,43.9449205],[144.0806749,43.9451368],[144.0809351,43.9454187],[144.081096,43.9456157],[144.0812087,43.9461178],[144.0812033,43.9463225],[144.081316,43.9464886],[144.0812087,43.9467435],[144.0810263,43.9472765],[144.0809798,43.9474091],[144.0811738,43.9474986],[144.081257,43.9477303],[144.0813482,43.947825],[144.0813857,43.947964],[144.0816845,43.9481487],[144.081772,43.947543],[144.0816677,43.9473402],[144.0816797,43.947073],[144.0819007,43.9469444],[144.081949,43.9467088],[144.0819678,43.9465639],[144.0818551,43.9464094],[144.0816915,43.9462704],[144.0818176,43.9461545],[144.0818176,43.9460502],[144.0817505,43.9459691],[144.0818042,43.9458243],[144.081772,43.9457567],[144.0815547,43.9457104],[144.0813965,43.9456679],[144.0812892,43.9455559],[144.0813589,43.9454709],[144.0815896,43.945552],[144.0817264,43.9456234],[144.0818712,43.945581],[144.0819973,43.9456621],[144.0820241,43.9458687],[144.0820321,43.9459865],[144.0820536,43.9461603],[144.082067,43.9462221],[144.0821528,43.9462994],[144.0822189,43.9464141],[144.0822816,43.9463457]]],[[[144.0806589,43.9476705],[144.0808278,43.947713],[144.0809619,43.9478172],[144.0810424,43.947964],[144.0811899,43.9479775],[144.0813562,43.9479968],[144.0813696,43.9481494],[144.081257,43.9483541],[144.0811792,43.948468],[144.0812623,43.9485993],[144.0811416,43.9486804],[144.0810049,43.9487229],[144.0809968,43.9487809],[144.0810317,43.9488562],[144.0810397,43.9489991],[144.0809727,43.9490724],[144.0808251,43.9490724],[144.080624,43.949084],[144.0805435,43.949169],[144.0805274,43.9492965],[144.0805382,43.9494162],[144.0804845,43.9494548],[144.0803423,43.9494915],[144.0802753,43.9495861],[144.0802941,43.9496865],[144.0804416,43.9497425],[144.0804657,43.9497908],[144.0803611,43.9499047],[144.0802485,43.9499743],[144.080345,43.9501307],[144.0803236,43.9502253],[144.0802109,43.9503508],[144.0800151,43.9503296],[144.079873,43.9503856],[144.0798488,43.9505053],[144.0798891,43.9505401],[144.0800071,43.9506984],[144.0801788,43.9507563],[144.0801197,43.9508838],[144.0800232,43.951158],[144.0798944,43.9511773],[144.0800339,43.9514669],[144.0797764,43.9515287],[144.0796798,43.9517218],[144.0798193,43.9518493],[144.0797925,43.9519806],[144.0798408,43.9523127],[144.0800929,43.9525946],[144.0803611,43.9527877],[144.0804845,43.9530967],[144.0802377,43.9532125],[144.0801573,43.9532009],[144.0799588,43.9532511],[144.0798381,43.9533226],[144.0796718,43.9533207],[144.0791048,43.9535128],[144.0788484,43.953367],[144.0786767,43.9531739],[144.0788054,43.9527028],[144.0786123,43.9525946],[144.0787732,43.9517296],[144.0789476,43.9514824],[144.0791488,43.9510151],[144.0792239,43.9505092],[144.0793204,43.95026],[144.0793794,43.9500766],[144.079484,43.9499878],[144.0797067,43.9501094],[144.0799078,43.9499723],[144.0797684,43.9497947],[144.0798381,43.9495861],[144.0801787,43.9491632],[144.0804201,43.9489489],[144.0805516,43.9486071],[144.0804765,43.9485144],[144.0803584,43.9484255],[144.0804121,43.9482614],[144.0804845,43.9481687],[144.0805703,43.9479061],[144.0806589,43.9476705]]]]}}
