{"type":"Feature","id":"attraction-large-park-R7184808","properties":{"id":"attraction-large-park-R7184808","kind":"attraction","name":"枚岡公園","shortName":"枚岡公園","context":"日本","subtype":"large-park","subtypeLabel":"大型都市公園・広域公園","statusLabel":"著名な公園","aliases":[],"osmType":"relation","osmId":7184808,"osmDate":null,"officialAreaKm2":null,"areaSourceLabel":"","areaSourceUrl":"","boundarySourceLabel":"© OpenStreetMap contributors","boundarySourceUrl":"https://www.openstreetmap.org/copyright","geometryFile":"attractions/large-park-R7184808.geojson"},"geometry":{"type":"MultiPolygon","coordinates":[[[[135.6521313,34.6681995],[135.6521393,34.6683362],[135.6523271,34.6687201],[135.6532031,34.6701992],[135.6531882,34.6702246],[135.6531617,34.6702574],[135.6531292,34.6702827],[135.6531007,34.6702976],[135.6530595,34.6703136],[135.6529864,34.6703384],[135.6529301,34.6703586],[135.6528881,34.6703801],[135.6528459,34.6704126],[135.6527809,34.6704744],[135.652754,34.6705069],[135.6527151,34.6705378],[135.6526447,34.6705516],[135.652524,34.6705571],[135.6524134,34.670577],[135.6523021,34.6706001],[135.6522323,34.6706112],[135.6521398,34.6706205],[135.6520687,34.6706371],[135.6520245,34.6706487],[135.6519641,34.6706812],[135.6519252,34.6706999],[135.6518756,34.6707115],[135.6518535,34.6707088],[135.6516423,34.6707099],[135.6516138,34.6707226],[135.6515923,34.6707457],[135.6515735,34.6707766],[135.6515615,34.6708196],[135.6515581,34.6708439],[135.6515735,34.6708648],[135.6516138,34.6708946],[135.6516322,34.670909],[135.6516402,34.6709437],[135.6515236,34.6709426],[135.6514807,34.6709354],[135.6514626,34.6709222],[135.6514371,34.6708852],[135.6514116,34.6708439],[135.6513667,34.6707744],[135.6513412,34.6707562],[135.6513016,34.6707474],[135.6512399,34.6707512],[135.6512191,34.6707667],[135.6512453,34.6708345],[135.6512875,34.6709432],[135.6513472,34.6710976],[135.65137,34.6711593],[135.6514357,34.6712134],[135.6515457,34.6712685],[135.651653,34.6713402],[135.651771,34.6714461],[135.6518649,34.6715443],[135.6518837,34.6715707],[135.6519038,34.6716204],[135.6519829,34.6716468],[135.6520976,34.6717053],[135.6522183,34.6717693],[135.6523095,34.671809],[135.652402,34.6718862],[135.652461,34.6719402],[135.6525643,34.6720042],[135.6526313,34.6720296],[135.6527024,34.6720207],[135.6527788,34.6719755],[135.6528486,34.6719215],[135.6529572,34.6718895],[135.6531088,34.671863],[135.6532362,34.671841],[135.6533569,34.6718354],[135.6535553,34.6718465],[135.6537123,34.6718586],[135.6538008,34.6718377],[135.653848,34.6719761],[135.653836,34.6720731],[135.6538668,34.6722099],[135.6538704,34.6722433],[135.6538735,34.6722717],[135.6538621,34.6723853],[135.6538568,34.6725011],[135.6537247,34.6725154],[135.6535879,34.6725761],[135.6535248,34.6726423],[135.6535067,34.6726953],[135.6534859,34.6727559],[135.6534605,34.6728717],[135.6534605,34.6729544],[135.6534819,34.6730967],[135.6535275,34.6732301],[135.6534913,34.6733162],[135.6534175,34.6734154],[135.653317,34.6734485],[135.6532378,34.6734915],[135.6533129,34.6736757],[135.6533746,34.6738268],[135.6534229,34.6739382],[135.6534873,34.6739647],[135.6535366,34.6740187],[135.6535969,34.674081],[135.6536579,34.6741654],[135.6537069,34.674236],[135.6537478,34.6743187],[135.6539027,34.6743871],[135.6541267,34.6744731],[135.6540891,34.6745713],[135.6540408,34.6747036],[135.6539322,34.6746794],[135.6538651,34.674858],[135.6537954,34.6750455],[135.6537391,34.6751999],[135.6537056,34.6752959],[135.6538102,34.6754691],[135.6541883,34.6755485],[135.6542433,34.6753235],[135.65425,34.6752683],[135.6541843,34.6749694],[135.6541669,34.6749022],[135.6542635,34.6747886],[135.6543406,34.6747483],[135.6545015,34.6747593],[135.6545082,34.6747858],[135.6547281,34.6747472],[135.6547429,34.6748807],[135.6548609,34.6750329],[135.6551265,34.6751365],[135.6552445,34.6752226],[135.6552901,34.6753549],[135.6553518,34.6755358],[135.6554993,34.6756328],[135.6557326,34.6756681],[135.656065,34.6758268],[135.6562637,34.6757431],[135.6565239,34.6756306],[135.6567331,34.6755358],[135.6571354,34.675377],[135.6575243,34.6751696],[135.657924,34.6749446],[135.6581976,34.6746998],[135.6582995,34.6744042],[135.6582003,34.6741263],[135.6582324,34.6738439],[135.6583116,34.6733917],[135.6584618,34.6729461],[135.6586334,34.6723417],[135.6587193,34.6719932],[135.6586924,34.6717814],[135.658671,34.6716314],[135.6586066,34.6714417],[135.6584779,34.6710623],[135.6584028,34.6706387],[135.6583277,34.6704402],[135.6580863,34.6701711],[135.6579468,34.6698578],[135.6580058,34.669549],[135.6579146,34.6690328],[135.6576464,34.6688387],[135.6572333,34.6686754],[135.6571435,34.6685276],[135.6570791,34.6683555],[135.6569477,34.6682144],[135.6570442,34.6678393],[135.657299,34.6677026],[135.6575485,34.6675834],[135.6577255,34.6673937],[135.6578087,34.667268],[135.6578596,34.6670275],[135.6579884,34.6667121],[135.6581654,34.666412],[135.6583236,34.6661275],[135.6583022,34.6659179],[135.6582029,34.6658605],[135.6580071,34.6658605],[135.6576799,34.666026],[135.6573983,34.6661914],[135.6572293,34.6663083],[135.6571274,34.6664076],[135.657012,34.6664915],[135.6569396,34.6665312],[135.6567546,34.6665665],[135.6566204,34.6665863],[135.6564032,34.6665885],[135.656202,34.6666194],[135.6560357,34.6666856],[135.6558667,34.6667871],[135.6557326,34.6668841],[135.6555422,34.6669635],[135.6553518,34.6670783],[135.6551881,34.6671797],[135.6549454,34.6672106],[135.6547362,34.6673209],[135.654527,34.66744],[135.654307,34.6675636],[135.6541059,34.667654],[135.6539503,34.6677621],[135.6538055,34.6678768],[135.6536258,34.6680026],[135.6533978,34.6680048],[135.6531778,34.6680136],[135.6529364,34.6680269],[135.6526521,34.6680467],[135.6523544,34.6680401],[135.6521586,34.6681195],[135.6521313,34.6681995]]],[[[135.6503343,34.6680701],[135.6502861,34.6681043],[135.65026,34.6681089],[135.65004,34.6680845],[135.650022,34.6680748],[135.650013,34.6680401],[135.6499971,34.6680311],[135.6499543,34.6680274],[135.6499178,34.6680092],[135.6497635,34.6680092],[135.6497397,34.6680261],[135.6497152,34.6681802],[135.6496851,34.6683945],[135.6496662,34.6684072],[135.6495744,34.6684085],[135.6495556,34.6684184],[135.6495047,34.6685298],[135.6495007,34.6686335],[135.6495128,34.6687372],[135.6495465,34.6688115],[135.6495825,34.6688276],[135.6496817,34.6688166],[135.6497193,34.6688353],[135.6498239,34.6689787],[135.6498507,34.6690295],[135.6498494,34.6691254],[135.64984,34.6691756],[135.6498241,34.6691832],[135.6497227,34.6691707],[135.6497021,34.6691661],[135.6495536,34.6691161],[135.6495322,34.6691111],[135.6494815,34.669112],[135.6494691,34.6691194],[135.6494953,34.6693052],[135.6494699,34.6693339],[135.6492942,34.6694155],[135.6492877,34.6694523],[135.6494071,34.6695284],[135.6494524,34.6695347],[135.6495858,34.6695005],[135.6497401,34.6694442],[135.6499412,34.6693736],[135.6501357,34.6693096],[135.6503516,34.6692357],[135.6504254,34.669206],[135.6504683,34.669164],[135.6504817,34.6691166],[135.6504954,34.6690366],[135.6505082,34.6689876],[135.6505223,34.668949],[135.6505578,34.6689048],[135.6506329,34.6688398],[135.6506785,34.6688034],[135.650697,34.6687934],[135.6507553,34.6687388],[135.6508135,34.6686834],[135.6508446,34.6686531],[135.6508451,34.6685872],[135.650827,34.6684725],[135.6508036,34.6684267],[135.6508029,34.6683236],[135.6508002,34.6681487],[135.6507915,34.6679541],[135.650774,34.6679132],[135.6506895,34.6679088],[135.6506641,34.6679298],[135.6506198,34.6680368],[135.6505564,34.6680691],[135.6503343,34.6680701]]]]}}
