{"type":"Feature","id":"attraction-large-industrial-complex-W643001950","properties":{"id":"attraction-large-industrial-complex-W643001950","kind":"attraction","name":"旭化成 大分工場","shortName":"旭化成 大分工場","context":"日本","subtype":"industrial-complex","subtypeLabel":"工業地帯・大規模工場","statusLabel":"","aliases":["Asahi Kasei Corporation"],"osmType":"way","osmId":643001950,"osmDate":null,"officialAreaKm2":null,"areaSourceLabel":"","areaSourceUrl":"","boundarySourceLabel":"© OpenStreetMap contributors","boundarySourceUrl":"https://www.openstreetmap.org/copyright","geometryFile":"attractions/large-industrial-complex-W643001950.geojson"},"geometry":{"type":"Polygon","coordinates":[[[131.7362505,33.2267115],[131.7381978,33.2276561],[131.738466,33.2274497],[131.7393002,33.2270683],[131.739952,33.2268125],[131.7402175,33.2263065],[131.74088,33.2252755],[131.7400418,33.2249076],[131.7399506,33.2247864],[131.7380664,33.2239035],[131.7379631,33.2238339],[131.7378786,33.2238564],[131.7377257,33.2240449],[131.7375004,33.2239428],[131.7373797,33.2239764],[131.7365026,33.2235052],[131.7362988,33.2236645],[131.7359528,33.2234828],[131.7358455,33.2234626],[131.7356068,33.2233661],[131.7355719,33.2232741],[131.7356202,33.2230632],[131.7357704,33.2227715],[131.736044,33.2224215],[131.7361727,33.2215711],[131.7362442,33.2213297],[131.7356148,33.2211223],[131.7353144,33.2217147],[131.7349899,33.2215756],[131.7344427,33.2214522],[131.7344883,33.221248],[131.7330641,33.2204694],[131.7321682,33.2197738],[131.7314655,33.2191051],[131.7304248,33.2183063],[131.7297488,33.2177318],[131.7295933,33.2174715],[131.7292553,33.2173728],[131.7290729,33.2174536],[131.7287564,33.2173593],[131.7284292,33.2177363],[131.7283648,33.2181761],[131.7282629,33.2182928],[131.7286009,33.2183197],[131.727941,33.2195808],[131.7275709,33.2194776],[131.7272061,33.2202988],[131.7268521,33.2201956],[131.7262351,33.221856],[131.726203,33.2227177],[131.7284721,33.2241896],[131.7358321,33.2275933],[131.7359179,33.2274968],[131.7358375,33.2273936],[131.7362505,33.2267115]]]}}
