{"type":"Feature","id":"attraction-large-park-W573654871","properties":{"id":"attraction-large-park-W573654871","kind":"attraction","name":"21世紀の森と広場","shortName":"21世紀の森と広場","context":"千葉県・松戸市","subtype":"large-park","subtypeLabel":"大型都市公園・広域公園","statusLabel":"","aliases":[],"osmType":"way","osmId":573654871,"osmDate":null,"officialAreaKm2":null,"areaSourceLabel":"","areaSourceUrl":"","boundarySourceLabel":"© OpenStreetMap contributors","boundarySourceUrl":"https://www.openstreetmap.org/copyright","geometryFile":"attractions/large-park-W573654871.geojson"},"geometry":{"type":"Polygon","coordinates":[[[139.9363918,35.7998916],[139.9366249,35.800015],[139.9369596,35.8003457],[139.9370626,35.8006602],[139.9374746,35.8015604],[139.9379021,35.8031593],[139.9378909,35.8033146],[139.9378713,35.8034184],[139.9377836,35.8037495],[139.937709,35.8039055],[139.9376162,35.804014],[139.9364833,35.8046127],[139.9364318,35.8046997],[139.9364318,35.8048319],[139.936715,35.8057925],[139.9365932,35.8059764],[139.9362858,35.8060779],[139.9370039,35.8065077],[139.9379864,35.8078914],[139.9387917,35.8077254],[139.9395685,35.8087115],[139.9405916,35.8086558],[139.9404728,35.8069439],[139.9398763,35.8065423],[139.9414381,35.806508],[139.9414571,35.8063181],[139.9431223,35.8050408],[139.9426294,35.8047422],[139.9430808,35.8042675],[139.9435514,35.8034467],[139.9442295,35.8034293],[139.9443282,35.8029353],[139.9441635,35.8023462],[139.9438202,35.8022626],[139.9436099,35.8021687],[139.9435943,35.80163],[139.9431078,35.8014203],[139.9423296,35.8010699],[139.9419343,35.8006898],[139.941113,35.8005828],[139.9412367,35.8001882],[139.9411507,35.8001164],[139.941522,35.7997237],[139.9409719,35.7985429],[139.9412981,35.7981356],[139.9404358,35.7972304],[139.9395592,35.7967286],[139.9393803,35.7968502],[139.9391705,35.7969625],[139.9385475,35.7972869],[139.9384372,35.797373],[139.9384179,35.7974003],[139.9383907,35.7974916],[139.9383363,35.7976352],[139.938303,35.797687],[139.938235,35.7977887],[139.9381858,35.7978317],[139.9380552,35.7979128],[139.93774,35.7980839],[139.937564,35.7981604],[139.9374148,35.7982131],[139.9373095,35.7982314],[139.9372674,35.7982529],[139.9372292,35.7982968],[139.9372044,35.7983816],[139.937164,35.7984536],[139.9371449,35.7984921],[139.9370629,35.7985839],[139.9370267,35.7986079],[139.936885,35.7986914],[139.9365311,35.7995754],[139.9363918,35.7998916]]]}}
