{"type":"Feature","id":"attraction-large-park-W449047468","properties":{"id":"attraction-large-park-W449047468","kind":"attraction","name":"わち山野草の森","shortName":"わち山野草の森","context":"日本","subtype":"large-park","subtypeLabel":"大型都市公園・広域公園","statusLabel":"著名な公園","aliases":[],"osmType":"way","osmId":449047468,"osmDate":null,"officialAreaKm2":null,"areaSourceLabel":"","areaSourceUrl":"","boundarySourceLabel":"© OpenStreetMap contributors","boundarySourceUrl":"https://www.openstreetmap.org/copyright","geometryFile":"attractions/large-park-W449047468.geojson"},"geometry":{"type":"Polygon","coordinates":[[[135.3938897,35.2660712],[135.3941671,35.2661195],[135.3943817,35.2660651],[135.3944779,35.265763],[135.3947924,35.2658295],[135.3949977,35.2658461],[135.3951235,35.2658068],[135.3951365,35.265902],[135.3949607,35.2660123],[135.3949311,35.266121],[135.3950329,35.2662751],[135.3952956,35.2661739],[135.3954093,35.2662403],[135.3956734,35.266121],[135.3955909,35.2658861],[135.3957475,35.2657325],[135.3958786,35.2656073],[135.3960818,35.2651755],[135.3965521,35.2654417],[135.3971094,35.2650584],[135.3975396,35.2652117],[135.3976625,35.2660401],[135.3987978,35.2657987],[135.398266,35.2648377],[135.3979136,35.2644762],[135.3976553,35.2642628],[135.3972398,35.2640266],[135.3943503,35.2627883],[135.3940238,35.2624297],[135.3931458,35.2625541],[135.392422,35.262832],[135.3926512,35.2644494],[135.3938897,35.2660712]]]}}
