{"type":"Feature","id":"attraction-large-park-W554879386","properties":{"id":"attraction-large-park-W554879386","kind":"attraction","name":"大芝高原公園","shortName":"大芝高原公園","context":"日本","subtype":"large-park","subtypeLabel":"大型都市公園・広域公園","statusLabel":"","aliases":[],"osmType":"way","osmId":554879386,"osmDate":null,"officialAreaKm2":null,"areaSourceLabel":"","areaSourceUrl":"","boundarySourceLabel":"© OpenStreetMap contributors","boundarySourceUrl":"https://www.openstreetmap.org/copyright","geometryFile":"attractions/large-park-W554879386.geojson"},"geometry":{"type":"Polygon","coordinates":[[[137.9384238,35.8870261],[137.9372409,35.8856677],[137.9360191,35.8842761],[137.9371939,35.8835809],[137.9376789,35.8827408],[137.9381956,35.8818994],[137.9392083,35.8802456],[137.9401689,35.8798115],[137.942067,35.8791178],[137.9420915,35.879104],[137.9440791,35.8811066],[137.9459084,35.8829824],[137.9458714,35.8830117],[137.9460353,35.8832045],[137.9460707,35.8832068],[137.9466396,35.88374],[137.9478542,35.8850098],[137.948284,35.8854425],[137.9487137,35.8858535],[137.9493289,35.886453],[137.9495958,35.8867142],[137.948637,35.8875797],[137.948821,35.8879244],[137.9481533,35.8886609],[137.9468608,35.8891512],[137.9463059,35.8899892],[137.9455746,35.8897893],[137.944511,35.8904199],[137.9421775,35.8913164],[137.9420028,35.8911214],[137.9403562,35.88924],[137.9384238,35.8870261]]]}}
