{"type":"Feature","id":"attraction-large-park-R7508096","properties":{"id":"attraction-large-park-R7508096","kind":"attraction","name":"鞍ヶ池公園","shortName":"鞍ヶ池公園","context":"日本","subtype":"large-park","subtypeLabel":"大型都市公園・広域公園","statusLabel":"","aliases":["Kuragaike Park"],"osmType":"relation","osmId":7508096,"osmDate":null,"officialAreaKm2":null,"areaSourceLabel":"","areaSourceUrl":"","boundarySourceLabel":"© OpenStreetMap contributors","boundarySourceUrl":"https://www.openstreetmap.org/copyright","geometryFile":"attractions/large-park-R7508096.geojson"},"geometry":{"type":"MultiPolygon","coordinates":[[[[137.2183384,35.0955986],[137.2184678,35.0954614],[137.2186106,35.0953407],[137.2186542,35.095316],[137.2186878,35.0953012],[137.2187501,35.0952886],[137.2188091,35.0952859],[137.2188815,35.095282],[137.2189345,35.09527],[137.2189714,35.0952568],[137.2190224,35.0952354],[137.2191001,35.0951663],[137.2191592,35.0951196],[137.2192329,35.09509],[137.2193073,35.0950664],[137.2193697,35.0950313],[137.2194193,35.0949836],[137.2194468,35.0949161],[137.2194643,35.0948596],[137.2194844,35.0946275],[137.2194797,35.0945523],[137.2193892,35.0942176],[137.2193838,35.0941655],[137.2193985,35.0941068],[137.2194475,35.0940563],[137.2196306,35.0939142],[137.2196815,35.0938698],[137.2197217,35.0938089],[137.2197472,35.0937579],[137.2197613,35.0936405],[137.2197834,35.093562],[137.2200657,35.0931143],[137.2201995,35.0928388],[137.2201328,35.0927675],[137.2200094,35.0926907],[137.2199102,35.0926425],[137.2198109,35.0926106],[137.219815,35.0924779],[137.2197908,35.0923418],[137.2194019,35.091747],[137.2187045,35.0913037],[137.2181949,35.090845],[137.2183156,35.0903819],[137.218219,35.0902437],[137.2178623,35.0900703],[137.217983,35.0894141],[137.2180045,35.0892078],[137.2179374,35.0891134],[137.2177309,35.0890629],[137.2176129,35.0890958],[137.2174171,35.0890058],[137.217232,35.0889949],[137.2171247,35.0890124],[137.2169718,35.08903],[137.2168538,35.0889927],[137.2167867,35.0889159],[137.2167438,35.0888303],[137.2165695,35.0890871],[137.2164381,35.0892034],[137.2161403,35.089481],[137.2159418,35.089673],[137.2158694,35.0897652],[137.2158265,35.0898442],[137.2158238,35.0899287],[137.2158627,35.0900012],[137.2159123,35.0900549],[137.2161095,35.0902557],[137.2162825,35.0903962],[137.2162757,35.0904613],[137.2162691,35.0905246],[137.2160652,35.0907858],[137.2158667,35.0909943],[137.2157782,35.0911611],[137.215848,35.0913564],[137.2159874,35.0916549],[137.2162423,35.0920653],[137.2167116,35.0925437],[137.2168028,35.0928114],[137.2168457,35.0929212],[137.2169557,35.0930704],[137.2170925,35.0932109],[137.2170952,35.0933974],[137.2169369,35.093573],[137.2167572,35.0937288],[137.2165722,35.0938649],[137.2162288,35.0942884],[137.2161001,35.0946154],[137.2158319,35.0947976],[137.2155234,35.0950302],[137.2152418,35.0952409],[137.2150487,35.0953989],[137.2149977,35.0954823],[137.2149333,35.0955503],[137.2148421,35.0955876],[137.214767,35.0956074],[137.214649,35.0956644],[137.214523,35.0957895],[137.2144237,35.0959278],[137.2143567,35.0962592],[137.2142936,35.0963612],[137.2142333,35.0963985],[137.2141984,35.0964457],[137.2141367,35.0964929],[137.2140174,35.0965269],[137.2139651,35.0965587],[137.2138752,35.0966004],[137.213788,35.0966322],[137.213674,35.09672],[137.2136123,35.0967387],[137.2135144,35.0967101],[137.2134367,35.0967035],[137.2133227,35.0966992],[137.2132985,35.0966871],[137.2133079,35.0966487],[137.2133294,35.096596],[137.213328,35.0965455],[137.2133629,35.0964819],[137.2134139,35.0964248],[137.2134447,35.0963678],[137.2134474,35.0962965],[137.2134326,35.0962076],[137.2134072,35.0961198],[137.2133857,35.0961011],[137.2133401,35.0960726],[137.2132945,35.0960638],[137.2130866,35.0961044],[137.2130437,35.0961],[137.2130156,35.0960836],[137.2129606,35.0959739],[137.2129257,35.095885],[137.2129284,35.0957731],[137.2128734,35.0956513],[137.2128774,35.095581],[137.2129284,35.095513],[137.2129565,35.0954318],[137.2128882,35.0953715],[137.2128291,35.0952913],[137.2126789,35.0950675],[137.2125944,35.095028],[137.2125529,35.095016],[137.2121549,35.0948941],[137.2120728,35.09496],[137.2120298,35.0950104],[137.2120137,35.0952102],[137.2120044,35.0954867],[137.212007,35.0955723],[137.2120285,35.0956721],[137.2120513,35.0957467],[137.2120687,35.0958433],[137.2120808,35.0959969],[137.2120687,35.0960858],[137.2120607,35.0961955],[137.2120795,35.0963206],[137.212062,35.0965401],[137.2120433,35.0966597],[137.211999,35.0967924],[137.2119319,35.0969526],[137.2118662,35.0971732],[137.2118568,35.0972632],[137.2118622,35.0973147],[137.2119212,35.0973762],[137.211996,35.0974251],[137.2120548,35.0974764],[137.212099,35.0975402],[137.212128,35.0976213],[137.2121564,35.0978288],[137.2121692,35.0979533],[137.2121962,35.098043],[137.2122285,35.0981283],[137.2122995,35.0982551],[137.2123813,35.09835],[137.212518,35.0984917],[137.212703,35.0985463],[137.2128499,35.0986205],[137.2129344,35.0986737],[137.2132543,35.0987488],[137.2136767,35.0988415],[137.2137485,35.0988459],[137.213841,35.0988454],[137.2138846,35.098841],[137.214008,35.0988125],[137.2141468,35.0987609],[137.2143842,35.0986375],[137.2145364,35.0985563],[137.2146001,35.0984882],[137.2147858,35.0983736],[137.2148944,35.0983418],[137.2156508,35.0979336],[137.2158667,35.097837],[137.2160049,35.0977887],[137.2162302,35.0977311],[137.216314,35.0977147],[137.2163174,35.0976971],[137.2164803,35.0976708],[137.2164951,35.097679],[137.2166553,35.0976571],[137.2169805,35.0976521],[137.217114,35.0976675],[137.2172534,35.0977081],[137.217356,35.0977328],[137.2180621,35.0978754],[137.2184819,35.0979659],[137.2187682,35.0980241],[137.2189245,35.0980504],[137.219021,35.098062],[137.2193322,35.0980861],[137.2195588,35.0980949],[137.2196688,35.0980976],[137.2196678,35.0981163],[137.2199605,35.0981316],[137.220049,35.098141],[137.2200577,35.0981036],[137.2201274,35.0981102],[137.2201992,35.0981223],[137.2203628,35.098153],[137.2204553,35.0981854],[137.2205422,35.0982145],[137.2207028,35.0982726],[137.2209006,35.0983642],[137.2216409,35.0987088],[137.2221565,35.0989387],[137.2224489,35.0987137],[137.2226152,35.0987499],[137.2227386,35.098739],[137.222819,35.098796],[137.2229156,35.0988289],[137.2230175,35.0988048],[137.2231489,35.0988597],[137.2232616,35.0989518],[137.2233447,35.0985524],[137.223381,35.0983582],[137.2233904,35.0981398],[137.2233917,35.0980291],[137.2233152,35.0971852],[137.2228619,35.0945606],[137.2217864,35.0948459],[137.2215718,35.0951092],[137.2213653,35.0950938],[137.2211775,35.095096],[137.2210729,35.095118],[137.2209951,35.095197],[137.22092,35.095287],[137.2206867,35.0953682],[137.2205096,35.0953901],[137.2204292,35.0953879],[137.2202123,35.0952639],[137.219941,35.095231],[137.2198418,35.0953627],[137.2197707,35.0954263],[137.2197103,35.0954768],[137.2195689,35.0955481],[137.2195286,35.0955618],[137.2195085,35.0955706],[137.2195078,35.0955832],[137.2194988,35.0956351],[137.219188,35.0956394],[137.2190425,35.0956628],[137.2189426,35.0956864],[137.2187783,35.0957314],[137.2186495,35.0957972],[137.2183384,35.0955986]]],[[[137.2193309,35.1011193],[137.2201743,35.1011277],[137.2202039,35.1010859],[137.2202535,35.1010837],[137.220397,35.1011057],[137.2204144,35.1011463],[137.2204842,35.1012242],[137.2205445,35.1012494],[137.220621,35.1012681],[137.2208154,35.1012626],[137.2210139,35.101217],[137.2212137,35.101155],[137.221317,35.101143],[137.2213881,35.101143],[137.2216094,35.1011199],[137.2217358,35.1011081],[137.2218303,35.1011081],[137.2219238,35.1011191],[137.222001,35.1011326],[137.2221217,35.1011644],[137.2222021,35.1011786],[137.2222833,35.1011781],[137.2223597,35.1011611],[137.2224972,35.1011501],[137.222644,35.1011293],[137.2227158,35.1011885],[137.2227278,35.1012126],[137.2227205,35.101239],[137.2227037,35.1012785],[137.2226782,35.1013218],[137.2226916,35.1013542],[137.2227064,35.1013789],[137.2227359,35.1014058],[137.2227506,35.1014266],[137.222758,35.1014667],[137.2227707,35.1015007],[137.2227942,35.1015275],[137.2228955,35.1015989],[137.2229605,35.1016801],[137.222992,35.1017064],[137.2230256,35.1017294],[137.2230812,35.1017475],[137.2231268,35.1017514],[137.2231657,35.1017415],[137.2232033,35.1017245],[137.2232285,35.1017158],[137.2233362,35.1016855],[137.223419,35.1016194],[137.2234921,35.1015359],[137.2236056,35.1015407],[137.2236171,35.101575],[137.2236514,35.1017204],[137.2237656,35.1017413],[137.2238581,35.1017571],[137.2239189,35.1017672],[137.2240264,35.1018329],[137.2241132,35.101787],[137.2241856,35.1017783],[137.2242755,35.1017892],[137.2243385,35.1018221],[137.2243506,35.1018704],[137.2244632,35.1018309],[137.2244552,35.1017618],[137.2244324,35.1017124],[137.2245075,35.1016762],[137.2245128,35.10164],[137.2245571,35.1015884],[137.2246295,35.1014085],[137.224663,35.101392],[137.2247073,35.1013284],[137.2247086,35.1012538],[137.2246738,35.1012231],[137.2245665,35.1011353],[137.2244552,35.1010289],[137.2243068,35.1009241],[137.2241186,35.1008116],[137.2238852,35.1006437],[137.2232924,35.1001456],[137.2232281,35.1000918],[137.223094,35.0999744],[137.2228673,35.099789],[137.2227439,35.0996639],[137.2225729,35.099473],[137.2225548,35.0994352],[137.2224482,35.0993079],[137.2224207,35.0992656],[137.2223952,35.0992272],[137.2223443,35.0991702],[137.2222719,35.0991285],[137.2221699,35.0990813],[137.2220922,35.099055],[137.2219835,35.0989979],[137.2218347,35.0989321],[137.2216523,35.0988805],[137.22149,35.0988125],[137.221384,35.0987401],[137.2212613,35.0986737],[137.2212493,35.0986583],[137.2211815,35.0986292],[137.2211668,35.0986325],[137.2208624,35.0984921],[137.2205941,35.0983845],[137.2203514,35.0983012],[137.2201596,35.0982595],[137.2200751,35.0982485],[137.220059,35.0982381],[137.2199987,35.0982309],[137.2199739,35.0982392],[137.2196956,35.0982309],[137.2194113,35.09822],[137.219135,35.098209],[137.2189245,35.0981892],[137.2187327,35.0981552],[137.2185624,35.0981267],[137.2181319,35.0980345],[137.2170804,35.097814],[137.2169209,35.0978074],[137.2164823,35.0978271],[137.2162677,35.0978732],[137.2160451,35.0979402],[137.2159553,35.0979731],[137.2157139,35.0980927],[137.2155167,35.0982024],[137.2154993,35.0982408],[137.215502,35.0982957],[137.2155409,35.0983483],[137.21562,35.0984295],[137.2156951,35.0985009],[137.2157809,35.0985338],[137.215915,35.0986534],[137.2160518,35.0988717],[137.2163764,35.0991789],[137.2164635,35.0991559],[137.2165292,35.099259],[137.2166473,35.0993863],[137.2167854,35.0995037],[137.2170643,35.0997374],[137.2172789,35.0998889],[137.2173285,35.0999503],[137.2173835,35.1000106],[137.2174627,35.1000304],[137.217578,35.1000216],[137.2176249,35.100015],[137.2176853,35.1000095],[137.2177778,35.1000293],[137.2178543,35.1000875],[137.2178797,35.1001533],[137.2179106,35.1001868],[137.2179455,35.1002614],[137.2179025,35.1003881],[137.2179012,35.1004814],[137.2179455,35.1005636],[137.2180179,35.1005966],[137.2180527,35.1006503],[137.2180715,35.1006712],[137.2183786,35.1007249],[137.2187877,35.1006525],[137.2190371,35.1008654],[137.2191578,35.1008456],[137.2192624,35.1007886],[137.2193107,35.1007754],[137.2193214,35.1009685],[137.2192946,35.1010409],[137.2193187,35.1011024],[137.2193309,35.1011193]]],[[[137.2151171,35.0984257],[137.2150071,35.0984871],[137.2147999,35.0986007],[137.2145384,35.0987357],[137.2143365,35.098818],[137.2142494,35.0988679],[137.2141535,35.0989096],[137.2140757,35.0989321],[137.213963,35.0989573],[137.2138645,35.0989716],[137.2137471,35.098976],[137.2136579,35.098971],[137.2135849,35.0989606],[137.213089,35.0988489],[137.2130464,35.0988394],[137.2128593,35.098847],[137.2127775,35.0988498],[137.2127279,35.0988602],[137.2126776,35.0988794],[137.212569,35.0989255],[137.2126749,35.098976],[137.2127245,35.0990923],[137.2127406,35.0992042],[137.2127675,35.0993282],[137.2127902,35.0994313],[137.2127862,35.0995059],[137.2127339,35.0995674],[137.2126575,35.0996244],[137.2126226,35.0996672],[137.21264,35.0997473],[137.2126883,35.0998483],[137.2128184,35.1000633],[137.2128895,35.100071],[137.2129217,35.1000825],[137.2129398,35.100094],[137.2130933,35.1002455],[137.2132274,35.1004155],[137.2132717,35.1005384],[137.2133146,35.1005856],[137.2134112,35.1006229],[137.2135305,35.100635],[137.2136177,35.10068],[137.2137277,35.1006712],[137.2139168,35.1006492],[137.2140348,35.1007524],[137.2141059,35.1007765],[137.2142252,35.1008248],[137.2143111,35.1008193],[137.2143848,35.10076],[137.2144881,35.1006887],[137.2146343,35.1006514],[137.2148032,35.100658],[137.2148609,35.1006964],[137.2149776,35.1006492],[137.2151265,35.1006251],[137.2152445,35.1005999],[137.2153048,35.1005955],[137.2152968,35.1006284],[137.215286,35.1006503],[137.2151707,35.1006712],[137.2151332,35.100726],[137.2151452,35.1008259],[137.2151653,35.1008851],[137.2152217,35.1009455],[137.2153531,35.1010256],[137.215459,35.1010311],[137.2156052,35.1010102],[137.21573,35.1009466],[137.2158037,35.1009334],[137.2159056,35.1008873],[137.2159325,35.1008401],[137.2160639,35.1008358],[137.2160934,35.1007809],[137.2161564,35.100726],[137.2161739,35.100681],[137.2161363,35.100579],[137.2160639,35.100477],[137.215974,35.100398],[137.21586,35.1001039],[137.2158721,35.1000545],[137.2158802,35.1000074],[137.2158708,35.0999591],[137.2158936,35.0999404],[137.2159365,35.1000106],[137.2159821,35.1000326],[137.2161993,35.1000293],[137.2162771,35.0999777],[137.2164488,35.0995125],[137.2164541,35.099462],[137.2164501,35.0994017],[137.2162355,35.0991822],[137.2156213,35.0986215],[137.2153558,35.0983741],[137.2152559,35.0983659],[137.2151171,35.0984257]]],[[[137.2240585,35.1002755],[137.2245121,35.1006939],[137.2245145,35.1007805],[137.2244575,35.1008735],[137.2240394,35.1006042],[137.2237256,35.1003409],[137.2234547,35.1001116],[137.2235754,35.0999991],[137.2239194,35.1002027],[137.2240585,35.1002755]]]]}}
