{"type":"Feature","id":"attraction-large-park-W475809878","properties":{"id":"attraction-large-park-W475809878","kind":"attraction","name":"羊山公園","shortName":"羊山公園","context":"日本","subtype":"large-park","subtypeLabel":"大型都市公園・広域公園","statusLabel":"著名な公園","aliases":["Hitsujiyama Park"],"osmType":"way","osmId":475809878,"osmDate":null,"officialAreaKm2":null,"areaSourceLabel":"","areaSourceUrl":"","boundarySourceLabel":"© OpenStreetMap contributors","boundarySourceUrl":"https://www.openstreetmap.org/copyright","geometryFile":"attractions/large-park-W475809878.geojson"},"geometry":{"type":"Polygon","coordinates":[[[139.0896135,35.9845261],[139.0896723,35.9844843],[139.0897219,35.9844224],[139.0898412,35.9839894],[139.0898962,35.9838961],[139.0898922,35.9838527],[139.0899284,35.9837713],[139.0899324,35.9836812],[139.0898573,35.9835477],[139.0898627,35.9834056],[139.0900431,35.9826562],[139.0899894,35.9820746],[139.0901155,35.9811847],[139.0897427,35.9807072],[139.0890279,35.9797836],[139.0888106,35.9796545],[139.0882735,35.9792828],[139.0878363,35.9791113],[139.0872113,35.9790831],[139.0867741,35.9791243],[139.0858877,35.9796029],[139.0859102,35.9796894],[139.0863731,35.9814696],[139.0866601,35.9822118],[139.0868103,35.982774],[139.0867111,35.9834859],[139.0866199,35.9839612],[139.0866212,35.9848022],[139.0866378,35.9848668],[139.0867044,35.9851267],[139.0869076,35.9855125],[139.087098,35.9857621],[139.0876049,35.9865716],[139.0880019,35.9871381],[139.0882353,35.9876285],[139.0884244,35.9878163],[139.0884337,35.9879682],[139.088399,35.9880624],[139.0885594,35.9883166],[139.08855,35.9884642],[139.0884836,35.9885558],[139.0885,35.988566],[139.0885133,35.9885763],[139.0885379,35.9885758],[139.0885332,35.9886954],[139.0885244,35.9887346],[139.0885319,35.9888912],[139.0886365,35.9890279],[139.0888953,35.9894164],[139.0890817,35.9897625],[139.0892869,35.9900587],[139.0895739,35.9903799],[139.0899655,35.9909833],[139.0900983,35.9912556],[139.0902056,35.9914488],[139.0900661,35.9915095],[139.0901519,35.9915952],[139.0902123,35.9915974],[139.0903008,35.9916886],[139.0906676,35.9918974],[139.0908272,35.9918931],[139.0912726,35.9917297],[139.0919051,35.9915017],[139.0922806,35.9913823],[139.0927084,35.9912662],[139.0928774,35.991225],[139.0930132,35.9911965],[139.0930252,35.9911118],[139.0930695,35.9910532],[139.0931909,35.9909784],[139.0932385,35.9909491],[139.093323,35.9908558],[139.0933672,35.9907527],[139.0933287,35.9905999],[139.0932321,35.9904811],[139.0931523,35.9904198],[139.0930477,35.9903618],[139.0928398,35.9903086],[139.0925753,35.9902535],[139.0924003,35.9901982],[139.0922863,35.9901499],[139.0921871,35.9901011],[139.0919919,35.9900153],[139.0917274,35.9898707],[139.091539,35.9897953],[139.0911279,35.9896266],[139.0908875,35.9895254],[139.0908484,35.9894492],[139.0908077,35.9893784],[139.0906991,35.9892601],[139.0906575,35.9892134],[139.0906602,35.9891331],[139.0907246,35.9890593],[139.0908252,35.9890583],[139.0908936,35.9889704],[139.0909526,35.9888293],[139.0910002,35.9885021],[139.0905288,35.9882585],[139.0902485,35.9880502],[139.0901184,35.9877876],[139.0899038,35.9875011],[139.089761,35.9872607],[139.0897221,35.9871924],[139.0899447,35.987098],[139.0900158,35.9870307],[139.0900534,35.9869156],[139.0900922,35.9867507],[139.0900762,35.9864848],[139.0899943,35.9860117],[139.089875,35.9855342],[139.0896765,35.9847746],[139.0896135,35.9845261]]]}}
