{"type":"Feature","id":"attraction-large-park-W320466752","properties":{"id":"attraction-large-park-W320466752","kind":"attraction","name":"敷島公園","shortName":"敷島公園","context":"日本","subtype":"large-park","subtypeLabel":"大型都市公園・広域公園","statusLabel":"著名な公園","aliases":["Shikishima Park"],"osmType":"way","osmId":320466752,"osmDate":null,"officialAreaKm2":null,"areaSourceLabel":"","areaSourceUrl":"","boundarySourceLabel":"© OpenStreetMap contributors","boundarySourceUrl":"https://www.openstreetmap.org/copyright","geometryFile":"attractions/large-park-W320466752.geojson"},"geometry":{"type":"Polygon","coordinates":[[[139.0536376,36.4176619],[139.0534921,36.4175122],[139.0536193,36.4174328],[139.0533469,36.4171234],[139.0533303,36.4171073],[139.0530713,36.4172595],[139.0515786,36.4155909],[139.0520124,36.4153647],[139.0521556,36.4152871],[139.0520345,36.4150712],[139.0522804,36.4149526],[139.0523722,36.4149098],[139.0525185,36.4149236],[139.0525385,36.414916],[139.0526076,36.4148342],[139.0526956,36.4147661],[139.0531294,36.4148036],[139.0540602,36.4148673],[139.0541114,36.4148647],[139.0543373,36.4145015],[139.0545195,36.4141903],[139.0545197,36.4138945],[139.0545236,36.4128864],[139.0545273,36.4124264],[139.0545329,36.412211],[139.0545347,36.4119839],[139.0545044,36.4119439],[139.0544503,36.41192],[139.0541867,36.4118615],[139.0542008,36.4116741],[139.0542034,36.4114271],[139.0541851,36.4112873],[139.0541234,36.4110413],[139.0540746,36.4109223],[139.0539807,36.4107949],[139.0538853,36.4106781],[139.0537941,36.4105992],[139.0535994,36.4103972],[139.0535129,36.4102239],[139.0533771,36.4099257],[139.0532676,36.409697],[139.0532347,36.4096412],[139.0531338,36.4093597],[139.0531261,36.4093119],[139.0531862,36.4091108],[139.0531611,36.4090675],[139.0531284,36.4090443],[139.0527792,36.4090453],[139.0527002,36.4090714],[139.0526594,36.409103],[139.0526316,36.4091326],[139.0526122,36.4091748],[139.0525433,36.4093336],[139.0524865,36.4094827],[139.0523624,36.4097772],[139.0522708,36.4100042],[139.052182,36.4102106],[139.0520696,36.4104465],[139.0519774,36.4106188],[139.0518882,36.4107741],[139.0517745,36.4109822],[139.0517103,36.4110913],[139.051626,36.411221],[139.0514341,36.4115156],[139.0512991,36.4116858],[139.0511671,36.4118415],[139.0493077,36.4140237],[139.0493235,36.4140319],[139.0492877,36.4140745],[139.0492772,36.4141172],[139.0492864,36.4141399],[139.0494097,36.4144331],[139.0494675,36.4145537],[139.0495163,36.4146505],[139.0495412,36.4147],[139.0495527,36.4147277],[139.0495999,36.4148414],[139.0496188,36.415051],[139.0495611,36.415228],[139.0494364,36.4153769],[139.0492822,36.4154762],[139.0491025,36.4155625],[139.0487726,36.4156899],[139.0486411,36.4157525],[139.0485754,36.4158075],[139.0485272,36.4158895],[139.0484869,36.4160083],[139.0483689,36.41685],[139.0484896,36.4168587],[139.0487122,36.4167745],[139.0488745,36.4166892],[139.0490093,36.4166355],[139.049356,36.4165496],[139.0493814,36.4165658],[139.0494673,36.4168054],[139.0495223,36.4169532],[139.0493962,36.4169845],[139.0494244,36.417048],[139.0492653,36.4170839],[139.049248,36.4170954],[139.0492138,36.4171345],[139.0492223,36.4171662],[139.0493032,36.4173807],[139.0493407,36.4174984],[139.0493568,36.4175836],[139.0494386,36.418093],[139.0494561,36.41826],[139.0494145,36.4182649],[139.0493928,36.4182679],[139.0493749,36.4182776],[139.0493472,36.4182923],[139.0493338,36.4182968],[139.0492503,36.4183001],[139.0488422,36.4183208],[139.0483649,36.4183449],[139.0483381,36.4183708],[139.0483238,36.4186835],[139.048322,36.4187231],[139.0483146,36.4188537],[139.0483065,36.4189346],[139.0481644,36.4196081],[139.0480437,36.4201649],[139.0479632,36.4205469],[139.0479847,36.4205642],[139.0490314,36.4208009],[139.0491327,36.4207725],[139.0495772,36.4202376],[139.0496993,36.4201006],[139.0497932,36.4200122],[139.0498575,36.4199581],[139.0498737,36.4199473],[139.0499353,36.4199063],[139.0499875,36.4198762],[139.0501338,36.4197919],[139.0506622,36.4195027],[139.0512818,36.419166],[139.0515661,36.4189922],[139.0523453,36.4185077],[139.0527624,36.4182368],[139.0533501,36.4178519],[139.0533986,36.4178242],[139.0535444,36.4177228],[139.0536376,36.4176619]]]}}
