{"type":"Feature","id":"attraction-large-park-W466088372","properties":{"id":"attraction-large-park-W466088372","kind":"attraction","name":"東公園","shortName":"東公園","context":"愛知県・岡崎市","subtype":"large-park","subtypeLabel":"大型都市公園・広域公園","statusLabel":"著名な公園","aliases":[],"osmType":"way","osmId":466088372,"osmDate":null,"officialAreaKm2":null,"areaSourceLabel":"","areaSourceUrl":"","boundarySourceLabel":"© OpenStreetMap contributors","boundarySourceUrl":"https://www.openstreetmap.org/copyright","geometryFile":"attractions/large-park-W466088372.geojson"},"geometry":{"type":"Polygon","coordinates":[[[137.1973539,34.9574662],[137.1969408,34.9576543],[137.1963417,34.9576939],[137.195808,34.9575728],[137.193662,34.95671],[137.193099,34.9564098],[137.1928391,34.9560639],[137.1925651,34.9555305],[137.1919244,34.9550236],[137.191363,34.9548152],[137.1906708,34.9546144],[137.1900627,34.9545477],[137.1900812,34.9537696],[137.1900844,34.9536356],[137.1901115,34.9524975],[137.1904462,34.9524685],[137.1906781,34.9522979],[137.1910298,34.9521804],[137.191371,34.9521943],[137.1923587,34.9526133],[137.1928945,34.9527558],[137.1936305,34.9527676],[137.1942926,34.9529151],[137.1947592,34.9529429],[137.1953378,34.9532234],[137.1957321,34.9533659],[137.1962853,34.953497],[137.1965436,34.9526473],[137.1968404,34.9516464],[137.1970636,34.9518671],[137.1974596,34.9519577],[137.1978829,34.9518465],[137.1983238,34.952025],[137.1991754,34.9517357],[137.1991771,34.9514693],[137.2000958,34.9514878],[137.2011804,34.9513995],[137.2009511,34.9523213],[137.201109,34.9530441],[137.2011034,34.9535793],[137.2008774,34.9541369],[137.2009485,34.9544865],[137.2007193,34.9547382],[137.1999738,34.9547297],[137.1994209,34.9551696],[137.1990306,34.9552895],[137.1986241,34.9560892],[137.197567,34.9569022],[137.1973539,34.9574662]]]}}
