{"type":"Feature","id":"attraction-large-park-W527994784","properties":{"id":"attraction-large-park-W527994784","kind":"attraction","name":"屯田西公園","shortName":"屯田西公園","context":"日本","subtype":"large-park","subtypeLabel":"大型都市公園・広域公園","statusLabel":"著名な公園","aliases":["Tonden nishi Park"],"osmType":"way","osmId":527994784,"osmDate":null,"officialAreaKm2":null,"areaSourceLabel":"","areaSourceUrl":"","boundarySourceLabel":"© OpenStreetMap contributors","boundarySourceUrl":"https://www.openstreetmap.org/copyright","geometryFile":"attractions/large-park-W527994784.geojson"},"geometry":{"type":"Polygon","coordinates":[[[141.3152404,43.1327368],[141.3151635,43.1327223],[141.3186373,43.1309859],[141.3225316,43.1289903],[141.3228364,43.1294888],[141.3229835,43.1305011],[141.3232409,43.1317166],[141.3152404,43.1327368]]]}}
