{"type":"Feature","id":"attraction-large-park-W92838883","properties":{"id":"attraction-large-park-W92838883","kind":"attraction","name":"こもれび森のイバライド","shortName":"こもれび森のイバライド","context":"日本","subtype":"large-park","subtypeLabel":"大型都市公園・広域公園","statusLabel":"著名な公園","aliases":[],"osmType":"way","osmId":92838883,"osmDate":null,"officialAreaKm2":null,"areaSourceLabel":"","areaSourceUrl":"","boundarySourceLabel":"© OpenStreetMap contributors","boundarySourceUrl":"https://www.openstreetmap.org/copyright","geometryFile":"attractions/large-park-W92838883.geojson"},"geometry":{"type":"Polygon","coordinates":[[[140.2715198,35.9397483],[140.2719527,35.9397557],[140.272301,35.9397767],[140.2725242,35.9405097],[140.272784,35.9418047],[140.2728079,35.9421648],[140.2727684,35.9423129],[140.2727196,35.9425232],[140.2727465,35.9427531],[140.272663,35.9430897],[140.2726212,35.94327],[140.2725028,35.9432703],[140.2719356,35.9430911],[140.2707803,35.9426209],[140.2699215,35.9422316],[140.2686311,35.9416544],[140.2682482,35.9415357],[140.2680764,35.9415241],[140.2679986,35.941543],[140.268009,35.9406508],[140.2680099,35.9405746],[140.2674419,35.9405728],[140.2674424,35.9394411],[140.2677365,35.9394378],[140.2692664,35.9392116],[140.2694908,35.9392023],[140.2697061,35.9392376],[140.271197,35.9396696],[140.2715198,35.9397483]]]}}
