{"type":"Feature","id":"attraction-large-park-W471845623","properties":{"id":"attraction-large-park-W471845623","kind":"attraction","name":"常総運動公園","shortName":"常総運動公園","context":"日本","subtype":"large-park","subtypeLabel":"大型都市公園・広域公園","statusLabel":"著名な公園","aliases":[],"osmType":"way","osmId":471845623,"osmDate":null,"officialAreaKm2":null,"areaSourceLabel":"","areaSourceUrl":"","boundarySourceLabel":"© OpenStreetMap contributors","boundarySourceUrl":"https://www.openstreetmap.org/copyright","geometryFile":"attractions/large-park-W471845623.geojson"},"geometry":{"type":"Polygon","coordinates":[[[139.9501492,35.9532981],[139.9499483,35.9529138],[139.9499926,35.952599],[139.9500865,35.9523221],[139.9501656,35.9522081],[139.9503346,35.9519986],[139.9503762,35.9519248],[139.9502595,35.951877],[139.9504204,35.9516588],[139.9505017,35.9516879],[139.9508482,35.9510726],[139.950933,35.9508716],[139.9498304,35.9505669],[139.9497458,35.9506459],[139.9496493,35.9505818],[139.9497141,35.9505234],[139.949445,35.950445],[139.9496976,35.9496091],[139.9501797,35.9483253],[139.9501743,35.9482487],[139.9501468,35.9481668],[139.9500965,35.9480929],[139.9500234,35.9480321],[139.9489445,35.9478563],[139.9487092,35.9478003],[139.9486797,35.947752],[139.9485724,35.9475235],[139.9484932,35.9472738],[139.948453,35.9471929],[139.9484248,35.9471587],[139.9483377,35.9471039],[139.9481037,35.9469752],[139.9479467,35.9469052],[139.9478408,35.9468775],[139.9476846,35.9468585],[139.9475572,35.9468558],[139.9473379,35.9469052],[139.9471991,35.946947],[139.946664,35.947181],[139.9466023,35.9498664],[139.9479028,35.9499012],[139.9478576,35.9507903],[139.9474955,35.9512756],[139.9484405,35.9516666],[139.9490913,35.9519874],[139.9487324,35.9524113],[139.9488148,35.9524494],[139.9486394,35.9527586],[139.949137,35.9529697],[139.9491779,35.9529556],[139.949208,35.9529149],[139.9501492,35.9532981]]]}}
