{"type":"Feature","id":"attraction-large-park-W473818917","properties":{"id":"attraction-large-park-W473818917","kind":"attraction","name":"井原リフレッシュ公園","shortName":"井原リフレッシュ公園","context":"日本","subtype":"large-park","subtypeLabel":"大型都市公園・広域公園","statusLabel":"著名な公園","aliases":[],"osmType":"way","osmId":473818917,"osmDate":null,"officialAreaKm2":null,"areaSourceLabel":"","areaSourceUrl":"","boundarySourceLabel":"© OpenStreetMap contributors","boundarySourceUrl":"https://www.openstreetmap.org/copyright","geometryFile":"attractions/large-park-W473818917.geojson"},"geometry":{"type":"Polygon","coordinates":[[[133.4439901,34.5822373],[133.4441779,34.5822255],[133.444396,34.5822153],[133.4445462,34.5822043],[133.4444899,34.5820497],[133.4445087,34.5818708],[133.4446106,34.5816456],[133.4446938,34.5814071],[133.4449405,34.5811951],[133.4452302,34.5811068],[133.4455789,34.5810074],[133.4473733,34.5812459],[133.4482852,34.5808882],[133.4494278,34.5807137],[133.4502781,34.5806298],[133.4510774,34.58042],[133.4518997,34.580573],[133.4520937,34.5802616],[133.4518518,34.5799904],[133.4517645,34.5800181],[133.4514594,34.5797884],[133.4516298,34.5796926],[133.4516876,34.5797338],[133.4522168,34.5794603],[133.452046,34.5789692],[133.4519201,34.5782755],[133.4515551,34.5783462],[133.4512426,34.5785757],[133.4509125,34.5788181],[133.4507464,34.5788897],[133.4504727,34.5789265],[133.4495789,34.5789668],[133.4493561,34.5789033],[133.4488847,34.5784512],[133.4486393,34.5783595],[133.4481377,34.5783927],[133.4477863,34.5781674],[133.4475557,34.5779797],[133.4475041,34.5779286],[133.4472257,34.5779721],[133.4470496,34.5782581],[133.4469747,34.5783929],[133.4468834,34.5785571],[133.4466428,34.5788733],[133.4465001,34.5790492],[133.4464207,34.5791386],[133.4461171,34.5794805],[133.445859,34.5797823],[133.4456768,34.5799954],[133.4455994,34.5800637],[133.4455812,34.5800798],[133.4455122,34.5801406],[133.4452678,34.5802802],[133.4447584,34.5805203],[133.4446057,34.5806158],[133.4444335,34.5807731],[133.444227,34.5810197],[133.4440836,34.5812631],[133.4439847,34.5814728],[133.4439162,34.5816634],[133.4438945,34.5818129],[133.4439016,34.5818627],[133.4439454,34.5821714],[133.4439901,34.5822373]]]}}
