{"type":"Feature","id":"attraction-large-park-W476665589","properties":{"id":"attraction-large-park-W476665589","kind":"attraction","name":"花立自然公園","shortName":"花立自然公園","context":"日本","subtype":"large-park","subtypeLabel":"大型都市公園・広域公園","statusLabel":"","aliases":[],"osmType":"way","osmId":476665589,"osmDate":null,"officialAreaKm2":null,"areaSourceLabel":"","areaSourceUrl":"","boundarySourceLabel":"© OpenStreetMap contributors","boundarySourceUrl":"https://www.openstreetmap.org/copyright","geometryFile":"attractions/large-park-W476665589.geojson"},"geometry":{"type":"Polygon","coordinates":[[[140.295681,36.6503406],[140.2951206,36.6474631],[140.2900023,36.6469835],[140.2872377,36.6493965],[140.2816337,36.6495763],[140.2827171,36.6522589],[140.2865092,36.6535777],[140.2893299,36.6531431],[140.289965,36.6518543],[140.2957931,36.6517644],[140.295681,36.6503406]]]}}
