{"type":"Feature","id":"attraction-large-park-R6213951","properties":{"id":"attraction-large-park-R6213951","kind":"attraction","name":"沖縄県総合運動公園","shortName":"沖縄県総合運動公園","context":"日本","subtype":"large-park","subtypeLabel":"大型都市公園・広域公園","statusLabel":"","aliases":["Okinawa Comprehensive Athletic Park"],"osmType":"relation","osmId":6213951,"osmDate":null,"officialAreaKm2":null,"areaSourceLabel":"","areaSourceUrl":"","boundarySourceLabel":"© OpenStreetMap contributors","boundarySourceUrl":"https://www.openstreetmap.org/copyright","geometryFile":"attractions/large-park-R6213951.geojson"},"geometry":{"type":"Polygon","coordinates":[[[127.823504,26.3028628],[127.8238122,26.3028318],[127.8242162,26.3027741],[127.8246035,26.3028051],[127.8250637,26.30292],[127.8254052,26.3029503],[127.825727,26.3029544],[127.8261943,26.3031364],[127.8266613,26.3030835],[127.8270306,26.3030556],[127.8274721,26.3032148],[127.8280412,26.3036303],[127.8283628,26.3039191],[127.8285216,26.3040706],[127.8286034,26.3041779],[127.8286608,26.3042731],[127.8287122,26.3043393],[127.828782,26.3044099],[127.8288278,26.3044834],[127.82888,26.3045404],[127.8289582,26.3046955],[127.8289752,26.3048827],[127.8288742,26.3050112],[127.8287306,26.3050853],[127.8285662,26.3052903],[127.8281436,26.3058271],[127.8280466,26.3060549],[127.8280086,26.3061672],[127.8279824,26.3063319],[127.8280002,26.3064796],[127.8280841,26.3066142],[127.8282287,26.3068043],[127.8283603,26.3069638],[127.8286486,26.307377],[127.8287487,26.3075636],[127.8287726,26.3077565],[127.828783,26.3079933],[127.8287919,26.3081501],[127.8287197,26.3083411],[127.8286164,26.3085471],[127.8286161,26.3088313],[127.8286503,26.3090343],[127.8286175,26.3090906],[127.8285792,26.309147],[127.828517,26.3094514],[127.8285087,26.3095392],[127.8285161,26.30966],[127.8285167,26.3097682],[127.8285288,26.309871],[127.8281088,26.3100475],[127.8279948,26.3102014],[127.8276086,26.3104382],[127.8268911,26.3110296],[127.8264418,26.3112052],[127.8260274,26.3112629],[127.8259067,26.3112076],[127.8258383,26.3111174],[127.825782,26.3111102],[127.8256935,26.310996],[127.8225634,26.3121044],[127.8225187,26.3120264],[127.8223689,26.3120713],[127.822389,26.312126],[127.8222764,26.3121429],[127.8222791,26.3121789],[127.8222348,26.3121897],[127.8221221,26.3124831],[127.8220014,26.3124554],[127.8218204,26.3123136],[127.8214865,26.3127788],[127.8212263,26.3126141],[127.8207435,26.3129579],[127.820368,26.3126598],[127.8203827,26.3125612],[127.8201427,26.3117834],[127.8201454,26.3113891],[127.8195714,26.3111775],[127.8194761,26.3110525],[127.8191006,26.3109515],[127.8190322,26.3109912],[127.8187868,26.3127896],[127.8188163,26.3128774],[127.8181672,26.3131202],[127.8177702,26.3127776],[127.8178346,26.3126754],[127.8179634,26.3126958],[127.8180801,26.3126958],[127.8182262,26.312661],[127.8183054,26.3125384],[127.8184207,26.3125648],[127.8184502,26.3125287],[127.8184502,26.3124398],[127.8184945,26.3123845],[127.8185427,26.3123701],[127.8185803,26.3123112],[127.8185722,26.3122366],[127.8185333,26.3121669],[127.8184569,26.3121465],[127.8182772,26.3121272],[127.8181511,26.3120815],[127.8180988,26.312013],[127.8180948,26.3119277],[127.8181337,26.311864],[127.818241,26.3118026],[127.8183831,26.3117834],[127.8184086,26.3117473],[127.8183845,26.3117029],[127.8182168,26.3115706],[127.8185012,26.3112545],[127.8185789,26.3112388],[127.8187131,26.3112617],[127.8187117,26.311139],[127.8186661,26.310996],[127.8186755,26.3108349],[127.8186084,26.3104286],[127.8185709,26.3103901],[127.818469,26.310348],[127.8184784,26.3102266],[127.8185897,26.3102218],[127.8188458,26.3088008],[127.8190953,26.3088237],[127.8192897,26.3077922],[127.819873,26.3077867],[127.8199403,26.3068821],[127.8229228,26.307274],[127.8230019,26.3069927],[127.822955,26.3069278],[127.8227216,26.3069242],[127.8226948,26.3068484],[127.8225647,26.3068244],[127.8225124,26.3068785],[127.8221865,26.3068508],[127.8222442,26.305871],[127.8224118,26.3058133],[127.8223837,26.30555],[127.8222831,26.3051749],[127.8227967,26.3050175],[127.8232433,26.304539],[127.8234565,26.3042997],[127.8239232,26.3034233],[127.8237315,26.3032273],[127.8236658,26.3031888],[127.823504,26.3028628]]]}}
