{"type":"Feature","id":"attraction-large-military-base-W937748573","properties":{"id":"attraction-large-military-base-W937748573","kind":"attraction","name":"航空自衛隊 襟裳分屯基地","shortName":"航空自衛隊 襟裳分屯基地","context":"北海道・えりも町","subtype":"military-base","subtypeLabel":"基地・駐屯地・演習場","statusLabel":"","aliases":["JASDF Erimo Sub Base","航空自衛隊"],"osmType":"way","osmId":937748573,"osmDate":null,"officialAreaKm2":null,"areaSourceLabel":"","areaSourceUrl":"","boundarySourceLabel":"© OpenStreetMap contributors","boundarySourceUrl":"https://www.openstreetmap.org/copyright","geometryFile":"attractions/large-military-base-W937748573.geojson"},"geometry":{"type":"Polygon","coordinates":[[[143.2183018,41.9692347],[143.2184359,41.9694381],[143.2185633,41.9695378],[143.2187645,41.9695368],[143.218841,41.9695468],[143.2190247,41.9697133],[143.2189751,41.9698648],[143.2189965,41.9700044],[143.2190797,41.9700782],[143.2193707,41.9701012],[143.2202934,41.9695328],[143.2207292,41.9688966],[143.2203846,41.9687032],[143.2201177,41.9686155],[143.220461,41.9678626],[143.221837,41.9668645],[143.222124,41.9667259],[143.2230118,41.9671537],[143.2246533,41.9650257],[143.2248357,41.9648362],[143.2255492,41.9639707],[143.2253882,41.9637722],[143.2253011,41.9636067],[143.2250637,41.9633055],[143.225002,41.963123],[143.2248317,41.9629396],[143.2243314,41.9628049],[143.2246023,41.9621358],[143.227357,41.9609142],[143.2274428,41.9603597],[143.231509,41.9596995],[143.2310289,41.9581817],[143.2302753,41.9583077],[143.2280457,41.9586804],[143.2272228,41.9588179],[143.2276762,41.9598411],[143.2263672,41.9600546],[143.2262224,41.959518],[143.2257825,41.959161],[143.225407,41.9592029],[143.224318,41.9593704],[143.224133,41.9587402],[143.2237413,41.958802],[143.2239747,41.9594482],[143.2234061,41.959522],[143.2226014,41.9600885],[143.2225022,41.9607207],[143.2229474,41.9620251],[143.2218128,41.9629047],[143.2219201,41.9639138],[143.2219389,41.9642808],[143.2221186,41.9642868],[143.2224351,41.9641053],[143.2227221,41.9639836],[143.2227087,41.9641791],[143.2224485,41.9648432],[143.221955,41.9655053],[143.2220703,41.9660039],[143.2216787,41.9667019],[143.2208312,41.9672344],[143.2200694,41.9674598],[143.2198602,41.9676971],[143.2194364,41.9679085],[143.2194498,41.9679823],[143.2196027,41.9681239],[143.2195035,41.968768],[143.2193989,41.9690372],[143.2183018,41.9692347]]]}}
