{"type":"Feature","id":"attraction-large-industrial-complex-W1133340606","properties":{"id":"attraction-large-industrial-complex-W1133340606","kind":"attraction","name":"鬼怒川森林太陽光発電事業所","shortName":"鬼怒川森林太陽光発電事業所","context":"日本","subtype":"industrial-complex","subtypeLabel":"工業地帯・大規模工場","statusLabel":"","aliases":[],"osmType":"way","osmId":1133340606,"osmDate":null,"officialAreaKm2":null,"areaSourceLabel":"","areaSourceUrl":"","boundarySourceLabel":"© OpenStreetMap contributors","boundarySourceUrl":"https://www.openstreetmap.org/copyright","geometryFile":"attractions/large-industrial-complex-W1133340606.geojson"},"geometry":{"type":"Polygon","coordinates":[[[139.7574296,36.7832897],[139.7583728,36.7836674],[139.7586899,36.7836478],[139.7589989,36.7833808],[139.7606332,36.7828729],[139.7614463,36.7828403],[139.7615764,36.7827231],[139.761804,36.782684],[139.7622268,36.782671],[139.7622512,36.7823063],[139.7616577,36.7820263],[139.7623407,36.7807434],[139.7626659,36.7794214],[139.7638774,36.7789329],[139.7643409,36.7784445],[139.7656174,36.7787962],[139.7661305,36.778456],[139.768792,36.7775602],[139.7703351,36.7773788],[139.7712836,36.7762902],[139.7710288,36.7741358],[139.7705616,36.7739713],[139.7702218,36.7740677],[139.7698042,36.7747821],[139.7690751,36.7741528],[139.7651112,36.7740961],[139.7617986,36.7737162],[139.7611827,36.7732513],[139.7598874,36.7742605],[139.7600077,36.7745496],[139.7605244,36.7744079],[139.7607934,36.7744419],[139.7604961,36.775213],[139.7586204,36.7768686],[139.7580432,36.7807163],[139.7586661,36.781476],[139.7574296,36.7832897]]]}}
