{"type":"Feature","id":"attraction-large-park-W228786212","properties":{"id":"attraction-large-park-W228786212","kind":"attraction","name":"上尾運動公園","shortName":"上尾運動公園","context":"日本","subtype":"large-park","subtypeLabel":"大型都市公園・広域公園","statusLabel":"著名な公園","aliases":[],"osmType":"way","osmId":228786212,"osmDate":null,"officialAreaKm2":null,"areaSourceLabel":"","areaSourceUrl":"","boundarySourceLabel":"© OpenStreetMap contributors","boundarySourceUrl":"https://www.openstreetmap.org/copyright","geometryFile":"attractions/large-park-W228786212.geojson"},"geometry":{"type":"Polygon","coordinates":[[[139.6037395,35.9686162],[139.6041329,35.968701],[139.6041365,35.9687018],[139.6045959,35.9688008],[139.6047813,35.968854],[139.6045437,35.9694289],[139.6049419,35.9695613],[139.6051699,35.9690091],[139.605692,35.9691858],[139.6054347,35.9697721],[139.6057565,35.9698944],[139.6053319,35.9703904],[139.6053308,35.9704123],[139.6061992,35.9708511],[139.6070765,35.9713075],[139.6071385,35.9713398],[139.6071892,35.9713642],[139.6074678,35.9714983],[139.6075328,35.9715296],[139.6074598,35.9718209],[139.6078889,35.9719783],[139.6082108,35.9720771],[139.6083589,35.9719759],[139.6099331,35.9701175],[139.6105933,35.9693471],[139.6108144,35.9690914],[139.6108613,35.9689901],[139.6108707,35.9688697],[139.6109006,35.9687453],[139.6110198,35.9685767],[139.6113574,35.9682108],[139.6115865,35.9681073],[139.6117085,35.9680258],[139.6118889,35.967821],[139.6118821,35.9677929],[139.6114835,35.9675582],[139.6113409,35.9674832],[139.6108677,35.9674794],[139.6106779,35.9674779],[139.6103709,35.9673551],[139.6103511,35.9673484],[139.6103068,35.9673973],[139.6102458,35.9673699],[139.6091591,35.9669724],[139.6081129,35.966585],[139.6080916,35.9665836],[139.6078205,35.9665665],[139.6071124,35.9666626],[139.6066913,35.9669996],[139.6059926,35.9675836],[139.6052496,35.9671809],[139.6046854,35.9668876],[139.604162,35.9678679],[139.6039554,35.9682478],[139.6037395,35.9686162]]]}}
