{"type":"Feature","id":"attraction-large-park-W565444878","properties":{"id":"attraction-large-park-W565444878","kind":"attraction","name":"恩田運動公園","shortName":"恩田運動公園","context":"日本","subtype":"large-park","subtypeLabel":"大型都市公園・広域公園","statusLabel":"著名な公園","aliases":[],"osmType":"way","osmId":565444878,"osmDate":null,"officialAreaKm2":null,"areaSourceLabel":"","areaSourceUrl":"","boundarySourceLabel":"© OpenStreetMap contributors","boundarySourceUrl":"https://www.openstreetmap.org/copyright","geometryFile":"attractions/large-park-W565444878.geojson"},"geometry":{"type":"Polygon","coordinates":[[[131.2675184,33.9450043],[131.2674621,33.9448619],[131.2673789,33.9448129],[131.2673762,33.9447373],[131.2673172,33.9446216],[131.2672877,33.944359],[131.2672287,33.9442923],[131.2673333,33.9440631],[131.2701201,33.943202],[131.2702368,33.9432504],[131.2706948,33.9436787],[131.2707558,33.9437749],[131.2708993,33.9442951],[131.2715471,33.9442784],[131.2716255,33.9443206],[131.2718126,33.9447328],[131.272447,33.9458187],[131.272632,33.9461758],[131.2728104,33.9466553],[131.2721935,33.9474941],[131.2702288,33.9462693],[131.2684932,33.9455162],[131.2681004,33.9453481],[131.2675184,33.9450043]]]}}
