{"type":"Feature","id":"attraction-large-industrial-complex-W782560565","properties":{"id":"attraction-large-industrial-complex-W782560565","kind":"attraction","name":"曙ブレーキテストコース Ai-Ring","shortName":"曙ブレーキテストコース Ai-Ring","context":"日本","subtype":"industrial-complex","subtypeLabel":"工業地帯・大規模工場","statusLabel":"","aliases":["Akebono Brake Test Course \"Ai-Ring\""],"osmType":"way","osmId":782560565,"osmDate":null,"officialAreaKm2":null,"areaSourceLabel":"","areaSourceUrl":"","boundarySourceLabel":"© OpenStreetMap contributors","boundarySourceUrl":"https://www.openstreetmap.org/copyright","geometryFile":"attractions/large-industrial-complex-W782560565.geojson"},"geometry":{"type":"Polygon","coordinates":[[[140.8756752,37.131196],[140.8837849,37.1276323],[140.8841792,37.1274804],[140.8845091,37.1274013],[140.884957,37.1273286],[140.8853808,37.1273158],[140.8858073,37.1273778],[140.8861855,37.1274751],[140.8865543,37.1276408],[140.886907,37.1278311],[140.8871765,37.1280813],[140.8873831,37.1283668],[140.8874877,37.1286652],[140.8875413,37.1289485],[140.8875561,37.1294136],[140.8874917,37.1297205],[140.887363,37.1300434],[140.8871792,37.1302979],[140.8869861,37.1305235],[140.8867246,37.1307341],[140.8864725,37.1308817],[140.8860943,37.1310827],[140.877998,37.1346216],[140.8776762,37.134735],[140.8773637,37.1348365],[140.8767723,37.1349531],[140.8762559,37.1349531],[140.8757409,37.1348772],[140.8752917,37.1347264],[140.8749242,37.1345383],[140.8746627,37.1343159],[140.8744374,37.1340475],[140.8742295,37.1337193],[140.8741128,37.1333868],[140.8740632,37.13302],[140.87409,37.1326629],[140.8742523,37.1322406],[140.8744307,37.1318418],[140.8748786,37.131536],[140.8756752,37.131196]]]}}
