{"type":"Feature","id":"attraction-large-industrial-complex-W427747885","properties":{"id":"attraction-large-industrial-complex-W427747885","kind":"attraction","name":"神戸製鋼工場","shortName":"神戸製鋼工場","context":"日本","subtype":"industrial-complex","subtypeLabel":"工業地帯・大規模工場","statusLabel":"","aliases":[],"osmType":"way","osmId":427747885,"osmDate":null,"officialAreaKm2":null,"areaSourceLabel":"","areaSourceUrl":"","boundarySourceLabel":"© OpenStreetMap contributors","boundarySourceUrl":"https://www.openstreetmap.org/copyright","geometryFile":"attractions/large-industrial-complex-W427747885.geojson"},"geometry":{"type":"Polygon","coordinates":[[[134.785389,34.7581556],[134.785558,34.7581093],[134.784689,34.7577545],[134.7845817,34.7576642],[134.7814837,34.7544049],[134.7839474,34.7528149],[134.7840842,34.7528204],[134.782872,34.7515104],[134.781164,34.7497734],[134.7801142,34.7486949],[134.7775643,34.7460663],[134.7761984,34.746798],[134.7760969,34.7466706],[134.7760809,34.7465591],[134.7760148,34.7464758],[134.7688492,34.7501788],[134.7688748,34.7503356],[134.7690855,34.7506744],[134.7689817,34.7507341],[134.769433,34.7514851],[134.7694728,34.7515478],[134.769607,34.751505],[134.7710711,34.7539622],[134.7710179,34.7540031],[134.7699547,34.7539677],[134.7698973,34.7540219],[134.7698974,34.7540694],[134.7701011,34.7540974],[134.7710315,34.754118],[134.771213,34.7542883],[134.7713164,34.7543331],[134.7714111,34.7544416],[134.7713924,34.7544958],[134.7722217,34.7555332],[134.7721858,34.7557088],[134.7723179,34.7558609],[134.7723652,34.7558751],[134.7727939,34.756373],[134.7733105,34.7560461],[134.7734177,34.7561653],[134.7728972,34.7565004],[134.775732,34.7600672],[134.7765611,34.7603304],[134.7775959,34.7600451],[134.7827256,34.7589048],[134.7836483,34.7587329],[134.7845281,34.758561],[134.7847641,34.7584905],[134.7851718,34.7582856],[134.785389,34.7581556]]]}}
