{"type":"Feature","id":"attraction-large-industrial-complex-R17479185","properties":{"id":"attraction-large-industrial-complex-R17479185","kind":"attraction","name":"ＵＢＥ三菱セメント（株）伊佐セメント工場","shortName":"ＵＢＥ三菱セメント（株）伊佐セメント工場","context":"日本","subtype":"industrial-complex","subtypeLabel":"工業地帯・大規模工場","statusLabel":"","aliases":[],"osmType":"relation","osmId":17479185,"osmDate":null,"officialAreaKm2":null,"areaSourceLabel":"","areaSourceUrl":"","boundarySourceLabel":"© OpenStreetMap contributors","boundarySourceUrl":"https://www.openstreetmap.org/copyright","geometryFile":"attractions/large-industrial-complex-R17479185.geojson"},"geometry":{"type":"Polygon","coordinates":[[[131.2238725,34.1694488],[131.2236646,34.1694009],[131.2234168,34.1691777],[131.2231712,34.1689473],[131.2229951,34.1685227],[131.2227751,34.168151],[131.222696,34.1680878],[131.2226196,34.1680489],[131.222401,34.1680023],[131.2220938,34.1679957],[131.2216888,34.1680145],[131.2213723,34.1680345],[131.2213643,34.1677116],[131.221253,34.1676794],[131.2212449,34.1676273],[131.2210532,34.1676239],[131.2208909,34.1675829],[131.2203303,34.1675929],[131.2202646,34.1676328],[131.2200661,34.167635],[131.2200192,34.167837],[131.2198971,34.1678037],[131.2198207,34.1680389],[131.2196906,34.1679979],[131.2190176,34.168057],[131.2180366,34.168178],[131.2176805,34.1681828],[131.2174451,34.168162],[131.2164682,34.1679283],[131.2161125,34.1678541],[131.2160492,34.1678603],[131.215794,34.1678922],[131.2156327,34.1679117],[131.2154986,34.1681038],[131.2156741,34.1684624],[131.2156828,34.1684852],[131.2149253,34.1685201],[131.2148184,34.168657],[131.2147223,34.1689461],[131.2146295,34.1692656],[131.214529,34.1699071],[131.214537,34.1701155],[131.2146475,34.1706389],[131.214668,34.1708725],[131.2148115,34.171033],[131.2151809,34.1713],[131.215591,34.1715231],[131.2156743,34.1717249],[131.2157795,34.1718983],[131.2159744,34.1721068],[131.216288,34.1722801],[131.2172157,34.1726967],[131.2174241,34.1728258],[131.2174927,34.1729296],[131.2175001,34.1731571],[131.217223,34.1740048],[131.2171957,34.174263],[131.2172147,34.1744549],[131.2173316,34.1746878],[131.2174636,34.1748829],[131.2177607,34.1751083],[131.2179879,34.1752336],[131.2183308,34.1754221],[131.2184397,34.1755132],[131.2184574,34.1756042],[131.2183913,34.1763296],[131.2184014,34.1766961],[131.218504,34.1770861],[131.2185454,34.177237],[131.2185241,34.1773214],[131.2184308,34.177438],[131.2184938,34.1778816],[131.2186154,34.1779096],[131.2187611,34.1781688],[131.2190583,34.1785742],[131.2194467,34.1791561],[131.2198226,34.1796348],[131.2203554,34.1801382],[131.2209134,34.1805279],[131.2212752,34.1806856],[131.2216874,34.1808016],[131.2218669,34.1809246],[131.2228628,34.1817719],[131.2231685,34.1818832],[131.2251267,34.1818429],[131.2264475,34.1809454],[131.2267219,34.180648],[131.2294689,34.1806005],[131.2305726,34.1807069],[131.2317448,34.1810851],[131.2316837,34.1817218],[131.2313878,34.182946],[131.2346497,34.1838751],[131.2369602,34.1852437],[131.2394427,34.1852764],[131.239769,34.1853018],[131.2430171,34.1864663],[131.2435762,34.1866278],[131.2441882,34.186694],[131.2444627,34.1866496],[131.2447686,34.1865583],[131.2450967,34.1863403],[131.2453767,34.1861503],[131.2456023,34.1859494],[131.2457098,34.185765],[131.2458826,34.1844793],[131.245857,34.1841601],[131.2458011,34.1838265],[131.2456903,34.1837235],[131.2455713,34.1836354],[131.2454008,34.1836015],[131.2452295,34.1835846],[131.2450991,34.1827636],[131.2454127,34.1825996],[131.2455496,34.1818728],[131.2443055,34.1816065],[131.2408182,34.1808416],[131.2365474,34.1798631],[131.2356354,34.1797493],[131.2332225,34.1797818],[131.2329778,34.1804583],[131.2318559,34.1802565],[131.2261258,34.1722392],[131.223891,34.1717085],[131.2236202,34.1715802],[131.2234486,34.1712259],[131.2235255,34.1711388],[131.2237279,34.1708881],[131.2239158,34.1707968],[131.2239336,34.1706304],[131.2238176,34.170593],[131.2238792,34.1704275],[131.2241196,34.1700615],[131.2242589,34.1699643],[131.2246803,34.1699399],[131.22474,34.1698819],[131.2247932,34.1698153],[131.2254724,34.1699024],[131.2258104,34.1699045],[131.2261015,34.1698921],[131.226612,34.1698682],[131.2281784,34.169765],[131.228641,34.1697511],[131.2290547,34.1697799],[131.2297549,34.1698895],[131.2306506,34.1700536],[131.2306662,34.1696932],[131.2305854,34.1695397],[131.230455,34.1694634],[131.2294285,34.1692942],[131.2288952,34.1692947],[131.2279539,34.1692639],[131.2273604,34.1692132],[131.2267193,34.1692097],[131.226454,34.1692329],[131.2263076,34.1692606],[131.2261748,34.1693239],[131.225967,34.1693828],[131.2257863,34.1694157],[131.2244519,34.1694788],[131.2241563,34.1694777],[131.2238725,34.1694488]]]}}
