{"type":"Feature","id":"attraction-large-park-W241071611","properties":{"id":"attraction-large-park-W241071611","kind":"attraction","name":"駕与丁公園","shortName":"駕与丁公園","context":"日本","subtype":"large-park","subtypeLabel":"大型都市公園・広域公園","statusLabel":"著名な公園","aliases":["Kayoicho Park"],"osmType":"way","osmId":241071611,"osmDate":null,"officialAreaKm2":null,"areaSourceLabel":"","areaSourceUrl":"","boundarySourceLabel":"© OpenStreetMap contributors","boundarySourceUrl":"https://www.openstreetmap.org/copyright","geometryFile":"attractions/large-park-W241071611.geojson"},"geometry":{"type":"Polygon","coordinates":[[[130.4853988,33.6049245],[130.4851251,33.6048971],[130.4846697,33.6048514],[130.4844144,33.6049001],[130.4840236,33.6049747],[130.4831574,33.6049049],[130.4828372,33.6048787],[130.482771,33.605261],[130.4826199,33.6055464],[130.4823741,33.605739],[130.4820819,33.6055155],[130.4820522,33.605456],[130.482103,33.6052893],[130.4822129,33.6048489],[130.4820346,33.6048783],[130.4817588,33.605165],[130.4817546,33.6053308],[130.4816696,33.6055743],[130.481427,33.60612],[130.4812797,33.6064292],[130.4811636,33.6070077],[130.4811035,33.6076985],[130.4810353,33.6082338],[130.4810639,33.6085731],[130.4811592,33.6088304],[130.4816534,33.6096108],[130.4817856,33.6097066],[130.4818947,33.6097977],[130.4818787,33.6098794],[130.4823143,33.6100444],[130.4828614,33.6102939],[130.4831375,33.6103294],[130.4832432,33.6100531],[130.4835958,33.6102068],[130.4834008,33.6106679],[130.4841826,33.6109787],[130.4846805,33.6112163],[130.4855035,33.6116091],[130.4859605,33.6118656],[130.4860473,33.6119143],[130.486194,33.6115932],[130.4864036,33.6115712],[130.4865986,33.6113795],[130.486776,33.6113909],[130.4871324,33.6114137],[130.4872189,33.6111743],[130.4875488,33.6112806],[130.4876151,33.6111437],[130.4876925,33.6109838],[130.487799,33.6108859],[130.4879198,33.610775],[130.4882057,33.6106407],[130.48843,33.6105052],[130.4884667,33.610394],[130.4884007,33.6097029],[130.4886031,33.6087154],[130.4882246,33.6085772],[130.4878375,33.6085675],[130.4874945,33.6082272],[130.4879237,33.6077281],[130.4883112,33.6077548],[130.4886765,33.6077799],[130.4887698,33.607495],[130.4889647,33.6071807],[130.489422,33.6065904],[130.4897387,33.6061751],[130.4894631,33.6056964],[130.4891845,33.6056964],[130.4886918,33.6052226],[130.4883311,33.6049442],[130.4879704,33.6048782],[130.4853988,33.6049245]]]}}
