{"type":"Feature","id":"attraction-large-park-W624081603","properties":{"id":"attraction-large-park-W624081603","kind":"attraction","name":"北の丸公園","shortName":"北の丸公園","context":"日本","subtype":"large-park","subtypeLabel":"大型都市公園・広域公園","statusLabel":"著名な公園","aliases":["Kitanomaru Park"],"osmType":"way","osmId":624081603,"osmDate":null,"officialAreaKm2":null,"areaSourceLabel":"","areaSourceUrl":"","boundarySourceLabel":"© OpenStreetMap contributors","boundarySourceUrl":"https://www.openstreetmap.org/copyright","geometryFile":"attractions/large-park-W624081603.geojson"},"geometry":{"type":"Polygon","coordinates":[[[139.7500353,35.6946883],[139.7495699,35.6945979],[139.7494921,35.6947983],[139.74902,35.6946567],[139.7491783,35.6943376],[139.7487277,35.6942058],[139.7486016,35.6942483],[139.7481993,35.6941208],[139.7482878,35.6937941],[139.7482342,35.6937745],[139.7483347,35.6921135],[139.7482127,35.6921015],[139.7481564,35.6919218],[139.7480974,35.6918325],[139.7479673,35.6917323],[139.7478425,35.6915101],[139.7478586,35.6913445],[139.7482784,35.6906899],[139.7483924,35.6906267],[139.7486714,35.6906017],[139.7490334,35.6903577],[139.7491582,35.6903762],[139.7496141,35.6901899],[139.7499548,35.6900146],[139.7499762,35.6899514],[139.7499602,35.6898283],[139.7499119,35.6896268],[139.7498059,35.6894373],[139.7501667,35.689446],[139.7504108,35.6894765],[139.7512141,35.689654],[139.751481,35.6897728],[139.7515118,35.6899035],[139.7517036,35.6899732],[139.7518297,35.6899459],[139.7521877,35.6897738],[139.7523165,35.6896519],[139.7525109,35.6895408],[139.752751,35.6894885],[139.7530165,35.6895201],[139.7533183,35.6896268],[139.7527108,35.6903718],[139.7541109,35.6910079],[139.7538963,35.6915286],[139.7530353,35.6923368],[139.7529052,35.6924206],[139.7527201,35.69256],[139.7528945,35.6927441],[139.7528516,35.6927997],[139.7528804,35.6928307],[139.7527946,35.6928873],[139.7527765,35.6928661],[139.7523815,35.6931041],[139.7520462,35.6929309],[139.7517948,35.6931302],[139.7517264,35.6931678],[139.7511303,35.6932615],[139.7506669,35.6938976],[139.7505643,35.6938992],[139.7504966,35.6939335],[139.7500353,35.6946883]]]}}
