{"type":"Feature","id":"attraction-large-park-W492212496","properties":{"id":"attraction-large-park-W492212496","kind":"attraction","name":"府民の森 くろんど園地","shortName":"府民の森 くろんど園地","context":"日本","subtype":"large-park","subtypeLabel":"大型都市公園・広域公園","statusLabel":"","aliases":[],"osmType":"way","osmId":492212496,"osmDate":null,"officialAreaKm2":null,"areaSourceLabel":"","areaSourceUrl":"","boundarySourceLabel":"© OpenStreetMap contributors","boundarySourceUrl":"https://www.openstreetmap.org/copyright","geometryFile":"attractions/large-park-W492212496.geojson"},"geometry":{"type":"Polygon","coordinates":[[[135.7068801,34.7738339],[135.7069498,34.7741181],[135.7069297,34.7741875],[135.7072167,34.7742481],[135.707375,34.7742773],[135.707501,34.7742866],[135.7076164,34.7742855],[135.707505,34.7741743],[135.7072717,34.7741071],[135.7071711,34.7740707],[135.7071255,34.7738669],[135.7070477,34.7736576],[135.7069431,34.7734505],[135.7068492,34.7733492],[135.7067192,34.7732974],[135.7066226,34.7732941],[135.7064576,34.7733029],[135.7063718,34.773337],[135.7062753,34.7734098],[135.7062176,34.7735133],[135.7061224,34.7736896],[135.7060419,34.7738372],[135.7059681,34.7738856],[135.7059239,34.773889],[135.7058541,34.7738515],[135.7058153,34.7737402],[135.7058072,34.7735166],[135.7058085,34.773423],[135.7059748,34.7732621],[135.7060754,34.7731762],[135.706286,34.7730517],[135.7064845,34.7729438],[135.7065515,34.7728656],[135.706585,34.7727984],[135.7064509,34.7725913],[135.706349,34.7724414],[135.7064134,34.7721925],[135.706585,34.7720008],[135.7069981,34.7716945],[135.7071429,34.7715535],[135.7073092,34.7715095],[135.7077223,34.771624],[135.7079449,34.7717166],[135.7082266,34.7718994],[135.7084519,34.771981],[135.7087013,34.7719942],[135.7091036,34.7718884],[135.7095891,34.7717122],[135.7098788,34.7715932],[135.7099432,34.7714985],[135.709852,34.771223],[135.7096213,34.7709829],[135.7094604,34.7707714],[135.7092351,34.7706061],[135.7090929,34.7704255],[135.7089508,34.770106],[135.7087898,34.7696697],[135.7086021,34.7690947],[135.7084948,34.7688347],[135.7083312,34.7687333],[135.708307,34.7686165],[135.7085136,34.7685438],[135.7085672,34.7682354],[135.7086048,34.7679511],[135.7085994,34.7676713],[135.7085833,34.7675347],[135.7083499,34.7674025],[135.7082373,34.7672549],[135.7081139,34.7670015],[135.708079,34.766834],[135.70813,34.7666181],[135.7082963,34.7663978],[135.7086557,34.7661422],[135.7088864,34.7658822],[135.7089534,34.7656178],[135.7090151,34.7653137],[135.709058,34.7651947],[135.7090366,34.7649986],[135.7090661,34.7649016],[135.7092753,34.7648113],[135.7094416,34.7647077],[135.709624,34.7646835],[135.7097313,34.764646],[135.7097769,34.7645447],[135.7096857,34.7644433],[135.709632,34.7642803],[135.7095811,34.7640996],[135.7094577,34.7640181],[135.7091144,34.7638594],[135.7088891,34.7637228],[135.7087845,34.7636236],[135.7089937,34.7635906],[135.708991,34.7633724],[135.7089642,34.7630838],[135.7089078,34.7626387],[135.7088676,34.762317],[135.7088622,34.7621925],[135.7088944,34.7619809],[135.7089682,34.7618003],[135.7091868,34.7614246],[135.709514,34.7611513],[135.7098734,34.7609089],[135.7100558,34.7607635],[135.7100773,34.7606842],[135.7099163,34.7604947],[135.7096213,34.7601333],[135.7092565,34.7596749],[135.7089561,34.7592519],[135.7087094,34.7590844],[135.7083124,34.7589566],[135.7078349,34.7588023],[135.7071483,34.7589522],[135.7067621,34.7588111],[135.7062793,34.758864],[135.7058072,34.7589434],[135.7055497,34.75882],[135.7053029,34.7586172],[135.704788,34.7586525],[135.704442,34.7586767],[135.7041603,34.7588222],[135.7038747,34.7589654],[135.7037191,34.7590106],[135.7034415,34.7590491],[135.7026207,34.7589389],[135.7018697,34.7585621],[135.7017544,34.7585335],[135.7016069,34.7585313],[135.7008451,34.758734],[135.7004696,34.7587208],[135.700137,34.7586525],[135.7000592,34.7586172],[135.6997588,34.758745],[135.6996971,34.7590006],[135.6996945,34.7593025],[135.6996006,34.7595009],[135.6995711,34.7596529],[135.6994718,34.7598843],[135.6994504,34.7600209],[135.6993753,34.7600804],[135.6993404,34.7602545],[135.6992438,34.7603933],[135.6992197,34.7606776],[135.6992546,34.7610588],[135.6993619,34.761429],[135.6993726,34.761689],[135.6993887,34.7620746],[135.6994772,34.7622575],[135.6995442,34.7623721],[135.699555,34.7626012],[135.6997776,34.7627511],[135.6999734,34.762826],[135.700078,34.7629494],[135.70007,34.7632424],[135.7000405,34.7634319],[135.700027,34.7636391],[135.700019,34.7639079],[135.69985,34.764126],[135.6998125,34.7642759],[135.6996623,34.7645205],[135.6996247,34.7646593],[135.6999332,34.7648047],[135.7000431,34.7648752],[135.7001477,34.7650008],[135.7002255,34.7650647],[135.7003865,34.7651242],[135.7006386,34.7651991],[135.7009229,34.7653556],[135.7011536,34.7656684],[135.701226,34.7659461],[135.7014674,34.766314],[135.7017007,34.7666203],[135.7017624,34.7667767],[135.701969,34.7669089],[135.702264,34.766942],[135.7026958,34.766931],[135.7028514,34.7669971],[135.7028943,34.7672218],[135.7029507,34.7673408],[135.7031277,34.7674598],[135.7034147,34.7675061],[135.7037204,34.7674884],[135.7039538,34.7674862],[135.7040396,34.7675215],[135.7041308,34.7675964],[135.7041469,34.7676757],[135.7041523,34.7678388],[135.7041255,34.7680437],[135.7040048,34.768156],[135.7039538,34.7682133],[135.7039404,34.7684227],[135.7039162,34.7685703],[135.7038975,34.7686937],[135.7038385,34.7688721],[135.7037741,34.769044],[135.7035112,34.7691806],[135.7033503,34.7692864],[135.7033288,34.7693657],[135.7034737,34.7693569],[135.7036668,34.7693084],[135.7039404,34.7692952],[135.704155,34.769423],[135.7044715,34.769683],[135.7045895,34.7698416],[135.7048738,34.7700707],[135.7050294,34.7703263],[135.7052118,34.7707009],[135.7054102,34.7710578],[135.7057428,34.7713266],[135.7060486,34.771569],[135.7062149,34.7717937],[135.7061076,34.7721286],[135.7058394,34.7724679],[135.7055175,34.7726485],[135.7054478,34.7727587],[135.70548,34.7729041],[135.7056892,34.7730451],[135.7057375,34.7731421],[135.7056516,34.7733007],[135.7055765,34.7733888],[135.7055631,34.7735673],[135.7056034,34.773803],[135.7056718,34.7739793],[135.7057683,34.7740432],[135.7058823,34.7741005],[135.7060204,34.7741126],[135.7061505,34.7740839],[135.7062511,34.7740068],[135.7063517,34.7738383],[135.7064201,34.7737127],[135.7064992,34.7735772],[135.7065609,34.7735067],[135.7067084,34.7734935],[135.7068157,34.7735926],[135.7068747,34.7737171],[135.7068801,34.7738339]]]}}
