{"type":"Feature","id":"attraction-large-large-port-W552564708","properties":{"id":"attraction-large-large-port-W552564708","kind":"attraction","name":"田野浦コンテナターミナル1号","shortName":"田野浦コンテナターミナル1号","context":"日本","subtype":"large-port","subtypeLabel":"港湾・埠頭","statusLabel":"","aliases":["Tachinoura Container Terminal No. 1","Moji"],"osmType":"way","osmId":552564708,"osmDate":null,"officialAreaKm2":null,"areaSourceLabel":"","areaSourceUrl":"","boundarySourceLabel":"© OpenStreetMap contributors","boundarySourceUrl":"https://www.openstreetmap.org/copyright","geometryFile":"attractions/large-large-port-W552564708.geojson"},"geometry":{"type":"Polygon","coordinates":[[[131.0083313,33.9674163],[131.0081837,33.9674547],[131.0076258,33.9670432],[131.0073119,33.9668497],[131.005252,33.9653281],[131.0037017,33.9659198],[131.0034925,33.9660889],[131.0033476,33.9661245],[131.0034442,33.9665783],[131.0028756,33.966694],[131.0016364,33.9677929],[131.0034925,33.9691943],[131.0022318,33.9696436],[131.0021547,33.969884],[131.0083639,33.9677567],[131.0083313,33.9674163]]]}}
