{"type":"Feature","id":"attraction-large-park-W694543118","properties":{"id":"attraction-large-park-W694543118","kind":"attraction","name":"大井ふ頭中央海浜公園 スポーツの森","shortName":"大井ふ頭中央海浜公園 スポーツの森","context":"日本","subtype":"large-park","subtypeLabel":"大型都市公園・広域公園","statusLabel":"著名な公園","aliases":["Oi Central Seaside Park Sports Forest"],"osmType":"way","osmId":694543118,"osmDate":null,"officialAreaKm2":null,"areaSourceLabel":"","areaSourceUrl":"","boundarySourceLabel":"© OpenStreetMap contributors","boundarySourceUrl":"https://www.openstreetmap.org/copyright","geometryFile":"attractions/large-park-W694543118.geojson"},"geometry":{"type":"Polygon","coordinates":[[[139.7506418,35.5891976],[139.7506568,35.5890536],[139.7506959,35.5889018],[139.7508005,35.5886481],[139.7515803,35.58686],[139.7516033,35.5868073],[139.7518092,35.5867239],[139.7531105,35.5871197],[139.7525282,35.5884143],[139.7527405,35.5886456],[139.7544821,35.58867],[139.7544904,35.5875176],[139.7545664,35.5875321],[139.7547056,35.5876852],[139.7547088,35.5888831],[139.7547131,35.5916132],[139.7547215,35.5950458],[139.7545773,35.5951756],[139.7530075,35.5952605],[139.7528876,35.5952655],[139.7515293,35.595336],[139.7514091,35.5953417],[139.7513829,35.5953245],[139.751248,35.5952359],[139.751158,35.5942821],[139.7511542,35.5942421],[139.7506673,35.5895252],[139.7506418,35.5891976]]]}}
