{"type":"Feature","id":"attraction-large-industrial-complex-R11269781","properties":{"id":"attraction-large-industrial-complex-R11269781","kind":"attraction","name":"岡山県総合流通センター","shortName":"岡山県総合流通センター","context":"日本","subtype":"industrial-complex","subtypeLabel":"工業地帯・大規模工場","statusLabel":"","aliases":[],"osmType":"relation","osmId":11269781,"osmDate":null,"officialAreaKm2":null,"areaSourceLabel":"","areaSourceUrl":"","boundarySourceLabel":"© OpenStreetMap contributors","boundarySourceUrl":"https://www.openstreetmap.org/copyright","geometryFile":"attractions/large-industrial-complex-R11269781.geojson"},"geometry":{"type":"MultiPolygon","coordinates":[[[[133.8191264,34.6161575],[133.8191506,34.6161473],[133.8195352,34.6159842],[133.8201104,34.6159988],[133.8203697,34.6159369],[133.8206393,34.6159926],[133.8208704,34.6161055],[133.8209043,34.6161575],[133.8208503,34.6162383],[133.8208196,34.6162842],[133.8209835,34.6164981],[133.8210506,34.6166527],[133.8210586,34.6167101],[133.8210801,34.6167255],[133.8215441,34.616103],[133.8216364,34.6161783],[133.8218579,34.6161248],[133.8221994,34.6159006],[133.8222319,34.6158617],[133.8222534,34.6158759],[133.8222868,34.6159173],[133.8222674,34.6161055],[133.8221362,34.6163218],[133.8226113,34.6166245],[133.8227376,34.6167133],[133.8224295,34.6170835],[133.8229749,34.6175044],[133.8225773,34.6179648],[133.8220913,34.6181759],[133.8239912,34.6193583],[133.8240591,34.6192855],[133.8240833,34.6191464],[133.824436,34.618775],[133.8250113,34.6191773],[133.8251615,34.6199057],[133.8252206,34.6199524],[133.8251566,34.6196532],[133.8251494,34.6195864],[133.8251371,34.6191272],[133.8252876,34.6191149],[133.8253099,34.619498],[133.825438,34.6199848],[133.8258168,34.6199633],[133.8259765,34.6199932],[133.8266034,34.6203525],[133.826512,34.6205359],[133.8265692,34.6206047],[133.826994,34.6208925],[133.8271097,34.6209723],[133.8270955,34.6210702],[133.8268831,34.6210501],[133.8268109,34.6211086],[133.8275116,34.6215331],[133.8275606,34.6215773],[133.8276026,34.6215494],[133.8277194,34.6216561],[133.8276817,34.6216879],[133.8277895,34.6218096],[133.8279183,34.6220122],[133.827965,34.6221284],[133.8279861,34.6222524],[133.8279969,34.6224618],[133.8279847,34.6225901],[133.8279304,34.6227646],[133.827895,34.6228426],[133.8279835,34.6228977],[133.8284845,34.6231836],[133.8288516,34.6239933],[133.8289229,34.6241102],[133.828849,34.6242028],[133.828966,34.6242801],[133.8289922,34.624469],[133.8289306,34.6245436],[133.8289106,34.6245679],[133.8293325,34.6247929],[133.8297575,34.6249985],[133.8303891,34.6252713],[133.8310312,34.6255163],[133.8314282,34.6256534],[133.8314731,34.625652],[133.8314941,34.6256462],[133.8315212,34.6256287],[133.8315471,34.6255996],[133.8315579,34.625563],[133.8315571,34.6255227],[133.8315737,34.6254577],[133.8316138,34.6254199],[133.8316444,34.625401],[133.831693,34.6253844],[133.8317385,34.6253862],[133.8317749,34.6253926],[133.8318425,34.6254112],[133.8321139,34.6254928],[133.8321523,34.6255165],[133.8321689,34.6255405],[133.8321781,34.6255612],[133.8321826,34.6255913],[133.8322016,34.6255979],[133.8322149,34.6256058],[133.8322245,34.6256139],[133.8322339,34.6256257],[133.8322417,34.6256441],[133.8323392,34.62566],[133.8323937,34.6257787],[133.8323555,34.6258348],[133.8323624,34.6259334],[133.8332668,34.6261881],[133.8333679,34.6262166],[133.8334281,34.6260682],[133.8337513,34.6259026],[133.8349771,34.6262488],[133.83516,34.6265633],[133.8350294,34.6269075],[133.8347905,34.626842],[133.8345077,34.6275604],[133.8344261,34.6277676],[133.8330217,34.6273564],[133.8330378,34.6273173],[133.8330528,34.6269168],[133.8329719,34.6268938],[133.8327956,34.6271272],[133.832631,34.6270696],[133.8324395,34.6270379],[133.832171,34.6271051],[133.8319235,34.6271301],[133.8318487,34.6270955],[133.8319678,34.6269457],[133.8315919,34.6267977],[133.8309041,34.6266303],[133.8308528,34.6266506],[133.8308018,34.6267146],[133.8306175,34.6265764],[133.830387,34.6264073],[133.83024,34.6263377],[133.8299007,34.6266466],[133.8298992,34.626648],[133.829693,34.6270062],[133.8296688,34.6271011],[133.8294677,34.6270172],[133.8295294,34.6269024],[133.8295696,34.6264853],[133.8295696,34.6263816],[133.8294972,34.6261917],[133.8294772,34.626172],[133.829209,34.6260661],[133.829044,34.6260981],[133.8289127,34.6259844],[133.8288627,34.6258981],[133.8288972,34.6258775],[133.828763,34.6257799],[133.8286977,34.6256514],[133.8285066,34.6255718],[133.8283235,34.6253842],[133.8282298,34.6255922],[133.828044,34.6259417],[133.8280224,34.62599],[133.828002,34.6260283],[133.8280073,34.6260361],[133.8280362,34.6260346],[133.8281484,34.6260409],[133.8282818,34.6260723],[133.8283362,34.6260967],[133.8283931,34.6261106],[133.8285149,34.6261766],[133.828585,34.6262266],[133.8286941,34.6263451],[133.8288182,34.6265164],[133.8290324,34.6268597],[133.8290507,34.6269289],[133.8290581,34.6270069],[133.8290811,34.6271412],[133.829093,34.6271641],[133.8291405,34.6272347],[133.829235,34.627331],[133.8292892,34.6273689],[133.8295723,34.6275139],[133.8297295,34.6275746],[133.8298687,34.6276277],[133.8299157,34.6276544],[133.8300373,34.6277489],[133.8300788,34.6277882],[133.8301283,34.6278489],[133.8301702,34.6277997],[133.8304567,34.6279227],[133.8310122,34.6280575],[133.8314185,34.6280729],[133.8318225,34.6280287],[133.8321704,34.6279692],[133.8323782,34.6281209],[133.8326374,34.6281613],[133.8328569,34.6281152],[133.83299,34.628094],[133.8331092,34.6281952],[133.8330667,34.6283273],[133.8323236,34.6288932],[133.8306616,34.6285353],[133.8305522,34.6284902],[133.8304677,34.6284518],[133.8304139,34.6284239],[133.8300342,34.6278773],[133.829931,34.6277747],[133.8298254,34.6276904],[133.82973,34.6276398],[133.8296458,34.6276064],[133.8295592,34.6275601],[133.829561,34.6276165],[133.8295469,34.6276574],[133.8295234,34.6276877],[133.8294092,34.6277476],[133.829333,34.6277953],[133.8292751,34.6278252],[133.829081,34.6279257],[133.8289732,34.627946],[133.8288592,34.6279409],[133.8286959,34.6278522],[133.8285541,34.6276595],[133.8284802,34.6275961],[133.8282845,34.6273028],[133.8282196,34.627033],[133.8280458,34.6267798],[133.8278705,34.626725],[133.8273671,34.6266873],[133.8271307,34.6263995],[133.8270276,34.6264367],[133.8271187,34.6266216],[133.8268723,34.6266646],[133.8267956,34.6265781],[133.8268165,34.6265395],[133.8267538,34.6264824],[133.8267775,34.6264425],[133.8266617,34.6264346],[133.8265699,34.6265617],[133.8264868,34.6266251],[133.8264159,34.6266606],[133.8263481,34.6268457],[133.8248054,34.6267027],[133.8248004,34.6267405],[133.8245814,34.6267181],[133.8247526,34.6255483],[133.8250583,34.6255779],[133.8251053,34.6252845],[133.8249792,34.6250437],[133.8249914,34.6248496],[133.8251947,34.6247359],[133.8252435,34.6244047],[133.8254868,34.6244154],[133.8256217,34.6245265],[133.8256693,34.6245467],[133.8257937,34.6246117],[133.8259238,34.6246848],[133.8260937,34.6247661],[133.8262451,34.6248784],[133.8263606,34.6250093],[133.8266141,34.6252758],[133.8265048,34.6253353],[133.8266128,34.6254305],[133.8266522,34.6254813],[133.826682,34.6255662],[133.8267046,34.625679],[133.8267612,34.6258194],[133.8267964,34.6258606],[133.8268665,34.6258855],[133.8270746,34.6259413],[133.8271543,34.6259434],[133.8275939,34.6259939],[133.8276385,34.6257347],[133.8279711,34.62577],[133.8279898,34.6256574],[133.8276143,34.6256133],[133.8271744,34.625759],[133.8270081,34.6255294],[133.8266916,34.625088],[133.8262893,34.6246068],[133.826075,34.6244797],[133.8248812,34.6236644],[133.82462,34.6228992],[133.8245549,34.6228323],[133.8244616,34.6226999],[133.8243517,34.6224309],[133.8243038,34.6223781],[133.824169,34.6223333],[133.8241374,34.6223548],[133.8239857,34.6223381],[133.8239776,34.6223171],[133.8238841,34.6222736],[133.823811,34.6221298],[133.8236565,34.6219759],[133.8235297,34.6219376],[133.8233538,34.6220053],[133.8233001,34.6220827],[133.8233301,34.6222556],[133.8238724,34.6233407],[133.8236875,34.623394],[133.8234349,34.6230061],[133.8233456,34.6230213],[133.8231299,34.6227652],[133.8229478,34.622676],[133.8229234,34.6224711],[133.8229019,34.6223646],[133.8228649,34.6223342],[133.8227163,34.6223303],[133.8227004,34.6222236],[133.8226639,34.6220981],[133.8226138,34.6219646],[133.8226107,34.6218758],[133.8226261,34.6218036],[133.8226408,34.6217595],[133.8226714,34.6217192],[133.8225016,34.6216031],[133.8225382,34.6215613],[133.8224153,34.6214902],[133.822464,34.6214317],[133.8224196,34.6214034],[133.8223351,34.6213495],[133.8223757,34.6212993],[133.8221338,34.621127],[133.8220752,34.6210613],[133.8216727,34.6206106],[133.8218167,34.6204504],[133.8209146,34.6198876],[133.8206189,34.6201715],[133.820196,34.6198146],[133.8201664,34.6197956],[133.8199439,34.6196523],[133.8198972,34.6195905],[133.8199405,34.6195575],[133.8197467,34.6193144],[133.8196661,34.619225],[133.8195709,34.618979],[133.8194045,34.6186396],[133.8193845,34.6185584],[133.8196981,34.6184869],[133.8196727,34.6184072],[133.8196539,34.6183076],[133.819517,34.6174581],[133.8194825,34.6173027],[133.8193613,34.6173366],[133.8192656,34.617112],[133.8192647,34.6168983],[133.8193012,34.6168636],[133.8192383,34.6167624],[133.8191519,34.616654],[133.8190166,34.6165144],[133.8188805,34.6163981],[133.8191264,34.6161575]]],[[[133.8428112,34.6305792],[133.8428133,34.6304793],[133.8427731,34.6302844],[133.8427337,34.6301009],[133.8425661,34.6295704],[133.8420605,34.6283062],[133.8421072,34.6282482],[133.8426067,34.6281042],[133.8430684,34.628873],[133.8436222,34.6286201],[133.8436295,34.6284407],[133.8435327,34.6282319],[133.8436748,34.6277966],[133.8438691,34.6271782],[133.8440454,34.6267126],[133.8442068,34.6265521],[133.8442468,34.6264411],[133.8442686,34.6263909],[133.8443019,34.6262288],[133.8441739,34.6258483],[133.844447,34.625622],[133.844913,34.625223],[133.8450518,34.6250486],[133.845063,34.6249122],[133.8448699,34.6248814],[133.8446835,34.6248914],[133.8444381,34.6249224],[133.8440011,34.6249689],[133.843186,34.6250289],[133.842838,34.6250354],[133.84283,34.6250094],[133.8428301,34.624956],[133.8428408,34.6249048],[133.8429697,34.6243625],[133.8433497,34.6235607],[133.843398,34.6234413],[133.843416,34.6233364],[133.8434193,34.623204],[133.8434462,34.6228558],[133.8434647,34.6225744],[133.8433137,34.6224476],[133.8432518,34.6221498],[133.8433635,34.6213895],[133.843222,34.6213444],[133.843596,34.6193019],[133.8434731,34.6191523],[133.8432353,34.6191255],[133.842742,34.6190904],[133.842719,34.6191138],[133.8424811,34.6190285],[133.8425563,34.6188311],[133.8425137,34.6188194],[133.8425401,34.6187441],[133.8421322,34.6185844],[133.8418429,34.6186664],[133.8416418,34.6187757],[133.8412968,34.6195908],[133.8406952,34.6198442],[133.8405527,34.6198189],[133.8404882,34.6200516],[133.8403928,34.6204278],[133.8403242,34.6207814],[133.8402897,34.6210607],[133.8402551,34.6214354],[133.8402551,34.6220067],[133.8391068,34.6219212],[133.8385776,34.6217263],[133.8381373,34.6216488],[133.8378305,34.6216892],[133.8374523,34.6217848],[133.8370307,34.6218329],[133.8369173,34.6219506],[133.8367632,34.6219976],[133.8364683,34.6219005],[133.8363537,34.6224879],[133.8364658,34.6229556],[133.836145,34.6237867],[133.8369026,34.6244191],[133.8377258,34.6252471],[133.8387044,34.6249901],[133.8392786,34.6264049],[133.8393236,34.6265574],[133.8393974,34.626908],[133.8392447,34.6269543],[133.839308,34.6270901],[133.8386617,34.6272741],[133.8383686,34.6271606],[133.8381908,34.6271865],[133.838176,34.6271357],[133.8379923,34.6271865],[133.8377911,34.6272626],[133.8377308,34.6273851],[133.8377811,34.6273988],[133.8377659,34.6274434],[133.8376866,34.627676],[133.8377102,34.6277787],[133.8378665,34.6277662],[133.8379105,34.6278122],[133.8378836,34.6278666],[133.8379411,34.6279561],[133.8380799,34.6280302],[133.8381572,34.6281728],[133.8382714,34.6281326],[133.8384499,34.6281332],[133.8385316,34.6283265],[133.8384924,34.6284018],[133.8384561,34.6284713],[133.8384452,34.6284998],[133.8384835,34.6285605],[133.8383768,34.6285996],[133.8383393,34.6286526],[133.8383259,34.628774],[133.8383366,34.6288623],[133.8383634,34.6289152],[133.8384224,34.6289549],[133.8386424,34.6289417],[133.8388489,34.6289505],[133.8389374,34.6291426],[133.8387148,34.6292198],[133.8385727,34.6293788],[133.8387407,34.6296555],[133.8388972,34.6297368],[133.8389662,34.6297956],[133.8392026,34.6300164],[133.8392625,34.6301622],[133.8392792,34.6302682],[133.839299,34.6305424],[133.8393418,34.630708],[133.8394472,34.6308177],[133.8395599,34.6309123],[133.8397163,34.6309604],[133.8398566,34.6309731],[133.8398931,34.6310021],[133.8400304,34.6311438],[133.8401561,34.6312426],[133.8402068,34.6313089],[133.8415736,34.6309792],[133.8419366,34.6311344],[133.842221,34.6313132],[133.8423908,34.6312699],[133.8424945,34.6312129],[133.8425553,34.6311648],[133.8426796,34.6309314],[133.8427655,34.630757],[133.8428004,34.6306813],[133.8428112,34.6305792]]]]}}
