{"type":"Feature","id":"attraction-large-park-W305810241","properties":{"id":"attraction-large-park-W305810241","kind":"attraction","name":"だて歴史の杜","shortName":"だて歴史の杜","context":"日本","subtype":"large-park","subtypeLabel":"大型都市公園・広域公園","statusLabel":"著名な公園","aliases":[],"osmType":"way","osmId":305810241,"osmDate":null,"officialAreaKm2":null,"areaSourceLabel":"","areaSourceUrl":"","boundarySourceLabel":"© OpenStreetMap contributors","boundarySourceUrl":"https://www.openstreetmap.org/copyright","geometryFile":"attractions/large-park-W305810241.geojson"},"geometry":{"type":"Polygon","coordinates":[[[140.8726487,42.471289],[140.8733857,42.4721127],[140.8728895,42.4723669],[140.8728898,42.4724001],[140.8742198,42.4737686],[140.8742604,42.4737795],[140.8746892,42.4735529],[140.876615,42.4748033],[140.8766583,42.4748043],[140.8773033,42.4744729],[140.8784245,42.4738745],[140.8795316,42.4732844],[140.8794692,42.4732088],[140.8792721,42.4729536],[140.8790588,42.4727092],[140.8786206,42.4722437],[140.8768598,42.4703098],[140.8763458,42.4697336],[140.8762398,42.4696718],[140.8761389,42.4695891],[140.8759736,42.4696773],[140.8726487,42.471289]]]}}
