{"type":"Feature","id":"attraction-large-industrial-complex-R9239970","properties":{"id":"attraction-large-industrial-complex-R9239970","kind":"attraction","name":"佐世保重工業株式会社","shortName":"SSK","context":"日本","subtype":"industrial-complex","subtypeLabel":"工業地帯・大規模工場","statusLabel":"","aliases":["Sasebo Heavy Industries","SSK"],"osmType":"relation","osmId":9239970,"osmDate":null,"officialAreaKm2":null,"areaSourceLabel":"","areaSourceUrl":"","boundarySourceLabel":"© OpenStreetMap contributors","boundarySourceUrl":"https://www.openstreetmap.org/copyright","geometryFile":"attractions/large-industrial-complex-R9239970.geojson"},"geometry":{"type":"MultiPolygon","coordinates":[[[[129.7011366,33.1592323],[129.7011003,33.1591997],[129.7014248,33.1589527],[129.7021785,33.1579558],[129.7026238,33.1574954],[129.7026935,33.1573248],[129.7033668,33.1567949],[129.7040132,33.1561684],[129.7045872,33.1554476],[129.7048795,33.1549625],[129.7052604,33.1541429],[129.7055957,33.1532469],[129.7059496,33.153315],[129.7059131,33.15361],[129.7058739,33.1540128],[129.7058441,33.1541181],[129.7055295,33.1546575],[129.7056187,33.1546908],[129.7056658,33.1546175],[129.7057286,33.1546368],[129.7058991,33.1543481],[129.7059861,33.1543823],[129.7051108,33.1558988],[129.7049855,33.1558528],[129.704949,33.1559163],[129.7049185,33.1559062],[129.7048193,33.1560555],[129.7044338,33.1560902],[129.7040762,33.1567514],[129.7043641,33.1570956],[129.7040074,33.1572867],[129.7037582,33.1569884],[129.7034572,33.1571668],[129.7032858,33.1573564],[129.7028463,33.1578797],[129.7024318,33.1583418],[129.7020357,33.1587514],[129.7019854,33.1587996],[129.7014221,33.1591846],[129.7011366,33.1592323]]],[[[129.7008857,33.1585216],[129.7010735,33.1587439],[129.7011781,33.1587911],[129.7019935,33.1577088],[129.7017204,33.1575808],[129.7012233,33.1575488],[129.7008942,33.157413],[129.7003111,33.1570355],[129.7001561,33.1570621],[129.7000006,33.1572215],[129.6998665,33.1577806],[129.7003064,33.1583487],[129.7005654,33.1582595],[129.7003707,33.1580905],[129.7004431,33.1579984],[129.7007757,33.1582791],[129.7008857,33.1585216]]],[[[129.7036765,33.1624993],[129.7033652,33.1624666],[129.7028736,33.1624423],[129.7025813,33.1624314],[129.70255,33.1624286],[129.7024924,33.1622916],[129.7023153,33.1622714],[129.7022729,33.1623448],[129.7021391,33.1622757],[129.7019358,33.1626681],[129.7019747,33.1626868],[129.7016726,33.1632269],[129.7013325,33.1630928],[129.7010029,33.1629684],[129.7009689,33.1629158],[129.701111,33.1626307],[129.7004592,33.1619144],[129.7001316,33.1621386],[129.6999455,33.1619591],[129.700281,33.1617393],[129.7002167,33.1616431],[129.6998158,33.1612287],[129.6997097,33.1611125],[129.6994242,33.1611153],[129.6993891,33.1610273],[129.6991331,33.1604515],[129.6991047,33.1603786],[129.698969,33.160402],[129.6989532,33.1600706],[129.6990902,33.1596583],[129.6991844,33.1594658],[129.6992671,33.159291],[129.6998985,33.1593678],[129.6999108,33.1593399],[129.6999282,33.1593098],[129.6993381,33.1591952],[129.6989545,33.1591122],[129.6989948,33.1590223],[129.6990408,33.1589359],[129.6991396,33.1587506],[129.698976,33.158452],[129.6988016,33.1581792],[129.6986836,33.1580591],[129.6984535,33.1579572],[129.6984047,33.1579356],[129.6982974,33.1579266],[129.6982196,33.1579468],[129.6975061,33.1582073],[129.6973929,33.1585337],[129.697136,33.1586114],[129.6970716,33.1587035],[129.6970099,33.1589325],[129.696959,33.1589258],[129.6968999,33.1591863],[129.6968088,33.1593075],[129.6962965,33.1594557],[129.6961006,33.1591436],[129.6955052,33.1592806],[129.6956071,33.1596286],[129.6954355,33.1596421],[129.6954837,33.1602326],[129.6952665,33.1602326],[129.6945128,33.1603067],[129.69414,33.1603382],[129.6940193,33.1603763],[129.6939281,33.1604459],[129.6945664,33.1608277],[129.6950224,33.1610702],[129.6952075,33.1611936],[129.6951887,33.1612655],[129.6953067,33.1615192],[129.6953148,33.16224],[129.6953121,33.1624196],[129.6954355,33.1626419],[129.6954891,33.1629158],[129.6956795,33.163329],[129.695811,33.1634435],[129.6961221,33.1637466],[129.6962616,33.1638723],[129.6967497,33.1641867],[129.6974766,33.1646649],[129.6978119,33.164876],[129.6987051,33.1654148],[129.6989518,33.1655249],[129.6992201,33.1656034],[129.6995902,33.1656461],[129.699778,33.1656461],[129.7001052,33.1655832],[129.700647,33.1653767],[129.7015697,33.1649523],[129.7019023,33.1648041],[129.7021759,33.1647323],[129.7025567,33.1646986],[129.7028065,33.1647195],[129.7029054,33.1647278],[129.7032917,33.1648198],[129.7042519,33.1651162],[129.7050163,33.1653969],[129.7054026,33.165599],[129.7056466,33.1657606],[129.7058612,33.1660188],[129.7060946,33.1664903],[129.7063118,33.1669169],[129.7065157,33.167119],[129.7067893,33.1672717],[129.7071138,33.1673794],[129.7074598,33.1674378],[129.7077656,33.166652],[129.7074759,33.1665622],[129.7078246,33.1657965],[129.7078755,33.1658145],[129.7078985,33.1657593],[129.7079399,33.1656775],[129.708302,33.1648446],[129.7041864,33.1635966],[129.7054473,33.1605138],[129.7055459,33.1602971],[129.7070307,33.1607221],[129.7072586,33.1602102],[129.7071943,33.1599093],[129.7072429,33.1598075],[129.7071184,33.1597671],[129.7071448,33.1597033],[129.7072493,33.159731],[129.7073178,33.1595751],[129.7053474,33.1589407],[129.7052846,33.1590941],[129.705433,33.1591387],[129.7054013,33.1592061],[129.7053374,33.1591879],[129.7051665,33.1592851],[129.7048024,33.1594963],[129.7047727,33.1595152],[129.7046233,33.1597836],[129.7044426,33.1597739],[129.7041528,33.1619481],[129.7042247,33.1619629],[129.7042135,33.1620784],[129.7041965,33.1622123],[129.7040626,33.1625252],[129.7036765,33.1624993]]]]}}
