{"type":"Feature","id":"attraction-large-park-W466573751","properties":{"id":"attraction-large-park-W466573751","kind":"attraction","name":"宮崎市生目の杜運動公園","shortName":"宮崎市生目の杜運動公園","context":"日本","subtype":"large-park","subtypeLabel":"大型都市公園・広域公園","statusLabel":"著名な公園","aliases":[],"osmType":"way","osmId":466573751,"osmDate":null,"officialAreaKm2":null,"areaSourceLabel":"","areaSourceUrl":"","boundarySourceLabel":"© OpenStreetMap contributors","boundarySourceUrl":"https://www.openstreetmap.org/copyright","geometryFile":"attractions/large-park-W466573751.geojson"},"geometry":{"type":"Polygon","coordinates":[[[131.3814026,31.9446679],[131.3812965,31.9445735],[131.3811078,31.944448],[131.3808253,31.944371],[131.3806277,31.9443684],[131.3799063,31.9444575],[131.3797232,31.9444305],[131.3795829,31.9444099],[131.3791892,31.9441875],[131.377898,31.9432225],[131.3764221,31.9420627],[131.3761987,31.9417744],[131.3762263,31.9415289],[131.3760172,31.9415661],[131.3756472,31.9416629],[131.3750375,31.9420947],[131.3747661,31.9423181],[131.3745167,31.9425301],[131.3743575,31.9428314],[131.3742316,31.9427836],[131.3739637,31.942749],[131.373372,31.9428366],[131.3730126,31.9428366],[131.372779,31.9429433],[131.3725296,31.9427057],[131.3722615,31.9425642],[131.3719851,31.942504],[131.3716784,31.9424781],[131.3713709,31.942539],[131.3711355,31.9426641],[131.3709048,31.9428102],[131.3707393,31.9430461],[131.370649,31.9432653],[131.3706561,31.9434621],[131.3706707,31.9437259],[131.3708019,31.9439537],[131.3708748,31.9440621],[131.370818,31.944336],[131.3705859,31.9445081],[131.3703709,31.944548],[131.3702041,31.9446108],[131.3701708,31.9447527],[131.370003,31.9449116],[131.3703885,31.9451153],[131.3710918,31.9457215],[131.3717815,31.9458993],[131.3740231,31.9462812],[131.3762243,31.9466276],[131.3767724,31.9466459],[131.3781221,31.9463121],[131.3784276,31.9463134],[131.3785349,31.946368],[131.3786716,31.9462703],[131.3789054,31.9460581],[131.3793602,31.9457303],[131.3801866,31.9452957],[131.3814026,31.9446679]]]}}
