{"type":"Feature","id":"attraction-large-park-W144753146","properties":{"id":"attraction-large-park-W144753146","kind":"attraction","name":"青葉の森公園","shortName":"青葉の森公園","context":"日本","subtype":"large-park","subtypeLabel":"大型都市公園・広域公園","statusLabel":"","aliases":[],"osmType":"way","osmId":144753146,"osmDate":null,"officialAreaKm2":null,"areaSourceLabel":"","areaSourceUrl":"","boundarySourceLabel":"© OpenStreetMap contributors","boundarySourceUrl":"https://www.openstreetmap.org/copyright","geometryFile":"attractions/large-park-W144753146.geojson"},"geometry":{"type":"Polygon","coordinates":[[[140.1358119,35.5951881],[140.1360184,35.5957214],[140.1361887,35.5963059],[140.1363336,35.5970453],[140.1364067,35.5976481],[140.1364248,35.5981816],[140.1363926,35.5986963],[140.1362906,35.5997802],[140.1362263,35.6005741],[140.1361699,35.6010768],[140.1363497,35.6011727],[140.1382782,35.6004498],[140.1390185,35.6001663],[140.1394081,35.5999795],[140.139864,35.5996677],[140.1406837,35.599072],[140.1408994,35.5989153],[140.1412829,35.5986557],[140.1415712,35.5984998],[140.1418322,35.5984301],[140.1421131,35.5983984],[140.1424102,35.5984105],[140.142559,35.5983986],[140.1428909,35.5983013],[140.143066,35.5984377],[140.1427013,35.5991531],[140.1428501,35.5992109],[140.1433504,35.5989197],[140.1434992,35.5989721],[140.1435623,35.5988968],[140.1436481,35.5986548],[140.1435843,35.5984725],[140.1434367,35.5981497],[140.1440302,35.5977738],[140.144183,35.597849],[140.1444848,35.5975971],[140.1447544,35.597427],[140.1444854,35.5971694],[140.1448403,35.5969423],[140.1450991,35.5969646],[140.145901,35.5963823],[140.1456355,35.5958959],[140.1463758,35.5958697],[140.1462396,35.594948],[140.1470939,35.5945391],[140.14629,35.5936527],[140.1461223,35.5934651],[140.1454578,35.5928618],[140.1452888,35.5926426],[140.1451197,35.5925746],[140.1442271,35.5925747],[140.1439565,35.5926035],[140.1438265,35.5926046],[140.1437031,35.592585],[140.1435506,35.5925703],[140.143092,35.5925421],[140.1428229,35.5925147],[140.1423841,35.5924531],[140.1421393,35.5924295],[140.1420158,35.5936554],[140.138415,35.5943976],[140.1381306,35.5945491],[140.1358119,35.5951881]]]}}
