{"type":"Feature","id":"attraction-large-industrial-complex-W452149494","properties":{"id":"attraction-large-industrial-complex-W452149494","kind":"attraction","name":"本田技研工業（株）鈴鹿製作所","shortName":"本田技研工業（株）鈴鹿製作所","context":"日本","subtype":"industrial-complex","subtypeLabel":"工業地帯・大規模工場","statusLabel":"","aliases":[],"osmType":"way","osmId":452149494,"osmDate":null,"officialAreaKm2":null,"areaSourceLabel":"","areaSourceUrl":"","boundarySourceLabel":"© OpenStreetMap contributors","boundarySourceUrl":"https://www.openstreetmap.org/copyright","geometryFile":"attractions/large-industrial-complex-W452149494.geojson"},"geometry":{"type":"Polygon","coordinates":[[[136.5226285,34.8679447],[136.5227066,34.8652559],[136.5201151,34.8652083],[136.5202969,34.8592547],[136.5204182,34.8591518],[136.5225352,34.8591799],[136.5229315,34.8592278],[136.523186,34.8592807],[136.5253771,34.8599104],[136.5254138,34.859959],[136.5253823,34.8610047],[136.5295113,34.8610809],[136.5334385,34.8636032],[136.5334129,34.8644829],[136.533402,34.8649676],[136.5334398,34.8649686],[136.533426,34.8655076],[136.5333629,34.8675941],[136.533335,34.8677008],[136.5333295,34.8680686],[136.5332452,34.8681421],[136.5226285,34.8679447]]]}}
