{"type":"Feature","id":"attraction-large-park-W473141623","properties":{"id":"attraction-large-park-W473141623","kind":"attraction","name":"埼玉県営吉川公園","shortName":"埼玉県営吉川公園","context":"日本","subtype":"large-park","subtypeLabel":"大型都市公園・広域公園","statusLabel":"","aliases":[],"osmType":"way","osmId":473141623,"osmDate":null,"officialAreaKm2":null,"areaSourceLabel":"","areaSourceUrl":"","boundarySourceLabel":"© OpenStreetMap contributors","boundarySourceUrl":"https://www.openstreetmap.org/copyright","geometryFile":"attractions/large-park-W473141623.geojson"},"geometry":{"type":"Polygon","coordinates":[[[139.8795567,35.9040056],[139.8782069,35.9034376],[139.8771842,35.9048409],[139.8765825,35.9056256],[139.8763173,35.9060214],[139.8762579,35.9061798],[139.8755712,35.9070833],[139.8754162,35.9073071],[139.8752723,35.907455],[139.8751382,35.9075777],[139.87494,35.9078065],[139.8736863,35.9093548],[139.872672,35.9105657],[139.871975,35.9114385],[139.8710868,35.912424],[139.8709458,35.9127127],[139.8705341,35.9131463],[139.8697108,35.9140675],[139.8693499,35.9145236],[139.8685262,35.9155837],[139.868361,35.9157583],[139.8681429,35.916098],[139.8677527,35.9168179],[139.8674365,35.9175524],[139.8669601,35.9188084],[139.8659751,35.9213956],[139.8684465,35.9227341],[139.8689663,35.9216657],[139.8697661,35.9189761],[139.8703023,35.9173733],[139.8712202,35.9157569],[139.8726943,35.9142891],[139.8728018,35.9141417],[139.8729802,35.9139221],[139.8731313,35.9137442],[139.8738568,35.9129506],[139.8742363,35.9125563],[139.8746708,35.9119176],[139.8765135,35.9097995],[139.8772967,35.9086438],[139.8787456,35.9066155],[139.8795567,35.9040056]]]}}
