{"type":"Feature","id":"attraction-large-park-W478182091","properties":{"id":"attraction-large-park-W478182091","kind":"attraction","name":"手宮公園","shortName":"手宮公園","context":"日本","subtype":"large-park","subtypeLabel":"大型都市公園・広域公園","statusLabel":"著名な公園","aliases":[],"osmType":"way","osmId":478182091,"osmDate":null,"officialAreaKm2":null,"areaSourceLabel":"","areaSourceUrl":"","boundarySourceLabel":"© OpenStreetMap contributors","boundarySourceUrl":"https://www.openstreetmap.org/copyright","geometryFile":"attractions/large-park-W478182091.geojson"},"geometry":{"type":"Polygon","coordinates":[[[140.9997952,43.2163091],[141.0006963,43.2165793],[141.002534,43.2169227],[141.0031252,43.2165807],[141.0034438,43.2160108],[141.0035653,43.215795],[141.0037369,43.2156205],[141.0039504,43.2156005],[141.0042463,43.2155735],[141.0046371,43.215061],[141.0051735,43.2150062],[141.0057743,43.2145527],[141.00642,43.2138087],[141.0060747,43.2135128],[141.0051628,43.2130436],[141.006815,43.2122382],[141.0071262,43.2124415],[141.0075768,43.2124728],[141.0078772,43.2122069],[141.0078235,43.2119958],[141.0075204,43.2114665],[141.0066219,43.2114015],[141.0067,43.211638],[141.0047901,43.2123337],[141.0042288,43.212594],[141.0033389,43.2129576],[141.0022875,43.2130514],[141.0010107,43.2128325],[141.0001648,43.2125888],[140.9995623,43.2123164],[140.9994146,43.2126249],[140.9999486,43.2134346],[140.9993799,43.2136222],[140.9997395,43.2142272],[140.9998719,43.2147648],[140.9993027,43.2148511],[140.9985755,43.2149724],[140.9978447,43.2149624],[140.9997952,43.2163091]]]}}
