{"type":"Feature","id":"attraction-large-park-W221913468","properties":{"id":"attraction-large-park-W221913468","kind":"attraction","name":"金沢自然公園","shortName":"金沢自然公園","context":"日本","subtype":"large-park","subtypeLabel":"大型都市公園・広域公園","statusLabel":"","aliases":["Kanazawa Nature Park"],"osmType":"way","osmId":221913468,"osmDate":null,"officialAreaKm2":null,"areaSourceLabel":"","areaSourceUrl":"","boundarySourceLabel":"© OpenStreetMap contributors","boundarySourceUrl":"https://www.openstreetmap.org/copyright","geometryFile":"attractions/large-park-W221913468.geojson"},"geometry":{"type":"Polygon","coordinates":[[[139.6064955,35.3513209],[139.6066244,35.3508839],[139.6067339,35.3508526],[139.6068525,35.3508584],[139.6067919,35.3512279],[139.6067957,35.3518339],[139.6067907,35.3521481],[139.6067595,35.3525536],[139.6067049,35.3528557],[139.6066408,35.3531635],[139.6063891,35.3533962],[139.6063384,35.3536395],[139.6063111,35.3536697],[139.6059505,35.353816],[139.6058082,35.3538414],[139.6055703,35.3538526],[139.6055532,35.3540934],[139.6059585,35.3543509],[139.6062309,35.3546714],[139.6064196,35.3552317],[139.6065905,35.35554],[139.6066425,35.3558147],[139.6066394,35.3559384],[139.6057945,35.355845],[139.6058162,35.3555119],[139.6057357,35.3551863],[139.6054572,35.3550374],[139.6050549,35.354949],[139.6043308,35.354997],[139.6041296,35.3549793],[139.6032786,35.3547825],[139.6031672,35.3547244],[139.603085,35.3545587],[139.6026062,35.3545936],[139.6016827,35.3544938],[139.6011783,35.3542651],[139.5967754,35.3516893],[139.595387,35.3506943],[139.5955845,35.3494447],[139.5946349,35.3485522],[139.5949191,35.34755],[139.5946294,35.3469943],[139.5946616,35.3467099],[139.5947012,35.3466658],[139.5954742,35.3463904],[139.595772,35.3466618],[139.5965017,35.34643],[139.597785,35.3478049],[139.5992354,35.3486896],[139.5994717,35.3485084],[139.6002469,35.3480936],[139.6006997,35.3480323],[139.6012206,35.3476704],[139.6015393,35.3474941],[139.6025978,35.3473887],[139.6026073,35.3484766],[139.602951,35.3487855],[139.6029833,35.3494425],[139.60345,35.3500836],[139.6038325,35.3503468],[139.6038667,35.3505929],[139.603467,35.3510868],[139.6040124,35.3509628],[139.6045579,35.3510552],[139.6049561,35.351404],[139.6049058,35.351534],[139.6048722,35.3517258],[139.6052599,35.351395],[139.6055637,35.3513311],[139.6060065,35.3513049],[139.6064955,35.3513209]]]}}
