{"type":"Feature","id":"attraction-large-park-W186894902","properties":{"id":"attraction-large-park-W186894902","kind":"attraction","name":"井頭公園","shortName":"井頭公園","context":"日本","subtype":"large-park","subtypeLabel":"大型都市公園・広域公園","statusLabel":"","aliases":[],"osmType":"way","osmId":186894902,"osmDate":null,"officialAreaKm2":null,"areaSourceLabel":"","areaSourceUrl":"","boundarySourceLabel":"© OpenStreetMap contributors","boundarySourceUrl":"https://www.openstreetmap.org/copyright","geometryFile":"attractions/large-park-W186894902.geojson"},"geometry":{"type":"Polygon","coordinates":[[[139.9934179,36.493443],[139.9922573,36.4952784],[139.9917324,36.4957587],[139.9916815,36.4972724],[139.9925897,36.4974301],[139.9924899,36.4983597],[139.9926659,36.499369],[139.9931563,36.5007385],[139.9937375,36.5020058],[139.9941589,36.5025722],[139.9957892,36.5026134],[139.996624,36.5024172],[139.9971603,36.5026505],[139.9995314,36.498215],[139.9986311,36.4981061],[139.9993503,36.4953515],[139.9995969,36.4946907],[140.000126,36.4936541],[140.0004753,36.4931668],[140.0018933,36.4922455],[140.0024182,36.4920576],[140.0027791,36.4921475],[140.0030696,36.4915065],[140.002834,36.4915529],[140.0027577,36.490468],[140.0029738,36.4904388],[140.0029756,36.4903351],[140.0034442,36.4903483],[140.0034497,36.4898693],[140.0034515,36.4895612],[140.0038257,36.4884909],[140.003794,36.4884223],[140.003735,36.4884017],[140.0032983,36.4883521],[140.0027872,36.488412],[140.0019036,36.4885627],[140.001653,36.4885808],[140.0013488,36.4885503],[140.0009771,36.4884441],[140.0003326,36.4882632],[140.0000801,36.4880213],[139.9991279,36.4878363],[139.9990869,36.4877376],[139.998144,36.4876434],[139.9972611,36.4885952],[139.9971957,36.488823],[139.9959861,36.4905051],[139.9953286,36.4911768],[139.9947265,36.4917875],[139.9934179,36.493443]]]}}
