{"type":"Feature","id":"attraction-large-park-W618545439","properties":{"id":"attraction-large-park-W618545439","kind":"attraction","name":"三戸城跡県立城山公園","shortName":"三戸城跡県立城山公園","context":"日本","subtype":"large-park","subtypeLabel":"大型都市公園・広域公園","statusLabel":"著名な公園","aliases":["Shiroyama Park"],"osmType":"way","osmId":618545439,"osmDate":null,"officialAreaKm2":null,"areaSourceLabel":"","areaSourceUrl":"","boundarySourceLabel":"© OpenStreetMap contributors","boundarySourceUrl":"https://www.openstreetmap.org/copyright","geometryFile":"attractions/large-park-W618545439.geojson"},"geometry":{"type":"Polygon","coordinates":[[[141.2606245,40.380294],[141.260764,40.3807967],[141.2608766,40.3810664],[141.2610698,40.3814423],[141.261456,40.3820062],[141.2621212,40.3826682],[141.262604,40.3830359],[141.2631726,40.3831667],[141.2639129,40.383371],[141.264562,40.3835508],[141.265136,40.383796],[141.2657851,40.3842046],[141.2662572,40.3844702],[141.266681,40.3847031],[141.2670028,40.3847889],[141.2672603,40.3848543],[141.26755,40.3850055],[141.2681937,40.3851117],[141.268596,40.3852057],[141.2690091,40.3851771],[141.26917,40.3850586],[141.2692827,40.3849115],[141.2693793,40.3847276],[141.269449,40.3845397],[141.2693095,40.3842863],[141.2692022,40.3840207],[141.2691539,40.3837837],[141.2691379,40.3834773],[141.2691539,40.3832076],[141.2691379,40.3829093],[141.2690949,40.382705],[141.2690681,40.3825006],[141.2689877,40.3823086],[141.2688911,40.382092],[141.2686443,40.3818509],[141.2684512,40.381761],[141.2682259,40.3816548],[141.267963,40.3814341],[141.2677324,40.3812216],[141.2672764,40.3810337],[141.2669223,40.3809233],[141.2666005,40.3808579],[141.2662518,40.3807272],[141.2656134,40.3805474],[141.2652165,40.3804902],[141.2646371,40.3802899],[141.2639719,40.3801755],[141.2630063,40.3799385],[141.262325,40.3797383],[141.2620032,40.3795585],[141.2615204,40.3793378],[141.2611824,40.3791621],[141.2609625,40.3789373],[141.2606889,40.3787044],[141.2604743,40.3785859],[141.2603348,40.3785818],[141.2601525,40.3786635],[141.2601109,40.3787851],[141.2601162,40.3789465],[141.2601632,40.3791948],[141.2603509,40.3797505],[141.2604958,40.3800161],[141.2606245,40.380294]]]}}
