{"type":"Feature","id":"attraction-large-park-W552820488","properties":{"id":"attraction-large-park-W552820488","kind":"attraction","name":"三谷森林公園","shortName":"三谷森林公園","context":"日本","subtype":"large-park","subtypeLabel":"大型都市公園・広域公園","statusLabel":"","aliases":[],"osmType":"way","osmId":552820488,"osmDate":null,"officialAreaKm2":null,"areaSourceLabel":"","areaSourceUrl":"","boundarySourceLabel":"© OpenStreetMap contributors","boundarySourceUrl":"https://www.openstreetmap.org/copyright","geometryFile":"attractions/large-park-W552820488.geojson"},"geometry":{"type":"Polygon","coordinates":[[[131.5786628,34.0996749],[131.5787323,34.0995912],[131.5791473,34.0995493],[131.5792189,34.0996133],[131.5792739,34.0997366],[131.5791258,34.0999845],[131.578519,34.1005594],[131.578515,34.1008002],[131.5783257,34.1009081],[131.5782219,34.1010732],[131.5782606,34.1011844],[131.5782748,34.101449],[131.5781182,34.1020255],[131.5778465,34.102741],[131.577929,34.1028633],[131.5780226,34.1029399],[131.5781743,34.102977],[131.5787444,34.1028035],[131.5791993,34.1028203],[131.5797242,34.103015],[131.579942,34.1029603],[131.5805079,34.1030075],[131.5808984,34.1037218],[131.5813621,34.1025723],[131.5816333,34.1026741],[131.581686,34.103491],[131.5819585,34.1040536],[131.5820561,34.1044092],[131.5820672,34.1049213],[131.5819983,34.1049981],[131.5818748,34.1050304],[131.581599,34.1051869],[131.5814678,34.1054809],[131.5812003,34.1069808],[131.5809216,34.1089611],[131.5808195,34.1092081],[131.5803805,34.1095],[131.5798081,34.1099029],[131.5789428,34.1102337],[131.5775852,34.1102681],[131.5769032,34.110509],[131.5765386,34.1106317],[131.5761558,34.1107587],[131.5758419,34.1111264],[131.5749318,34.1118627],[131.5749359,34.1121042],[131.5745371,34.1123274],[131.574099,34.1128306],[131.5735037,34.1133797],[131.572818,34.114088],[131.5725139,34.1146038],[131.5720292,34.1151372],[131.5717289,34.1156776],[131.5716412,34.1166971],[131.5714933,34.116864],[131.5706868,34.1172653],[131.5705328,34.117417],[131.5704742,34.1175544],[131.5704354,34.1177],[131.5703536,34.1178337],[131.5702201,34.1179658],[131.5700727,34.118308],[131.5700426,34.118614],[131.5701126,34.1188319],[131.570394,34.1191422],[131.5705119,34.119397],[131.5705202,34.1195914],[131.5704792,34.1197637],[131.5702494,34.1199651],[131.569935,34.120207],[131.5694751,34.1205922],[131.5693761,34.1207856],[131.5692399,34.1212124],[131.5690233,34.1214383],[131.5684945,34.1219435],[131.5683206,34.121942],[131.5681312,34.1218926],[131.5673566,34.1214915],[131.5665242,34.1209899],[131.5662582,34.1209431],[131.5660518,34.1209968],[131.5654906,34.1213961],[131.5654222,34.1215037],[131.5654309,34.121634],[131.5652024,34.1215719],[131.5648725,34.1215519],[131.5645211,34.1216846],[131.5641289,34.1219668],[131.5638168,34.1220572],[131.5635836,34.1220078],[131.5634284,34.1218581],[131.5633552,34.121399],[131.5633341,34.1209087],[131.5631942,34.1207505],[131.5629452,34.1205514],[131.5624087,34.1199925],[131.5620122,34.1194412],[131.5618595,34.1193384],[131.5615601,34.119243],[131.560843,34.119037],[131.5601906,34.1184449],[131.5601663,34.1182677],[131.5601753,34.1180908],[131.5600587,34.1177152],[131.5599376,34.1175168],[131.559808,34.1173007],[131.5598096,34.117066],[131.5598591,34.1167313],[131.5599876,34.1160653],[131.5599716,34.1157847],[131.559921,34.1153648],[131.559805,34.1152462],[131.5595082,34.1151925],[131.5590135,34.1151772],[131.5588123,34.1150866],[131.5586656,34.1149383],[131.5583908,34.1145371],[131.5582014,34.1143333],[131.5580642,34.1142689],[131.5577661,34.1142074],[131.5575612,34.1141958],[131.5575906,34.1137731],[131.5576319,34.1130299],[131.557661,34.112511],[131.5576206,34.1121935],[131.5575113,34.1120709],[131.5572691,34.1119212],[131.5569704,34.1118151],[131.5569158,34.1117289],[131.5569892,34.1115637],[131.557134,34.1109929],[131.5573553,34.1106616],[131.557904,34.110024],[131.5581968,34.1096045],[131.5582855,34.1094393],[131.5583231,34.1092641],[131.558354,34.1086081],[131.5584948,34.108031],[131.5587534,34.1075291],[131.5589286,34.1072594],[131.5591652,34.1071144],[131.5593039,34.106943],[131.5594472,34.1062611],[131.5594579,34.1057067],[131.559402,34.1051794],[131.5593961,34.1049936],[131.5594797,34.1048947],[131.560447,34.1048058],[131.5613201,34.1046801],[131.561872,34.1044467],[131.5620812,34.1042333],[131.5621175,34.1039394],[131.5621061,34.1037089],[131.5622204,34.103586],[131.5626899,34.1031261],[131.5628505,34.1027948],[131.5629021,34.1025814],[131.5628626,34.1023668],[131.5626595,34.1021283],[131.562153,34.1014879],[131.562131,34.1013874],[131.5622095,34.1012546],[131.5626955,34.1008797],[131.562902,34.1006746],[131.5629379,34.1004811],[131.5628679,34.1002367],[131.5623428,34.0997921],[131.5622814,34.0996678],[131.5623258,34.0994008],[131.5624911,34.0992709],[131.5628613,34.0990322],[131.5630028,34.0988784],[131.5630523,34.0987032],[131.5629977,34.0984702],[131.5627572,34.098336],[131.5620526,34.0982001],[131.561177,34.0977217],[131.5607699,34.0976746],[131.5599648,34.0977045],[131.5597987,34.0976047],[131.5594508,34.0976029],[131.5594008,34.0969984],[131.55951,34.0967245],[131.559535,34.0964815],[131.559435,34.0962386],[131.5592804,34.0960333],[131.5594282,34.0952033],[131.5594556,34.0947426],[131.5595785,34.0946764],[131.5602053,34.0946551],[131.5607203,34.0946085],[131.5610819,34.0945424],[131.5613912,34.0944257],[131.561605,34.0944765],[131.5618477,34.0945553],[131.5622349,34.0945298],[131.562556,34.0944049],[131.5629603,34.094344],[131.563393,34.094289],[131.563597,34.094246],[131.563986,34.094209],[131.564215,34.094158],[131.564509,34.094071],[131.564573,34.094034],[131.564948,34.093938],[131.565434,34.093919],[131.566078,34.093922],[131.566445,34.094022],[131.56665,34.094111],[131.566775,34.0942255],[131.5667264,34.0943388],[131.566601,34.0944024],[131.5663643,34.0946026],[131.5661967,34.0946841],[131.5654622,34.0947648],[131.565166,34.0948463],[131.5650932,34.0949857],[131.5650182,34.0952154],[131.5650936,34.0955729],[131.5654767,34.0964893],[131.5656746,34.0965723],[131.5659885,34.0965478],[131.5667447,34.0962556],[131.5675316,34.0960277],[131.5690165,34.0956018],[131.569714,34.09543],[131.570304,34.09499],[131.570477,34.094931],[131.570981,34.09488],[131.57147,34.094851],[131.571723,34.094875],[131.572023,34.09495],[131.572292,34.095051],[131.5723884,34.0951453],[131.5725439,34.0952001],[131.5727838,34.0951882],[131.5733391,34.0950366],[131.5733571,34.0951584],[131.573329,34.0953193],[131.5732408,34.095439],[131.5729387,34.095582],[131.5722482,34.095808],[131.5720039,34.0959438],[131.5719539,34.0961585],[131.5719177,34.0963709],[131.5718153,34.0965065],[131.5704831,34.0974954],[131.570253,34.0976892],[131.570193,34.0978416],[131.5708971,34.0989613],[131.5708195,34.0992743],[131.5708568,34.0994808],[131.5709112,34.0995892],[131.5710852,34.0997754],[131.5713111,34.0998781],[131.5724916,34.1002055],[131.572602,34.100012],[131.572649,34.099724],[131.572781,34.099621],[131.573468,34.099342],[131.573935,34.098969],[131.574031,34.098618],[131.574134,34.098479],[131.574159,34.098272],[131.574288,34.097984],[131.5744624,34.097919],[131.5746283,34.0979712],[131.5747512,34.0985729],[131.5749081,34.0987466],[131.5752135,34.0988551],[131.5758795,34.0989778],[131.575982,34.0990582],[131.57589,34.0998637],[131.5760264,34.0999979],[131.5763244,34.1000676],[131.5772206,34.1000315],[131.5780461,34.1000858],[131.5783281,34.1000198],[131.5785775,34.0998215],[131.5786628,34.0996749]]]}}
