{"type":"Feature","id":"attraction-large-industrial-complex-W1125768788","properties":{"id":"attraction-large-industrial-complex-W1125768788","kind":"attraction","name":"今治造船 丸亀工場","shortName":"今治造船 丸亀工場","context":"日本","subtype":"industrial-complex","subtypeLabel":"工業地帯・大規模工場","statusLabel":"","aliases":[],"osmType":"way","osmId":1125768788,"osmDate":null,"officialAreaKm2":null,"areaSourceLabel":"","areaSourceUrl":"","boundarySourceLabel":"© OpenStreetMap contributors","boundarySourceUrl":"https://www.openstreetmap.org/copyright","geometryFile":"attractions/large-industrial-complex-W1125768788.geojson"},"geometry":{"type":"Polygon","coordinates":[[[133.768387,34.3038299],[133.7680381,34.3036755],[133.7679784,34.3036491],[133.7653698,34.3024972],[133.7658749,34.3017019],[133.7655103,34.3015411],[133.7642245,34.300969],[133.7640894,34.3009089],[133.7639878,34.3008646],[133.7640764,34.3007144],[133.7650597,34.2990468],[133.7651059,34.2989684],[133.7633111,34.298189],[133.764464,34.2964206],[133.7647247,34.2960362],[133.764855,34.295839],[133.7655096,34.2948479],[133.7656231,34.294676],[133.7672134,34.2922682],[133.7672525,34.292209],[133.7688301,34.2906688],[133.7688653,34.2906666],[133.770717,34.2914902],[133.7706997,34.2915173],[133.7699009,34.2927638],[133.769931,34.292777],[133.770085,34.2928442],[133.7701048,34.2928529],[133.7741874,34.2946748],[133.773264,34.2961155],[133.7731072,34.296337],[133.7727057,34.2969608],[133.7722577,34.2976928],[133.7720165,34.2981067],[133.7718262,34.2984085],[133.770603,34.3003329],[133.7704977,34.3004995],[133.7703354,34.3007762],[133.7696789,34.3018091],[133.76927,34.3024404],[133.7684785,34.303683],[133.7684307,34.3037618],[133.768387,34.3038299]]]}}
