{"type":"Feature","id":"attraction-large-industrial-complex-W939110679","properties":{"id":"attraction-large-industrial-complex-W939110679","kind":"attraction","name":"日野自動車北海道芽室テストコース","shortName":"日野自動車北海道芽室テストコース","context":"北海道・芽室町","subtype":"industrial-complex","subtypeLabel":"工業地帯・大規模工場","statusLabel":"","aliases":["Hino Motors Hokkado Memuro Test Course","日野自動車"],"osmType":"way","osmId":939110679,"osmDate":null,"officialAreaKm2":null,"areaSourceLabel":"","areaSourceUrl":"","boundarySourceLabel":"© OpenStreetMap contributors","boundarySourceUrl":"https://www.openstreetmap.org/copyright","geometryFile":"attractions/large-industrial-complex-W939110679.geojson"},"geometry":{"type":"Polygon","coordinates":[[[142.9523896,42.7705142],[142.9482444,42.7683849],[142.9475645,42.7684896],[142.9470217,42.7685862],[142.9464514,42.7687633],[142.9460073,42.7690169],[142.9456345,42.7693308],[142.9438854,42.7716371],[142.9436277,42.7721765],[142.9426243,42.7729533],[142.9417853,42.7737663],[142.9410945,42.7749616],[142.9402336,42.7760805],[142.940283,42.7768653],[142.9400363,42.7772074],[142.9406504,42.77796],[142.9405736,42.7780043],[142.939784,42.7777507],[142.9392851,42.7777708],[142.9390328,42.7779841],[142.938978,42.7782337],[142.9390383,42.7785073],[142.9404064,42.7793847],[142.9408752,42.7798354],[142.9410397,42.7800326],[142.9412699,42.7801936],[142.9435509,42.7812681],[142.9523896,42.7705142]]]}}
