{"type":"Feature","id":"attraction-large-park-W1268579219","properties":{"id":"attraction-large-park-W1268579219","kind":"attraction","name":"水の森公園","shortName":"水の森公園","context":"日本","subtype":"large-park","subtypeLabel":"大型都市公園・広域公園","statusLabel":"","aliases":["Mizunomori Park"],"osmType":"way","osmId":1268579219,"osmDate":null,"officialAreaKm2":null,"areaSourceLabel":"","areaSourceUrl":"","boundarySourceLabel":"© OpenStreetMap contributors","boundarySourceUrl":"https://www.openstreetmap.org/copyright","geometryFile":"attractions/large-park-W1268579219.geojson"},"geometry":{"type":"Polygon","coordinates":[[[140.859611,38.2965869],[140.8595117,38.2966241],[140.8592203,38.2968433],[140.8590441,38.2969883],[140.858275,38.2976101],[140.857933,38.2978867],[140.8574452,38.2982919],[140.8575102,38.2983429],[140.8570468,38.2985886],[140.8570892,38.2989856],[140.8571245,38.2993164],[140.8571147,38.2996408],[140.8567436,38.3002889],[140.8565877,38.3003558],[140.8563711,38.3004207],[140.8563639,38.3004565],[140.8566087,38.3007512],[140.8568063,38.3011927],[140.8572771,38.3016569],[140.8572314,38.3017376],[140.857111,38.30195],[140.8567518,38.3022702],[140.8562587,38.3025419],[140.8560039,38.302914],[140.8556287,38.3030085],[140.8554518,38.3035084],[140.8551828,38.3037639],[140.8546307,38.3038583],[140.8539016,38.303875],[140.8537329,38.3042056],[140.8539972,38.3044578],[140.8540712,38.3050573],[140.8541978,38.3055997],[140.8548286,38.3058179],[140.8551792,38.306065],[140.8553733,38.3065743],[140.8557167,38.3066002],[140.8558453,38.3071403],[140.8564174,38.3073222],[140.856504,38.3078269],[140.8567373,38.3078387],[140.8567809,38.3080096],[140.8568868,38.308158],[140.8572887,38.3090353],[140.8572461,38.3091051],[140.8571759,38.3091596],[140.8569879,38.3092452],[140.8568534,38.3092877],[140.856355,38.3094172],[140.8562246,38.3094092],[140.8561459,38.3093883],[140.8559949,38.3092221],[140.8559313,38.3090507],[140.8558206,38.3088136],[140.8556775,38.3087568],[140.8552672,38.3087695],[140.855101,38.3088073],[140.8544991,38.3088329],[140.8541271,38.3089015],[140.8540255,38.3090339],[140.8539776,38.3093087],[140.8536611,38.3095655],[140.8534197,38.3097044],[140.8530335,38.3097633],[140.8528457,38.3096455],[140.8525614,38.3096665],[140.8519713,38.3093929],[140.8516226,38.3091782],[140.8513812,38.3089341],[140.8512784,38.308868],[140.8511157,38.3088457],[140.8508718,38.3088616],[140.8500221,38.308852],[140.8500847,38.3092242],[140.85054,38.309371],[140.8504099,38.3100026],[140.8505563,38.3105258],[140.8511336,38.3108384],[140.852711,38.3110745],[140.8527679,38.3107746],[140.8532395,38.310379],[140.853768,38.3102451],[140.8542071,38.3100473],[140.854077,38.3096645],[140.8544673,38.3095432],[140.8546624,38.3097984],[140.8548819,38.309875],[140.8554755,38.3098367],[140.855939,38.3097346],[140.8561253,38.3098354],[140.8561457,38.3098865],[140.8561375,38.3099439],[140.8560562,38.309963],[140.8559993,38.3099949],[140.8559993,38.3100524],[140.8560481,38.3100938],[140.8560237,38.3101481],[140.8560765,38.3102342],[140.8562107,38.310365],[140.8562839,38.3104288],[140.8565278,38.310483],[140.8567351,38.3104702],[140.856914,38.3103905],[140.857036,38.3104033],[140.8570929,38.3106786],[140.8573853,38.3106744],[140.8573303,38.3104946],[140.8573143,38.3104419],[140.8573249,38.3103516],[140.8573957,38.3102697],[140.8574824,38.3102377],[140.857578,38.3102183],[140.8576311,38.3101975],[140.8576248,38.3101555],[140.8578233,38.3100502],[140.857995,38.3103659],[140.858121,38.3105638],[140.8584624,38.3104634],[140.8589498,38.3101374],[140.8591052,38.3101068],[140.8596637,38.3098449],[140.8601541,38.309713],[140.860495,38.3098559],[140.860551,38.3099841],[140.861457,38.3099695],[140.8614197,38.3098889],[140.8612796,38.30968],[140.8613776,38.3094748],[140.8618166,38.3094601],[140.861924,38.3096067],[140.8621855,38.3097936],[140.8623116,38.3098266],[140.8624657,38.3098192],[140.8625702,38.3097923],[140.8628207,38.3097276],[140.8638605,38.3095387],[140.8646664,38.3095438],[140.8648545,38.3092454],[140.8648791,38.3086554],[140.8655894,38.3087985],[140.8659995,38.3091356],[140.8667497,38.3089822],[140.8667558,38.30863],[140.8669012,38.3086038],[140.8668584,38.3083116],[140.8667156,38.3083158],[140.8666895,38.3077409],[140.8670108,38.3076935],[140.8669742,38.3072915],[140.8669458,38.3073075],[140.8669401,38.3075895],[140.8665294,38.3076461],[140.8663885,38.3074878],[140.8662681,38.3070593],[140.8663151,38.3068654],[140.8662631,38.3067215],[140.8660175,38.3066392],[140.8657136,38.3062385],[140.8658291,38.3061293],[140.8652862,38.3058429],[140.8646014,38.305384],[140.8642826,38.3048778],[140.8639148,38.3046697],[140.863772,38.303959],[140.8635116,38.3039446],[140.8633747,38.3039235],[140.8631892,38.3037948],[140.8631035,38.303422],[140.8630659,38.3029859],[140.8636977,38.3027042],[140.8642871,38.3011049],[140.8639329,38.3006632],[140.8639217,38.3006492],[140.861712,38.2984183],[140.8613534,38.2982939],[140.8609154,38.2982317],[140.8607539,38.2981625],[140.8603946,38.2976607],[140.8603003,38.2972978],[140.8601979,38.296987],[140.8601015,38.2968796],[140.8599847,38.296817],[140.8597985,38.296759],[140.859611,38.2965869]]]}}
