{"type":"Feature","id":"attraction-large-industrial-complex-W74943077","properties":{"id":"attraction-large-industrial-complex-W74943077","kind":"attraction","name":"東芝 府中事業所","shortName":"東芝 府中事業所","context":"日本","subtype":"industrial-complex","subtypeLabel":"工業地帯・大規模工場","statusLabel":"","aliases":[],"osmType":"way","osmId":74943077,"osmDate":null,"officialAreaKm2":null,"areaSourceLabel":"","areaSourceUrl":"","boundarySourceLabel":"© OpenStreetMap contributors","boundarySourceUrl":"https://www.openstreetmap.org/copyright","geometryFile":"attractions/large-industrial-complex-W74943077.geojson"},"geometry":{"type":"Polygon","coordinates":[[[139.4722112,35.6784179],[139.4667116,35.6791746],[139.4661104,35.6792663],[139.4631666,35.679715],[139.4616312,35.6799491],[139.4612646,35.6811824],[139.4611627,35.6827706],[139.4609645,35.6834286],[139.4608364,35.6846885],[139.4606755,35.6859141],[139.460735,35.6859769],[139.4622451,35.6859164],[139.4628371,35.686141],[139.4633982,35.686298],[139.4639115,35.6864113],[139.4645269,35.6865723],[139.4651331,35.6866725],[139.465632,35.6867422],[139.4659043,35.686734],[139.4661289,35.6867368],[139.4666641,35.6866961],[139.4672111,35.6866188],[139.46759,35.6866094],[139.4677992,35.686568],[139.4679602,35.6865179],[139.468164,35.6864111],[139.468907,35.6858839],[139.4691993,35.6857401],[139.4693434,35.6857],[139.4694608,35.6856856],[139.4697707,35.6856878],[139.4713715,35.6814716],[139.472267,35.6784686],[139.4722112,35.6784179]]]}}
