{"type":"Feature","id":"attraction-large-park-R1971933","properties":{"id":"attraction-large-park-R1971933","kind":"attraction","name":"広島平和記念公園","shortName":"平和公園","context":"日本","subtype":"large-park","subtypeLabel":"大型都市公園・広域公園","statusLabel":"著名な公園","aliases":["Hiroshima Peace Memorial Park","平和記念公園","平和公園"],"osmType":"relation","osmId":1971933,"osmDate":null,"officialAreaKm2":null,"areaSourceLabel":"","areaSourceUrl":"","boundarySourceLabel":"© OpenStreetMap contributors","boundarySourceUrl":"https://www.openstreetmap.org/copyright","geometryFile":"attractions/large-park-R1971933.geojson"},"geometry":{"type":"MultiPolygon","coordinates":[[[[132.4531752,34.3961434],[132.4531724,34.3960129],[132.4531724,34.3959936],[132.4531724,34.3959691],[132.4531724,34.3959467],[132.4531806,34.395906],[132.4532031,34.3959111],[132.4532153,34.3958569],[132.4532298,34.3957975],[132.4532122,34.3957956],[132.4532495,34.3955529],[132.4532598,34.3955543],[132.4532666,34.3955147],[132.4532918,34.3955201],[132.4533034,34.395453],[132.4532809,34.3954488],[132.4532858,34.3954232],[132.4533103,34.3953249],[132.4533509,34.3952301],[132.453507,34.3949325],[132.4536696,34.394637],[132.4536786,34.3946189],[132.4537337,34.3945146],[132.4538004,34.3944173],[132.4539136,34.3942497],[132.4539835,34.3942661],[132.4540726,34.3942941],[132.4540879,34.3943053],[132.4540921,34.3943198],[132.45411,34.3943244],[132.4540759,34.3944082],[132.4540503,34.3944929],[132.4540272,34.3946078],[132.4540237,34.3946684],[132.4540239,34.3947268],[132.4540264,34.3947896],[132.4540374,34.3948483],[132.4540632,34.3949443],[132.4543727,34.395829],[132.4543518,34.3958674],[132.4533369,34.3961073],[132.4531752,34.3961434]]],[[[132.4535456,34.3938653],[132.4531938,34.3944531],[132.4528963,34.3949661],[132.4526759,34.3954217],[132.4524801,34.3958624],[132.4524141,34.3959191],[132.4523467,34.3958945],[132.4523165,34.3958625],[132.4522517,34.3957484],[132.4521263,34.3955447],[132.4515248,34.3945712],[132.4508931,34.3934947],[132.4508462,34.39333],[132.4500056,34.3919622],[132.4496559,34.3913224],[132.4495313,34.3911375],[132.4530291,34.3901864],[132.4532169,34.390388],[132.453315,34.390543],[132.4534642,34.3906868],[132.4536591,34.391001],[132.4538081,34.3913466],[132.4539111,34.3923594],[132.4538768,34.3930394],[132.4538289,34.3933035],[132.4535456,34.3938653]]]]}}
