{"type":"Feature","id":"attraction-large-park-W49681755","properties":{"id":"attraction-large-park-W49681755","kind":"attraction","name":"東谷山フルーツパーク","shortName":"東谷山フルーツパーク","context":"日本","subtype":"large-park","subtypeLabel":"大型都市公園・広域公園","statusLabel":"著名な公園","aliases":[],"osmType":"way","osmId":49681755,"osmDate":null,"officialAreaKm2":null,"areaSourceLabel":"","areaSourceUrl":"","boundarySourceLabel":"© OpenStreetMap contributors","boundarySourceUrl":"https://www.openstreetmap.org/copyright","geometryFile":"attractions/large-park-W49681755.geojson"},"geometry":{"type":"Polygon","coordinates":[[[137.0496753,35.2531194],[137.049672,35.2537655],[137.048555,35.2544013],[137.0480907,35.254606],[137.0476117,35.2544675],[137.047071,35.254866],[137.0465922,35.2546803],[137.0467142,35.2537546],[137.0467199,35.2533722],[137.0463588,35.2531616],[137.0464914,35.2529509],[137.0465209,35.252662],[137.0468968,35.252668],[137.0469759,35.2523151],[137.0455112,35.2521504],[137.0464325,35.2512477],[137.0467715,35.251019],[137.0471326,35.2509227],[137.0475085,35.2508865],[137.0479802,35.2509106],[137.0491594,35.2509949],[137.0496311,35.2509046],[137.0498665,35.2508454],[137.0504934,35.2506879],[137.0500364,35.2511935],[137.0499775,35.2518796],[137.0500885,35.2519702],[137.0505417,35.2523404],[137.0506287,35.2524377],[137.0507153,35.2526271],[137.0507587,35.2528907],[137.0507439,35.2532819],[137.0496753,35.2531194]]]}}
