{"type":"Feature","id":"attraction-large-park-W472957078","properties":{"id":"attraction-large-park-W472957078","kind":"attraction","name":"北山公園","shortName":"北山公園","context":"日本","subtype":"large-park","subtypeLabel":"大型都市公園・広域公園","statusLabel":"","aliases":[],"osmType":"way","osmId":472957078,"osmDate":null,"officialAreaKm2":null,"areaSourceLabel":"","areaSourceUrl":"","boundarySourceLabel":"© OpenStreetMap contributors","boundarySourceUrl":"https://www.openstreetmap.org/copyright","geometryFile":"attractions/large-park-W472957078.geojson"},"geometry":{"type":"Polygon","coordinates":[[[140.2891524,36.3637393],[140.2884954,36.3636474],[140.2883989,36.3638158],[140.2882136,36.3656292],[140.2878006,36.3656379],[140.2874601,36.3649217],[140.2868539,36.365345],[140.2865106,36.3658245],[140.2861673,36.365993],[140.285722,36.3657727],[140.2855825,36.3654098],[140.2852714,36.3650254],[140.2846946,36.364653],[140.2845444,36.3629855],[140.2866043,36.3614304],[140.2860142,36.3592358],[140.2867438,36.3572659],[140.2873641,36.3573223],[140.2874958,36.3570902],[140.2876621,36.3568223],[140.2878177,36.356527],[140.2881707,36.3564969],[140.2881814,36.3557452],[140.2901663,36.355918],[140.2925266,36.3560648],[140.293578,36.3566524],[140.2938891,36.3585014],[140.292719,36.3602114],[140.2919544,36.3603361],[140.29012,36.3637345],[140.2891524,36.3637393]]]}}
