{"type":"Feature","id":"attraction-large-park-R5611228","properties":{"id":"attraction-large-park-R5611228","kind":"attraction","name":"北谷公園","shortName":"北谷公園","context":"日本","subtype":"large-park","subtypeLabel":"大型都市公園・広域公園","statusLabel":"著名な公園","aliases":["Chatan Park"],"osmType":"relation","osmId":5611228,"osmDate":null,"officialAreaKm2":null,"areaSourceLabel":"","areaSourceUrl":"","boundarySourceLabel":"© OpenStreetMap contributors","boundarySourceUrl":"https://www.openstreetmap.org/copyright","geometryFile":"attractions/large-park-R5611228.geojson"},"geometry":{"type":"Polygon","coordinates":[[[127.7611373,26.310744],[127.7612604,26.3102001],[127.7614856,26.3102862],[127.7614989,26.3098468],[127.7608696,26.3097964],[127.7555641,26.3108829],[127.7551552,26.3120339],[127.7552609,26.3120696],[127.7553361,26.3121044],[127.7553497,26.3121361],[127.7553447,26.3121888],[127.7553669,26.3122134],[127.7554299,26.3122351],[127.7555016,26.3122651],[127.7555433,26.3122881],[127.7556257,26.3123457],[127.7557019,26.3124237],[127.7557699,26.3125449],[127.7558092,26.3126879],[127.7558092,26.3128304],[127.7557655,26.3129569],[127.7559201,26.3129653],[127.7560552,26.3128034],[127.7562258,26.3129482],[127.7561777,26.3129989],[127.7562245,26.3134481],[127.756231,26.3134917],[127.7564975,26.3134716],[127.758962,26.3132549],[127.7591342,26.3132608],[127.759323,26.3132846],[127.7595184,26.3133321],[127.7597701,26.31343],[127.7601315,26.3126844],[127.760148,26.3126504],[127.7601542,26.3126377],[127.7593446,26.3122954],[127.760348,26.3104212],[127.7611373,26.310744]]]}}
