{"type":"Feature","id":"attraction-large-park-W472354216","properties":{"id":"attraction-large-park-W472354216","kind":"attraction","name":"流山市総合運動公園","shortName":"流山市総合運動公園","context":"日本","subtype":"large-park","subtypeLabel":"大型都市公園・広域公園","statusLabel":"著名な公園","aliases":[],"osmType":"way","osmId":472354216,"osmDate":null,"officialAreaKm2":null,"areaSourceLabel":"","areaSourceUrl":"","boundarySourceLabel":"© OpenStreetMap contributors","boundarySourceUrl":"https://www.openstreetmap.org/copyright","geometryFile":"attractions/large-park-W472354216.geojson"},"geometry":{"type":"Polygon","coordinates":[[[139.9169036,35.8593553],[139.9169668,35.8593735],[139.9170122,35.8593865],[139.9173647,35.8594835],[139.9174643,35.8595106],[139.9178329,35.859613],[139.9179013,35.8596325],[139.9181881,35.85971],[139.9185561,35.8598111],[139.9186353,35.8598083],[139.9187343,35.8598441],[139.9188304,35.8598671],[139.9189099,35.859928],[139.9190367,35.8599682],[139.9190693,35.8599785],[139.9193479,35.8600764],[139.9194778,35.8601221],[139.9197303,35.859878],[139.9198108,35.8598013],[139.9198765,35.8597302],[139.9199132,35.8596771],[139.9199437,35.8596004],[139.9199725,35.8595046],[139.9199843,35.8593524],[139.9196614,35.8593859],[139.9192183,35.8593569],[139.9192433,35.8590924],[139.9192652,35.85886],[139.9192753,35.8586125],[139.9192966,35.8586145],[139.9193052,35.8585841],[139.9193482,35.8584324],[139.9193147,35.8584282],[139.9194439,35.8578687],[139.9196095,35.8573566],[139.9194059,35.8573609],[139.9192015,35.8573389],[139.9193076,35.8569936],[139.919551,35.8570042],[139.9195895,35.8568036],[139.9200763,35.8566644],[139.9206358,35.8568358],[139.9206802,35.8569065],[139.9215591,35.8551984],[139.9215309,35.855136],[139.9214107,35.8550836],[139.9206413,35.8547459],[139.9205002,35.854688],[139.9202271,35.8545828],[139.91987,35.8544645],[139.9197996,35.8544491],[139.9197355,35.8545899],[139.919154,35.854539],[139.9191125,35.8546282],[139.9190118,35.8548448],[139.9180116,35.8544887],[139.9179436,35.8545693],[139.9178412,35.8545283],[139.9173424,35.8543508],[139.9170903,35.8544643],[139.9170801,35.8545061],[139.9168626,35.8545092],[139.9169093,35.8549402],[139.9169804,35.8555413],[139.9170115,35.8558315],[139.9170471,35.8560381],[139.917059,35.8562144],[139.9170911,35.8565042],[139.9171035,35.8566998],[139.917111,35.8568912],[139.9171144,35.8571771],[139.9170857,35.8575373],[139.9169912,35.8583986],[139.916932,35.8588928],[139.9168695,35.8592924],[139.9168835,35.859297],[139.9168793,35.8593302],[139.9169036,35.8593553]]]}}
