{"type":"Feature","id":"attraction-large-park-W589001604","properties":{"id":"attraction-large-park-W589001604","kind":"attraction","name":"青葉公園","shortName":"青葉公園","context":"北海道・千歳市","subtype":"large-park","subtypeLabel":"大型都市公園・広域公園","statusLabel":"","aliases":["Aoba Park"],"osmType":"way","osmId":589001604,"osmDate":null,"officialAreaKm2":null,"areaSourceLabel":"","areaSourceUrl":"","boundarySourceLabel":"© OpenStreetMap contributors","boundarySourceUrl":"https://www.openstreetmap.org/copyright","geometryFile":"attractions/large-park-W589001604.geojson"},"geometry":{"type":"Polygon","coordinates":[[[141.6196138,42.8155472],[141.6197599,42.8151946],[141.6199288,42.8148063],[141.6200782,42.8144799],[141.620364,42.8138771],[141.6205913,42.8133744],[141.6207115,42.8131124],[141.6208252,42.8129313],[141.6209291,42.8127788],[141.6211077,42.8126144],[141.6212668,42.8124906],[141.6214292,42.8124119],[141.6216273,42.8123405],[141.6219326,42.8122976],[141.6222671,42.8123142],[141.6225367,42.8123357],[141.6227868,42.8123929],[141.6230726,42.8124072],[141.6234493,42.8124119],[141.6240404,42.8123976],[141.6246607,42.8123524],[141.6251349,42.8123166],[141.6255213,42.8122332],[141.6258559,42.8120665],[141.6261027,42.8119116],[141.6263755,42.8116162],[141.6266158,42.8112779],[141.6267847,42.8111444],[141.6270997,42.8109634],[141.6275642,42.8107847],[141.6282429,42.8105703],[141.6283079,42.8106965],[141.6284183,42.8109014],[141.628506,42.811073],[141.6286164,42.8112064],[141.6287301,42.8113732],[141.628808,42.8114446],[141.6290094,42.8115685],[141.6301396,42.8121308],[141.6303474,42.8122309],[141.630578,42.812319],[141.6307534,42.8123762],[141.6308119,42.8123929],[141.6313964,42.8123333],[141.6321434,42.8122475],[141.6327605,42.8121642],[141.6330918,42.8121618],[141.6332931,42.8120474],[141.6334198,42.8119736],[141.6336763,42.8118926],[141.634105,42.8118783],[141.6343811,42.8118663],[141.6346799,42.8118211],[141.6349007,42.8117305],[141.6351086,42.8116209],[141.6351573,42.8115995],[141.6358685,42.8117996],[141.6369143,42.8121761],[141.6378529,42.8125382],[141.6382718,42.8126859],[141.6386064,42.8128479],[141.6389961,42.8131028],[141.6390188,42.8131838],[141.6389246,42.8133363],[141.6390091,42.813403],[141.6388922,42.8135055],[141.6385771,42.8136317],[141.638366,42.813677],[141.6385641,42.8138033],[141.6390416,42.8140796],[141.6394053,42.8142464],[141.6396781,42.8143727],[141.6397983,42.8144394],[141.6399996,42.814406],[141.6402172,42.8146943],[141.6404121,42.814923],[141.640581,42.8151231],[141.6408343,42.8153185],[141.6410551,42.8154328],[141.6413214,42.8155019],[141.6417859,42.8155186],[141.6421204,42.8154757],[141.642286,42.8154042],[141.6425166,42.8153351],[141.6427602,42.8152756],[141.6429908,42.8152708],[141.6433967,42.8153685],[141.6439618,42.8155424],[141.644449,42.815683],[141.6448907,42.8157925],[141.6451797,42.8157949],[141.6455954,42.8157759],[141.6457026,42.815914],[141.6457838,42.8161023],[141.6458033,42.8163],[141.6457968,42.8165049],[141.6457481,42.8166621],[141.6456734,42.8168622],[141.6455305,42.8170242],[141.6453778,42.8171671],[141.6452707,42.8172481],[141.6451278,42.8173601],[141.6449264,42.8175054],[141.644725,42.8175769],[141.6444068,42.8176769],[141.6441632,42.8178008],[141.644056,42.8179223],[141.6439683,42.8180772],[141.6440008,42.818525],[141.644095,42.8186418],[141.6442541,42.8188514],[141.6444652,42.8189729],[141.6447023,42.8191515],[141.6441762,42.8191754],[141.6436013,42.8191158],[141.6432214,42.8190205],[141.6426952,42.818849],[141.6414708,42.8184512],[141.6409057,42.8183225],[141.6403504,42.8183249],[141.6402822,42.8184107],[141.6403276,42.8185441],[141.6403731,42.8186203],[141.6404316,42.818768],[141.6404478,42.81898],[141.6404576,42.8191182],[141.6403861,42.8192325],[141.6402497,42.8193493],[141.6401198,42.8194422],[141.6399444,42.8195184],[141.6396943,42.8195756],[141.639428,42.8195875],[141.6392527,42.8195732],[141.6390805,42.8195208],[141.6387211,42.8195182],[141.6379958,42.8195398],[141.6366837,42.8195827],[141.636255,42.8195089],[141.6359757,42.8194279],[141.6356899,42.8191873],[141.6351963,42.8187847],[141.6348455,42.8185917],[141.6345142,42.8184131],[141.6340498,42.8182701],[141.6336276,42.8181629],[141.6330041,42.8180915],[141.6323155,42.8180367],[141.6318674,42.8180486],[141.6308346,42.8179914],[141.6302922,42.8180319],[141.6300649,42.8180605],[141.6297239,42.8181867],[141.6294186,42.8183059],[141.6291198,42.8183845],[141.6289152,42.8183916],[141.6287106,42.8183726],[141.6284962,42.8182987],[141.628191,42.8181343],[141.627392,42.8178556],[141.6268886,42.8175769],[141.6264437,42.8172743],[141.6258104,42.8167574],[141.6254329,42.8164799],[141.6251767,42.8163831],[141.6248051,42.8162403],[141.6243522,42.816157],[141.6238585,42.8160999],[141.6211759,42.8159998],[141.6209323,42.815976],[141.6207505,42.8158926],[141.6205556,42.8157854],[141.620377,42.8156901],[141.6202341,42.8156115],[141.6200327,42.8155638],[141.6198379,42.81554],[141.6196138,42.8155472]]]}}
