{"type":"Feature","id":"attraction-large-park-W210177263","properties":{"id":"attraction-large-park-W210177263","kind":"attraction","name":"盛岡南公園","shortName":"盛岡南公園","context":"日本","subtype":"large-park","subtypeLabel":"大型都市公園・広域公園","statusLabel":"著名な公園","aliases":["Morioka Minami Park"],"osmType":"way","osmId":210177263,"osmDate":null,"officialAreaKm2":null,"areaSourceLabel":"","areaSourceUrl":"","boundarySourceLabel":"© OpenStreetMap contributors","boundarySourceUrl":"https://www.openstreetmap.org/copyright","geometryFile":"attractions/large-park-W210177263.geojson"},"geometry":{"type":"Polygon","coordinates":[[[141.1393885,39.6469648],[141.1345551,39.6471383],[141.1336451,39.6489014],[141.1337827,39.6489309],[141.1350375,39.6501609],[141.1366701,39.6517108],[141.1375201,39.6513808],[141.1377309,39.6513883],[141.1378634,39.6513602],[141.1396996,39.650207],[141.1394942,39.647048],[141.1393885,39.6469648]]]}}
