{"type":"Feature","id":"attraction-large-industrial-complex-W161627417","properties":{"id":"attraction-large-industrial-complex-W161627417","kind":"attraction","name":"富田林中小企業団地","shortName":"富田林中小企業団地","context":"日本","subtype":"industrial-complex","subtypeLabel":"工業地帯・大規模工場","statusLabel":"","aliases":[],"osmType":"way","osmId":161627417,"osmDate":null,"officialAreaKm2":null,"areaSourceLabel":"","areaSourceUrl":"","boundarySourceLabel":"© OpenStreetMap contributors","boundarySourceUrl":"https://www.openstreetmap.org/copyright","geometryFile":"attractions/large-industrial-complex-W161627417.geojson"},"geometry":{"type":"Polygon","coordinates":[[[135.6159939,34.516915],[135.6152728,34.5169208],[135.6151918,34.5168753],[135.6151768,34.516673],[135.6140647,34.5166793],[135.6137898,34.516376],[135.613674,34.5162558],[135.6138921,34.5162431],[135.6138699,34.5158525],[135.6136249,34.5158483],[135.6136088,34.5157819],[135.6133883,34.5155627],[135.6133706,34.5155277],[135.6128873,34.5152736],[135.612871,34.5150282],[135.6128498,34.5144095],[135.6123227,34.5144192],[135.6123019,34.5138309],[135.6122916,34.5135171],[135.612121,34.5135221],[135.6117268,34.5135235],[135.6117593,34.513027],[135.611787,34.5127672],[135.6118141,34.512574],[135.611565,34.5120756],[135.6115411,34.5118427],[135.6114991,34.5116629],[135.6113951,34.5112089],[135.6112699,34.5112048],[135.6112308,34.5111388],[135.6111975,34.5105904],[135.6117167,34.5105719],[135.6116906,34.5096895],[135.6107579,34.5096984],[135.6106491,34.5096562],[135.6106255,34.5095033],[135.6106068,34.5093993],[135.6105498,34.5086588],[135.6105645,34.5082033],[135.6105491,34.5075443],[135.6105624,34.5075233],[135.6105885,34.5068223],[135.6107295,34.5068177],[135.6107013,34.5056637],[135.6106966,34.5055726],[135.6104689,34.5055723],[135.6104506,34.5049833],[135.6110656,34.5049521],[135.6119006,34.5045312],[135.6124589,34.5042361],[135.6133033,34.5050779],[135.6142901,34.5058383],[135.6145481,34.5060225],[135.6149704,34.5064672],[135.6160284,34.508174],[135.6163464,34.5088793],[135.6165099,34.5095508],[135.6165309,34.5097175],[135.6165127,34.510553],[135.6165007,34.5114348],[135.6165376,34.5124031],[135.6167153,34.5136621],[135.6168073,34.5143525],[135.6168568,34.514966],[135.6168526,34.5155149],[135.6168664,34.5162265],[135.6159829,34.5162309],[135.6159939,34.516915]]]}}
