{"type":"Feature","id":"attraction-large-park-W471896637","properties":{"id":"attraction-large-park-W471896637","kind":"attraction","name":"笠松運動公園","shortName":"笠松運動公園","context":"日本","subtype":"large-park","subtypeLabel":"大型都市公園・広域公園","statusLabel":"","aliases":[],"osmType":"way","osmId":471896637,"osmDate":null,"officialAreaKm2":null,"areaSourceLabel":"","areaSourceUrl":"","boundarySourceLabel":"© OpenStreetMap contributors","boundarySourceUrl":"https://www.openstreetmap.org/copyright","geometryFile":"attractions/large-park-W471896637.geojson"},"geometry":{"type":"Polygon","coordinates":[[[140.5380146,36.4601033],[140.5388388,36.4591582],[140.5395909,36.4595074],[140.5404981,36.4595635],[140.5421031,36.4596508],[140.5424908,36.4593328],[140.5441966,36.4602994],[140.5448634,36.4596695],[140.5457514,36.4593051],[140.5459292,36.4589959],[140.5459829,36.4588705],[140.5461184,36.4586814],[140.5465017,36.4580688],[140.5466934,36.457672],[140.5459101,36.4557532],[140.5447393,36.4559777],[140.5448168,36.4563644],[140.5431598,36.4564799],[140.5428021,36.456092],[140.5418592,36.4550769],[140.5412291,36.454392],[140.5410005,36.454137],[140.5404397,36.4534809],[140.5402023,36.4531437],[140.5400087,36.4527877],[140.5398631,36.4525125],[140.5392461,36.4523716],[140.539048,36.4523459],[140.5388211,36.4523357],[140.5386358,36.4523742],[140.5384953,36.452423],[140.5382844,36.4525001],[140.5379713,36.4525541],[140.5377061,36.4525567],[140.5374793,36.4525181],[140.5372061,36.4524481],[140.5368508,36.4526596],[140.5358668,36.4532353],[140.5356591,36.4533252],[140.535525,36.4534537],[140.5352917,36.4535873],[140.5351256,36.4538058],[140.5349754,36.4538957],[140.5346853,36.4540373],[140.5343641,36.4543266],[140.5342381,36.4544733],[140.534269,36.4545136],[140.5346685,36.4545729],[140.5346272,36.4547279],[140.5346597,36.4547543],[140.5350018,36.4548207],[140.534867,36.455278],[140.5347258,36.4556267],[140.5346766,36.4557494],[140.5345903,36.4558788],[140.5344828,36.4559473],[140.5344386,36.455995],[140.5341979,36.4562309],[140.5342059,36.4562714],[140.534547,36.456464],[140.5348993,36.4566231],[140.5355456,36.4568992],[140.5355805,36.4568237],[140.5362413,36.4570463],[140.5360554,36.45742],[140.5365205,36.4574495],[140.5367996,36.4577738],[140.5362186,36.4580049],[140.5361909,36.458272],[140.5364431,36.4584706],[140.5368344,36.4588084],[140.5375424,36.4595096],[140.5380146,36.4601033]]]}}
