{"type":"Feature","id":"attraction-large-industrial-complex-R9176223","properties":{"id":"attraction-large-industrial-complex-R9176223","kind":"attraction","name":"日本板硝子株式会社","shortName":"日本板硝子株式会社","context":"日本","subtype":"industrial-complex","subtypeLabel":"工業地帯・大規模工場","statusLabel":"","aliases":[],"osmType":"relation","osmId":9176223,"osmDate":null,"officialAreaKm2":null,"areaSourceLabel":"","areaSourceUrl":"","boundarySourceLabel":"© OpenStreetMap contributors","boundarySourceUrl":"https://www.openstreetmap.org/copyright","geometryFile":"attractions/large-industrial-complex-R9176223.geojson"},"geometry":{"type":"MultiPolygon","coordinates":[[[[135.4021704,35.496325],[135.4004538,35.494673],[135.3979701,35.4963862],[135.3996733,35.4980392],[135.399633,35.4988538],[135.3999898,35.4992031],[135.3997645,35.4993625],[135.4010525,35.5006385],[135.4013979,35.5009806],[135.4014703,35.500985],[135.4024172,35.5003714],[135.4032359,35.5002232],[135.4035813,35.5001847],[135.4038843,35.500188],[135.4044932,35.4994826],[135.4052442,35.4986004],[135.4053267,35.4984738],[135.4053623,35.498321],[135.405365,35.4981986],[135.405381,35.4980305],[135.4053408,35.4978602],[135.4050041,35.4970337],[135.4049244,35.4968382],[135.4048743,35.4968239],[135.4046991,35.4967738],[135.4043725,35.496705],[135.4021704,35.496325]]],[[[135.4181483,35.5026751],[135.4183334,35.5027242],[135.4186968,35.502758],[135.4189986,35.5027668],[135.4193728,35.5027351],[135.4196075,35.5026882],[135.4199454,35.5025975],[135.4201734,35.5025069],[135.4199065,35.5014053],[135.4197831,35.5011455],[135.4197456,35.5011258],[135.4189436,35.5010548],[135.4183052,35.500962],[135.4172243,35.5006345],[135.4172337,35.5005788],[135.4162735,35.5003059],[135.4147366,35.4997272],[135.4140633,35.4994936],[135.4136074,35.4993604],[135.4100963,35.4984345],[135.4094043,35.4982336],[135.4075322,35.4977161],[135.4055876,35.4969212],[135.405369,35.496871],[135.4050954,35.4968721],[135.4053555,35.4974278],[135.4055312,35.4979453],[135.4055768,35.4981277],[135.4070842,35.4985786],[135.4081048,35.4994684],[135.4082939,35.4996279],[135.4085004,35.4997545],[135.4089463,35.4999412],[135.4181483,35.5026751]]]]}}
