{"type":"Feature","id":"attraction-large-park-W34993780","properties":{"id":"attraction-large-park-W34993780","kind":"attraction","name":"千島公園","shortName":"千島公園","context":"日本","subtype":"large-park","subtypeLabel":"大型都市公園・広域公園","statusLabel":"著名な公園","aliases":["Chishima Park"],"osmType":"way","osmId":34993780,"osmDate":null,"officialAreaKm2":null,"areaSourceLabel":"","areaSourceUrl":"","boundarySourceLabel":"© OpenStreetMap contributors","boundarySourceUrl":"https://www.openstreetmap.org/copyright","geometryFile":"attractions/large-park-W34993780.geojson"},"geometry":{"type":"Polygon","coordinates":[[[135.4718264,34.6500017],[135.4719662,34.6500708],[135.4731941,34.6499106],[135.4733357,34.650505],[135.4749311,34.6504868],[135.4752434,34.6487926],[135.4757211,34.6487939],[135.4768093,34.648797],[135.4767737,34.6479584],[135.4767629,34.6477026],[135.4767019,34.6476548],[135.4739483,34.647661],[135.4714274,34.6476815],[135.4713614,34.6477315],[135.4718264,34.6500017]]]}}
