{"type":"Feature","id":"attraction-large-industrial-complex-R12455444","properties":{"id":"attraction-large-industrial-complex-R12455444","kind":"attraction","name":"マツダ 宇品工場","shortName":"マツダ 宇品工場","context":"日本","subtype":"industrial-complex","subtypeLabel":"工業地帯・大規模工場","statusLabel":"","aliases":["Mazda"],"osmType":"relation","osmId":12455444,"osmDate":null,"officialAreaKm2":null,"areaSourceLabel":"","areaSourceUrl":"","boundarySourceLabel":"© OpenStreetMap contributors","boundarySourceUrl":"https://www.openstreetmap.org/copyright","geometryFile":"attractions/large-industrial-complex-R12455444.geojson"},"geometry":{"type":"MultiPolygon","coordinates":[[[[132.4790012,34.3577079],[132.4790819,34.362467],[132.4749009,34.3625261],[132.4748266,34.3577488],[132.4790012,34.3577079]]],[[[132.4744571,34.3619768],[132.4737267,34.362022],[132.4737939,34.3628185],[132.4715168,34.3629337],[132.4715711,34.3637139],[132.4707786,34.3637639],[132.4707678,34.3636669],[132.4707214,34.3636682],[132.4707122,34.3635827],[132.470657,34.363586],[132.4706097,34.3629639],[132.4703403,34.3629755],[132.4702827,34.3622531],[132.4698666,34.3622802],[132.4693825,34.356882],[132.4693833,34.3565526],[132.4712069,34.3564507],[132.4711867,34.3560099],[132.4726546,34.3559208],[132.4727826,34.3559932],[132.4735319,34.3567273],[132.4736355,34.3567818],[132.4739206,34.3567734],[132.4740189,34.3568165],[132.4744029,34.357835],[132.4744571,34.3619768]]],[[[132.4852723,34.3615477],[132.4852668,34.3614733],[132.4836916,34.3614918],[132.4826006,34.3615046],[132.4812059,34.3615209],[132.4812042,34.3616654],[132.479837,34.3616884],[132.4798009,34.3594984],[132.4812095,34.3594791],[132.4811247,34.3549744],[132.4825716,34.3531123],[132.4828871,34.3532848],[132.4826539,34.3536023],[132.4896148,34.353499],[132.489626,34.3535126],[132.4919864,34.3534872],[132.496381,34.3570124],[132.4969571,34.3570023],[132.4969387,34.3577613],[132.496948,34.3585491],[132.4970185,34.3589007],[132.4970289,34.360017],[132.4970011,34.3602662],[132.4969563,34.3603595],[132.4965935,34.3604454],[132.4961084,34.3604237],[132.4961232,34.3606051],[132.4954885,34.360646],[132.4953365,34.3606189],[132.4953282,34.3604615],[132.495189,34.3604658],[132.4951078,34.3604841],[132.4950536,34.3605327],[132.4950567,34.3606694],[132.4949545,34.3606508],[132.4948849,34.3605981],[132.4947119,34.3605636],[132.4946864,34.3606029],[132.4944655,34.3605843],[132.4941919,34.3605799],[132.4939076,34.360597],[132.4936823,34.3606288],[132.4933591,34.3607004],[132.4910082,34.3612911],[132.4906581,34.3613679],[132.4903901,34.3614078],[132.4901045,34.3614241],[132.4895894,34.36143],[132.4861692,34.3614767],[132.4857982,34.3614994],[132.4852723,34.3615477]]]]}}
