{"type":"Feature","id":"attraction-large-park-W441554553","properties":{"id":"attraction-large-park-W441554553","kind":"attraction","name":"道の駅 霧島 神話の里公園","shortName":"道の駅 霧島 神話の里公園","context":"鹿児島県・霧島市","subtype":"large-park","subtypeLabel":"大型都市公園・広域公園","statusLabel":"著名な公園","aliases":["Kirishima Roadside Station Myth Village Park"],"osmType":"way","osmId":441554553,"osmDate":null,"officialAreaKm2":null,"areaSourceLabel":"","areaSourceUrl":"","boundarySourceLabel":"© OpenStreetMap contributors","boundarySourceUrl":"https://www.openstreetmap.org/copyright","geometryFile":"attractions/large-park-W441554553.geojson"},"geometry":{"type":"Polygon","coordinates":[[[130.8502204,31.8645424],[130.8502791,31.8647018],[130.8504944,31.8654966],[130.8505784,31.8663236],[130.8514446,31.8669616],[130.8514875,31.8679638],[130.8523887,31.868875],[130.8531612,31.8686928],[130.8533589,31.8685879],[130.8537025,31.8684055],[130.8540195,31.8682372],[130.8542348,31.8679831],[130.8542153,31.8675711],[130.854115,31.8672061],[130.8542366,31.8668234],[130.8543409,31.8661787],[130.8542228,31.8659955],[130.854052,31.8658247],[130.8540094,31.8655994],[130.8542351,31.8651363],[130.8543553,31.8648068],[130.8544393,31.8647646],[130.8544598,31.8645648],[130.8545988,31.8642687],[130.8544915,31.8639546],[130.8539551,31.8634079],[130.8536854,31.8632758],[130.8524967,31.8641345],[130.8516281,31.8636751],[130.8508672,31.8635111],[130.8505164,31.8637799],[130.8502204,31.8645424]]]}}
