{"type":"Feature","id":"attraction-large-park-R7326626","properties":{"id":"attraction-large-park-R7326626","kind":"attraction","name":"万場緑地","shortName":"万場緑地","context":"日本","subtype":"large-park","subtypeLabel":"大型都市公園・広域公園","statusLabel":"","aliases":[],"osmType":"relation","osmId":7326626,"osmDate":null,"officialAreaKm2":null,"areaSourceLabel":"","areaSourceUrl":"","boundarySourceLabel":"© OpenStreetMap contributors","boundarySourceUrl":"https://www.openstreetmap.org/copyright","geometryFile":"attractions/large-park-R7326626.geojson"},"geometry":{"type":"MultiPolygon","coordinates":[[[[137.3476303,34.6752549],[137.3476812,34.6752924],[137.3486146,34.6753189],[137.3499356,34.6753575],[137.3515463,34.6754358],[137.3517823,34.6754468],[137.3529075,34.6754689],[137.3540555,34.6755185],[137.3551431,34.6755626],[137.3553362,34.6755792],[137.3559491,34.6756288],[137.3565231,34.6756487],[137.3570032,34.6756531],[137.3575464,34.6756839],[137.3579568,34.6757071],[137.3583738,34.6757259],[137.3585616,34.6757192],[137.3588231,34.6756608],[137.3590042,34.6755913],[137.3592322,34.6754998],[137.359428,34.6753663],[137.3595755,34.6752362],[137.3596935,34.6750785],[137.3597512,34.6749737],[137.3598303,34.6747895],[137.3598638,34.6746329],[137.3598799,34.6744851],[137.3599228,34.6740351],[137.3599751,34.6734053],[137.360014,34.6729851],[137.3599993,34.6727722],[137.3599818,34.6726487],[137.3599389,34.6725439],[137.3598558,34.6723685],[137.3597458,34.6722241],[137.3596653,34.672138],[137.3595232,34.6720079],[137.3593757,34.671902],[137.359271,34.671848],[137.3591396,34.6717939],[137.3590055,34.6717432],[137.3588593,34.6717002],[137.3586823,34.6716671],[137.3584717,34.6716593],[137.3578387,34.6716274],[137.3574163,34.6716152],[137.3568852,34.6715932],[137.3560953,34.6715634],[137.3536277,34.6714784],[137.3515919,34.6713968],[137.3504573,34.6710947],[137.3495587,34.6708475],[137.3494273,34.6708145],[137.3485422,34.6707748],[137.3480782,34.6707638],[137.3477939,34.6708354],[137.3475619,34.6710185],[137.3469101,34.6715832],[137.3466486,34.6718237],[137.346324,34.6721755],[137.3462744,34.6721579],[137.3461792,34.6722958],[137.3454858,34.6726763],[137.3455422,34.67292],[137.3456669,34.6733226],[137.3459807,34.6732917],[137.3460411,34.6735708],[137.3462288,34.6735255],[137.3465158,34.6740087],[137.3471649,34.6741686],[137.347405,34.6747564],[137.3476008,34.6752009],[137.3476303,34.6752549]]],[[[137.3600489,34.6725814],[137.3607355,34.6726498],[137.3607865,34.6726498],[137.3608321,34.6726145],[137.3609313,34.6718866],[137.3608965,34.6718457],[137.3592402,34.6716759],[137.3592255,34.6717597],[137.3593515,34.6718105],[137.3594561,34.6718711],[137.3595473,34.6719373],[137.3596305,34.6720123],[137.3597378,34.6721138],[137.3598531,34.6722605],[137.3599175,34.6723487],[137.3599872,34.6724877],[137.3600274,34.672566],[137.3600489,34.6725814]]],[[[137.3600663,34.67307],[137.3607449,34.6731318],[137.3608066,34.6727557],[137.3607892,34.6727325],[137.3600811,34.6726774],[137.3600462,34.6726774],[137.3600703,34.6727976],[137.360073,34.6728991],[137.3600677,34.673038],[137.3600663,34.67307]]]]}}
