{"type":"Feature","id":"attraction-large-large-port-W558931056","properties":{"id":"attraction-large-large-port-W558931056","kind":"attraction","name":"JXエルエヌジーサービス 八戸LNGターミナル","shortName":"JXエルエヌジーサービス 八戸LNGターミナル","context":"日本","subtype":"large-port","subtypeLabel":"港湾・埠頭","statusLabel":"","aliases":["JXエルエヌジーサービス株式会社"],"osmType":"way","osmId":558931056,"osmDate":null,"officialAreaKm2":null,"areaSourceLabel":"","areaSourceUrl":"","boundarySourceLabel":"© OpenStreetMap contributors","boundarySourceUrl":"https://www.openstreetmap.org/copyright","geometryFile":"attractions/large-large-port-W558931056.geojson"},"geometry":{"type":"Polygon","coordinates":[[[141.5258382,40.5423383],[141.5248005,40.5431661],[141.5242507,40.5446267],[141.5242276,40.544684],[141.524136,40.5449485],[141.5241167,40.5450265],[141.5242074,40.5452284],[141.5243442,40.5453293],[141.5282804,40.5462383],[141.5284654,40.5462454],[141.528629,40.5462087],[141.5287753,40.5461232],[141.5298441,40.5452436],[141.5258382,40.5423383]]]}}
