{"type":"Feature","id":"attraction-large-military-base-R5872329","properties":{"id":"attraction-large-military-base-R5872329","kind":"attraction","name":"海上自衛隊","shortName":"海上自衛隊","context":"日本","subtype":"military-base","subtypeLabel":"基地・駐屯地・演習場","statusLabel":"同名の分割区域4区画","aliases":[],"osmType":"relation","osmId":5872329,"osmDate":null,"officialAreaKm2":null,"areaSourceLabel":"","areaSourceUrl":"","boundarySourceLabel":"© OpenStreetMap contributors","boundarySourceUrl":"https://www.openstreetmap.org/copyright","geometryFile":"attractions/large-military-base-R5872329.geojson"},"geometry":{"type":"MultiPolygon","coordinates":[[[[132.4460804,34.2668847],[132.4472127,34.2669703],[132.4473867,34.2662485],[132.4479177,34.2655702],[132.4464456,34.2645054],[132.4464885,34.2643635],[132.4466817,34.2643059],[132.4469606,34.26443],[132.4471967,34.2643236],[132.4479741,34.2631163],[132.4476039,34.2628991],[132.4473116,34.2627882],[132.446464,34.2627749],[132.4464962,34.2625666],[132.4464305,34.2616056],[132.4461582,34.2618428],[132.4457089,34.2620988],[132.4453172,34.2622402],[132.4450947,34.2623405],[132.4448439,34.2625411],[132.4447688,34.2626885],[132.44462,34.263082],[132.444396,34.2637592],[132.4443973,34.2639332],[132.444459,34.2641194],[132.4454139,34.2649174],[132.4455064,34.2650637],[132.4459396,34.2662219],[132.4460804,34.2668847]]],[[[132.4511984,34.2493113],[132.4498745,34.2490192],[132.4497618,34.2491788],[132.4496477,34.2494691],[132.449637,34.2496132],[132.4502901,34.2528312],[132.4504148,34.253135],[132.4504376,34.25383],[132.4506294,34.2552223],[132.4506214,34.2552865],[132.4505637,34.2559627],[132.4502888,34.2569127],[132.4502673,34.25708],[132.4502981,34.2573106],[132.4504665,34.2581153],[132.4508312,34.2591772],[132.4511558,34.2601304],[132.4512416,34.2603255],[132.4513918,34.2605206],[132.4516118,34.2606802],[132.45188,34.2607999],[132.4522206,34.2608842],[132.4528617,34.2609617],[132.4531522,34.2609287],[132.4534365,34.2608844],[132.4537691,34.2600863],[132.4551638,34.2605651],[132.4554642,34.2603346],[132.4559899,34.2595587],[132.4563976,34.2588404],[132.4566927,34.2584015],[132.4570789,34.2579094],[132.4575081,34.2572975],[132.4577652,34.2560781],[132.4567358,34.2556975],[132.456143,34.2567882],[132.4548234,34.2562872],[132.4549199,34.2561276],[132.4547805,34.2560788],[132.4546893,34.2562251],[132.4539007,34.2559148],[132.4538444,34.2560034],[132.4536995,34.2559458],[132.4537585,34.2558571],[132.452286,34.2552896],[132.4517496,34.2550413],[132.4513524,34.2536817],[132.4511807,34.2537127],[132.4511539,34.2536262],[132.4513229,34.2535819],[132.451221,34.2532383],[132.4511984,34.2493113]]],[[[132.4921225,34.2788077],[132.4912775,34.2796634],[132.4912507,34.2797143],[132.4912641,34.2803925],[132.491205,34.280364],[132.491212,34.280403],[132.491191,34.280398],[132.491191,34.280432],[132.491219,34.280443],[132.491232,34.280499],[132.491327,34.280623],[132.491314,34.280708],[132.491361,34.280724],[132.491476,34.280809],[132.491517,34.280865],[132.491686,34.280938],[132.491707,34.280972],[132.491694,34.281084],[132.491673,34.281112],[132.491605,34.281123],[132.49151,34.28119],[132.491354,34.281163],[132.491327,34.281129],[132.491307,34.281129],[132.491307,34.28105],[132.491286,34.280999],[132.491191,34.280933],[132.49109,34.280803],[132.49109,34.280713],[132.491069,34.280651],[132.490997,34.280563],[132.4909315,34.280561],[132.4901752,34.2808956],[132.4902073,34.2809488],[132.4895931,34.2812325],[132.4895556,34.2811749],[132.489223,34.2813256],[132.489113,34.2814386],[132.4890755,34.2815428],[132.4890835,34.2816359],[132.4891532,34.2818065],[132.4893571,34.2817134],[132.4897782,34.2822808],[132.4903307,34.2831651],[132.4901698,34.2832315],[132.4900491,34.2830609],[132.489518,34.2833202],[132.4890138,34.2837014],[132.4889118,34.2837479],[132.4887536,34.2837767],[132.4885792,34.2837612],[132.4876914,34.2835329],[132.4875198,34.2835396],[132.4873883,34.2835839],[132.4872864,34.2836681],[132.4868626,34.2843042],[132.4867983,34.2843574],[132.4867071,34.2843707],[132.4863074,34.284364],[132.4862001,34.284384],[132.4861331,34.2844305],[132.4854813,34.2859441],[132.4853874,34.2860549],[132.4851889,34.2862544],[132.484682,34.286753],[132.4838747,34.2869347],[132.4837674,34.2869746],[132.4836949,34.2870167],[132.483129,34.2874974],[132.4831599,34.2875218],[132.4831697,34.2875752],[132.4831416,34.2876111],[132.4830967,34.287625],[132.4830377,34.2876169],[132.4830035,34.2876042],[132.4828775,34.2876037],[132.4826931,34.2873012],[132.4825925,34.2871759],[132.4824691,34.286951],[132.4824517,34.2868269],[132.4823685,34.2866341],[132.4822532,34.2865521],[132.4821311,34.2863892],[132.4820198,34.2862596],[132.4822009,34.285403],[132.4823538,34.2854263],[132.4823685,34.2853111],[132.4826675,34.2853343],[132.4827239,34.2853864],[132.4837739,34.2860623],[132.4839778,34.2860933],[132.4842004,34.2859648],[132.4843882,34.2851537],[132.4841736,34.2845686],[132.4841146,34.2838683],[132.4841736,34.2834517],[132.4840878,34.2831813],[132.4836479,34.2828444],[132.4835017,34.2825064],[132.4836264,34.2815723],[132.483845,34.2810614],[132.4848978,34.2804154],[132.4865594,34.2795721],[132.4870959,34.2791998],[132.4872903,34.2788906],[132.487855,34.2785039],[132.488673,34.2786678],[132.4897673,34.2773558],[132.4906379,34.2769382],[132.4916162,34.277991],[132.4916679,34.278642],[132.4920239,34.2787756],[132.4921225,34.2788077]]],[[[132.4821585,34.1992723],[132.4817965,34.1994375],[132.4803213,34.2014163],[132.4803025,34.2014851],[132.4803159,34.2015561],[132.4803642,34.2016404],[132.4828238,34.2029093],[132.4829177,34.202927],[132.4830143,34.2029226],[132.4831001,34.2028715],[132.4840335,34.2017424],[132.484299,34.2015228],[132.4867508,34.2007434],[132.4864686,34.2004242],[132.486423,34.2003986],[132.4860596,34.1998607],[132.4860985,34.1998385],[132.4860421,34.1997542],[132.4854923,34.2000027],[132.4855607,34.2001014],[132.4856036,34.2000814],[132.48579,34.2003754],[132.4852106,34.2006438],[132.4850618,34.2006804],[132.4849304,34.2006693],[132.4848258,34.2006371],[132.4839715,34.2002411],[132.483549,34.2008556],[132.4833438,34.200768],[132.483769,34.2001413],[132.4833452,34.1999051],[132.4822549,34.1994248],[132.4821585,34.1992723]]]]}}
