{"type":"Feature","id":"attraction-large-park-W762681160","properties":{"id":"attraction-large-park-W762681160","kind":"attraction","name":"村松公園","shortName":"村松公園","context":"日本","subtype":"large-park","subtypeLabel":"大型都市公園・広域公園","statusLabel":"著名な公園","aliases":["Muramatsu Park"],"osmType":"way","osmId":762681160,"osmDate":null,"officialAreaKm2":null,"areaSourceLabel":"","areaSourceUrl":"","boundarySourceLabel":"© OpenStreetMap contributors","boundarySourceUrl":"https://www.openstreetmap.org/copyright","geometryFile":"attractions/large-park-W762681160.geojson"},"geometry":{"type":"Polygon","coordinates":[[[139.1935962,37.6902392],[139.1927233,37.6907902],[139.1914134,37.6917379],[139.1900281,37.6927347],[139.189743,37.6928173],[139.1892085,37.6930374],[139.1875677,37.6937361],[139.187559,37.6936629],[139.1873951,37.6932367],[139.1872969,37.6929243],[139.1872906,37.6928836],[139.1872944,37.6928015],[139.1873133,37.6927235],[139.1870902,37.6925087],[139.1865726,37.6927987],[139.1864054,37.692876],[139.1862339,37.6929431],[139.1861381,37.6929465],[139.1860724,37.6929248],[139.1860543,37.692878],[139.1860754,37.6928232],[139.1861699,37.6927343],[139.1864428,37.6925561],[139.1866126,37.6924187],[139.1870163,37.6920181],[139.1873044,37.6917603],[139.1873745,37.6916409],[139.1873745,37.6915473],[139.1872924,37.6914804],[139.1871568,37.6913843],[139.1870467,37.6913123],[139.1869159,37.6912521],[139.1873734,37.690941],[139.187795,37.6906679],[139.1880151,37.6905442],[139.1883936,37.6895218],[139.1892844,37.6889164],[139.1909878,37.6894645],[139.1910593,37.689472],[139.1911443,37.6894477],[139.1917451,37.6893072],[139.1918238,37.6892927],[139.1927543,37.6895893],[139.1929282,37.6895893],[139.1935962,37.6902392]]]}}
