{"type":"Feature","id":"attraction-large-industrial-complex-W316875359","properties":{"id":"attraction-large-industrial-complex-W316875359","kind":"attraction","name":"出光興産株式会社","shortName":"出光興産株式会社","context":"日本","subtype":"industrial-complex","subtypeLabel":"工業地帯・大規模工場","statusLabel":"","aliases":["Idemitsu Kosan Co.,Ltd."],"osmType":"way","osmId":316875359,"osmDate":null,"officialAreaKm2":null,"areaSourceLabel":"","areaSourceUrl":"","boundarySourceLabel":"© OpenStreetMap contributors","boundarySourceUrl":"https://www.openstreetmap.org/copyright","geometryFile":"attractions/large-industrial-complex-W316875359.geojson"},"geometry":{"type":"Polygon","coordinates":[[[131.8204543,34.0385831],[131.818227,34.035546],[131.816948,34.036191],[131.815807,34.036771],[131.814356,34.037509],[131.812293,34.038588],[131.812178,34.038658],[131.809872,34.039924],[131.809065,34.040331],[131.807889,34.04017],[131.806729,34.038655],[131.80559,34.039235],[131.805571,34.039308],[131.805774,34.039564],[131.806894,34.041051],[131.8070693,34.0413678],[131.8077237,34.0427081],[131.8081196,34.0436297],[131.8083444,34.0448436],[131.8098877,34.0440715],[131.8098854,34.044201],[131.8148657,34.0415718],[131.8151638,34.0420324],[131.8164443,34.0413779],[131.8161649,34.0409953],[131.8159899,34.0410785],[131.8159408,34.0410011],[131.8196999,34.0390818],[131.8200449,34.0387716],[131.8204543,34.0385831]]]}}
