{"type":"Feature","id":"attraction-large-park-W232722951","properties":{"id":"attraction-large-park-W232722951","kind":"attraction","name":"小田原城址公園","shortName":"小田原城址公園","context":"神奈川県・小田原市","subtype":"large-park","subtypeLabel":"大型都市公園・広域公園","statusLabel":"著名な公園","aliases":["Odawara Castle Park"],"osmType":"way","osmId":232722951,"osmDate":null,"officialAreaKm2":null,"areaSourceLabel":"","areaSourceUrl":"","boundarySourceLabel":"© OpenStreetMap contributors","boundarySourceUrl":"https://www.openstreetmap.org/copyright","geometryFile":"attractions/large-park-W232722951.geojson"},"geometry":{"type":"Polygon","coordinates":[[[139.1519116,35.2499689],[139.1527684,35.251514],[139.1531938,35.2521158],[139.1533777,35.2523923],[139.1536323,35.2526157],[139.1538609,35.2527375],[139.1541678,35.2528704],[139.1549477,35.2524449],[139.1553164,35.2519213],[139.1555849,35.2514264],[139.1571531,35.2514714],[139.1574751,35.2514725],[139.1574739,35.2507304],[139.1574623,35.2487681],[139.1561751,35.2487809],[139.1561739,35.2487409],[139.1556348,35.2487462],[139.1552612,35.2489769],[139.1538278,35.2491835],[139.1532536,35.2492897],[139.1519116,35.2499689]]]}}
