{"type":"Feature","id":"attraction-large-park-R7349265","properties":{"id":"attraction-large-park-R7349265","kind":"attraction","name":"豊橋総合スポーツ公園","shortName":"豊橋総合スポーツ公園","context":"日本","subtype":"large-park","subtypeLabel":"大型都市公園・広域公園","statusLabel":"著名な公園","aliases":[],"osmType":"relation","osmId":7349265,"osmDate":null,"officialAreaKm2":null,"areaSourceLabel":"","areaSourceUrl":"","boundarySourceLabel":"© OpenStreetMap contributors","boundarySourceUrl":"https://www.openstreetmap.org/copyright","geometryFile":"attractions/large-park-R7349265.geojson"},"geometry":{"type":"MultiPolygon","coordinates":[[[[137.3258051,34.756342],[137.3275244,34.7566406],[137.3280179,34.7561095],[137.3275512,34.7558186],[137.3271945,34.7562087],[137.3262289,34.7556115],[137.3261932,34.7556506],[137.3261858,34.7556602],[137.3261796,34.7556683],[137.3260841,34.7557701],[137.3260063,34.7558726],[137.3259601,34.7559475],[137.3259561,34.7559539],[137.3259526,34.7559596],[137.3259252,34.7560098],[137.3259003,34.7560577],[137.3258901,34.7560847],[137.3258846,34.7560992],[137.3258805,34.7561101],[137.3258279,34.7562494],[137.3258051,34.756342]]],[[[137.322251,34.7593831],[137.3241687,34.7597221],[137.3243815,34.759708],[137.3244077,34.7597168],[137.3244707,34.759729],[137.3249294,34.7598044],[137.3249964,34.759822],[137.3250253,34.7598374],[137.3251926,34.7598994],[137.3254145,34.7599331],[137.3254256,34.7598964],[137.3253609,34.7569347],[137.3253039,34.7569265],[137.3252994,34.7569517],[137.3250554,34.7569039],[137.3244687,34.7568015],[137.3243889,34.7567959],[137.3243601,34.7567937],[137.3243614,34.7567662],[137.3241561,34.7567391],[137.3238067,34.7566929],[137.3231464,34.7566328],[137.3230642,34.7566614],[137.3229937,34.7566898],[137.3229292,34.7567396],[137.3228755,34.7567833],[137.3228446,34.7568218],[137.3226359,34.757081],[137.3227661,34.7571541],[137.3225348,34.7574595],[137.3224096,34.7574034],[137.3223364,34.7573689],[137.322333,34.7573909],[137.3223336,34.757451],[137.3222108,34.757448],[137.3222324,34.7584167],[137.322251,34.7593831]]]]}}
