{"type":"Feature","id":"attraction-large-park-W370877514","properties":{"id":"attraction-large-park-W370877514","kind":"attraction","name":"信州スカイパーク","shortName":"信州スカイパーク","context":"日本","subtype":"large-park","subtypeLabel":"大型都市公園・広域公園","statusLabel":"","aliases":["SKYPARK","長野県松本平広域公園"],"osmType":"way","osmId":370877514,"osmDate":null,"officialAreaKm2":null,"areaSourceLabel":"","areaSourceUrl":"","boundarySourceLabel":"© OpenStreetMap contributors","boundarySourceUrl":"https://www.openstreetmap.org/copyright","geometryFile":"attractions/large-park-W370877514.geojson"},"geometry":{"type":"Polygon","coordinates":[[[137.9233488,36.1512052],[137.9230566,36.1518833],[137.9227559,36.1525384],[137.9225573,36.1527949],[137.92242,36.1529357],[137.9222141,36.1530743],[137.922031,36.1531805],[137.9218113,36.1532667],[137.921173,36.1534385],[137.9216212,36.1546891],[137.9216467,36.1548747],[137.9216439,36.1550854],[137.921406,36.1563217],[137.921259,36.1563967],[137.9211447,36.1564332],[137.9210184,36.1564641],[137.9207827,36.1562056],[137.9200059,36.1563976],[137.9200576,36.1570001],[137.9200459,36.1572916],[137.9200261,36.1573572],[137.9200307,36.1574447],[137.9200975,36.1576462],[137.920162,36.1576446],[137.9201663,36.157722],[137.9201704,36.1578746],[137.9202489,36.1581619],[137.9203401,36.1584071],[137.9204147,36.1584722],[137.9205708,36.1588762],[137.9206609,36.1590299],[137.9207432,36.1591309],[137.9206425,36.1592356],[137.9203706,36.1593937],[137.9189157,36.1599859],[137.9181254,36.1602774],[137.917239,36.160646],[137.9171379,36.1608314],[137.9171144,36.1609705],[137.9171505,36.1611293],[137.9174634,36.1615276],[137.9175677,36.1617058],[137.9176199,36.162007],[137.9176505,36.162796],[137.9176663,36.163278],[137.9176813,36.1637777],[137.9176556,36.1650649],[137.9177011,36.1662442],[137.9177413,36.166947],[137.9176991,36.1671737],[137.9175928,36.1674701],[137.9173493,36.1677782],[137.9170707,36.1680428],[137.9171089,36.1680914],[137.9174271,36.1685318],[137.9174957,36.1686257],[137.9177155,36.1687826],[137.9179817,36.1688962],[137.9181042,36.1689573],[137.9182486,36.1690771],[137.9184451,36.1691905],[137.9184182,36.1692443],[137.9197403,36.1695569],[137.9209256,36.1698532],[137.9209669,36.1699043],[137.9207889,36.1708446],[137.9202972,36.1733597],[137.9202644,36.1734197],[137.9201922,36.1734315],[137.9195869,36.1732857],[137.9195286,36.1733127],[137.9194337,36.1735582],[137.9194071,36.1736722],[137.9193746,36.1737937],[137.9193434,36.173846],[137.9192921,36.1738731],[137.9192492,36.173886],[137.9192143,36.1739034],[137.9189795,36.1739387],[137.9189753,36.173914],[137.9187209,36.1739977],[137.9186488,36.1740447],[137.9186148,36.1740791],[137.9185727,36.1741384],[137.9178561,36.1762758],[137.9178359,36.1763352],[137.9171646,36.1783117],[137.9170522,36.1783603],[137.9169479,36.1783603],[137.9163166,36.178224],[137.9161413,36.1787501],[137.9163462,36.1787942],[137.9156842,36.1806507],[137.9163002,36.1807894],[137.918119,36.1811896],[137.9191103,36.1814139],[137.9192939,36.1814963],[137.9197451,36.1815812],[137.9198326,36.1815953],[137.9198654,36.1816018],[137.9210907,36.1818812],[137.9211897,36.181852],[137.9217861,36.1800959],[137.921967,36.1795853],[137.9222924,36.1786038],[137.9224014,36.1782928],[137.9224554,36.1781387],[137.9225358,36.1780229],[137.9224962,36.1779404],[137.9223428,36.1778372],[137.9221632,36.1777279],[137.9219179,36.1776163],[137.9216715,36.177535],[137.9216774,36.1773368],[137.9218054,36.176977],[137.9220402,36.1768776],[137.9221692,36.1762428],[137.922503,36.1760888],[137.9225372,36.1757534],[137.9225939,36.1753875],[137.9224335,36.1752541],[137.9223585,36.1751917],[137.9225751,36.1739618],[137.9226886,36.1739796],[137.9228909,36.1733952],[137.9226344,36.1733279],[137.923121,36.1719561],[137.9238472,36.1699068],[137.9239708,36.1695588],[137.924289,36.1696236],[137.9256743,36.1699],[137.9269657,36.1701451],[137.9275021,36.1702554],[137.9283025,36.1704529],[137.9289448,36.1706041],[137.9290975,36.1700745],[137.9290582,36.170068],[137.9290988,36.1699258],[137.9292819,36.1692845],[137.9293534,36.1691577],[137.9294261,36.1690759],[137.9294747,36.1690135],[137.929515,36.1688865],[137.9295336,36.1685957],[137.9295647,36.1673061],[137.9296191,36.1662837],[137.9295844,36.1662336],[137.9291988,36.1661665],[137.9287573,36.1660945],[137.9284291,36.1660483],[137.9284888,36.1656849],[137.9285679,36.1651333],[137.9285827,36.1649267],[137.9288087,36.1636182],[137.928687,36.1634996],[137.9277794,36.163405],[137.9271186,36.1633667],[137.927155,36.1631019],[137.926188,36.1609223],[137.9271997,36.1606354],[137.9269134,36.1599888],[137.9263127,36.1586213],[137.9262414,36.1584548],[137.9261785,36.1582504],[137.9261408,36.1580645],[137.9261404,36.1578696],[137.9261721,36.1576928],[137.9263083,36.1571835],[137.9266673,36.1558014],[137.9269224,36.1548096],[137.9275011,36.1525732],[137.9275881,36.1522056],[137.9276032,36.1520782],[137.9275935,36.1518432],[137.9275491,36.1516518],[137.9265681,36.1496617],[137.9264543,36.1496294],[137.9252932,36.1500167],[137.924262,36.1503829],[137.9239057,36.1505834],[137.9236141,36.1508304],[137.9233488,36.1512052]]]}}
