{"type":"Feature","id":"attraction-large-large-port-W1535738164","properties":{"id":"attraction-large-large-port-W1535738164","kind":"attraction","name":"三石漁港","shortName":"三石漁港","context":"日本","subtype":"large-port","subtypeLabel":"港湾・埠頭","statusLabel":"","aliases":["Mitsuishi Fishing Port","北海道"],"osmType":"way","osmId":1535738164,"osmDate":null,"officialAreaKm2":null,"areaSourceLabel":"","areaSourceUrl":"","boundarySourceLabel":"© OpenStreetMap contributors","boundarySourceUrl":"https://www.openstreetmap.org/copyright","geometryFile":"attractions/large-large-port-W1535738164.geojson"},"geometry":{"type":"Polygon","coordinates":[[[142.5539311,42.2482272],[142.5538989,42.2482322],[142.5537533,42.248271],[142.5532952,42.248364],[142.5529103,42.2484824],[142.5527409,42.2485166],[142.5527792,42.2487019],[142.5527536,42.2487814],[142.5523219,42.2493922],[142.552143,42.249517],[142.5515299,42.2499312],[142.5510981,42.2502281],[142.5509167,42.250298],[142.5498769,42.2504001],[142.5494346,42.2503581],[142.5483008,42.2504412],[142.5479413,42.2504225],[142.5479324,42.2503532],[142.5477672,42.2483772],[142.5480409,42.248042],[142.5503325,42.2459268],[142.5503524,42.2458728],[142.5504067,42.2457513],[142.5507581,42.2458407],[142.5533504,42.2455061],[142.5534671,42.2460114],[142.5534456,42.2460134],[142.5535046,42.2462844],[142.5534792,42.2462894],[142.5539311,42.2482272]]]}}
