{"type":"Feature","id":"attraction-large-park-W245395008","properties":{"id":"attraction-large-park-W245395008","kind":"attraction","name":"志波城古代公園","shortName":"志波城古代公園","context":"日本","subtype":"large-park","subtypeLabel":"大型都市公園・広域公園","statusLabel":"著名な公園","aliases":[],"osmType":"way","osmId":245395008,"osmDate":null,"officialAreaKm2":null,"areaSourceLabel":"","areaSourceUrl":"","boundarySourceLabel":"© OpenStreetMap contributors","boundarySourceUrl":"https://www.openstreetmap.org/copyright","geometryFile":"attractions/large-park-W245395008.geojson"},"geometry":{"type":"Polygon","coordinates":[[[141.1047835,39.6873917],[141.1047267,39.686757],[141.1049805,39.6866418],[141.1050392,39.6861825],[141.105327,39.6858418],[141.1055937,39.6856254],[141.1055416,39.6852826],[141.1056092,39.6849802],[141.1057342,39.6847657],[141.1059361,39.6845137],[141.105861,39.6838408],[141.1028626,39.6840637],[141.1029109,39.6834527],[141.1032703,39.6833082],[141.1051532,39.6831596],[141.1055931,39.6830853],[141.1055824,39.6828913],[141.1062277,39.6828543],[141.106568,39.6827726],[141.1066258,39.6829014],[141.1070573,39.6826745],[141.107119,39.6830378],[141.1078005,39.6830329],[141.1085674,39.6829986],[141.1096671,39.6828603],[141.1103671,39.6827695],[141.110585,39.6827603],[141.1107212,39.6829903],[141.1108178,39.6833743],[141.1086578,39.6835726],[141.1062151,39.6837995],[141.1063243,39.6845263],[141.1064404,39.6852072],[141.1071324,39.6851412],[141.1078888,39.685166],[141.1078478,39.6854675],[141.1079585,39.6862476],[141.1080739,39.6871516],[141.107296,39.6871847],[141.1069443,39.6872496],[141.1060453,39.6873351],[141.1047835,39.6873917]]]}}
