{"type":"Feature","id":"attraction-large-park-W180548390","properties":{"id":"attraction-large-park-W180548390","kind":"attraction","name":"たけべの森公園","shortName":"たけべの森公園","context":"日本","subtype":"large-park","subtypeLabel":"大型都市公園・広域公園","statusLabel":"","aliases":["TAKEBEnoMORI PARK"],"osmType":"way","osmId":180548390,"osmDate":null,"officialAreaKm2":null,"areaSourceLabel":"","areaSourceUrl":"","boundarySourceLabel":"© OpenStreetMap contributors","boundarySourceUrl":"https://www.openstreetmap.org/copyright","geometryFile":"attractions/large-park-W180548390.geojson"},"geometry":{"type":"Polygon","coordinates":[[[133.8684938,34.8543479],[133.8697169,34.8540309],[133.8726351,34.8536436],[133.8747809,34.8532738],[133.875537,34.852933],[133.876094,34.852938],[133.877648,34.853381],[133.877826,34.853996],[133.87845,34.854522],[133.879262,34.854897],[133.879626,34.855482],[133.8795504,34.856979],[133.880413,34.8578447],[133.881517,34.858439],[133.882386,34.860162],[133.8828817,34.861435],[133.8844588,34.8627203],[133.8850167,34.862936],[133.8853279,34.8632397],[133.8860735,34.863627],[133.8865885,34.8638163],[133.8869801,34.8640936],[133.8872966,34.864164],[133.8879564,34.8640716],[133.8885346,34.8641597],[133.8887987,34.8644237],[133.8892439,34.8647098],[133.888222,34.8648603],[133.8872564,34.8648427],[133.8863981,34.8647722],[133.8855527,34.8644368],[133.8845313,34.86398],[133.8831923,34.8638558],[133.8819907,34.8638734],[133.8806603,34.8637326],[133.879802,34.8636798],[133.8787162,34.8634694],[133.8778064,34.8630635],[133.8768494,34.8627123],[133.8758409,34.8621665],[133.8752744,34.861479],[133.8745964,34.8609164],[133.8741801,34.8604754],[133.8735578,34.8599119],[133.8730514,34.8594198],[133.8723862,34.8591733],[133.8714335,34.8588731],[133.8706825,34.8587146],[133.8696311,34.8581336],[133.8693178,34.8575358],[133.8690088,34.8570595],[133.8687298,34.8567074],[133.8683007,34.8562848],[133.8679144,34.8555981],[133.8679574,34.8550698],[133.8679144,34.8547529],[133.8680732,34.854472],[133.8684938,34.8543479]]]}}
