{"type":"Feature","id":"attraction-large-industrial-complex-W737747058","properties":{"id":"attraction-large-industrial-complex-W737747058","kind":"attraction","name":"三菱重工 長崎造船所 香焼工場","shortName":"三菱重工 長崎造船所 香焼工場","context":"日本","subtype":"industrial-complex","subtypeLabel":"工業地帯・大規模工場","statusLabel":"","aliases":["Mitsubishi Heavy Industries"],"osmType":"way","osmId":737747058,"osmDate":null,"officialAreaKm2":null,"areaSourceLabel":"","areaSourceUrl":"","boundarySourceLabel":"© OpenStreetMap contributors","boundarySourceUrl":"https://www.openstreetmap.org/copyright","geometryFile":"attractions/large-industrial-complex-W737747058.geojson"},"geometry":{"type":"Polygon","coordinates":[[[129.8228871,32.695009],[129.8203631,32.695702],[129.8206989,32.6961882],[129.820862,32.6964243],[129.8181185,32.6971499],[129.8179066,32.6966872],[129.817684,32.6967978],[129.8176062,32.6968971],[129.8177591,32.6972899],[129.8177215,32.6974727],[129.8180327,32.6976691],[129.8186335,32.6975585],[129.8195504,32.6999222],[129.8194887,32.7001321],[129.8197677,32.700868],[129.8196952,32.7009515],[129.8185916,32.7012481],[129.818399,32.7010775],[129.8168647,32.7011543],[129.8158712,32.7014529],[129.8161111,32.7021439],[129.8177197,32.70629],[129.8180982,32.7064435],[129.8211227,32.7056189],[129.8221433,32.7063212],[129.8223799,32.7060511],[129.8239546,32.7066511],[129.8245697,32.7065004],[129.8246069,32.7065345],[129.8249076,32.7064549],[129.8250563,32.7063411],[129.8273273,32.705781],[129.8276111,32.7059658],[129.8279051,32.7059459],[129.8281958,32.7066596],[129.8288277,32.7067222],[129.8295407,32.7079165],[129.8300105,32.7078226],[129.8293109,32.7059459],[129.8293481,32.7059203],[129.8290203,32.7051269],[129.8288412,32.7051639],[129.8286041,32.7048999],[129.8283014,32.704075],[129.8283512,32.7039952],[129.8281552,32.7034605],[129.8288842,32.7032515],[129.828767,32.7029425],[129.8282928,32.7030543],[129.8279739,32.702193],[129.8277648,32.7016128],[129.828176,32.7015024],[129.8280876,32.7012567],[129.8280099,32.7012766],[129.8258702,32.6957071],[129.8236865,32.6962713],[129.8236546,32.6961942],[129.8237698,32.6961595],[129.8233822,32.695173],[129.8232052,32.6952226],[129.8231756,32.6952322],[129.8231288,32.6951157],[129.822967,32.6951677],[129.8228871,32.695009]]]}}
