{"type":"Feature","id":"attraction-large-park-W292493736","properties":{"id":"attraction-large-park-W292493736","kind":"attraction","name":"横浜市 児童遊園地","shortName":"横浜市 児童遊園地","context":"日本","subtype":"large-park","subtypeLabel":"大型都市公園・広域公園","statusLabel":"著名な公園","aliases":[],"osmType":"way","osmId":292493736,"osmDate":null,"officialAreaKm2":null,"areaSourceLabel":"","areaSourceUrl":"","boundarySourceLabel":"© OpenStreetMap contributors","boundarySourceUrl":"https://www.openstreetmap.org/copyright","geometryFile":"attractions/large-park-W292493736.geojson"},"geometry":{"type":"Polygon","coordinates":[[[139.5763728,35.4354302],[139.5766356,35.4354007],[139.5767376,35.4353023],[139.5767952,35.4349002],[139.576924,35.4347571],[139.5771573,35.4343506],[139.5777662,35.4339408],[139.5778587,35.4339026],[139.5784327,35.4338747],[139.5784703,35.434727],[139.5789852,35.4362437],[139.5810212,35.4365506],[139.5810923,35.4365878],[139.58104,35.4366642],[139.5810198,35.4367211],[139.5810507,35.4367997],[139.5809649,35.4368478],[139.5810225,35.4369713],[139.5811097,35.4370674],[139.5812421,35.4372183],[139.5810496,35.4372958],[139.5810359,35.4372575],[139.5809528,35.4371789],[139.5808133,35.4371701],[139.5805773,35.4372313],[139.5803761,35.4372925],[139.5803895,35.4373712],[139.5803332,35.4373777],[139.5803251,35.4374149],[139.5802715,35.4374193],[139.5801454,35.4375285],[139.5801428,35.4376487],[139.5800864,35.4376465],[139.5799845,35.4376859],[139.5799094,35.4377492],[139.5798772,35.4378432],[139.5798499,35.4379029],[139.5798819,35.4379297],[139.5798638,35.4379739],[139.5796525,35.4382108],[139.5796118,35.4383274],[139.5796264,35.4384595],[139.5796434,35.4386049],[139.5795714,35.4387196],[139.5787693,35.4385732],[139.5776616,35.4384497],[139.5776415,35.4385743],[139.5771587,35.4385306],[139.577105,35.4387426],[139.5768006,35.4386901],[139.5766638,35.4390398],[139.5763527,35.4389688],[139.5762663,35.4387998],[139.5762576,35.4386619],[139.5761705,35.4386124],[139.5760737,35.4384388],[139.5760831,35.4382563],[139.5759879,35.4381646],[139.5761408,35.4378564],[139.5760992,35.4377155],[139.5763848,35.4365081],[139.576417,35.4362131],[139.5763728,35.4354302]]]}}
