{"type":"Feature","id":"attraction-large-industrial-complex-W662703019","properties":{"id":"attraction-large-industrial-complex-W662703019","kind":"attraction","name":"発寒鉄工団地","shortName":"発寒鉄工団地","context":"日本","subtype":"industrial-complex","subtypeLabel":"工業地帯・大規模工場","statusLabel":"","aliases":["Hassamu iron industry area"],"osmType":"way","osmId":662703019,"osmDate":null,"officialAreaKm2":null,"areaSourceLabel":"","areaSourceUrl":"","boundarySourceLabel":"© OpenStreetMap contributors","boundarySourceUrl":"https://www.openstreetmap.org/copyright","geometryFile":"attractions/large-industrial-complex-W662703019.geojson"},"geometry":{"type":"Polygon","coordinates":[[[141.2859338,43.1160804],[141.289469,43.1136212],[141.2895924,43.1137269],[141.2932953,43.1110549],[141.2932987,43.1087733],[141.2921888,43.1087886],[141.2921888,43.108538],[141.2926716,43.1085341],[141.2926588,43.1082204],[141.290303,43.1081947],[141.2901932,43.1081933],[141.2903166,43.1019072],[141.2887083,43.1028627],[141.2880421,43.1032585],[141.2840831,43.0995101],[141.2833824,43.0988674],[141.281696,43.0973205],[141.2790942,43.0988952],[141.2770987,43.1000898],[141.2743896,43.1017349],[141.2721607,43.1030294],[141.2730405,43.1038558],[141.2743735,43.1031606],[141.2750977,43.1038147],[141.2754089,43.1036149],[141.2766534,43.1048448],[141.2778926,43.1040575],[141.2787026,43.1045588],[141.2761921,43.1061568],[141.2780642,43.1076764],[141.2778658,43.1078252],[141.2790298,43.10882],[141.2783217,43.1092743],[141.2803924,43.1112324],[141.2822539,43.1129398],[141.2839436,43.1144357],[141.284498,43.1148122],[141.2859338,43.1160804]]]}}
