{"type":"Feature","id":"attraction-large-park-W603224225","properties":{"id":"attraction-large-park-W603224225","kind":"attraction","name":"嶺公園","shortName":"嶺公園","context":"日本","subtype":"large-park","subtypeLabel":"大型都市公園・広域公園","statusLabel":"","aliases":[],"osmType":"way","osmId":603224225,"osmDate":null,"officialAreaKm2":null,"areaSourceLabel":"","areaSourceUrl":"","boundarySourceLabel":"© OpenStreetMap contributors","boundarySourceUrl":"https://www.openstreetmap.org/copyright","geometryFile":"attractions/large-park-W603224225.geojson"},"geometry":{"type":"Polygon","coordinates":[[[139.1153648,36.4625333],[139.1156952,36.4626723],[139.116486,36.4629802],[139.1176075,36.4623831],[139.1176658,36.4624549],[139.1185267,36.4622783],[139.1191089,36.4629443],[139.1195194,36.4628447],[139.1225907,36.46147],[139.1230708,36.4613277],[139.123449,36.4609998],[139.1237736,36.4605705],[139.1240643,36.4599781],[139.1242704,36.4597202],[139.1249436,36.4595541],[139.1262821,36.4593128],[139.1274176,36.4591528],[139.1271319,36.4589813],[139.1270863,36.4589188],[139.1268831,36.457305],[139.1260784,36.4573819],[139.1259956,36.4569173],[139.1258344,36.4569256],[139.1252961,36.4570547],[139.1245505,36.4568465],[139.1244149,36.4567028],[139.1237001,36.4554216],[139.1235687,36.4555068],[139.1234881,36.4554284],[139.1226556,36.4549334],[139.1207392,36.4543461],[139.1198981,36.4539273],[139.119113,36.453402],[139.1183042,36.4539602],[139.1183075,36.4541685],[139.1180609,36.4542503],[139.117203,36.4540654],[139.1165998,36.4537406],[139.1153668,36.4535318],[139.1153764,36.4536946],[139.1150656,36.4541289],[139.1148097,36.4541487],[139.1139866,36.4541587],[139.1139526,36.4544461],[139.1141293,36.4547457],[139.1143853,36.4552755],[139.1142771,36.4553793],[139.1146932,36.4559396],[139.1145626,36.4561385],[139.1151452,36.4571363],[139.115253,36.4575222],[139.1154351,36.4580866],[139.1154731,36.4588414],[139.1153785,36.4592679],[139.1152642,36.4595977],[139.1152867,36.4608359],[139.1152352,36.4612253],[139.1152701,36.4617081],[139.1151975,36.4618998],[139.1153648,36.4625333]]]}}
