{"type":"Feature","id":"attraction-large-industrial-complex-W532438835","properties":{"id":"attraction-large-industrial-complex-W532438835","kind":"attraction","name":"白島石油備蓄基地","shortName":"白島石油備蓄基地","context":"日本","subtype":"industrial-complex","subtypeLabel":"工業地帯・大規模工場","statusLabel":"","aliases":[],"osmType":"way","osmId":532438835,"osmDate":null,"officialAreaKm2":null,"areaSourceLabel":"","areaSourceUrl":"","boundarySourceLabel":"© OpenStreetMap contributors","boundarySourceUrl":"https://www.openstreetmap.org/copyright","geometryFile":"attractions/large-industrial-complex-W532438835.geojson"},"geometry":{"type":"Polygon","coordinates":[[[130.7270747,34.0155883],[130.7316104,34.0163642],[130.7375514,34.0148613],[130.7342094,34.0058277],[130.7282925,34.0073463],[130.7287887,34.0087093],[130.727402,34.0090472],[130.7275254,34.0093763],[130.7279491,34.0095831],[130.728142,34.0098168],[130.728757,34.010562],[130.7290354,34.0108993],[130.7291052,34.0121177],[130.7284534,34.0144722],[130.7270747,34.0155883]]]}}
