{"type":"Feature","id":"attraction-large-industrial-complex-R8866755","properties":{"id":"attraction-large-industrial-complex-R8866755","kind":"attraction","name":"キオクシア 四日市工場","shortName":"キオクシア 四日市工場","context":"日本","subtype":"industrial-complex","subtypeLabel":"工業地帯・大規模工場","statusLabel":"","aliases":["Kioxia Corporation"],"osmType":"relation","osmId":8866755,"osmDate":null,"officialAreaKm2":null,"areaSourceLabel":"","areaSourceUrl":"","boundarySourceLabel":"© OpenStreetMap contributors","boundarySourceUrl":"https://www.openstreetmap.org/copyright","geometryFile":"attractions/large-industrial-complex-R8866755.geojson"},"geometry":{"type":"MultiPolygon","coordinates":[[[[136.6037701,35.0140736],[136.605479,35.015381],[136.6061674,35.015872],[136.607636,35.016694],[136.608995,35.0173247],[136.6102932,35.01591],[136.6116236,35.0139945],[136.6105013,35.0132995],[136.6084264,35.0120899],[136.6062771,35.0108638],[136.6055168,35.0104099],[136.6050639,35.0112264],[136.6044117,35.012209],[136.6043408,35.0123584],[136.6042901,35.0125439],[136.604236,35.0128677],[136.6041819,35.0132746],[136.6041515,35.0134489],[136.6039386,35.0138558],[136.6037701,35.0140736]]],[[[136.608396,35.0187822],[136.6082552,35.0193062],[136.6082686,35.0198619],[136.6084725,35.0203934],[136.6095239,35.0227877],[136.6099369,35.0232402],[136.6105244,35.0233807],[136.6126192,35.0218256],[136.6124421,35.0213907],[136.6125038,35.0211732],[136.6139496,35.0200574],[136.6147663,35.0206933],[136.617769,35.0184209],[136.6177797,35.0181815],[136.6170555,35.0175642],[136.6168839,35.0174697],[136.6166773,35.0174653],[136.6165432,35.0174675],[136.6160229,35.0176521],[136.6151056,35.0181562],[136.6147931,35.0182473],[136.614541,35.0182748],[136.6142808,35.018243],[136.6105646,35.0160715],[136.608396,35.0187822]]]]}}
