{"type":"Feature","id":"attraction-large-park-W483443937","properties":{"id":"attraction-large-park-W483443937","kind":"attraction","name":"もみのき森林公園","shortName":"もみのき森林公園","context":"日本","subtype":"large-park","subtypeLabel":"大型都市公園・広域公園","statusLabel":"","aliases":[],"osmType":"way","osmId":483443937,"osmDate":null,"officialAreaKm2":null,"areaSourceLabel":"","areaSourceUrl":"","boundarySourceLabel":"© OpenStreetMap contributors","boundarySourceUrl":"https://www.openstreetmap.org/copyright","geometryFile":"attractions/large-park-W483443937.geojson"},"geometry":{"type":"Polygon","coordinates":[[[132.1740984,34.4694152],[132.1733366,34.4690835],[132.173226,34.4690577],[132.173189,34.469146],[132.173087,34.469265],[132.17293,34.469389],[132.17273,34.469566],[132.172672,34.469636],[132.17259,34.46985],[132.172543,34.469941],[132.172407,34.47007],[132.172251,34.470149],[132.172156,34.47025],[132.172054,34.470492],[132.171938,34.470695],[132.17187,34.470869],[132.17187,34.471089],[132.171958,34.471342],[132.172047,34.471697],[132.172067,34.471844],[132.172088,34.471906],[132.172094,34.472046],[132.172081,34.472153],[132.172047,34.472294],[132.171986,34.472429],[132.171863,34.472626],[132.171816,34.472722],[132.171727,34.472964],[132.171619,34.473246],[132.171571,34.47342],[132.171544,34.473736],[132.171483,34.473893],[132.171259,34.474214],[132.171211,34.474327],[132.171198,34.474603],[132.171218,34.474698],[132.171292,34.474868],[132.171313,34.47498],[132.171317,34.475093],[132.171337,34.475154],[132.171365,34.475189],[132.171404,34.475212],[132.1713075,34.4754341],[132.1711949,34.4757017],[132.1710903,34.4759427],[132.17105,34.4760356],[132.1709964,34.4761107],[132.170873,34.4762014],[132.1707523,34.47625],[132.1705324,34.4762655],[132.1703285,34.4762699],[132.1700657,34.4763827],[132.1698806,34.4762368],[132.1697518,34.4763208],[132.1696446,34.476396],[132.169489,34.4765109],[132.1693334,34.4766149],[132.1691618,34.4767321],[132.1690169,34.4768271],[132.1688399,34.4769377],[132.1686602,34.4770372],[132.1686065,34.4770549],[132.168392,34.477088],[132.1681935,34.4771146],[132.1679548,34.4771654],[132.1677134,34.4772295],[132.1674961,34.4773003],[132.167303,34.4773843],[132.1670562,34.477486],[132.1667826,34.4775855],[132.1665681,34.4776806],[132.1662837,34.4777889],[132.1661309,34.4778509],[132.1660584,34.4779017],[132.1659726,34.4779504],[132.1658224,34.4780521],[132.1657768,34.4780786],[132.1656856,34.478083],[132.1655756,34.4780366],[132.165471,34.4779747],[132.1653369,34.4778862],[132.1652243,34.4778177],[132.165117,34.4777491],[132.1649963,34.4777204],[132.1648461,34.4777956],[132.16483,34.4779371],[132.16483,34.4781538],[132.1648139,34.4783705],[132.1647924,34.4785297],[132.164712,34.4787508],[132.1645886,34.4789719],[132.1644545,34.4791797],[132.164374,34.4792991],[132.164256,34.479392],[132.1639717,34.479476],[132.1637303,34.4795467],[132.1636337,34.4797413],[132.1635586,34.4798474],[132.163446,34.4799226],[132.1632529,34.480011],[132.1630705,34.4801437],[132.1629551,34.4802189],[132.1628049,34.4802896],[132.1626815,34.4803338],[132.1624334,34.4803958],[132.1623476,34.4804488],[132.1623101,34.480597],[132.1623047,34.4806721],[132.1623127,34.4808357],[132.162353,34.4809485],[132.1623986,34.4810347],[132.1624764,34.4811431],[132.1625032,34.4811807],[132.162648,34.4812625],[132.1628304,34.4813155],[132.1629377,34.4813553],[132.1631281,34.4815521],[132.1632703,34.4816693],[132.1634527,34.4817776],[132.163745,34.4819169],[132.1640267,34.4819987],[132.1641608,34.4820363],[132.1642976,34.4820584],[132.1644746,34.4821336],[132.164657,34.4822309],[132.1649225,34.4823923],[132.1651639,34.4825404],[132.165408,34.4826863],[132.1655931,34.4827969],[132.1655314,34.4829494],[132.1655663,34.4830047],[132.1656682,34.483071],[132.1658372,34.4831705],[132.1659579,34.4832479],[132.1660705,34.4833253],[132.1661724,34.4833938],[132.16621,34.4834668],[132.1662502,34.4836304],[132.166277,34.4837431],[132.1662663,34.4838669],[132.1662046,34.4838913],[132.16599,34.4839266],[132.1659123,34.483951],[132.1658854,34.4839908],[132.1659203,34.4841499],[132.165931,34.484276],[132.165982,34.4843224],[132.1660678,34.4843445],[132.1661966,34.4843202],[132.1663656,34.4842848],[132.1666096,34.4842362],[132.1667545,34.4841853],[132.1669717,34.4840903],[132.1671595,34.4839863],[132.1673499,34.4838913],[132.1675109,34.4838095],[132.167645,34.4837741],[132.1677067,34.4837719],[132.1678354,34.4838426],[132.1679051,34.4839134],[132.1679427,34.4840239],[132.1679668,34.4841477],[132.1679695,34.4842561],[132.1679856,34.484402],[132.1679588,34.484601],[132.1679293,34.4848574],[132.1679212,34.4850144],[132.1679561,34.4850852],[132.1680553,34.485167],[132.1680983,34.4852731],[132.1681036,34.485377],[132.1680875,34.4854964],[132.1680419,34.4855627],[132.16794,34.4856533],[132.1678435,34.4857573],[132.167822,34.4858943],[132.1678381,34.4860203],[132.1679266,34.4861685],[132.1680768,34.4862989],[132.1682297,34.4864139],[132.1684362,34.4865399],[132.1686642,34.486646],[132.1688627,34.4867367],[132.1691229,34.4868627],[132.169434,34.4869776],[132.1698095,34.4871169],[132.170303,34.4872805],[132.1706759,34.4874132],[132.1710594,34.487537],[132.171333,34.4876365],[132.1716549,34.4877492],[132.1719338,34.4878774],[132.1721269,34.487988],[132.1723335,34.4881339],[132.172548,34.488282],[132.172717,34.4883926],[132.1729289,34.4885274],[132.1731113,34.4886534],[132.17335,34.4888082],[132.1735163,34.4889121],[132.1736263,34.4890094],[132.1737175,34.4891022],[132.173806,34.4892282],[132.1738677,34.4893388],[132.1739187,34.4894294],[132.1740367,34.4894869],[132.1742432,34.4896041],[132.1744819,34.4897256],[132.1746884,34.4898296],[132.1748293,34.4899113],[132.1750009,34.4900971],[132.1753067,34.4902385],[132.175583,34.4902098],[132.1757814,34.4902606],[132.1759853,34.4903999],[132.1763393,34.4905635],[132.1765539,34.4905591],[132.1767765,34.4906453],[132.1770287,34.4909172],[132.1773291,34.4912754],[132.1775893,34.4915163],[132.1778012,34.4916158],[132.1780828,34.4918258],[132.178292,34.4920447],[132.1784449,34.4922768],[132.1786756,34.492352],[132.1790081,34.4923365],[132.1792925,34.492615],[132.1795419,34.4928936],[132.1798128,34.4932009],[132.1801669,34.4935701],[132.1805746,34.4939392],[132.1807409,34.4940476],[132.1809688,34.4943482],[132.1812827,34.4947793],[132.1814677,34.4949893],[132.1819023,34.4950932],[132.1822053,34.4952855],[132.182487,34.4955685],[132.1826667,34.4958558],[132.1828571,34.4961366],[132.1830985,34.4963621],[132.1833828,34.4966428],[132.1836323,34.4968042],[132.1839944,34.4968263],[132.1844799,34.4968329],[132.185027,34.4967401],[132.1853757,34.4966737],[132.1856332,34.4964262],[132.1857405,34.4959796],[132.1858531,34.4956878],[132.1859443,34.4954579],[132.1860731,34.4952634],[132.1862769,34.4950114],[132.1866363,34.49464],[132.1868831,34.4943615],[132.1871513,34.4940387],[132.1873713,34.4936806],[132.187559,34.493349],[132.1875483,34.4931279],[132.187677,34.4929157],[132.1878058,34.4926814],[132.1877307,34.4924338],[132.1873015,34.4920358],[132.1869475,34.4914964],[132.1867329,34.491125],[132.1859926,34.490338],[132.185542,34.4901435],[132.1854562,34.4897455],[132.1854562,34.489268],[132.1854025,34.4889585],[132.1856064,34.4885783],[132.1859175,34.4881715],[132.1860785,34.4877558],[132.1860248,34.4874375],[132.1857137,34.4871722],[132.1854347,34.4867831],[132.1851665,34.4862613],[132.1851236,34.4858368],[132.1851236,34.4852532],[132.1849627,34.4848022],[132.184909,34.4844484],[132.1850378,34.484077],[132.185027,34.4837144],[132.1850163,34.4833164],[132.1848017,34.4829538],[132.1846837,34.4826001],[132.1849734,34.4823259],[132.1854133,34.4820783],[132.1855098,34.4817069],[132.1854454,34.481132],[132.1851987,34.4804422],[132.1854025,34.4801857],[132.1855742,34.4798496],[132.1856922,34.4795312],[132.1857968,34.4793057],[132.1858934,34.4791067],[132.186065,34.4789608],[132.186285,34.4787707],[132.186344,34.4785849],[132.1863279,34.4782533],[132.1862528,34.4780499],[132.1860865,34.4777757],[132.1858022,34.4774794],[132.1855179,34.4771698],[132.1853301,34.4770239],[132.1850082,34.4768338],[132.1846435,34.4766746],[132.1843484,34.4765154],[132.1840802,34.4763341],[132.1839461,34.4762102],[132.1838978,34.4759537],[132.1838066,34.4755911],[132.1837637,34.4753258],[132.1836403,34.4749587],[132.1834848,34.4745563],[132.1832219,34.474145],[132.1830502,34.473893],[132.1829698,34.4737603],[132.1830395,34.4734375],[132.1830341,34.4733092],[132.1827176,34.4731898],[132.1821597,34.4729466],[132.1815321,34.472668],[132.1809313,34.4724026],[132.1802178,34.4720886],[132.1794293,34.4717392],[132.1788499,34.4714827],[132.1780774,34.4711555],[132.1773371,34.4708194],[132.1765164,34.47047],[132.1759209,34.4702091],[132.1752128,34.4698818],[132.174848,34.4697535],[132.1743813,34.4695413],[132.1740984,34.4694152]]]}}
