{"type":"Feature","id":"attraction-large-industrial-complex-R19444606","properties":{"id":"attraction-large-industrial-complex-R19444606","kind":"attraction","name":"ENEOS㈱ 大阪事業所","shortName":"ENEOS㈱ 大阪事業所","context":"日本","subtype":"industrial-complex","subtypeLabel":"工業地帯・大規模工場","statusLabel":"","aliases":["旧大阪国際石油精製株式会社 大阪製油所"],"osmType":"relation","osmId":19444606,"osmDate":null,"officialAreaKm2":null,"areaSourceLabel":"","areaSourceUrl":"","boundarySourceLabel":"© OpenStreetMap contributors","boundarySourceUrl":"https://www.openstreetmap.org/copyright","geometryFile":"attractions/large-industrial-complex-R19444606.geojson"},"geometry":{"type":"MultiPolygon","coordinates":[[[[135.4134841,34.5261366],[135.4171202,34.5316977],[135.4103495,34.5347125],[135.410276,34.5346127],[135.4102097,34.5346033],[135.4097438,34.533897],[135.4084309,34.534451],[135.407542,34.5330989],[135.4066368,34.5335544],[135.4046228,34.5301337],[135.4134841,34.5261366]]],[[[135.4166371,34.5325173],[135.4166641,34.5325647],[135.4166362,34.5325744],[135.4200115,34.5377534],[135.4200583,34.5377345],[135.4202097,34.5379628],[135.4201412,34.5380211],[135.4113927,34.5419581],[135.4082006,34.5363132],[135.4166371,34.5325173]]]]}}
