{"type":"Feature","id":"attraction-large-park-W152783026","properties":{"id":"attraction-large-park-W152783026","kind":"attraction","name":"服部緑地","shortName":"服部緑地","context":"日本","subtype":"large-park","subtypeLabel":"大型都市公園・広域公園","statusLabel":"","aliases":["Hattori Ryokuchi Park"],"osmType":"way","osmId":152783026,"osmDate":null,"officialAreaKm2":null,"areaSourceLabel":"","areaSourceUrl":"","boundarySourceLabel":"© OpenStreetMap contributors","boundarySourceUrl":"https://www.openstreetmap.org/copyright","geometryFile":"attractions/large-park-W152783026.geojson"},"geometry":{"type":"Polygon","coordinates":[[[135.4806917,34.771737],[135.480714,34.7718738],[135.4807913,34.7720981],[135.4808681,34.7722877],[135.4808815,34.7723194],[135.4808993,34.7723621],[135.4809315,34.7724263],[135.4809506,34.7724607],[135.4809781,34.7725048],[135.4810096,34.7725574],[135.481083,34.772672],[135.4810897,34.7726879],[135.4811186,34.7727425],[135.48113,34.7727504],[135.4811457,34.7727821],[135.4811655,34.7728177],[135.4812201,34.7729369],[135.4812602,34.773041],[135.4812718,34.7730856],[135.4812813,34.7731293],[135.481299,34.7732971],[135.4812725,34.773521],[135.4812659,34.7735618],[135.4812513,34.7738642],[135.4812459,34.7739764],[135.481248,34.7740933],[135.481251,34.7741357],[135.4812597,34.7741911],[135.4812721,34.7742434],[135.4812907,34.7742996],[135.4813144,34.7743522],[135.4813449,34.7744141],[135.4813888,34.7744932],[135.481431,34.7745626],[135.4814659,34.7746138],[135.4815507,34.7747277],[135.4816409,34.7748442],[135.4817564,34.7749868],[135.4818089,34.7750456],[135.4818686,34.7751113],[135.4819898,34.7752429],[135.4820017,34.7752582],[135.4820134,34.7752662],[135.4820248,34.775283],[135.4820691,34.7753463],[135.4820976,34.7753921],[135.4821341,34.7754553],[135.4821743,34.7755452],[135.482204,34.7756226],[135.4822183,34.7756719],[135.4822207,34.775681],[135.4822246,34.7756878],[135.4822904,34.7757364],[135.4822852,34.775786],[135.4823056,34.7757874],[135.4822853,34.7759853],[135.4822716,34.7759835],[135.4822627,34.7759824],[135.4822592,34.7760164],[135.4822567,34.7760416],[135.4822548,34.7760662],[135.4822518,34.7760834],[135.4822498,34.7760924],[135.4822427,34.7761064],[135.4822339,34.7761192],[135.4822206,34.7761312],[135.482206,34.7761402],[135.4821876,34.7761468],[135.4821754,34.7761502],[135.4821606,34.7761515],[135.482148,34.7761515],[135.4821383,34.7761499],[135.4821207,34.7761471],[135.4821163,34.7761678],[135.4821139,34.7761816],[135.482109,34.7762852],[135.4821083,34.7763287],[135.4820925,34.7763937],[135.4820768,34.7764548],[135.4820597,34.7764994],[135.4820372,34.7765509],[135.4820208,34.7765895],[135.4820164,34.7766003],[135.4819795,34.7766596],[135.4819531,34.7767024],[135.4818546,34.7768501],[135.4817998,34.7769354],[135.4817576,34.7770059],[135.4817277,34.7770678],[135.4817006,34.7771461],[135.4816755,34.7772375],[135.481651,34.7773074],[135.4816275,34.7773914],[135.4815526,34.7776397],[135.4814571,34.777951],[135.4814156,34.7781173],[135.4814015,34.7781795],[135.4813962,34.7782396],[135.4813964,34.7783139],[135.4814203,34.778518],[135.4815108,34.7790916],[135.4815487,34.7790913],[135.4815983,34.7790902],[135.4815981,34.7790749],[135.4817777,34.779066],[135.4819172,34.7790577],[135.4820412,34.7790506],[135.4820939,34.7790459],[135.4821512,34.7790396],[135.4821898,34.7790371],[135.4822417,34.7790352],[135.4822974,34.7790357],[135.4823396,34.7790363],[135.4823795,34.7790393],[135.4824107,34.7790426],[135.4824307,34.7790469],[135.4824647,34.779054],[135.4825009,34.7790631],[135.4825386,34.7790755],[135.4825822,34.7790926],[135.4826057,34.7791032],[135.4826371,34.7791167],[135.4826669,34.7791351],[135.4826991,34.7791566],[135.4827282,34.7791784],[135.4827487,34.7791985],[135.4827731,34.7792238],[135.4828107,34.7792626],[135.4828394,34.7793032],[135.482856,34.7793326],[135.4828845,34.779391],[135.4829384,34.7795063],[135.4830296,34.7796947],[135.4830471,34.7797255],[135.4830618,34.7797492],[135.4830793,34.7797677],[135.4831024,34.7797886],[135.4831299,34.7798076],[135.4835216,34.7800185],[135.4839619,34.7801315],[135.4842195,34.7802112],[135.4844972,34.7803553],[135.4847104,34.7804129],[135.4851632,34.7803697],[135.4854348,34.7803121],[135.4856744,34.7802161],[135.4858321,34.7802161],[135.4861008,34.7802977],[135.4862557,34.7803505],[135.4865682,34.7802977],[135.4869168,34.7802167],[135.4870559,34.780219],[135.4871596,34.7802598],[135.4871641,34.7802234],[135.4872607,34.7803008],[135.487389,34.7804696],[135.4874591,34.7805055],[135.4875387,34.7805221],[135.4883988,34.7804568],[135.4892848,34.7803697],[135.4905465,34.7802835],[135.4904768,34.7812671],[135.4910052,34.7819633],[135.4915641,34.7821569],[135.4918388,34.782252],[135.492239,34.7823906],[135.4928076,34.7821527],[135.4928479,34.7817782],[135.4927888,34.7815403],[135.4928854,34.7813883],[135.4935667,34.780734],[135.4940844,34.7804696],[135.4944947,34.7806018],[135.4948676,34.7804773],[135.4952162,34.7798836],[135.4954322,34.7788151],[135.4954429,34.7786852],[135.4954161,34.778553],[135.4950379,34.7781498],[135.4949834,34.7780658],[135.4949759,34.7779953],[135.4949383,34.7779995],[135.4949544,34.7779378],[135.4947026,34.7777466],[135.4944934,34.7776486],[135.4941997,34.7775726],[135.4938336,34.7775109],[135.4933293,34.7774823],[135.4927231,34.7774735],[135.492526,34.7775241],[135.4924241,34.7776101],[135.4922972,34.7776709],[135.4922229,34.7775462],[135.4920599,34.7773514],[135.4916947,34.7771331],[135.4913383,34.7767684],[135.4910287,34.7763365],[135.4909536,34.7760959],[135.4909245,34.7759446],[135.4908943,34.7753192],[135.4908447,34.7749569],[135.4907043,34.7745968],[135.4905555,34.7742107],[135.4904854,34.7738652],[135.4905117,34.7733853],[135.4905497,34.772879],[135.4905149,34.7723652],[135.4905058,34.7722314],[135.4904786,34.7718512],[135.4891386,34.772155],[135.4888849,34.7721771],[135.4887218,34.7721743],[135.4883797,34.7721322],[135.487433,34.7722701],[135.4858768,34.772522],[135.4853189,34.7723004],[135.4851848,34.7721782],[135.4849796,34.7720845],[135.4848804,34.7719248],[135.4848777,34.7716229],[135.4844351,34.7715425],[135.4843184,34.7713057],[135.484132,34.7711261],[135.4840207,34.7711107],[135.4838946,34.7711614],[135.4837418,34.771136],[135.4835165,34.7709741],[135.4833032,34.7709653],[135.4829371,34.7710314],[135.4827051,34.7709741],[135.4824784,34.7708154],[135.4823121,34.7706227],[135.4822277,34.7702448],[135.4822142,34.7701093],[135.4820855,34.769976],[135.4820849,34.7698945],[135.4820603,34.769879],[135.4820335,34.7698594],[135.4820085,34.7698411],[135.4819886,34.7698239],[135.4819655,34.7698055],[135.481942,34.7697823],[135.4819112,34.7697492],[135.4818942,34.7697294],[135.4818681,34.7696963],[135.4818267,34.7696437],[135.4817937,34.7696006],[135.4817749,34.7695758],[135.4817662,34.7695638],[135.4817628,34.7695598],[135.4817575,34.7695554],[135.4817477,34.7695534],[135.4815967,34.7695272],[135.4813913,34.7696569],[135.4813094,34.7697135],[135.4812331,34.7697748],[135.4811958,34.769817],[135.4811013,34.7699051],[135.4810336,34.7698852],[135.4809793,34.7699493],[135.4809419,34.7700013],[135.4809057,34.7700539],[135.4808723,34.7701137],[135.4808471,34.7701661],[135.4808239,34.7702242],[135.4808035,34.77029],[135.4807901,34.7703462],[135.4807842,34.7703805],[135.4807766,34.7704191],[135.4807689,34.7704689],[135.4807553,34.7705563],[135.4807362,34.7707527],[135.4806981,34.7711606],[135.4806825,34.7713335],[135.4806754,34.7714072],[135.4806703,34.7715027],[135.4806724,34.771564],[135.4806784,34.7716374],[135.4806917,34.771737]]]}}
