{"type":"Feature","id":"attraction-large-park-W471896635","properties":{"id":"attraction-large-park-W471896635","kind":"attraction","name":"茨城県民の森","shortName":"茨城県民の森","context":"日本","subtype":"large-park","subtypeLabel":"大型都市公園・広域公園","statusLabel":"","aliases":[],"osmType":"way","osmId":471896635,"osmDate":null,"officialAreaKm2":null,"areaSourceLabel":"","areaSourceUrl":"","boundarySourceLabel":"© OpenStreetMap contributors","boundarySourceUrl":"https://www.openstreetmap.org/copyright","geometryFile":"attractions/large-park-W471896635.geojson"},"geometry":{"type":"Polygon","coordinates":[[[140.4378245,36.4721102],[140.437524,36.47208],[140.4368031,36.4720132],[140.4363102,36.4719215],[140.4357616,36.4717659],[140.4354214,36.4716305],[140.4351048,36.4714616],[140.434799,36.4712616],[140.4344024,36.4709338],[140.4340733,36.4706784],[140.4333928,36.4701309],[140.4332417,36.4700061],[140.4327236,36.4703391],[140.4325065,36.4707755],[140.4332508,36.4713118],[140.4329097,36.4715799],[140.4319494,36.4711781],[140.4299842,36.4717238],[140.4304649,36.4725651],[140.4296307,36.4735202],[140.4286976,36.4743615],[140.4287541,36.4747366],[140.4273403,36.4747366],[140.4276513,36.4781245],[140.4284431,36.4797501],[140.4288644,36.4850312],[140.4292656,36.4851266],[140.4301937,36.4853742],[140.4306261,36.4854119],[140.4310015,36.4853791],[140.4312952,36.4853217],[140.4314992,36.4852184],[140.4323192,36.4848051],[140.4347252,36.4837819],[140.4363745,36.482911],[140.4388229,36.4815781],[140.4374945,36.4795166],[140.437113,36.4772799],[140.4372963,36.4754145],[140.4371528,36.4750746],[140.436997,36.474784],[140.4369252,36.4746132],[140.4369886,36.4745155],[140.4371843,36.4742308],[140.4373774,36.4739202],[140.4375062,36.4736485],[140.437533,36.4735406],[140.4376081,36.4732214],[140.43771,36.4727469],[140.437769,36.4724191],[140.4378245,36.4721102]]]}}
