{"type":"Feature","id":"attraction-large-large-farm-W706583711","properties":{"id":"attraction-large-large-farm-W706583711","kind":"attraction","name":"国立研究開発法人 森林研究・整備機構森林総合研究所 林木育種センター東北育種場","shortName":"国立研究開発法人 森林研究・整備機構森林総合研究所 林木育種センター東北育種場","context":"日本","subtype":"large-farm","subtypeLabel":"大規模農場・牧場","statusLabel":"","aliases":[],"osmType":"way","osmId":706583711,"osmDate":null,"officialAreaKm2":null,"areaSourceLabel":"","areaSourceUrl":"","boundarySourceLabel":"© OpenStreetMap contributors","boundarySourceUrl":"https://www.openstreetmap.org/copyright","geometryFile":"attractions/large-large-farm-W706583711.geojson"},"geometry":{"type":"Polygon","coordinates":[[[141.1466038,39.8254378],[141.1474943,39.8253884],[141.1479235,39.8218123],[141.1472046,39.8191012],[141.1456704,39.8146677],[141.1436534,39.8146512],[141.1352634,39.816629],[141.1357784,39.8170905],[141.1358535,39.8174613],[141.1359286,39.8179228],[141.1360896,39.8180794],[141.1360788,39.8187468],[141.1359608,39.8188045],[141.1362827,39.8194061],[141.1367655,39.8197687],[141.1374843,39.8201312],[141.1384284,39.8205762],[141.1391902,39.8211118],[141.1399841,39.8218452],[141.1405635,39.8227104],[141.1413467,39.8238393],[141.1426234,39.8239711],[141.1429238,39.824103],[141.1430204,39.824482],[141.1435676,39.8247539],[141.1438894,39.8250835],[141.1448228,39.8249517],[141.1453915,39.8249929],[141.1457884,39.8252318],[141.1458957,39.8254708],[141.1466038,39.8254378]]]}}
