{"type":"Feature","id":"attraction-large-park-W510486001","properties":{"id":"attraction-large-park-W510486001","kind":"attraction","name":"阿波岐原森林公園","shortName":"阿波岐原森林公園","context":"日本","subtype":"large-park","subtypeLabel":"大型都市公園・広域公園","statusLabel":"","aliases":[],"osmType":"way","osmId":510486001,"osmDate":null,"officialAreaKm2":null,"areaSourceLabel":"","areaSourceUrl":"","boundarySourceLabel":"© OpenStreetMap contributors","boundarySourceUrl":"https://www.openstreetmap.org/copyright","geometryFile":"attractions/large-park-W510486001.geojson"},"geometry":{"type":"Polygon","coordinates":[[[131.4671735,31.9345323],[131.4666175,31.9345229],[131.4654266,31.9337489],[131.4644288,31.9330296],[131.4635597,31.9301705],[131.4628087,31.927448],[131.4616111,31.9276733],[131.4612669,31.926506],[131.4612772,31.9255726],[131.4610181,31.9249658],[131.4608493,31.9245748],[131.4607595,31.924056],[131.4607919,31.9240278],[131.4602112,31.9221383],[131.4602833,31.922136],[131.4596652,31.9209599],[131.4599095,31.920378],[131.4583409,31.9173686],[131.4582905,31.917209],[131.4581514,31.9169402],[131.4580836,31.9168677],[131.4578181,31.9163611],[131.459519,31.9160218],[131.4595766,31.9160402],[131.4596141,31.9160865],[131.4598633,31.9160367],[131.460009,31.9161737],[131.4600944,31.9161398],[131.4606773,31.9163894],[131.4619283,31.918098],[131.4622146,31.9192545],[131.4622842,31.9195352],[131.4625568,31.9207001],[131.4630452,31.9217036],[131.463104,31.9217811],[131.4633043,31.9220449],[131.463638,31.9231276],[131.4636863,31.9232846],[131.4636622,31.9233694],[131.4637383,31.9234747],[131.4638004,31.9236063],[131.4640007,31.9238133],[131.4641503,31.9239991],[131.464284,31.9241338],[131.4643039,31.9242052],[131.4643322,31.9242973],[131.4644056,31.9243828],[131.4645129,31.9244438],[131.4645776,31.9244533],[131.464642,31.9244738],[131.4647091,31.9245343],[131.4647703,31.9245511],[131.4648782,31.924545],[131.4663248,31.9244637],[131.4664059,31.9247961],[131.4664127,31.924896],[131.4664158,31.9249419],[131.4664559,31.9250006],[131.4668151,31.9264717],[131.4669802,31.9269757],[131.4669983,31.9271747],[131.4669947,31.9272631],[131.4668904,31.9277072],[131.4668965,31.9279374],[131.4670385,31.9284039],[131.4673142,31.929249],[131.467964,31.9325242],[131.4681678,31.9335987],[131.467723,31.933701],[131.4672075,31.9338673],[131.4671735,31.9345323]]]}}
