{"type":"Feature","id":"attraction-large-park-W961715388","properties":{"id":"attraction-large-park-W961715388","kind":"attraction","name":"セイホクパーク石巻","shortName":"セイホクパーク石巻","context":"宮城県・石巻市","subtype":"large-park","subtypeLabel":"大型都市公園・広域公園","statusLabel":"著名な公園","aliases":["Seihoku Park Ishinomaki"],"osmType":"way","osmId":961715388,"osmDate":null,"officialAreaKm2":null,"areaSourceLabel":"","areaSourceUrl":"","boundarySourceLabel":"© OpenStreetMap contributors","boundarySourceUrl":"https://www.openstreetmap.org/copyright","geometryFile":"attractions/large-park-W961715388.geojson"},"geometry":{"type":"Polygon","coordinates":[[[141.3087326,38.4540533],[141.3079715,38.4542653],[141.3075293,38.4543645],[141.3045576,38.4550317],[141.3023329,38.4555311],[141.3022964,38.4555245],[141.3020411,38.4554781],[141.3019942,38.4554697],[141.3018461,38.4553473],[141.3018849,38.4552712],[141.3016156,38.4543705],[141.3012546,38.4536209],[141.3011671,38.4534391],[141.3016277,38.4532825],[141.3018702,38.4528269],[141.3018823,38.4525041],[141.3016749,38.4525362],[141.301425,38.4526543],[141.3013486,38.4527097],[141.3008906,38.4529323],[141.3006126,38.4524059],[141.3009637,38.4522194],[141.3008243,38.4520865],[141.300897,38.4519678],[141.300794,38.4518397],[141.3017576,38.4518966],[141.3028102,38.4519747],[141.3038906,38.4519946],[141.3039669,38.4528977],[141.3044303,38.4528553],[141.3047513,38.4536622],[141.3079438,38.4530163],[141.3086406,38.4538685],[141.3087326,38.4540533]]]}}
