{"type":"Feature","id":"attraction-large-large-port-W1539648754","properties":{"id":"attraction-large-large-port-W1539648754","kind":"attraction","name":"釧東漁港（千代ノ浦地区）","shortName":"釧東漁港（千代ノ浦地区）","context":"日本","subtype":"large-port","subtypeLabel":"港湾・埠頭","statusLabel":"","aliases":["Sento Fishing Port (Chiyonoura)","北海道"],"osmType":"way","osmId":1539648754,"osmDate":null,"officialAreaKm2":null,"areaSourceLabel":"","areaSourceUrl":"","boundarySourceLabel":"© OpenStreetMap contributors","boundarySourceUrl":"https://www.openstreetmap.org/copyright","geometryFile":"attractions/large-large-port-W1539648754.geojson"},"geometry":{"type":"Polygon","coordinates":[[[144.3900867,42.968349],[144.3896547,42.9678715],[144.3898838,42.9677583],[144.3900763,42.9676716],[144.3888317,42.9662802],[144.3887338,42.9662284],[144.3886377,42.9662246],[144.3885632,42.966237],[144.3881302,42.9664472],[144.3879402,42.9665835],[144.3869061,42.9658831],[144.3868922,42.9658853],[144.3868746,42.9658168],[144.390619,42.9652311],[144.3918373,42.9656194],[144.393074,42.9652271],[144.3937744,42.9660203],[144.3938172,42.9660426],[144.3941458,42.9662488],[144.3933785,42.9670767],[144.3931039,42.9669724],[144.3900867,42.968349]]]}}
