{"type":"Feature","id":"attraction-large-park-R10476976","properties":{"id":"attraction-large-park-R10476976","kind":"attraction","name":"三峰川水系県立自然公園","shortName":"三峰川水系県立自然公園","context":"日本","subtype":"large-park","subtypeLabel":"大型都市公園・広域公園","statusLabel":"","aliases":[],"osmType":"relation","osmId":10476976,"osmDate":null,"officialAreaKm2":null,"areaSourceLabel":"","areaSourceUrl":"","boundarySourceLabel":"© OpenStreetMap contributors","boundarySourceUrl":"https://www.openstreetmap.org/copyright","geometryFile":"attractions/large-park-R10476976.geojson"},"geometry":{"type":"Polygon","coordinates":[[[138.080122,35.797825],[138.08009,35.798138],[138.079933,35.79866],[138.07985,35.798947],[138.079781,35.799139],[138.079712,35.799263],[138.079636,35.799358],[138.0794043,35.7995398],[138.07927,35.799741],[138.079229,35.799859],[138.079208,35.800062],[138.079035,35.800541],[138.078876,35.801171],[138.078849,35.801385],[138.0788,35.801486],[138.078738,35.801543],[138.078641,35.801588],[138.078448,35.801638],[138.078199,35.801666],[138.078103,35.801694],[138.078054,35.801728],[138.078035,35.801787],[138.078034,35.80179],[138.07804,35.801858],[138.078096,35.801937],[138.078186,35.801999],[138.078483,35.802123],[138.078531,35.802134],[138.078717,35.802213],[138.078842,35.802303],[138.078911,35.802398],[138.078945,35.802534],[138.078945,35.802821],[138.078855,35.803299],[138.078785,35.803626],[138.078751,35.803699],[138.078675,35.803778],[138.078503,35.803908],[138.078393,35.804003],[138.078413,35.804093],[138.0785426,35.8041866],[138.0786,35.804228],[138.07869,35.804307],[138.078737,35.804403],[138.07873,35.804498],[138.078647,35.804667],[138.0785385,35.8048438],[138.078461,35.80497],[138.078399,35.805117],[138.078337,35.805353],[138.078309,35.805483],[138.078267,35.805815],[138.078165,35.806424],[138.07806,35.806935],[138.077936,35.807375],[138.077943,35.80751],[138.077945,35.8075142],[138.077998,35.807629],[138.078178,35.807927],[138.078247,35.808074],[138.078288,35.808209],[138.078315,35.80836],[138.078315,35.80863],[138.078274,35.808828],[138.078205,35.809003],[138.078129,35.809132],[138.0778803,35.8094774],[138.077756,35.80965],[138.077687,35.809841],[138.077676,35.809918],[138.077611,35.810382],[138.077528,35.810691],[138.077521,35.811181],[138.0775,35.811356],[138.07746,35.811587],[138.077452,35.811778],[138.077397,35.811953],[138.077307,35.812161],[138.07728,35.812279],[138.07728,35.812487],[138.077383,35.812769],[138.077473,35.812943],[138.077493,35.813011],[138.077493,35.813219],[138.077473,35.813304],[138.07748,35.813523],[138.077534,35.813718],[138.0775528,35.8138478],[138.077674,35.814008],[138.0777231,35.8139377],[138.0778022,35.813875],[138.0780362,35.8137656],[138.0783681,35.8137004],[138.0786707,35.8136436],[138.0787774,35.8136236],[138.0815637,35.8133944],[138.0821302,35.8126808],[138.0819081,35.8120258],[138.0818991,35.8109451],[138.0819578,35.8106559],[138.0824362,35.8105352],[138.0824272,35.8102789],[138.0827584,35.8102164],[138.0825877,35.8099778],[138.0826017,35.8099252],[138.0831594,35.8099235],[138.0831545,35.8100421],[138.0831722,35.8101941],[138.0835106,35.8101909],[138.0840436,35.810002],[138.0840767,35.8093808],[138.0834131,35.8092743],[138.0831645,35.809779],[138.0831537,35.8098318],[138.0830527,35.8098356],[138.0824994,35.8098594],[138.0824853,35.8097102],[138.0820753,35.8095705],[138.081872,35.8095204],[138.0818975,35.8093809],[138.0818462,35.809325],[138.0817253,35.8092872],[138.0816702,35.8092522],[138.0816512,35.8091771],[138.081675,35.8090474],[138.0815386,35.8081381],[138.0815614,35.8080795],[138.0815945,35.807919],[138.0816868,35.8076608],[138.0821648,35.807423],[138.0821838,35.8073543],[138.0821262,35.8072764],[138.0819484,35.807112],[138.0818873,35.8070367],[138.0816977,35.8066057],[138.0816138,35.8063778],[138.0816341,35.8061864],[138.0817156,35.8060691],[138.0818814,35.8059773],[138.0819978,35.8058615],[138.0820032,35.8058242],[138.0817642,35.8057049],[138.0817073,35.8052619],[138.0822309,35.804389],[138.0824453,35.8042206],[138.0827702,35.8038765],[138.0829643,35.8038233],[138.0832105,35.8037445],[138.083403,35.8037634],[138.0837147,35.8034147],[138.0838571,35.8031006],[138.0834184,35.8030266],[138.0834668,35.8030254],[138.0838064,35.8025813],[138.0841542,35.8023374],[138.0843999,35.801992],[138.0846067,35.8017122],[138.0847041,35.8015649],[138.0848519,35.8009808],[138.0849651,35.8004408],[138.085061,35.7999269],[138.0850788,35.7997141],[138.0851036,35.7992979],[138.0851493,35.7992544],[138.0852255,35.7985829],[138.0852302,35.7983721],[138.0851377,35.7983386],[138.0850764,35.7982786],[138.0850495,35.798221],[138.0850622,35.7978732],[138.0850238,35.7975474],[138.0850655,35.7972233],[138.0850924,35.797046],[138.0850868,35.7969934],[138.085096,35.7968933],[138.0850452,35.7968695],[138.0848488,35.7964815],[138.0847834,35.7964558],[138.0847134,35.7962819],[138.0848398,35.7961154],[138.084736,35.795947],[138.0847292,35.7957639],[138.0845735,35.7956852],[138.0848917,35.7953776],[138.0847676,35.7945319],[138.0845006,35.7947359],[138.0839303,35.794953],[138.0836311,35.795319],[138.0833543,35.7954039],[138.083074,35.795214],[138.0831456,35.7949989],[138.0830976,35.7949099],[138.0828781,35.794839],[138.0823616,35.7950931],[138.0822333,35.7950929],[138.0821203,35.7950327],[138.0819353,35.7948793],[138.0819538,35.7947895],[138.082118,35.7945521],[138.0820887,35.7943434],[138.0820638,35.7941512],[138.0817185,35.7933841],[138.0816757,35.7932121],[138.0817235,35.7930916],[138.0817795,35.7929503],[138.0819256,35.7925312],[138.0820657,35.7924268],[138.0821344,35.7922848],[138.0822884,35.792187],[138.0824516,35.7921315],[138.0827522,35.7921441],[138.0827366,35.791959],[138.0827815,35.7919123],[138.082838,35.7918263],[138.0828853,35.7917695],[138.0829869,35.7917384],[138.0830072,35.7915974],[138.0831359,35.7915755],[138.0836414,35.7913137],[138.0838152,35.7911178],[138.0839262,35.791063],[138.0841422,35.7909738],[138.0842326,35.7910087],[138.0843271,35.7908937],[138.0844313,35.790795],[138.0845292,35.7907245],[138.084787,35.7905469],[138.0848513,35.7905036],[138.0849199,35.7904548],[138.0849663,35.7904188],[138.0850293,35.7903517],[138.0850745,35.7902808],[138.085123,35.7901829],[138.0851892,35.7900419],[138.0853115,35.7897916],[138.0853819,35.7896515],[138.0854567,35.7895517],[138.0854929,35.789512],[138.0855728,35.7894334],[138.0857518,35.7893007],[138.085835,35.7892323],[138.0858919,35.7891691],[138.0860129,35.7889836],[138.0860783,35.7889029],[138.0861577,35.7888222],[138.0862763,35.7887146],[138.0864012,35.788586],[138.086505,35.7884449],[138.0866174,35.7882739],[138.0866665,35.7881814],[138.086694,35.7881123],[138.0867277,35.7879838],[138.0867814,35.7877775],[138.0868474,35.7875971],[138.086958,35.7873452],[138.0869779,35.7871662],[138.086971,35.7868368],[138.0869596,35.7865113],[138.0869398,35.7860696],[138.0869177,35.7859414],[138.0868544,35.7857569],[138.0866793,35.7853232],[138.0865324,35.7849621],[138.0864405,35.7847238],[138.0863133,35.7844164],[138.0861707,35.784207],[138.085955,35.7839926],[138.0858401,35.7838421],[138.0857648,35.7837057],[138.0857309,35.7835921],[138.0857389,35.7834848],[138.0857857,35.7833622],[138.0858697,35.7832165],[138.0860711,35.7829091],[138.0861244,35.7828043],[138.0861786,35.7826708],[138.0862095,35.7825296],[138.0862143,35.7823319],[138.0861907,35.7822114],[138.0860121,35.7817594],[138.0858686,35.7814965],[138.0857174,35.7812684],[138.08559,35.7810621],[138.085507,35.7808917],[138.0854015,35.7806261],[138.085308,35.780413],[138.085197,35.780238],[138.0850964,35.7801158],[138.084748,35.77963],[138.084513,35.779343],[138.084271,35.779096],[138.0841063,35.778958],[138.0839479,35.7788475],[138.083884,35.778803],[138.0836566,35.7786619],[138.0834368,35.778551],[138.083032,35.7783759],[138.0826316,35.7782101],[138.081867,35.777857],[138.0817897,35.7778141],[138.0816615,35.7777476],[138.0815836,35.7777076],[138.0812903,35.7775257],[138.0810301,35.7773392],[138.0808119,35.7771461],[138.0806325,35.7769476],[138.0805726,35.7768695],[138.0805104,35.7767876],[138.0804083,35.7766106],[138.0802921,35.7764167],[138.0801502,35.7761691],[138.0800763,35.7760371],[138.0800294,35.7759216],[138.0800059,35.7758284],[138.0799934,35.7757176],[138.0800057,35.7755313],[138.0800963,35.7751751],[138.0800997,35.7749657],[138.080066,35.774766],[138.080003,35.774626],[138.079886,35.77444],[138.079658,35.77417],[138.079313,35.773742],[138.0788159,35.773173],[138.078387,35.772689],[138.078187,35.772464],[138.0781729,35.7724501],[138.077924,35.772205],[138.0775213,35.7718718],[138.0771187,35.7715603],[138.0769247,35.7714101],[138.0760135,35.7706805],[138.0745136,35.7694393],[138.0744156,35.7692966],[138.0743036,35.7690287],[138.0742861,35.7689831],[138.0742371,35.7688554],[138.0742051,35.7687762],[138.0741519,35.7687599],[138.0739777,35.7681283],[138.073896,35.7679527],[138.0735193,35.7678896],[138.07342,35.7680737],[138.0733591,35.7682037],[138.0731797,35.768623],[138.0730014,35.7689993],[138.0730274,35.7691797],[138.0731492,35.7695624],[138.0733128,35.7698481],[138.0737766,35.7703388],[138.0742009,35.7706355],[138.0747753,35.7710722],[138.0753113,35.7715593],[138.0755844,35.7720592],[138.0760493,35.7726149],[138.0765052,35.7731313],[138.0766778,35.7735121],[138.0768155,35.7737117],[138.0770796,35.7740367],[138.0772522,35.7742116],[138.0773481,35.7743425],[138.0774136,35.7745137],[138.0774057,35.7747133],[138.0773391,35.7751757],[138.0773233,35.7755254],[138.0773402,35.7757671],[138.0774012,35.7759621],[138.0775242,35.7762331],[138.0776968,35.7765819],[138.0777589,35.7767366],[138.077892,35.7772044],[138.0780489,35.7776448],[138.0781922,35.7780018],[138.0782983,35.7782188],[138.0782509,35.7785877],[138.0783671,35.778661],[138.0785555,35.7789182],[138.0788807,35.7788926],[138.0793703,35.7792029],[138.0796862,35.7795883],[138.0798382,35.7797878],[138.0798902,35.779838],[138.0799223,35.7799077],[138.0800038,35.7800544],[138.0800876,35.7801877],[138.0801402,35.7803474],[138.0802486,35.780507],[138.0804223,35.7806298],[138.0805693,35.7808402],[138.0806931,35.7810056],[138.0807157,35.7810763],[138.0808314,35.7813097],[138.0808214,35.7814657],[138.0807967,35.7815321],[138.0808071,35.7817015],[138.0807543,35.7818231],[138.0806383,35.7818378],[138.0805553,35.7820122],[138.0803689,35.7822881],[138.0803411,35.7823669],[138.0803395,35.7823765],[138.0803143,35.7825259],[138.0803136,35.78253],[138.080355,35.7827778],[138.0803206,35.7830819],[138.0802858,35.7832003],[138.0802583,35.7833917],[138.0801686,35.7835775],[138.0801408,35.7837239],[138.0800511,35.7840561],[138.0800097,35.7841628],[138.079975,35.7843822],[138.0799614,35.7848439],[138.0799958,35.7850131],[138.0800442,35.7851536],[138.080127,35.7852944],[138.0802031,35.7853564],[138.0803894,35.7854464],[138.0804447,35.7855478],[138.0804451,35.7855549],[138.0804586,35.7857675],[138.0804692,35.785785],[138.0805414,35.7859025],[138.0805483,35.7859308],[138.0805347,35.7860433],[138.0804517,35.7862178],[138.0803136,35.7864261],[138.0802375,35.7865614],[138.0801892,35.7867244],[138.0801756,35.7868703],[138.0802208,35.7871397],[138.0802375,35.7872817],[138.0802583,35.7874169],[138.0802789,35.7876758],[138.0803467,35.7879973],[138.0803478,35.7880025],[138.0803547,35.7882389],[138.0803272,35.7883853],[138.0802097,35.7887233],[138.080175,35.7887908],[138.08012,35.7890556],[138.0800922,35.7891339],[138.0800439,35.7894831],[138.0800164,35.7897083],[138.0800094,35.7900406],[138.0800386,35.7902242],[138.08003,35.7905078],[138.0799542,35.7906092],[138.0798022,35.7907614],[138.0796847,35.7909019],[138.0796503,35.7909697],[138.0796295,35.7910483],[138.0796225,35.7912061],[138.0795328,35.7913525],[138.0793461,35.791555],[138.0791872,35.79178],[138.0792428,35.7919108],[138.0791507,35.7921117],[138.0789291,35.7925009],[138.0787136,35.792821],[138.078524,35.7935342],[138.0785115,35.7937795],[138.0785397,35.794002],[138.0785712,35.794209],[138.0787583,35.794778],[138.0787528,35.7952123],[138.0787519,35.7952806],[138.0788963,35.7958609],[138.078929,35.795947],[138.079415,35.796165],[138.07969,35.796423],[138.079817,35.796587],[138.080122,35.797825]]]}}
