{"type":"Feature","id":"attraction-large-park-W32336179","properties":{"id":"attraction-large-park-W32336179","kind":"attraction","name":"大和ゆとりの森","shortName":"大和ゆとりの森","context":"日本","subtype":"large-park","subtypeLabel":"大型都市公園・広域公園","statusLabel":"著名な公園","aliases":[],"osmType":"way","osmId":32336179,"osmDate":null,"officialAreaKm2":null,"areaSourceLabel":"","areaSourceUrl":"","boundarySourceLabel":"© OpenStreetMap contributors","boundarySourceUrl":"https://www.openstreetmap.org/copyright","geometryFile":"attractions/large-park-W32336179.geojson"},"geometry":{"type":"Polygon","coordinates":[[[139.4494224,35.4395883],[139.4494229,35.4395986],[139.4494248,35.4396384],[139.4494263,35.439669],[139.4494314,35.4397736],[139.4503035,35.4397416],[139.4506275,35.4397372],[139.4515528,35.4397135],[139.4519712,35.4396811],[139.4526686,35.4395911],[139.4526046,35.4389876],[139.4525462,35.4384971],[139.4524855,35.4380914],[139.4523643,35.4372254],[139.4523607,35.4371971],[139.4521542,35.4357824],[139.4521249,35.4354484],[139.4515248,35.4354486],[139.4515267,35.4357149],[139.4513864,35.4357147],[139.4513199,35.4356817],[139.4511305,35.4356353],[139.4510683,35.4355208],[139.4510982,35.4353113],[139.4516163,35.4353103],[139.4515498,35.4350596],[139.451544,35.4347592],[139.451879,35.4347348],[139.4518888,35.4345815],[139.4519367,35.4345809],[139.4519319,35.4346482],[139.4530868,35.4347191],[139.4531707,35.4346715],[139.4533522,35.4346892],[139.4533645,35.4348411],[139.4533036,35.4348952],[139.4533,35.4349419],[139.4533156,35.4349733],[139.4533675,35.4349929],[139.4534189,35.4349915],[139.453452,35.4349668],[139.4534713,35.4349209],[139.4535582,35.4341276],[139.4535325,35.4340766],[139.4534949,35.4340589],[139.4527972,35.4340224],[139.45072,35.4339136],[139.450089,35.4338237],[139.449796,35.4338124],[139.4496016,35.4338248],[139.4495906,35.4344377],[139.4496388,35.4345671],[139.4497405,35.4353837],[139.4497073,35.4354122],[139.4496982,35.4355543],[139.4496288,35.4363659],[139.4496323,35.4364761],[139.4496747,35.4365906],[139.4496494,35.4370517],[139.4494927,35.4380417],[139.4495263,35.4388361],[139.4494181,35.4394263],[139.4494224,35.4395883]]]}}
