{"type":"Feature","id":"attraction-large-park-W186584307","properties":{"id":"attraction-large-park-W186584307","kind":"attraction","name":"そうか公園","shortName":"そうか公園","context":"日本","subtype":"large-park","subtypeLabel":"大型都市公園・広域公園","statusLabel":"著名な公園","aliases":[],"osmType":"way","osmId":186584307,"osmDate":null,"officialAreaKm2":null,"areaSourceLabel":"","areaSourceUrl":"","boundarySourceLabel":"© OpenStreetMap contributors","boundarySourceUrl":"https://www.openstreetmap.org/copyright","geometryFile":"attractions/large-park-W186584307.geojson"},"geometry":{"type":"Polygon","coordinates":[[[139.8234161,35.8630719],[139.8289176,35.8638488],[139.8295664,35.8608338],[139.8296329,35.8604466],[139.8296884,35.8598549],[139.8264516,35.8593937],[139.8251503,35.8608608],[139.8249172,35.8613949],[139.8243646,35.8620123],[139.8234161,35.8630719]]]}}
