{"type":"Feature","id":"attraction-large-park-W456314269","properties":{"id":"attraction-large-park-W456314269","kind":"attraction","name":"奈良公園","shortName":"奈良公園","context":"日本","subtype":"large-park","subtypeLabel":"大型都市公園・広域公園","statusLabel":"","aliases":["Nara Park"],"osmType":"way","osmId":456314269,"osmDate":null,"officialAreaKm2":null,"areaSourceLabel":"","areaSourceUrl":"","boundarySourceLabel":"© OpenStreetMap contributors","boundarySourceUrl":"https://www.openstreetmap.org/copyright","geometryFile":"attractions/large-park-W456314269.geojson"},"geometry":{"type":"Polygon","coordinates":[[[135.8526689,34.6759189],[135.8517301,34.6759508],[135.8502442,34.6765376],[135.8484256,34.6775919],[135.847165,34.6776548],[135.8457059,34.6781335],[135.8448475,34.6781357],[135.8441663,34.6787731],[135.8435628,34.6784643],[135.8426133,34.6785514],[135.8425194,34.6781566],[135.8422941,34.6781478],[135.8424014,34.6786728],[135.8417925,34.6788536],[135.8408993,34.6789485],[135.8408591,34.6790555],[135.8402985,34.6791834],[135.8402562,34.678784],[135.8399477,34.6790001],[135.8400777,34.6795191],[135.8399545,34.6795197],[135.8397017,34.6795363],[135.8394895,34.679539],[135.8392059,34.679518],[135.8388957,34.6794503],[135.8387523,34.6794525],[135.8386212,34.6794615],[135.838305,34.6795076],[135.8381078,34.6795567],[135.837947,34.6796074],[135.8379234,34.6796312],[135.8379154,34.6796687],[135.8379328,34.6797916],[135.8378631,34.6797982],[135.8378282,34.6798021],[135.8372989,34.6799319],[135.8370522,34.6800001],[135.8368562,34.6800471],[135.8367648,34.6800433],[135.8365731,34.6800591],[135.836356,34.6800591],[135.8361707,34.6800433],[135.8360831,34.6800766],[135.8360662,34.6801322],[135.836072,34.6803268],[135.836077,34.6804988],[135.8360843,34.6805566],[135.8361724,34.6810354],[135.8356905,34.6811205],[135.8354712,34.6811702],[135.8349073,34.6812959],[135.8348798,34.6813257],[135.8348711,34.6813621],[135.8348269,34.6819663],[135.8348204,34.682118],[135.8348194,34.6821421],[135.8318233,34.6821235],[135.8318269,34.6819509],[135.8318205,34.6816835],[135.8318406,34.6812666],[135.8318402,34.6808299],[135.8305065,34.6808807],[135.8303184,34.6809459],[135.8302537,34.6809893],[135.8301833,34.6810736],[135.8301725,34.6811172],[135.830178,34.6815187],[135.8302614,34.6815073],[135.8302785,34.6819465],[135.8303428,34.682032],[135.8303602,34.6821389],[135.8291505,34.6821405],[135.8291284,34.6823986],[135.829811,34.6824014],[135.8298177,34.6832069],[135.8297103,34.6832059],[135.8297191,34.6836568],[135.8298599,34.6836563],[135.8298559,34.6839607],[135.8302341,34.6839618],[135.8302327,34.6842998],[135.8305926,34.6842998],[135.8317195,34.6842999],[135.8319105,34.6842943],[135.8329788,34.6842917],[135.8331914,34.6842675],[135.8345905,34.6842547],[135.8346666,34.6841913],[135.8348188,34.6841902],[135.8348271,34.6845966],[135.8348091,34.6846421],[135.834804,34.6847212],[135.8347933,34.6851623],[135.834788,34.6856685],[135.8347839,34.6860423],[135.834782,34.6862767],[135.8350253,34.6862783],[135.8350602,34.6862612],[135.8350617,34.685786],[135.8350809,34.6856751],[135.8356397,34.6856888],[135.8362364,34.6856832],[135.8364173,34.6856805],[135.8364897,34.6857043],[135.8366059,34.6857092],[135.836608,34.6857478],[135.8366229,34.6858846],[135.8369978,34.6858863],[135.8369999,34.686125],[135.8372984,34.6861139],[135.8373,34.6859864],[135.8377532,34.685934],[135.8377529,34.6857825],[135.8384626,34.6857881],[135.8384278,34.6866135],[135.8384243,34.6866974],[135.8381092,34.6866963],[135.837234,34.6867348],[135.8372287,34.6879644],[135.8370838,34.6881166],[135.8366533,34.688014],[135.8364361,34.6881056],[135.8363114,34.6879412],[135.8359493,34.6880383],[135.8356596,34.6882235],[135.8351285,34.6882588],[135.8351244,34.6892623],[135.835968,34.6893406],[135.8367888,34.6894068],[135.8367879,34.6894509],[135.8367673,34.6904169],[135.8367567,34.6915762],[135.8367673,34.6926233],[135.8368318,34.6926361],[135.8369324,34.6927033],[135.8370812,34.6927435],[135.8372301,34.6927491],[135.8376927,34.6927138],[135.8386998,34.6926244],[135.838893,34.6925196],[135.8393112,34.6924416],[135.8395514,34.6924227],[135.8396585,34.6923964],[135.8397205,34.6923207],[135.8400005,34.6924289],[135.8405667,34.6926173],[135.8406713,34.6927871],[135.8411729,34.6926769],[135.8405828,34.6915499],[135.8415296,34.6914452],[135.8415377,34.6909743],[135.8424577,34.6909787],[135.8424765,34.6902068],[135.8419588,34.690187],[135.8419641,34.6897823],[135.8421577,34.6898416],[135.8423562,34.6898857],[135.8424672,34.6898799],[135.8427545,34.6898438],[135.8428574,34.6898363],[135.8432762,34.6898879],[135.8434247,34.6899091],[135.8438532,34.6902311],[135.8441097,34.6902771],[135.8444868,34.6904814],[135.8450964,34.690541],[135.8452661,34.6906033],[135.8457019,34.6908139],[135.8457891,34.6908767],[135.8461284,34.6909765],[135.8472884,34.6911243],[135.848018,34.6911551],[135.8496219,34.690917],[135.8508933,34.6910162],[135.8516121,34.6912456],[135.8532,34.6921365],[135.8533073,34.6924938],[135.8536184,34.6927232],[135.8539939,34.6926658],[135.8544231,34.6927188],[135.8552921,34.6918984],[135.8557481,34.69125],[135.8563006,34.6912191],[135.8567137,34.6911397],[135.8572501,34.6908265],[135.8573681,34.6905751],[135.8576095,34.6905641],[135.8649373,34.6921035],[135.8682418,34.6904097],[135.8718896,34.6903215],[135.873338,34.6914948],[135.8743787,34.6915477],[135.8747381,34.6919403],[135.8753819,34.6918498],[135.878343,34.6916734],[135.8793193,34.6914617],[135.8808428,34.6914529],[135.8818192,34.6903237],[135.8815295,34.6902355],[135.8812827,34.6899179],[135.8814115,34.6893974],[135.8807248,34.6887975],[135.8810681,34.6870287],[135.8806497,34.6860319],[135.880521,34.6850923],[135.8800382,34.6841792],[135.8792228,34.6825956],[135.8793569,34.6814133],[135.8798826,34.6806193],[135.8796519,34.67979],[135.8799416,34.6787974],[135.8796305,34.6774629],[135.8760631,34.6762045],[135.8727533,34.6760126],[135.8707524,34.674388],[135.8679414,34.6737174],[135.8663374,34.673338],[135.8634836,34.6738674],[135.8616168,34.6747762],[135.8595997,34.6747939],[135.8559841,34.6751821],[135.8535701,34.6757953],[135.8526689,34.6759189]]]}}
