{"type":"Feature","id":"attraction-large-industrial-complex-W614842377","properties":{"id":"attraction-large-industrial-complex-W614842377","kind":"attraction","name":"東ソー株式会社","shortName":"東ソー株式会社","context":"日本","subtype":"industrial-complex","subtypeLabel":"工業地帯・大規模工場","statusLabel":"同名の分割区域2区画","aliases":["Tosoh Corporation"],"osmType":"way","osmId":614842377,"osmDate":null,"officialAreaKm2":null,"areaSourceLabel":"","areaSourceUrl":"","boundarySourceLabel":"© OpenStreetMap contributors","boundarySourceUrl":"https://www.openstreetmap.org/copyright","geometryFile":"attractions/large-industrial-complex-W614842377.geojson"},"geometry":{"type":"MultiPolygon","coordinates":[[[[136.6602096,34.9885329],[136.6580091,34.9896381],[136.6544556,34.9912497],[136.6537441,34.9902067],[136.6532868,34.9903781],[136.6525693,34.9892992],[136.6535456,34.9888663],[136.6566771,34.9874116],[136.6556297,34.9859019],[136.6530494,34.9870512],[136.6533364,34.987461],[136.6522395,34.9879566],[136.6516327,34.9847055],[136.6536628,34.9837917],[136.6533325,34.9832941],[136.6557142,34.9822155],[136.6520577,34.9768224],[136.6553618,34.975369],[136.658214,34.974718],[136.6603051,34.9777361],[136.6629052,34.9815837],[136.6662129,34.9800567],[136.6693102,34.9786474],[136.6709572,34.9811244],[136.6682857,34.9823924],[136.6663974,34.9801464],[136.6661878,34.9802453],[136.6625864,34.9819246],[136.6639352,34.9839263],[136.6633451,34.9841813],[136.6639885,34.9850719],[136.6631359,34.985469],[136.662991,34.985269],[136.662297,34.9855943],[136.6618323,34.9849284],[136.6587827,34.9862953],[136.6595712,34.987594],[136.6597161,34.9876929],[136.6598716,34.9878928],[136.6599253,34.9880467],[136.6602096,34.9885329]]],[[[131.7485999,34.0598661],[131.7484733,34.056495],[131.748417,34.0564261],[131.7468989,34.0571261],[131.7458421,34.0580594],[131.7405152,34.0539394],[131.7438197,34.0514394],[131.7436588,34.051246],[131.74364,34.051106],[131.743699,34.0508216],[131.7437902,34.0506727],[131.744155,34.0502549],[131.7469525,34.047987],[131.7480254,34.0480903],[131.7485189,34.047957],[131.7491144,34.0480459],[131.7498225,34.0480414],[131.750021,34.0472013],[131.7503428,34.0470991],[131.7581462,34.0486445],[131.7577908,34.0498738],[131.7581691,34.0503652],[131.7587047,34.0508072],[131.7590155,34.0515504],[131.759611,34.053802],[131.759611,34.054843],[131.759748,34.05484],[131.75972,34.055014],[131.759788,34.055014],[131.759778,34.055561],[131.759625,34.055564],[131.759623,34.055736],[131.759791,34.055734],[131.759788,34.055954],[131.759619,34.055956],[131.759621,34.056468],[131.762492,34.05643],[131.763311,34.056425],[131.7635341,34.0564236],[131.763532,34.057024],[131.763362,34.057027],[131.763362,34.057128],[131.763549,34.057128],[131.763547,34.057677],[131.763547,34.058818],[131.764282,34.058812],[131.764279,34.058869],[131.764363,34.058869],[131.764366,34.058939],[131.764624,34.058937],[131.764624,34.058799],[131.764884,34.058796],[131.764887,34.058938],[131.765211,34.058936],[131.765211,34.058798],[131.765089,34.058798],[131.765122,34.058282],[131.765284,34.058287],[131.765278,34.057471],[131.764947,34.057466],[131.764947,34.056477],[131.765274,34.056474],[131.76529,34.053618],[131.765336,34.053618],[131.765676,34.053618],[131.765674,34.053401],[131.767226,34.0534],[131.767226,34.053584],[131.772052,34.053587],[131.772045,34.056738],[131.772041,34.057154],[131.771824,34.057351],[131.77114,34.057353],[131.7711394,34.0580106],[131.771574,34.058053],[131.771931,34.058049],[131.771928,34.058111],[131.772009,34.058111],[131.7719998,34.0583449],[131.7711868,34.058296],[131.7696446,34.0582747],[131.7687077,34.0584325],[131.7684782,34.0584712],[131.76802,34.0586248],[131.7677174,34.0587681],[131.7676803,34.058861],[131.7676027,34.0601209],[131.767531,34.0615199],[131.7668586,34.061879],[131.7664745,34.0618706],[131.7662112,34.0618969],[131.7633092,34.0618625],[131.762736,34.0618225],[131.7626193,34.0619569],[131.762681,34.0622235],[131.7628714,34.062819],[131.7632765,34.0636367],[131.7631263,34.0637634],[131.7630686,34.0645233],[131.7630403,34.0652561],[131.7629428,34.0653041],[131.7628518,34.0653009],[131.7628388,34.0652359],[131.7627121,34.0652247],[131.7626731,34.0653117],[131.7626346,34.0653523],[131.7614134,34.0665742],[131.7611431,34.0667852],[131.7608206,34.0670369],[131.7600817,34.0669325],[131.7596948,34.0668756],[131.7592875,34.0667537],[131.7586015,34.0665298],[131.7583605,34.0664598],[131.7583305,34.0664334],[131.758289,34.0663944],[131.758372,34.065525],[131.75717,34.064324],[131.757012,34.064415],[131.756785,34.064185],[131.756927,34.064084],[131.7563323,34.0633872],[131.757935,34.0634084],[131.7579355,34.0632477],[131.7579251,34.0618214],[131.7574457,34.0618238],[131.7574336,34.0601705],[131.757913,34.0601681],[131.7579107,34.059847],[131.7562022,34.0598593],[131.7524598,34.0599198],[131.7525393,34.0624175],[131.7498379,34.0624593],[131.7497742,34.0598504],[131.7485999,34.0598661]]]]}}
