{"type":"Feature","id":"attraction-large-park-R10652742","properties":{"id":"attraction-large-park-R10652742","kind":"attraction","name":"多々良沼公園","shortName":"多々良沼公園","context":"日本","subtype":"large-park","subtypeLabel":"大型都市公園・広域公園","statusLabel":"","aliases":["Tataranuma Park"],"osmType":"relation","osmId":10652742,"osmDate":null,"officialAreaKm2":null,"areaSourceLabel":"","areaSourceUrl":"","boundarySourceLabel":"© OpenStreetMap contributors","boundarySourceUrl":"https://www.openstreetmap.org/copyright","geometryFile":"attractions/large-park-R10652742.geojson"},"geometry":{"type":"MultiPolygon","coordinates":[[[[139.5041423,36.2567956],[139.5047904,36.257341],[139.505111,36.2576157],[139.5053645,36.2577985],[139.5066157,36.2586074],[139.5068518,36.2587739],[139.5070597,36.2589469],[139.5071616,36.2590821],[139.5073131,36.259373],[139.5073989,36.2595893],[139.5075461,36.2597624],[139.5079635,36.2601732],[139.5086002,36.2608582],[139.5088093,36.2610674],[139.5090152,36.2612639],[139.5092483,36.2614752],[139.5097003,36.2618894],[139.5099256,36.2621802],[139.5102809,36.2626333],[139.510462,36.2628031],[139.510741,36.2630064],[139.511442,36.2633882],[139.5121029,36.2637271],[139.5124522,36.2639234],[139.5127694,36.2641527],[139.5127697,36.2642057],[139.5122403,36.2648276],[139.512124,36.2648474],[139.5116647,36.264656],[139.5115495,36.2645759],[139.5114134,36.2644555],[139.5110819,36.2640629],[139.5106598,36.2637397],[139.5102102,36.2634656],[139.5099518,36.263318],[139.5096287,36.2630733],[139.5093205,36.2628335],[139.5090043,36.2624609],[139.5089243,36.2623933],[139.5088491,36.2623475],[139.5087444,36.2623275],[139.5086667,36.2623201],[139.5085578,36.2623283],[139.5084003,36.262397],[139.5082685,36.2622452],[139.5073461,36.2613632],[139.5072913,36.2613078],[139.5064456,36.2604915],[139.5051761,36.2592827],[139.5046549,36.258818],[139.5024284,36.2580028],[139.5034263,36.2572568],[139.5034008,36.257233],[139.5040083,36.2567766],[139.5040344,36.2567999],[139.5041423,36.2567956]]],[[[139.4975295,36.2529607],[139.4983975,36.2529163],[139.4984789,36.2530661],[139.4986023,36.2530575],[139.4989055,36.2534602],[139.4991984,36.2535576],[139.4997129,36.2539668],[139.500219,36.2542636],[139.5006086,36.2544821],[139.5008007,36.2545798],[139.5011321,36.2544672],[139.5012979,36.2545602],[139.5015486,36.254719],[139.5026434,36.2556188],[139.5038976,36.2566053],[139.503897,36.2567058],[139.5039184,36.2567204],[139.5031426,36.2573103],[139.5031289,36.2572908],[139.5030623,36.2573379],[139.5029975,36.2573815],[139.5029552,36.2574138],[139.5025592,36.2577196],[139.5025854,36.25774],[139.5004185,36.2592746],[139.4994445,36.2599592],[139.4986412,36.2604642],[139.4985837,36.2604833],[139.4976239,36.2605349],[139.4975254,36.2605842],[139.4974814,36.2606634],[139.4973742,36.2608314],[139.4973261,36.2608727],[139.49724,36.2609156],[139.4969972,36.2610145],[139.4967165,36.2611071],[139.4959651,36.2613413],[139.4954413,36.2615078],[139.4946575,36.2617558],[139.4927712,36.2623447],[139.4908668,36.262927],[139.4898677,36.263239],[139.4892199,36.2634423],[139.4888122,36.2635627],[139.4884543,36.2636624],[139.4882818,36.2636953],[139.4879545,36.2637423],[139.487591,36.2637387],[139.4877427,36.2632174],[139.4877285,36.2631672],[139.4875353,36.2624665],[139.4871457,36.2611985],[139.4868661,36.2602886],[139.4867743,36.2601134],[139.4867871,36.2600961],[139.4868415,36.260083],[139.4869481,36.2599814],[139.4870137,36.2598507],[139.4870634,36.2598933],[139.4877137,36.259576],[139.4879887,36.2591845],[139.4880571,36.2592083],[139.488277,36.2589985],[139.4883252,36.2590136],[139.4886612,36.2589099],[139.4887772,36.2588103],[139.4888583,36.2588281],[139.4891407,36.2586589],[139.4892789,36.2584838],[139.489944,36.2580577],[139.4899977,36.2580214],[139.4897254,36.2572931],[139.4894477,36.2565177],[139.4894182,36.2564106],[139.4893876,36.2563073],[139.4894021,36.25586],[139.4893648,36.2558299],[139.4882408,36.2557726],[139.487978,36.255738],[139.487652,36.2556721],[139.4876091,36.2556007],[139.487853,36.255116],[139.487906,36.25498],[139.4879913,36.2547647],[139.4887171,36.2533988],[139.4889435,36.2529716],[139.4890119,36.2528721],[139.4890858,36.2527709],[139.489181,36.2527136],[139.4894639,36.2526201],[139.4898139,36.2524839],[139.489971,36.2523643],[139.4900875,36.2523043],[139.4902768,36.2522628],[139.4904944,36.2522119],[139.4909381,36.2521248],[139.4910661,36.252124],[139.4910864,36.2521471],[139.4911779,36.252156],[139.4915172,36.2522302],[139.4921567,36.2523696],[139.4924734,36.252422],[139.4926152,36.2524317],[139.4927475,36.2524352],[139.4928318,36.2524196],[139.4929068,36.2523975],[139.4930154,36.2523484],[139.4932206,36.2522556],[139.493384,36.2521739],[139.4935301,36.2520869],[139.4937735,36.2518772],[139.4938438,36.2518889],[139.4947515,36.252123],[139.4950859,36.2522353],[139.4958557,36.2525103],[139.4960435,36.2525752],[139.4965564,36.2527033],[139.4966906,36.252739],[139.4974047,36.2529493],[139.4975295,36.2529607]]]]}}
