{"type":"Feature","id":"attraction-large-park-W100228774","properties":{"id":"attraction-large-park-W100228774","kind":"attraction","name":"府民の森 ぬかた園地","shortName":"府民の森 ぬかた園地","context":"日本","subtype":"large-park","subtypeLabel":"大型都市公園・広域公園","statusLabel":"","aliases":[],"osmType":"way","osmId":100228774,"osmDate":null,"officialAreaKm2":null,"areaSourceLabel":"","areaSourceUrl":"","boundarySourceLabel":"© OpenStreetMap contributors","boundarySourceUrl":"https://www.openstreetmap.org/copyright","geometryFile":"attractions/large-park-W100228774.geojson"},"geometry":{"type":"Polygon","coordinates":[[[135.6781466,34.6837262],[135.6784283,34.6835233],[135.6785409,34.6832696],[135.6785637,34.6829901],[135.678557,34.6828015],[135.6785355,34.6826857],[135.6784604,34.6824155],[135.6784323,34.6823637],[135.6783599,34.6823163],[135.6782848,34.6823052],[135.6782418,34.682308],[135.6781587,34.6823262],[135.677987,34.6823565],[135.6778435,34.6823764],[135.6777161,34.6823775],[135.6775941,34.6823642],[135.6774908,34.6823345],[135.6774211,34.6823014],[135.6773299,34.6822595],[135.6772655,34.6822054],[135.6771877,34.6821271],[135.6771247,34.6820555],[135.6770724,34.6819452],[135.6770094,34.6817985],[135.6769396,34.681643],[135.6768645,34.6814754],[135.6767988,34.6813485],[135.6767546,34.6812592],[135.6767358,34.6812272],[135.67643,34.6809923],[135.6763214,34.6809107],[135.6762221,34.6808269],[135.676143,34.6807276],[135.6760599,34.6806196],[135.6760049,34.6805446],[135.6759888,34.6804718],[135.6759821,34.6804288],[135.6759955,34.6803654],[135.6760652,34.6802595],[135.6761336,34.6801724],[135.6761846,34.6800963],[135.6762355,34.6800235],[135.6764477,34.6797789],[135.6765604,34.6794922],[135.6765175,34.6791569],[135.6765175,34.678654],[135.6764126,34.6779766],[135.6761779,34.6775415],[135.6760357,34.6773452],[135.6756897,34.6769536],[135.6749669,34.67588],[135.6748797,34.6757322],[135.6748234,34.6756186],[135.6748113,34.6755061],[135.6749105,34.6752392],[135.6751425,34.6749613],[135.6752941,34.6748278],[135.6753544,34.6745554],[135.6753625,34.6742741],[135.6753571,34.6741561],[135.6753705,34.6739576],[135.6753759,34.6739256],[135.6754161,34.6738164],[135.675459,34.6737822],[135.6754792,34.673726],[135.6755073,34.6736036],[135.6754966,34.6735319],[135.675443,34.6734547],[135.6753719,34.6733951],[135.6751224,34.6732175],[135.6748757,34.6730642],[135.6747831,34.6729837],[135.6747335,34.6729043],[135.6747094,34.6727863],[135.6747147,34.672462],[135.6747308,34.6723523],[135.6746755,34.6723367],[135.6745283,34.6722582],[135.6744733,34.6720776],[135.674062,34.6719396],[135.6731398,34.671314],[135.6724362,34.6716304],[135.6715725,34.671873],[135.671138,34.6718598],[135.6709503,34.6716083],[135.670741,34.6712598],[135.6706043,34.6710249],[135.6704688,34.6710193],[135.670273,34.6710524],[135.6700732,34.6707999],[135.669754,34.6706973],[135.6695837,34.6706124],[135.6688769,34.6702065],[135.6686382,34.6701204],[135.6684236,34.6706631],[135.6683163,34.6711043],[135.6683592,34.6713282],[135.6685819,34.6714782],[135.6687991,34.671498],[135.6690217,34.6715444],[135.6692953,34.6716547],[135.6694321,34.6717352],[135.6693463,34.6718499],[135.6691746,34.6718741],[135.6690298,34.6719491],[135.6689332,34.6721212],[135.6688259,34.6723021],[135.6687482,34.6724543],[135.6687401,34.6727433],[135.6689413,34.6728977],[135.6690083,34.6729881],[135.6690083,34.6733786],[135.6689681,34.6736609],[135.6688474,34.6738363],[135.6686382,34.6738627],[135.6685685,34.6740282],[135.6686918,34.6742024],[135.6688447,34.6742995],[135.6689145,34.6744341],[135.6690083,34.6745642],[135.6690995,34.6746899],[135.6691076,34.6752668],[135.6693812,34.6756131],[135.6697862,34.6758259],[135.6702422,34.6760443],[135.6703682,34.6761678],[135.6705318,34.6773005],[135.6705721,34.6776181],[135.670336,34.6780328],[135.6703038,34.6785004],[135.6704648,34.6789328],[135.6709368,34.6790122],[135.6716449,34.6791269],[135.6721599,34.6790122],[135.6729968,34.6789063],[135.6733723,34.6788975],[135.6737156,34.6792239],[135.6741233,34.6793651],[135.6746383,34.6796121],[135.67481,34.6799297],[135.6748743,34.6806885],[135.6751533,34.6816413],[135.6751747,34.6825412],[135.6743593,34.6833617],[135.674531,34.6840058],[135.6738765,34.6845792],[135.673383,34.6849321],[135.6732006,34.6851075],[135.673096,34.6852398],[135.6730719,34.6854868],[135.6729592,34.6860448],[135.6728385,34.6864264],[135.6724979,34.6865366],[135.6720258,34.6865719],[135.6717683,34.6866028],[135.6716771,34.6866954],[135.6716637,34.6868564],[135.6717925,34.6869623],[135.672404,34.6870836],[135.6734715,34.6870152],[135.6738444,34.6867021],[135.6742708,34.6860955],[135.6750218,34.685628],[135.675569,34.6853809],[135.6760196,34.6849089],[135.6768189,34.6843399],[135.6774573,34.6839606],[135.6781466,34.6837262]]]}}
