{"type":"Feature","id":"attraction-large-park-W804756773","properties":{"id":"attraction-large-park-W804756773","kind":"attraction","name":"台原森林公園","shortName":"台原森林公園","context":"日本","subtype":"large-park","subtypeLabel":"大型都市公園・広域公園","statusLabel":"","aliases":["Dainohara Forest Park"],"osmType":"way","osmId":804756773,"osmDate":null,"officialAreaKm2":null,"areaSourceLabel":"","areaSourceUrl":"","boundarySourceLabel":"© OpenStreetMap contributors","boundarySourceUrl":"https://www.openstreetmap.org/copyright","geometryFile":"attractions/large-park-W804756773.geojson"},"geometry":{"type":"Polygon","coordinates":[[[140.880247,38.3011837],[140.8798692,38.3010748],[140.8796856,38.3010219],[140.8792363,38.3009296],[140.8790552,38.3004736],[140.8790522,38.3004661],[140.8791692,38.3003004],[140.8791491,38.2997885],[140.8793541,38.2995569],[140.8795196,38.299123],[140.879626,38.298803],[140.879461,38.2985311],[140.8793707,38.2982899],[140.8790051,38.2979613],[140.8785046,38.2976064],[140.8788006,38.2971062],[140.8781627,38.2966878],[140.8778382,38.2968191],[140.8775632,38.2968775],[140.8774067,38.2968153],[140.8772556,38.2969424],[140.877135,38.2971161],[140.8769929,38.2972164],[140.8767748,38.2974918],[140.8764381,38.2979176],[140.8762349,38.2981671],[140.8760922,38.2981845],[140.8760843,38.2979356],[140.8759259,38.2979275],[140.8757439,38.2977934],[140.8755843,38.2975424],[140.8759135,38.297347],[140.8759799,38.297357],[140.8761035,38.297457],[140.8767459,38.2968075],[140.8767931,38.296344],[140.8766923,38.296163],[140.8767725,38.2959948],[140.87688,38.2958091],[140.8767851,38.2955371],[140.876832,38.29525],[140.8769989,38.2951612],[140.8771053,38.2951572],[140.8770198,38.294925],[140.876847,38.2948582],[140.8767612,38.294794],[140.8766274,38.2948787],[140.87643,38.2952797],[140.8763275,38.2954893],[140.8762519,38.295611],[140.8761067,38.2956571],[140.8761245,38.2959657],[140.8759732,38.2961335],[140.8758423,38.2963301],[140.8755883,38.2963848],[140.8755883,38.2967951],[140.8755145,38.2969277],[140.8754027,38.2969456],[140.8752971,38.2970004],[140.8746833,38.2961689],[140.8745578,38.2961116],[140.8744362,38.2958813],[140.8749054,38.2957628],[140.8750926,38.2960527],[140.8754794,38.2958933],[140.87564,38.2958217],[140.8757347,38.2956009],[140.8757873,38.2954119],[140.876004,38.295274],[140.8762001,38.2946623],[140.8761676,38.294488],[140.8760227,38.2941785],[140.8758296,38.294225],[140.8755729,38.2940566],[140.8761062,38.2933716],[140.8765026,38.2929944],[140.8766834,38.2926597],[140.8763734,38.2923686],[140.87589,38.2917069],[140.8752172,38.2919986],[140.875128,38.2918761],[140.8754199,38.2915633],[140.8750677,38.2912006],[140.8751508,38.2910242],[140.8752597,38.2908058],[140.8752082,38.2906252],[140.8753134,38.2905023],[140.875507,38.2904762],[140.8757414,38.2905183],[140.8759443,38.2905494],[140.8762363,38.2904817],[140.8765123,38.2904358],[140.8769554,38.2904901],[140.8773196,38.2903928],[140.8779408,38.2902745],[140.8781105,38.2901511],[140.8783796,38.2900378],[140.8790007,38.2898756],[140.878988,38.2898326],[140.8788796,38.2897187],[140.8792723,38.2895505],[140.8795545,38.2898214],[140.879763,38.2897375],[140.8803309,38.2899362],[140.8803385,38.2899389],[140.8804412,38.2898572],[140.8806711,38.2899937],[140.8811185,38.2900259],[140.8813738,38.2902587],[140.8813046,38.2903166],[140.8813832,38.2904776],[140.8813314,38.2905907],[140.8814199,38.2908591],[140.8817625,38.2911759],[140.8821492,38.2914361],[140.8822565,38.2917991],[140.8824723,38.2919257],[140.8827865,38.2921102],[140.8830016,38.2924723],[140.8829931,38.2928251],[140.882868,38.2932251],[140.8829335,38.2937156],[140.8832001,38.2941892],[140.8832929,38.2944831],[140.8834208,38.2947274],[140.8834711,38.2949113],[140.883514,38.2952956],[140.8835061,38.2956311],[140.8835073,38.296319],[140.8835571,38.2980126],[140.8837338,38.3010751],[140.883612,38.301145],[140.8833752,38.3011584],[140.8829996,38.3011873],[140.8825257,38.3011986],[140.8818558,38.3012416],[140.8808632,38.3012663],[140.880247,38.3011837]]]}}
