{"type":"Feature","id":"attraction-large-park-W102670930","properties":{"id":"attraction-large-park-W102670930","kind":"attraction","name":"合浦公園","shortName":"合浦公園","context":"日本","subtype":"large-park","subtypeLabel":"大型都市公園・広域公園","statusLabel":"著名な公園","aliases":["Gappo Park"],"osmType":"way","osmId":102670930,"osmDate":null,"officialAreaKm2":null,"areaSourceLabel":"","areaSourceUrl":"","boundarySourceLabel":"© OpenStreetMap contributors","boundarySourceUrl":"https://www.openstreetmap.org/copyright","geometryFile":"attractions/large-park-W102670930.geojson"},"geometry":{"type":"Polygon","coordinates":[[[140.7789577,40.8279092],[140.7816556,40.8284654],[140.7817394,40.8285908],[140.7814162,40.8291059],[140.7814024,40.8292116],[140.781437,40.8294492],[140.7815739,40.829871],[140.7816395,40.8300252],[140.7816265,40.8301829],[140.7815504,40.8304414],[140.7816213,40.8304567],[140.7814854,40.8312504],[140.7816901,40.8312588],[140.7819405,40.8311353],[140.7819419,40.831287],[140.7822932,40.83133],[140.7825878,40.8314158],[140.7827967,40.8315738],[140.782834,40.8316261],[140.7827704,40.8317413],[140.7825325,40.8317182],[140.7824495,40.8319843],[140.781502,40.8318522],[140.7812544,40.8320804],[140.7808836,40.8319849],[140.7805254,40.8318434],[140.7798598,40.8316805],[140.7790183,40.8315738],[140.777904,40.831533],[140.7769441,40.8315401],[140.7765086,40.831586],[140.7762278,40.8316275],[140.7762821,40.831354],[140.7765936,40.831385],[140.7766276,40.8312075],[140.7767369,40.8304194],[140.7768683,40.8304246],[140.7769264,40.8300908],[140.776546,40.8300594],[140.7766189,40.8296137],[140.7769374,40.8296132],[140.7769448,40.8295837],[140.7770497,40.8291634],[140.776925,40.8291269],[140.7762168,40.8286946],[140.7761884,40.8286502],[140.7765175,40.8274949],[140.7789182,40.828008],[140.7789577,40.8279092]]]}}
