{"type":"Feature","id":"attraction-large-park-W357577137","properties":{"id":"attraction-large-park-W357577137","kind":"attraction","name":"八戸公園","shortName":"八戸公園","context":"日本","subtype":"large-park","subtypeLabel":"大型都市公園・広域公園","statusLabel":"著名な公園","aliases":[],"osmType":"way","osmId":357577137,"osmDate":null,"officialAreaKm2":null,"areaSourceLabel":"","areaSourceUrl":"","boundarySourceLabel":"© OpenStreetMap contributors","boundarySourceUrl":"https://www.openstreetmap.org/copyright","geometryFile":"attractions/large-park-W357577137.geojson"},"geometry":{"type":"Polygon","coordinates":[[[141.5123897,40.4765561],[141.5125644,40.4766259],[141.5128923,40.4766404],[141.5131553,40.4766955],[141.5133771,40.4767396],[141.5136208,40.4767476],[141.5141725,40.4767529],[141.5143966,40.47661],[141.5146154,40.4766665],[141.5148634,40.4768159],[141.5152144,40.4768238],[141.5155371,40.4769243],[141.5160245,40.4768967],[141.5160995,40.4767575],[141.5161183,40.4765749],[141.5168151,40.4764635],[141.5173132,40.4765647],[141.5175318,40.4766167],[141.5177088,40.4768248],[141.5183508,40.477073],[141.5188946,40.4772972],[141.5201432,40.47807],[141.5206861,40.4779699],[141.5211458,40.4774901],[141.5222018,40.4758458],[141.5218054,40.475347],[141.5219693,40.474941],[141.5213555,40.4743958],[141.5208409,40.4739956],[141.5204368,40.4737114],[141.5202156,40.4736099],[141.5198687,40.4735287],[141.5183133,40.4733837],[141.5178177,40.473288],[141.5174251,40.4730821],[141.5171887,40.4728385],[141.5166283,40.4718931],[141.5164262,40.4715654],[141.516289,40.4714291],[141.5161823,40.4713595],[141.5159611,40.471229],[141.5156638,40.4711565],[141.5152483,40.471113],[141.514665,40.4710869],[141.5142113,40.471084],[141.5136547,40.4711391],[141.5135217,40.4711857],[141.5127931,40.4717916],[141.5126216,40.4720207],[141.5123793,40.4725631],[141.512309,40.4727225],[141.512298,40.4727816],[141.5122284,40.473157],[141.5122175,40.4732155],[141.5122366,40.4736998],[141.5124577,40.4746452],[141.5126294,40.4752369],[141.5126325,40.475457],[141.5126216,40.4755442],[141.5124935,40.4761088],[141.5124014,40.4765075],[141.5123897,40.4765561]]]}}
