{"type":"Feature","id":"attraction-large-airport-R7007109","properties":{"id":"attraction-large-airport-R7007109","kind":"attraction","name":"諏訪之瀬島飛行場","shortName":"諏訪之瀬島飛行場","context":"日本","subtype":"airport","subtypeLabel":"空港・飛行場","statusLabel":"","aliases":["十島村"],"osmType":"relation","osmId":7007109,"osmDate":null,"officialAreaKm2":null,"areaSourceLabel":"","areaSourceUrl":"","boundarySourceLabel":"© OpenStreetMap contributors","boundarySourceUrl":"https://www.openstreetmap.org/copyright","geometryFile":"attractions/large-airport-R7007109.geojson"},"geometry":{"type":"Polygon","coordinates":[[[129.7049879,29.603856],[129.7051819,29.6040243],[129.7010469,29.607629],[129.7013056,29.6078492],[129.7012353,29.6079116],[129.7014122,29.6080622],[129.7010601,29.608375],[129.7008447,29.6081916],[129.7009371,29.6081095],[129.7006371,29.6078542],[129.6990035,29.6093049],[129.6986824,29.6090315],[129.7004714,29.6074411],[129.7004285,29.6073455],[129.7006565,29.607152],[129.7007638,29.6072173],[129.7048032,29.6036959],[129.7049879,29.603856]]]}}
