{"type":"Feature","id":"attraction-large-military-base-W52170209","properties":{"id":"attraction-large-military-base-W52170209","kind":"attraction","name":"海上自衛隊舞鶴教育隊","shortName":"海上自衛隊舞鶴教育隊","context":"日本","subtype":"military-base","subtypeLabel":"基地・駐屯地・演習場","statusLabel":"","aliases":[],"osmType":"way","osmId":52170209,"osmDate":null,"officialAreaKm2":null,"areaSourceLabel":"","areaSourceUrl":"","boundarySourceLabel":"© OpenStreetMap contributors","boundarySourceUrl":"https://www.openstreetmap.org/copyright","geometryFile":"attractions/large-military-base-W52170209.geojson"},"geometry":{"type":"Polygon","coordinates":[[[135.3979606,35.480038],[135.3997779,35.4804958],[135.3998798,35.4804696],[135.4001432,35.4805321],[135.4002554,35.4805278],[135.4000148,35.4811198],[135.3998305,35.481545],[135.3997793,35.4818744],[135.3998534,35.4821605],[135.3999739,35.4824913],[135.4002093,35.4827623],[135.4011001,35.4837044],[135.4011769,35.483842],[135.4012281,35.483967],[135.4012384,35.484138],[135.4012179,35.4843214],[135.4011564,35.4844548],[135.4010387,35.484684],[135.400921,35.484855],[135.4007878,35.48503],[135.4005933,35.4851759],[135.3999157,35.4855518],[135.3974756,35.4870684],[135.3967486,35.4874811],[135.3965029,35.4876479],[135.3962879,35.4878771],[135.396083,35.488104],[135.396073,35.487963],[135.395917,35.487632],[135.395828,35.487485],[135.395808,35.48742],[135.395623,35.486626],[135.395245,35.485137],[135.395179,35.485034],[135.394934,35.484757],[135.394907,35.484698],[135.394901,35.48457],[135.394924,35.484521],[135.39498,35.484473],[135.395702,35.483949],[135.396209,35.483637],[135.396322,35.483561],[135.396434,35.483428],[135.396586,35.483087],[135.396951,35.482227],[135.397494,35.481055],[135.397665,35.480686],[135.3979606,35.480038]]]}}
