{"type":"Feature","id":"attraction-large-park-R7441158","properties":{"id":"attraction-large-park-R7441158","kind":"attraction","name":"大府みどり公園","shortName":"大府みどり公園","context":"愛知県・大府市","subtype":"large-park","subtypeLabel":"大型都市公園・広域公園","statusLabel":"著名な公園","aliases":[],"osmType":"relation","osmId":7441158,"osmDate":null,"officialAreaKm2":null,"areaSourceLabel":"","areaSourceUrl":"","boundarySourceLabel":"© OpenStreetMap contributors","boundarySourceUrl":"https://www.openstreetmap.org/copyright","geometryFile":"attractions/large-park-R7441158.geojson"},"geometry":{"type":"MultiPolygon","coordinates":[[[[136.9880964,35.0412527],[136.9879686,35.0413136],[136.9879243,35.0413284],[136.9878958,35.0413426],[136.9877312,35.0414318],[136.9876926,35.0413825],[136.9876537,35.0413616],[136.9876148,35.0413616],[136.9875464,35.0414934],[136.9873873,35.041568],[136.9872686,35.0416845],[136.9871107,35.0417475],[136.9869874,35.0417696],[136.986818,35.041798],[136.9866479,35.0418145],[136.9865252,35.0418264],[136.9864212,35.0418075],[136.9862595,35.0417728],[136.9861016,35.0417223],[136.9859115,35.0416619],[136.9858105,35.0415288],[136.9854948,35.041454],[136.9856261,35.0408354],[136.9847235,35.0407125],[136.9848022,35.0401345],[136.9845169,35.0400317],[136.9840629,35.0396268],[136.9839008,35.039618],[136.9837228,35.0396054],[136.9835918,35.0396128],[136.9834549,35.0396488],[136.9833522,35.0397175],[136.9832794,35.0397718],[136.9832346,35.0398345],[136.9831912,35.0399125],[136.9831057,35.0400571],[136.9830471,35.0400132],[136.9828959,35.0399436],[136.9831665,35.0394266],[136.9832478,35.0392877],[136.9833554,35.0390985],[136.9833688,35.039037],[136.983391,35.0390293],[136.9836457,35.0390545],[136.983697,35.0390749],[136.9841036,35.0387772],[136.9844013,35.0385596],[136.9847211,35.0383198],[136.9849854,35.0380806],[136.9851302,35.0379615],[136.9853281,35.0378138],[136.9854376,35.0377675],[136.9880964,35.0412527]]],[[[136.9869327,35.0394121],[136.987065,35.0395812],[136.9871562,35.0396086],[136.9873346,35.0396734],[136.9875532,35.0398491],[136.988154,35.0407143],[136.9881969,35.040834],[136.988213,35.0409164],[136.988209,35.0409966],[136.9881995,35.0410635],[136.9881625,35.0411527],[136.9867792,35.0393261],[136.9860651,35.0383873],[136.9859766,35.0382687],[136.9856783,35.037871],[136.9855705,35.0377187],[136.9857831,35.0376417],[136.9859128,35.037594],[136.9859756,35.0376927],[136.9865088,35.0380071],[136.9865663,35.0380564],[136.9866446,35.03817],[136.9867539,35.0383268],[136.9868263,35.0384468],[136.9868369,35.0384926],[136.986832,35.0385418],[136.986804,35.038621],[136.9867692,35.0387517],[136.9867665,35.0388198],[136.9867825,35.0388659],[136.9868102,35.0389222],[136.9869787,35.0390752],[136.9869997,35.039122],[136.9870135,35.0391893],[136.9869615,35.0393347],[136.9869327,35.0394121]]]]}}
