{"type":"Feature","id":"attraction-large-industrial-complex-W205775122","properties":{"id":"attraction-large-industrial-complex-W205775122","kind":"attraction","name":"栃木プルービンググラウンド","shortName":"栃木プルービンググラウンド","context":"日本","subtype":"industrial-complex","subtypeLabel":"工業地帯・大規模工場","statusLabel":"","aliases":["Tochigi Proving Ground","本田技術研究所"],"osmType":"way","osmId":205775122,"osmDate":null,"officialAreaKm2":null,"areaSourceLabel":"","areaSourceUrl":"","boundarySourceLabel":"© OpenStreetMap contributors","boundarySourceUrl":"https://www.openstreetmap.org/copyright","geometryFile":"attractions/large-industrial-complex-W205775122.geojson"},"geometry":{"type":"Polygon","coordinates":[[[140.0200094,36.5726304],[140.0200505,36.5727159],[140.0200516,36.5729813],[140.0200613,36.5730486],[140.0201384,36.5731772],[140.0203793,36.573256],[140.0206946,36.5733591],[140.0207795,36.5733868],[140.0208118,36.5733944],[140.0209217,36.5734482],[140.0209665,36.5734778],[140.0209646,36.5734977],[140.0209958,36.5735973],[140.0199976,36.5734841],[140.0199176,36.5735322],[140.0195262,36.5744099],[140.01879,36.5760806],[140.0181328,36.5775628],[140.0177999,36.5783408],[140.0173881,36.5792781],[140.0168845,36.5804655],[140.0164898,36.5813565],[140.0153205,36.5840398],[140.0148382,36.5851209],[140.014723,36.5854242],[140.0145352,36.5861095],[140.0144837,36.586197],[140.0140574,36.5869217],[140.0139338,36.5868806],[140.0137176,36.5873468],[140.0141024,36.587476],[140.0138767,36.5879593],[140.0142963,36.5881311],[140.0141719,36.5883542],[140.014739,36.5885773],[140.0154713,36.5889404],[140.0159485,36.5890559],[140.0161395,36.5891814],[140.0162355,36.5892051],[140.0168745,36.5893626],[140.0175152,36.5894431],[140.0175326,36.5896872],[140.018175,36.5898917],[140.0190158,36.5901572],[140.019473,36.5902362],[140.0204944,36.590752],[140.0211195,36.5909285],[140.0226453,36.5886285],[140.0221736,36.5883562],[140.0221633,36.5882954],[140.0228578,36.5871754],[140.0232102,36.5864331],[140.0233021,36.5860052],[140.0234218,36.5859298],[140.0239053,36.5858959],[140.0240667,36.585824],[140.0241746,36.585741],[140.0241406,36.5857209],[140.0239433,36.5856541],[140.024877,36.5838265],[140.0256797,36.5821881],[140.0256212,36.5821714],[140.0257283,36.5816133],[140.0259004,36.5809381],[140.0262386,36.5809359],[140.0263091,36.5806323],[140.0265715,36.5795034],[140.0266609,36.5783027],[140.0267051,36.5777998],[140.0267327,36.5775781],[140.0267856,36.577104],[140.0269043,36.5764313],[140.0269103,36.5762963],[140.0268902,36.5756587],[140.0236049,36.5733592],[140.0235111,36.5733083],[140.0233326,36.5732113],[140.0231709,36.5731358],[140.0227947,36.5730108],[140.0201355,36.5726531],[140.0200094,36.5726304]]]}}
