{"type":"Feature","id":"attraction-large-park-R3812096","properties":{"id":"attraction-large-park-R3812096","kind":"attraction","name":"ときわ公園","shortName":"ときわ公園","context":"日本","subtype":"large-park","subtypeLabel":"大型都市公園・広域公園","statusLabel":"著名な公園","aliases":["Tokiwa Park"],"osmType":"relation","osmId":3812096,"osmDate":null,"officialAreaKm2":null,"areaSourceLabel":"","areaSourceUrl":"","boundarySourceLabel":"© OpenStreetMap contributors","boundarySourceUrl":"https://www.openstreetmap.org/copyright","geometryFile":"attractions/large-park-R3812096.geojson"},"geometry":{"type":"MultiPolygon","coordinates":[[[[131.2865554,33.9477111],[131.2865755,33.9476577],[131.2865902,33.9476181],[131.2865983,33.9475965],[131.2867753,33.9475142],[131.2868088,33.9474597],[131.2867995,33.9474252],[131.2868826,33.9473106],[131.2869671,33.9472906],[131.2873694,33.9469802],[131.287529,33.9469156],[131.2877195,33.946929],[131.2878898,33.9469768],[131.2880574,33.9469524],[131.2881768,33.9469012],[131.2883364,33.9467966],[131.2883243,33.9466976],[131.2884356,33.9465062],[131.2885053,33.9464751],[131.2887508,33.9464751],[131.2889613,33.946514],[131.2893409,33.9470903],[131.2893073,33.9471348],[131.2882733,33.947562],[131.2886032,33.948195],[131.2881902,33.9486957],[131.2880521,33.9486879],[131.2879622,33.94862],[131.2875867,33.9485855],[131.2874392,33.9485054],[131.2874244,33.9484542],[131.2875022,33.9483207],[131.2874968,33.9481995],[131.287533,33.9480415],[131.2874968,33.9479959],[131.2873171,33.9480037],[131.2868397,33.9480448],[131.2866305,33.9479948],[131.2865581,33.9478691],[131.2865554,33.9477111]]],[[[131.2826669,33.9468119],[131.2828257,33.9467547],[131.2831609,33.9466771],[131.2832567,33.9466528],[131.2834085,33.9466135],[131.2836485,33.9465614],[131.2837989,33.946508],[131.2838988,33.9466404],[131.2839479,33.946689],[131.2840949,33.946939],[131.2844123,33.9467638],[131.2845562,33.9466573],[131.2845904,33.946607],[131.2846054,33.9464927],[131.2846996,33.946323],[131.2845372,33.9459099],[131.2846475,33.9457205],[131.2846824,33.9456024],[131.2847636,33.9455153],[131.2848753,33.9456404],[131.2849845,33.9456093],[131.2850888,33.9455947],[131.285071,33.9454216],[131.2851523,33.9454284],[131.2858486,33.9454688],[131.2862326,33.9454253],[131.2863008,33.9454005],[131.2863518,33.9453559],[131.2864974,33.9450507],[131.2865557,33.9451474],[131.2865178,33.9452373],[131.2864724,33.9453744],[131.2864047,33.9454592],[131.2863789,33.9454912],[131.2863464,33.9455508],[131.2864697,33.9456312],[131.2864379,33.9457048],[131.2864053,33.945757],[131.2863857,33.9457891],[131.2863864,33.9458531],[131.2864189,33.9458958],[131.2862787,33.9459677],[131.286259,33.9460599],[131.2860409,33.946161],[131.2858899,33.9462122],[131.2857781,33.9462397],[131.2855973,33.9462167],[131.2855515,33.9461317],[131.285479,33.9460671],[131.2853584,33.9460109],[131.2852684,33.945962],[131.2851932,33.9459367],[131.2851085,33.9459339],[131.2850516,33.9459398],[131.2850042,33.9459617],[131.2849832,33.945996],[131.2849705,33.9460893],[131.2849772,33.9462108],[131.284991,33.9462407],[131.2850379,33.9462661],[131.2850849,33.9462764],[131.2851086,33.9462801],[131.2851158,33.9463357],[131.285151,33.9464099],[131.2851883,33.9464846],[131.2852148,33.94655],[131.2852036,33.9465717],[131.2851583,33.9466021],[131.2850733,33.9466526],[131.2849536,33.9467467],[131.2849072,33.9467831],[131.2848856,33.9468224],[131.2848827,33.9468915],[131.2849096,33.9469535],[131.2849402,33.9470282],[131.2849642,33.9470616],[131.2850178,33.9470989],[131.2854113,33.947259],[131.285402,33.9472778],[131.2853961,33.9472871],[131.2853725,33.9473244],[131.28522,33.947366],[131.2851554,33.9473926],[131.2850084,33.9474595],[131.2849715,33.9474667],[131.2848306,33.9475035],[131.284788,33.9475012],[131.2847451,33.9474942],[131.2847373,33.9474852],[131.2847092,33.9474526],[131.2846634,33.9473579],[131.2846117,33.9472991],[131.2845606,33.9472453],[131.2844637,33.9472261],[131.2843792,33.9472692],[131.2843574,33.9473106],[131.2843231,33.9473414],[131.2842652,33.947409],[131.2842808,33.9474661],[131.2842211,33.9475124],[131.284147,33.9475423],[131.2840772,33.9475699],[131.2840265,33.9476172],[131.2840216,33.9476366],[131.283958,33.9476285],[131.2839622,33.9476072],[131.2838366,33.9475905],[131.2838418,33.9475457],[131.2837491,33.947531],[131.2837513,33.947486],[131.2837026,33.9474801],[131.2836698,33.9476487],[131.2837579,33.9476587],[131.2837508,33.9477098],[131.2838595,33.9477233],[131.2838482,33.9477961],[131.2839956,33.9478226],[131.2840015,33.9478467],[131.2840874,33.9478736],[131.2841044,33.9478927],[131.2841112,33.9479192],[131.2841114,33.9479624],[131.2840797,33.9480449],[131.2840321,33.9481168],[131.2839593,33.9482185],[131.2839066,33.9482789],[131.2837658,33.9483687],[131.2837093,33.9483918],[131.2836068,33.9483894],[131.2835455,33.9483791],[131.2835024,33.9483616],[131.2834746,33.9483179],[131.2834593,33.9482924],[131.2833922,33.9482797],[131.2833074,33.9482998],[131.2832704,33.9483291],[131.2832695,33.9484109],[131.2832676,33.9484697],[131.2832243,33.948551],[131.2831846,33.9486115],[131.2831368,33.9486886],[131.2831518,33.9488519],[131.28317,33.94889],[131.2832006,33.9489226],[131.2832514,33.9489425],[131.2833022,33.9489401],[131.2833357,33.9489266],[131.2833874,33.9488781],[131.2834219,33.9488439],[131.2837467,33.9488932],[131.2837993,33.9489123],[131.2838214,33.9489353],[131.2838396,33.9489623],[131.2838415,33.9490021],[131.2838348,33.9490672],[131.2838089,33.9491459],[131.2837572,33.9492309],[131.2837208,33.9492714],[131.2837026,33.9492643],[131.2835292,33.9494383],[131.2833328,33.9495035],[131.283125,33.9493763],[131.2828143,33.9492666],[131.2827361,33.9493763],[131.2826604,33.9494828],[131.282623,33.9495519],[131.2827753,33.9497236],[131.2827974,33.9497705],[131.2828069,33.9497967],[131.2827935,33.9498269],[131.2827753,33.9498507],[131.2827466,33.949873],[131.2827188,33.9498896],[131.2826939,33.9499016],[131.2826575,33.9499063],[131.2826086,33.9499063],[131.2825627,33.9498936],[131.2825598,33.9498563],[131.2825445,33.9498261],[131.2825234,33.949803],[131.2824975,33.9497832],[131.2824611,33.9497808],[131.2824008,33.9497728],[131.2823213,33.9497649],[131.2822561,33.9497657],[131.2822188,33.9497681],[131.2821862,33.9497609],[131.2821587,33.9497566],[131.2821259,33.9497479],[131.2821062,33.9497305],[131.2821015,33.949713],[131.2821045,33.9496982],[131.282111,33.9496852],[131.2821133,33.9496734],[131.2821137,33.9496597],[131.2821072,33.9496484],[131.2820994,33.9496417],[131.2820923,33.94964],[131.2820751,33.9496389],[131.2820568,33.949651],[131.2820408,33.9496659],[131.2820232,33.9496903],[131.2818939,33.9498174],[131.2816319,33.949926],[131.281598,33.9500159],[131.2816822,33.9500408],[131.2817378,33.9500606],[131.281777,33.9501329],[131.2818518,33.9502219],[131.2819054,33.9502545],[131.2820204,33.9504484],[131.2820941,33.9505056],[131.2821899,33.9505581],[131.2823077,33.9506923],[131.2820395,33.9510197],[131.2815558,33.951042],[131.2813594,33.9511445],[131.2811078,33.9510561],[131.2808473,33.951153],[131.2807266,33.9511085],[131.2806718,33.9510481],[131.2804337,33.9511082],[131.2803645,33.951175],[131.2802987,33.9511027],[131.2802085,33.9511107],[131.2800931,33.951126],[131.2800539,33.9511873],[131.2800134,33.9512642],[131.2799973,33.9513265],[131.2800003,33.9514158],[131.2800144,33.9514988],[131.2800553,33.9516134],[131.2800819,33.9516428],[131.2801173,33.9516596],[131.2801534,33.9516697],[131.2801794,33.9516966],[131.2801932,33.9517353],[131.2801863,33.9517856],[131.2800963,33.9519429],[131.2799373,33.9519031],[131.2798894,33.9517156],[131.2797687,33.9516473],[131.2796652,33.9515519],[131.279047,33.9513527],[131.2786134,33.9510974],[131.2784602,33.9510958],[131.2783529,33.9511626],[131.2783107,33.9512659],[131.2782916,33.9513151],[131.278236,33.9514041],[131.2781249,33.9514232],[131.2779716,33.9514375],[131.2774204,33.9512723],[131.277508,33.9510768],[131.2776076,33.9507271],[131.2774856,33.9505532],[131.2776994,33.9504419],[131.2784095,33.950144],[131.2785994,33.9502604],[131.278665,33.9503489],[131.2790215,33.9503791],[131.2793223,33.9502821],[131.2795713,33.9502599],[131.279876,33.950244],[131.2803626,33.9500644],[131.2805082,33.9500644],[131.2806787,33.9500136],[131.2808585,33.9499102],[131.2809565,33.9496941],[131.2807573,33.9495177],[131.2811749,33.9490494],[131.281059,33.9489792],[131.2808827,33.9488725],[131.2814546,33.9481319],[131.2816654,33.9477679],[131.2818253,33.9474906],[131.2824911,33.9478871],[131.2828417,33.9475741],[131.2827748,33.9473694],[131.2824735,33.9469082],[131.2826669,33.9468119]]]]}}
