{"type":"Feature","id":"attraction-large-industrial-complex-W622441862","properties":{"id":"attraction-large-industrial-complex-W622441862","kind":"attraction","name":"トヨタ自動車上郷工場","shortName":"トヨタ自動車上郷工場","context":"日本","subtype":"industrial-complex","subtypeLabel":"工業地帯・大規模工場","statusLabel":"","aliases":[],"osmType":"way","osmId":622441862,"osmDate":null,"officialAreaKm2":null,"areaSourceLabel":"","areaSourceUrl":"","boundarySourceLabel":"© OpenStreetMap contributors","boundarySourceUrl":"https://www.openstreetmap.org/copyright","geometryFile":"attractions/large-industrial-complex-W622441862.geojson"},"geometry":{"type":"Polygon","coordinates":[[[137.1242934,35.0173841],[137.1265706,35.0165449],[137.1281719,35.0161979],[137.1292448,35.0186493],[137.1317446,35.0226647],[137.1348544,35.0225686],[137.1354886,35.0249332],[137.136982,35.0293774],[137.1368274,35.0295513],[137.1351483,35.0295439],[137.1343383,35.0294473],[137.1332788,35.0291991],[137.1293575,35.0283337],[137.1263534,35.0192446],[137.125833,35.0193237],[137.1242934,35.0173841]]]}}
