{"type":"Feature","id":"attraction-large-park-W737561202","properties":{"id":"attraction-large-park-W737561202","kind":"attraction","name":"北山公園","shortName":"北山公園","context":"日本","subtype":"large-park","subtypeLabel":"大型都市公園・広域公園","statusLabel":"","aliases":[],"osmType":"way","osmId":737561202,"osmDate":null,"officialAreaKm2":null,"areaSourceLabel":"","areaSourceUrl":"","boundarySourceLabel":"© OpenStreetMap contributors","boundarySourceUrl":"https://www.openstreetmap.org/copyright","geometryFile":"attractions/large-park-W737561202.geojson"},"geometry":{"type":"Polygon","coordinates":[[[135.3234985,34.7668539],[135.3234851,34.7670786],[135.3235656,34.7672857],[135.3235602,34.7676867],[135.3232491,34.7680349],[135.3226912,34.7684579],[135.3223318,34.769185],[135.3226322,34.7696741],[135.3231579,34.7702073],[135.3224873,34.770388],[135.3211838,34.7707626],[135.3207868,34.77067],[135.3204167,34.7708199],[135.320406,34.7711592],[135.3207707,34.7718157],[135.3209786,34.7721054],[135.3210443,34.7722068],[135.3212991,34.7724403],[135.3213528,34.7725505],[135.3213018,34.7726541],[135.3210913,34.7728083],[135.3209947,34.7728501],[135.3208056,34.7727774],[135.3204824,34.7727466],[135.3202786,34.7727697],[135.3198548,34.772892],[135.3194699,34.7730484],[135.3193532,34.7731355],[135.3191681,34.7732401],[135.3189415,34.7734252],[135.3187738,34.7736124],[135.3186451,34.7737028],[135.3184761,34.7737568],[135.3183058,34.7738724],[135.3180671,34.7739319],[135.3177626,34.7739595],[135.3174609,34.7738735],[135.3170103,34.7737457],[135.3167635,34.7735034],[135.3168011,34.7731465],[135.31684,34.7726882],[135.316726,34.7719876],[135.317139,34.7717232],[135.3169942,34.771331],[135.3164497,34.7712869],[135.3160822,34.7706965],[135.3160366,34.7705202],[135.3160635,34.7702624],[135.3161868,34.769998],[135.316219,34.7698372],[135.3163129,34.7695463],[135.3162735,34.769372],[135.3162646,34.7693326],[135.3159696,34.7685967],[135.3158831,34.768438],[135.3157148,34.7682882],[135.3154546,34.7681891],[135.3151354,34.7680723],[135.3149128,34.7678916],[135.3147706,34.767614],[135.3149235,34.7673232],[135.3151917,34.7671866],[135.315578,34.7671623],[135.3161573,34.7672637],[135.316903,34.7673739],[135.3173268,34.7675193],[135.3174072,34.7673199],[135.3174072,34.7671425],[135.3176004,34.7668737],[135.317603,34.7666996],[135.3175521,34.7664793],[135.3169043,34.7658612],[135.3166415,34.76561],[135.3165288,34.7655087],[135.3164832,34.7653985],[135.3164618,34.7652432],[135.3164873,34.7651264],[135.3166965,34.7645425],[135.316848,34.7643144],[135.3169486,34.7640324],[135.3169473,34.7639707],[135.317127,34.7638032],[135.317312,34.7636864],[135.317536,34.7635047],[135.3176419,34.7633328],[135.3176782,34.7631741],[135.3176379,34.7629207],[135.3175494,34.7627478],[135.3174368,34.7625726],[135.3174341,34.7623963],[135.317536,34.7620173],[135.3176969,34.7616934],[135.3179812,34.7615281],[135.3186706,34.7615237],[135.3189442,34.7614686],[135.3196174,34.7614642],[135.3202558,34.76131],[135.3205991,34.7610456],[135.3208941,34.7607503],[135.3214574,34.7606577],[135.3219187,34.7606842],[135.3221226,34.7607635],[135.3226644,34.760812],[135.3230721,34.7609618],[135.3232558,34.7609794],[135.3235294,34.7609596],[135.3238124,34.7609067],[135.3239599,34.7608406],[135.3242227,34.7608516],[135.324735,34.7606952],[135.3247619,34.7608516],[135.3245983,34.7612329],[135.324491,34.761581],[135.3245205,34.7618763],[135.3246707,34.762079],[135.324837,34.762447],[135.3249148,34.7627885],[135.3247109,34.7629868],[135.3245553,34.763194],[135.3245312,34.7636038],[135.3246063,34.763866],[135.3246465,34.7642935],[135.3243357,34.7644685],[135.3241396,34.7646681],[135.3239867,34.7650647],[135.3235951,34.7652872],[135.3234905,34.7654569],[135.3235629,34.765653],[135.3236863,34.7659461],[135.3236943,34.7662479],[135.3236622,34.7665476],[135.3234985,34.7668539]]]}}
