{"type":"Feature","id":"attraction-large-park-W601902086","properties":{"id":"attraction-large-park-W601902086","kind":"attraction","name":"大胡総合運動公園","shortName":"大胡総合運動公園","context":"日本","subtype":"large-park","subtypeLabel":"大型都市公園・広域公園","statusLabel":"著名な公園","aliases":[],"osmType":"way","osmId":601902086,"osmDate":null,"officialAreaKm2":null,"areaSourceLabel":"","areaSourceUrl":"","boundarySourceLabel":"© OpenStreetMap contributors","boundarySourceUrl":"https://www.openstreetmap.org/copyright","geometryFile":"attractions/large-park-W601902086.geojson"},"geometry":{"type":"Polygon","coordinates":[[[139.1435732,36.4345272],[139.1439472,36.4345615],[139.1440529,36.4346122],[139.1449249,36.4346973],[139.145051,36.4338027],[139.1460755,36.4338828],[139.1457929,36.4343538],[139.1459982,36.4343162],[139.1461934,36.4343129],[139.1462096,36.4342475],[139.146293,36.4342361],[139.1463885,36.4341968],[139.1466101,36.4340546],[139.1472402,36.4340186],[139.1471183,36.4342851],[139.147102,36.4343473],[139.1471365,36.4345861],[139.1478256,36.4344029],[139.1481102,36.4342557],[139.1481265,36.4341625],[139.1473764,36.4333562],[139.1472199,36.4331273],[139.1471325,36.4328869],[139.1465032,36.4305062],[139.1464522,36.4304846],[139.1463808,36.430314],[139.1464291,36.4303023],[139.1464469,36.4302707],[139.1463477,36.4299573],[139.1462478,36.429709],[139.146091,36.4297664],[139.1459409,36.4295947],[139.1458458,36.4294785],[139.1450782,36.4296802],[139.1454245,36.4304707],[139.1453546,36.4304882],[139.1454272,36.4306256],[139.1456238,36.4305364],[139.1456779,36.4307121],[139.1455566,36.4307551],[139.1455442,36.4307939],[139.1457051,36.4312826],[139.1452776,36.4312536],[139.1453406,36.4314908],[139.1448974,36.4315562],[139.1449361,36.4317132],[139.1447247,36.4317476],[139.1447511,36.4318391],[139.1447836,36.432109],[139.144635,36.4325638],[139.1444703,36.4328142],[139.144438,36.4329104],[139.1439177,36.4330477],[139.1437855,36.4330412],[139.1435732,36.4345272]]]}}
