{"type":"Feature","id":"attraction-large-industrial-complex-W639413568","properties":{"id":"attraction-large-industrial-complex-W639413568","kind":"attraction","name":"デンソー 大安製作所","shortName":"デンソー 大安製作所","context":"日本","subtype":"industrial-complex","subtypeLabel":"工業地帯・大規模工場","statusLabel":"","aliases":["Denso Corporation"],"osmType":"way","osmId":639413568,"osmDate":null,"officialAreaKm2":null,"areaSourceLabel":"","areaSourceUrl":"","boundarySourceLabel":"© OpenStreetMap contributors","boundarySourceUrl":"https://www.openstreetmap.org/copyright","geometryFile":"attractions/large-industrial-complex-W639413568.geojson"},"geometry":{"type":"Polygon","coordinates":[[[136.5282999,35.0856436],[136.5280813,35.0856763],[136.5279391,35.0857093],[136.5271774,35.0862031],[136.5265685,35.0866311],[136.5256137,35.0871996],[136.5248948,35.0874849],[136.5242296,35.0877526],[136.5230763,35.0879677],[136.5230092,35.0927324],[136.5238729,35.092728],[136.5261394,35.092164],[136.5259945,35.0917075],[136.5292025,35.0909262],[136.5285185,35.0896116],[136.5285293,35.0891068],[136.5286902,35.0889312],[136.5293688,35.0889137],[136.5308306,35.0884747],[136.5314877,35.0883408],[136.5319222,35.0877746],[136.5327698,35.0877834],[136.5327966,35.0879721],[136.5340948,35.0879589],[136.5341002,35.0877482],[136.5355164,35.0877219],[136.5355217,35.088377],[136.5373698,35.088365],[136.5373698,35.0882596],[136.5419376,35.0882333],[136.5419215,35.087362],[136.5419966,35.0858475],[136.5420073,35.0845175],[136.5413582,35.0845965],[136.5384829,35.085233],[136.5367877,35.0855973],[136.5362781,35.0856061],[136.5350255,35.0853514],[136.5345506,35.0853031],[136.5323406,35.0854327],[136.5323366,35.0855683],[136.5289705,35.0856269],[136.5289758,35.0854152],[136.5282905,35.085402],[136.5282999,35.0856436]]]}}
