{"type":"Feature","id":"attraction-large-park-W64377273","properties":{"id":"attraction-large-park-W64377273","kind":"attraction","name":"羽生水郷公園","shortName":"羽生水郷公園","context":"日本","subtype":"large-park","subtypeLabel":"大型都市公園・広域公園","statusLabel":"","aliases":["Hanyu Suigo Park"],"osmType":"way","osmId":64377273,"osmDate":null,"officialAreaKm2":null,"areaSourceLabel":"","areaSourceUrl":"","boundarySourceLabel":"© OpenStreetMap contributors","boundarySourceUrl":"https://www.openstreetmap.org/copyright","geometryFile":"attractions/large-park-W64377273.geojson"},"geometry":{"type":"Polygon","coordinates":[[[139.590535,36.1751097],[139.5902123,36.1708453],[139.59012,36.1696263],[139.5926503,36.1689412],[139.5927967,36.1693488],[139.5949139,36.1684879],[139.5947505,36.1679805],[139.5966835,36.1675569],[139.5967363,36.1677084],[139.5969899,36.1676516],[139.5975553,36.1692266],[139.5986866,36.1689591],[139.5989665,36.1697879],[139.5999757,36.169483],[139.6012315,36.1730883],[139.590535,36.1751097]]]}}
