{"type":"Feature","id":"attraction-large-park-W546028591","properties":{"id":"attraction-large-park-W546028591","kind":"attraction","name":"鷹巣中央公園","shortName":"鷹巣中央公園","context":"日本","subtype":"large-park","subtypeLabel":"大型都市公園・広域公園","statusLabel":"著名な公園","aliases":[],"osmType":"way","osmId":546028591,"osmDate":null,"officialAreaKm2":null,"areaSourceLabel":"","areaSourceUrl":"","boundarySourceLabel":"© OpenStreetMap contributors","boundarySourceUrl":"https://www.openstreetmap.org/copyright","geometryFile":"attractions/large-park-W546028591.geojson"},"geometry":{"type":"Polygon","coordinates":[[[140.379236,40.215022],[140.379199,40.214802],[140.3791778,40.2147122],[140.379165,40.214658],[140.379126,40.214492],[140.379126,40.21429],[140.3791492,40.2141389],[140.379208,40.2137553],[140.379214,40.213716],[140.379258,40.213502],[140.3794555,40.2124583],[140.3800814,40.212425],[140.3809459,40.2123702],[140.3812743,40.2123494],[140.3813829,40.2123526],[140.3815405,40.2123854],[140.3817034,40.2124567],[140.3818182,40.2125187],[140.3818717,40.212582],[140.3819654,40.2127014],[140.3820777,40.2129347],[140.3821429,40.2130757],[140.382212,40.2131945],[140.3823124,40.213266],[140.3823812,40.2132733],[140.382472,40.213283],[140.3827398,40.2132715],[140.382868,40.213266],[140.3831118,40.2132525],[140.3836727,40.2132215],[140.384388,40.213182],[140.384616,40.213148],[140.385005,40.213052],[140.385298,40.212939],[140.385489,40.212849],[140.385629,40.212788],[140.385761,40.212714],[140.386554,40.21223],[140.3865992,40.2121499],[140.386598,40.212028],[140.38678,40.2120002],[140.387141,40.2119258],[140.3873532,40.2119297],[140.38753,40.2119675],[140.3876833,40.2120442],[140.38779,40.2121343],[140.3878427,40.2122037],[140.387926,40.212343],[140.3880408,40.2125786],[140.3882045,40.2129145],[140.3881422,40.2129466],[140.3879963,40.2130219],[140.387882,40.213086],[140.387691,40.213215],[140.387464,40.213339],[140.386921,40.213576],[140.386737,40.213649],[140.386194,40.213835],[140.3858775,40.2139426],[140.38586,40.2139486],[140.385739,40.214004],[140.385627,40.214108],[140.385438,40.214319],[140.385386,40.214409],[140.385372,40.214528],[140.385379,40.214623],[140.385467,40.214893],[140.385467,40.215068],[140.385423,40.215164],[140.385284,40.215282],[140.3852413,40.2152966],[140.385152,40.215327],[140.384711,40.215394],[140.384381,40.215439],[140.383772,40.215496],[140.3835319,40.2155229],[140.383089,40.215579],[140.38295,40.21563],[140.382252,40.2161643],[140.3822102,40.2162247],[140.382201,40.216238],[140.3822136,40.2163049],[140.3822262,40.2163676],[140.3822944,40.2164604],[140.3822917,40.2165482],[140.38223,40.216593],[140.3821533,40.2166153],[140.382113,40.216627],[140.3819526,40.2166018],[140.3817825,40.2165378],[140.3817117,40.2164669],[140.3816698,40.2163696],[140.3813922,40.215804],[140.3812547,40.2155063],[140.381231,40.215455],[140.381121,40.215253],[140.38104,40.21514],[140.380959,40.215073],[140.3807247,40.2150634],[140.3800852,40.2150516],[140.3794819,40.2150393],[140.379236,40.215022]]]}}
