{"type":"Feature","id":"attraction-large-park-R7305129","properties":{"id":"attraction-large-park-R7305129","kind":"attraction","name":"桜淵公園","shortName":"桜淵公園","context":"日本","subtype":"large-park","subtypeLabel":"大型都市公園・広域公園","statusLabel":"著名な公園","aliases":[],"osmType":"relation","osmId":7305129,"osmDate":null,"officialAreaKm2":null,"areaSourceLabel":"","areaSourceUrl":"","boundarySourceLabel":"© OpenStreetMap contributors","boundarySourceUrl":"https://www.openstreetmap.org/copyright","geometryFile":"attractions/large-park-R7305129.geojson"},"geometry":{"type":"MultiPolygon","coordinates":[[[[137.5046611,34.8945991],[137.5056964,34.8947003],[137.5059215,34.8946658],[137.5062842,34.8945487],[137.506578,34.8943859],[137.5066353,34.8941171],[137.506772,34.8934298],[137.5074665,34.8935895],[137.5074658,34.8935147],[137.5074209,34.8934443],[137.5072083,34.8934036],[137.5067718,34.8930576],[137.506472,34.8926743],[137.5063634,34.8927029],[137.506189,34.8926974],[137.5055024,34.8924037],[137.5053402,34.8922948],[137.5051859,34.8920429],[137.5054327,34.8914279],[137.5052047,34.8912981],[137.5051001,34.8912332],[137.5050465,34.8912431],[137.5049163,34.8913828],[137.504793,34.8915016],[137.504671,34.891544],[137.5044872,34.8915578],[137.5043692,34.89155],[137.504233,34.8915627],[137.504117,34.8916083],[137.5039896,34.8916392],[137.5039923,34.8916865],[137.5038757,34.8917283],[137.5036584,34.8922508],[137.5040728,34.892341],[137.5038945,34.893034],[137.5034434,34.8929271],[137.503197,34.8928701],[137.5029954,34.8927907],[137.5028296,34.8926688],[137.502701,34.892563],[137.5025499,34.8925401],[137.5024608,34.8925649],[137.5024205,34.8931506],[137.5015443,34.8930795],[137.501522,34.8932177],[137.5014626,34.8934578],[137.5018163,34.8936934],[137.5019015,34.8937325],[137.5026338,34.8940361],[137.5025399,34.8943887],[137.5024212,34.8946092],[137.5023441,34.8946482],[137.50233,34.8946823],[137.5023454,34.8950062],[137.5016225,34.8950947],[137.5014368,34.8952834],[137.5015421,34.8953153],[137.5019274,34.8952998],[137.5030589,34.8950194],[137.5036007,34.8948281],[137.5036094,34.8946411],[137.5036825,34.8945943],[137.5037161,34.8945355],[137.5037315,34.8941972],[137.5037324,34.8941349],[137.5040871,34.8941063],[137.5043687,34.8940964],[137.5046153,34.8940883],[137.5046611,34.8945991]]],[[[137.5048493,34.8954913],[137.5049164,34.8956893],[137.5053746,34.8955968],[137.505565,34.8958344],[137.5054729,34.8959588],[137.5055062,34.8960199],[137.5054796,34.8960655],[137.5054255,34.8961243],[137.5067825,34.8959935],[137.5067805,34.8957872],[137.5068301,34.8958334],[137.5068931,34.8958609],[137.5069562,34.8958741],[137.5070014,34.8958784],[137.5069624,34.8960088],[137.5069501,34.8960485],[137.507052,34.8961529],[137.5070791,34.8963184],[137.5070332,34.8965302],[137.5070748,34.8965264],[137.5072145,34.896485],[137.5076048,34.8965252],[137.5078721,34.8965627],[137.5079365,34.8965209],[137.5079875,34.8964109],[137.5079915,34.8963438],[137.5079057,34.8962162],[137.5078896,34.8960996],[137.5078716,34.895995],[137.5078248,34.8958608],[137.5077724,34.8957772],[137.5076548,34.8956893],[137.5075936,34.8956441],[137.5075069,34.8956089],[137.5073468,34.8955682],[137.5071644,34.8954681],[137.5072319,34.895258],[137.5072069,34.8948841],[137.506818,34.8948567],[137.5066571,34.8949007],[137.5066195,34.8948666],[137.5060254,34.8950172],[137.5059074,34.8950812],[137.5055425,34.895164],[137.5053135,34.8951258],[137.504805,34.8952563],[137.5048493,34.8954913]]],[[[137.5028202,34.8958774],[137.5026754,34.895939],[137.5026941,34.8960138],[137.5022194,34.896236],[137.5018117,34.8964032],[137.5013287,34.8965846],[137.5013101,34.8966122],[137.5012491,34.8966034],[137.5012558,34.896577],[137.5012733,34.8964367],[137.501292,34.8963685],[137.5013316,34.8962932],[137.5014335,34.8962657],[137.5015448,34.8962734],[137.5016119,34.8962734],[137.5028068,34.8958543],[137.5028202,34.8958774]]]]}}
