{"type":"Feature","id":"attraction-large-park-W741179387","properties":{"id":"attraction-large-park-W741179387","kind":"attraction","name":"五鹿山公園","shortName":"五鹿山公園","context":"日本","subtype":"large-park","subtypeLabel":"大型都市公園・広域公園","statusLabel":"","aliases":[],"osmType":"way","osmId":741179387,"osmDate":null,"officialAreaKm2":null,"areaSourceLabel":"","areaSourceUrl":"","boundarySourceLabel":"© OpenStreetMap contributors","boundarySourceUrl":"https://www.openstreetmap.org/copyright","geometryFile":"attractions/large-park-W741179387.geojson"},"geometry":{"type":"Polygon","coordinates":[[[143.6065972,44.1821732],[143.6045051,44.1792802],[143.6061841,44.1787339],[143.6064041,44.1790224],[143.6066186,44.1791571],[143.6069673,44.1791956],[143.6076862,44.1790494],[143.6080778,44.1789263],[143.608861,44.1784723],[143.609435,44.1782376],[143.6104757,44.1775143],[143.6106098,44.1769488],[143.6117041,44.1763332],[143.6121225,44.1766294],[143.6125839,44.1770603],[143.6141825,44.1764717],[143.6145419,44.1764986],[143.6150891,44.1763293],[143.6157596,44.1762486],[143.6159956,44.1763101],[143.6164087,44.1780375],[143.6169934,44.1785954],[143.6170953,44.1788878],[143.6170578,44.1795841],[143.6169773,44.1798611],[143.6169505,44.1802612],[143.616811,44.1808575],[143.6183989,44.1811345],[143.6176854,44.182681],[143.6175191,44.182908],[143.6172777,44.1830811],[143.6169559,44.1832349],[143.6166839,44.1833129],[143.6164999,44.1833657],[143.615408,44.1835647],[143.6148385,44.1836261],[143.6146883,44.1836737],[143.6135615,44.1840342],[143.6129784,44.1831841],[143.6116821,44.1835986],[143.6114513,44.1836724],[143.6097599,44.1842132],[143.6097245,44.1842025],[143.608641,44.1831618],[143.6079007,44.1826848],[143.6071283,44.1823348],[143.6065972,44.1821732]]]}}
