{"type":"Feature","id":"attraction-large-industrial-complex-R7387500","properties":{"id":"attraction-large-industrial-complex-R7387500","kind":"attraction","name":"エフティテクノ株式会社 藤岡試験場","shortName":"エフティテクノ株式会社 藤岡試験場","context":"日本","subtype":"industrial-complex","subtypeLabel":"工業地帯・大規模工場","statusLabel":"","aliases":[],"osmType":"relation","osmId":7387500,"osmDate":null,"officialAreaKm2":null,"areaSourceLabel":"","areaSourceUrl":"","boundarySourceLabel":"© OpenStreetMap contributors","boundarySourceUrl":"https://www.openstreetmap.org/copyright","geometryFile":"attractions/large-industrial-complex-R7387500.geojson"},"geometry":{"type":"Polygon","coordinates":[[[137.2330087,35.1946822],[137.2329068,35.1947414],[137.2323972,35.1947064],[137.2322068,35.1946406],[137.2320041,35.1946977],[137.2317481,35.1946384],[137.2313967,35.194588],[137.2308232,35.1944575],[137.2303748,35.1944192],[137.2300338,35.1944447],[137.2300261,35.1945003],[137.2294751,35.1945851],[137.2294039,35.1944433],[137.2291625,35.1944061],[137.228964,35.1944433],[137.2277275,35.1944696],[137.2260457,35.1939304],[137.2255991,35.1936794],[137.2252344,35.1933441],[137.2245128,35.1928334],[137.2241896,35.1926416],[137.2239643,35.192567],[137.2236372,35.192501],[137.2238244,35.1921958],[137.2237009,35.1921402],[137.223662,35.1919659],[137.22311,35.190843],[137.2230658,35.1907795],[137.2229893,35.1907017],[137.2228391,35.1906633],[137.2227748,35.1906096],[137.2225076,35.1904941],[137.2226569,35.1903541],[137.2230585,35.1900853],[137.2231031,35.1899813],[137.2234553,35.1894905],[137.2236686,35.1892877],[137.2241165,35.1891617],[137.2245674,35.1891163],[137.224877,35.1891201],[137.224946,35.1893097],[137.2250238,35.1893755],[137.2257158,35.1894676],[137.225807,35.1893799],[137.2260656,35.189002],[137.2264799,35.189046],[137.2272532,35.1890996],[137.2274709,35.1891667],[137.2276882,35.1892852],[137.2286019,35.1895202],[137.2287601,35.1894873],[137.2289184,35.1894106],[137.2292107,35.189244],[137.2294166,35.1892029],[137.2297445,35.1891892],[137.2299376,35.1891322],[137.2302887,35.1889756],[137.2307289,35.1889393],[137.2308765,35.188807],[137.2313122,35.1887604],[137.2314789,35.1886543],[137.2316979,35.1885181],[137.2319292,35.1885475],[137.2328694,35.1888379],[137.2330109,35.1889709],[137.2333172,35.1890423],[137.2335935,35.1889722],[137.2338542,35.1889696],[137.2339748,35.1890287],[137.2341164,35.1891388],[137.2342775,35.1893755],[137.2344035,35.1894939],[137.2345215,35.1895684],[137.234602,35.1895092],[137.2347856,35.1895686],[137.23553,35.1898205],[137.2356658,35.190033],[137.2364497,35.1908308],[137.23656,35.1908463],[137.2366726,35.1908354],[137.2367746,35.1908792],[137.2367987,35.1909998],[137.2367493,35.1911812],[137.2367625,35.1913479],[137.2367812,35.1915502],[137.2366905,35.1917159],[137.2363498,35.1919464],[137.2361629,35.1920978],[137.2359189,35.19219],[137.2357107,35.1922165],[137.2353128,35.1924465],[137.2330087,35.1946822]]]}}
