{"type":"Feature","id":"attraction-large-park-R14235095","properties":{"id":"attraction-large-park-R14235095","kind":"attraction","name":"隅田公園","shortName":"隅田公園","context":"日本","subtype":"large-park","subtypeLabel":"大型都市公園・広域公園","statusLabel":"著名な公園","aliases":["Sumida Park"],"osmType":"relation","osmId":14235095,"osmDate":null,"officialAreaKm2":null,"areaSourceLabel":"","areaSourceUrl":"","boundarySourceLabel":"© OpenStreetMap contributors","boundarySourceUrl":"https://www.openstreetmap.org/copyright","geometryFile":"attractions/large-park-R14235095.geojson"},"geometry":{"type":"MultiPolygon","coordinates":[[[[139.7985391,35.7105602],[139.7985315,35.7105518],[139.7985218,35.7105456],[139.7985085,35.710541],[139.7984958,35.7105381],[139.7984082,35.7105377],[139.7984083,35.7105477],[139.798331,35.7105879],[139.7983675,35.7106303],[139.7981897,35.7107316],[139.7982013,35.7107482],[139.7982136,35.7107686],[139.7982266,35.7107874],[139.798301,35.7108796],[139.7983302,35.7109159],[139.7984027,35.7110097],[139.7984253,35.7110454],[139.7985621,35.711214],[139.7986186,35.7112829],[139.7989718,35.7117027],[139.799029,35.7117631],[139.7990864,35.7118231],[139.7994553,35.7122261],[139.7996561,35.7124406],[139.7999556,35.7127495],[139.8001335,35.712912],[139.8003708,35.7131044],[139.8005274,35.7132207],[139.800723,35.7133676],[139.8009996,35.7136591],[139.8015075,35.7142378],[139.8017261,35.714503],[139.8018797,35.7147019],[139.8020209,35.7148643],[139.8020317,35.7148745],[139.8020895,35.7148439],[139.8021105,35.7148677],[139.8022818,35.7147604],[139.8024274,35.7149163],[139.8022767,35.7150119],[139.8022936,35.7150353],[139.8022262,35.7150717],[139.8022002,35.715089],[139.8022206,35.7151172],[139.802621,35.7155881],[139.8030516,35.7160717],[139.8028808,35.7161706],[139.8031605,35.716483],[139.8031972,35.7165286],[139.8034391,35.7168005],[139.8038874,35.7173413],[139.8039617,35.717431],[139.8039531,35.7174826],[139.8044951,35.7182598],[139.8046118,35.7184103],[139.8046484,35.7184597],[139.8049226,35.7188172],[139.8053595,35.7193887],[139.8057842,35.7197998],[139.8060303,35.720037],[139.806227,35.720231],[139.806395,35.7203855],[139.8065487,35.7205242],[139.8072918,35.7201235],[139.8074349,35.7200463],[139.8073736,35.7198848],[139.8073054,35.7197697],[139.8072142,35.7196165],[139.8067988,35.7188871],[139.806746,35.718909],[139.8065368,35.7185697],[139.8065919,35.7185439],[139.8063589,35.7182336],[139.8061849,35.7180112],[139.8060215,35.7178151],[139.8056858,35.7174635],[139.805362,35.7171254],[139.8049166,35.7166747],[139.8049033,35.7166798],[139.8048437,35.716646],[139.8047667,35.7166083],[139.8046889,35.7165877],[139.8046414,35.7165827],[139.8045874,35.7165323],[139.8045901,35.716514],[139.8045877,35.7164938],[139.8045814,35.7164508],[139.8045717,35.7164146],[139.8045623,35.7164113],[139.8045451,35.7163508],[139.8045129,35.7163076],[139.8045216,35.7162966],[139.8044608,35.716226],[139.8040435,35.7158132],[139.8036517,35.7154249],[139.8032031,35.7149745],[139.8029316,35.7147083],[139.8029185,35.7147165],[139.8026483,35.714429],[139.8026613,35.7144185],[139.8024836,35.7142047],[139.802244,35.7139745],[139.801972,35.7137301],[139.8017529,35.7135459],[139.8015374,35.7134159],[139.8015197,35.7134046],[139.8014951,35.713389],[139.8011905,35.7131955],[139.8009388,35.7130211],[139.8006734,35.7128036],[139.800489,35.7126276],[139.8002886,35.7124324],[139.8000845,35.7122177],[139.7999706,35.7120971],[139.7996206,35.7117888],[139.7994673,35.7116229],[139.7991438,35.7112477],[139.7988271,35.7108863],[139.7986621,35.7107012],[139.7985391,35.7105602]]],[[[139.8016807,35.7117713],[139.8017073,35.7117918],[139.8017001,35.7117995],[139.8019795,35.7119744],[139.8023953,35.7122335],[139.8025949,35.7123903],[139.8032472,35.7130068],[139.8034538,35.7132018],[139.8036843,35.7134256],[139.803896,35.7136248],[139.8039954,35.713716],[139.8041385,35.7138725],[139.8044439,35.7141554],[139.8056721,35.7153043],[139.806392,35.7160499],[139.8068379,35.716528],[139.807166,35.716891],[139.807405,35.717158],[139.8075237,35.7173011],[139.807748,35.7175804],[139.8077564,35.717576],[139.8079611,35.7178618],[139.8079485,35.7178681],[139.8082827,35.7183332],[139.8083745,35.7184998],[139.8086508,35.7192186],[139.8087167,35.719383],[139.8089529,35.7193017],[139.8089757,35.719294],[139.8093068,35.7191831],[139.8096321,35.7196885],[139.8096722,35.7196732],[139.8101472,35.7194919],[139.8100955,35.7194117],[139.8100358,35.7193794],[139.8094354,35.7185218],[139.809383,35.7184745],[139.8093612,35.718199],[139.8093832,35.7180772],[139.8093851,35.7180664],[139.8092231,35.718096],[139.809088,35.7181268],[139.8089352,35.7181198],[139.8088383,35.7181256],[139.8088191,35.7181411],[139.8087713,35.7181652],[139.8086744,35.7180336],[139.8086012,35.7179401],[139.8086974,35.7178912],[139.8087071,35.7178906],[139.8087165,35.7178931],[139.8086886,35.7178416],[139.8086211,35.7177455],[139.8085871,35.7176756],[139.8085455,35.7175902],[139.8084968,35.7174903],[139.8084734,35.7174476],[139.8084136,35.7173384],[139.8083968,35.7173069],[139.8082697,35.7171681],[139.8082253,35.7171197],[139.8082036,35.7171321],[139.8080014,35.7169117],[139.807897,35.7168644],[139.8078603,35.7168494],[139.8077903,35.7168207],[139.8066693,35.7156007],[139.8067895,35.7154474],[139.8066486,35.715347],[139.8065332,35.7154495],[139.8064157,35.7153243],[139.8064,35.7152988],[139.8063801,35.7152773],[139.8063619,35.7152309],[139.8062866,35.7150925],[139.8063124,35.7149944],[139.8063272,35.7149057],[139.8063245,35.7148736],[139.8063053,35.714837],[139.8062301,35.7147637],[139.8062241,35.7147579],[139.8061034,35.7147455],[139.8055623,35.7141961],[139.8056687,35.71413],[139.8053961,35.7138474],[139.8054234,35.7137117],[139.8052219,35.7132885],[139.8048793,35.7134509],[139.8047398,35.7132718],[139.8046229,35.7130321],[139.8044343,35.7126397],[139.8044264,35.7126231],[139.8044196,35.7126077],[139.8044097,35.7125869],[139.8044936,35.7125597],[139.8045252,35.7125493],[139.8045456,35.7125427],[139.8048101,35.7124589],[139.8045566,35.7119169],[139.8041413,35.7110547],[139.8041083,35.7109862],[139.8040947,35.710958],[139.8023794,35.7114577],[139.8023127,35.7114771],[139.8021625,35.7115256],[139.8021435,35.7115318],[139.8020985,35.7115501],[139.8019755,35.7115961],[139.8019455,35.7116131],[139.8016807,35.7117713]]]]}}
