{"type":"Feature","id":"attraction-large-park-W82628539","properties":{"id":"attraction-large-park-W82628539","kind":"attraction","name":"天白公園","shortName":"天白公園","context":"日本","subtype":"large-park","subtypeLabel":"大型都市公園・広域公園","statusLabel":"著名な公園","aliases":[],"osmType":"way","osmId":82628539,"osmDate":null,"officialAreaKm2":null,"areaSourceLabel":"","areaSourceUrl":"","boundarySourceLabel":"© OpenStreetMap contributors","boundarySourceUrl":"https://www.openstreetmap.org/copyright","geometryFile":"attractions/large-park-W82628539.geojson"},"geometry":{"type":"Polygon","coordinates":[[[136.9926337,35.1198792],[136.9919345,35.1198757],[136.9912306,35.1198337],[136.9910493,35.1198087],[136.9909179,35.1197758],[136.9903343,35.1195526],[136.9903281,35.1189942],[136.9898906,35.1188667],[136.9888708,35.1185674],[136.9887374,35.1184841],[136.9885828,35.1184619],[136.9885511,35.1184402],[136.9884595,35.1184124],[136.9882776,35.1184181],[136.9882196,35.1185308],[136.9881499,35.1186196],[136.9879983,35.118793],[136.987716,35.1191117],[136.9869746,35.1190329],[136.9869509,35.1190025],[136.9869863,35.1187896],[136.9858834,35.1182686],[136.9846446,35.1176932],[136.9847334,35.1176746],[136.9848351,35.1176447],[136.9849031,35.1175846],[136.9849345,35.1174524],[136.9849721,35.1173274],[136.9850952,35.1170605],[136.9851988,35.1168255],[136.9852678,35.116729],[136.9854012,35.1165421],[136.9855364,35.1163457],[136.9856393,35.1161717],[136.9859035,35.1159419],[136.9861962,35.1157364],[136.9862301,35.1157016],[136.9864747,35.1154732],[136.9867785,35.1151588],[136.986851,35.1152029],[136.9871698,35.1152571],[136.9879814,35.1153222],[136.9890994,35.1153813],[136.9896546,35.1154252],[136.9906631,35.1154976],[136.9926925,35.1156242],[136.9927217,35.1156531],[136.9925702,35.1164531],[136.9924715,35.1173145],[136.9924454,35.1176543],[136.9924736,35.1180569],[136.9924706,35.118671],[136.9926412,35.1193305],[136.9926654,35.1198669],[136.9926337,35.1198792]]]}}
