{"type":"Feature","id":"attraction-large-large-port-W289374481","properties":{"id":"attraction-large-large-port-W289374481","kind":"attraction","name":"ENEOSグローブガスターミナル 国家石油ガス備蓄基地","shortName":"ENEOSグローブガスターミナル 国家石油ガス備蓄基地","context":"日本","subtype":"large-port","subtypeLabel":"港湾・埠頭","statusLabel":"","aliases":[],"osmType":"way","osmId":289374481,"osmDate":null,"officialAreaKm2":null,"areaSourceLabel":"","areaSourceUrl":"","boundarySourceLabel":"© OpenStreetMap contributors","boundarySourceUrl":"https://www.openstreetmap.org/copyright","geometryFile":"attractions/large-large-port-W289374481.geojson"},"geometry":{"type":"Polygon","coordinates":[[[137.0256978,37.1011562],[137.0253656,37.1017869],[137.0270897,37.1023924],[137.0275484,37.1027709],[137.0278489,37.1028466],[137.0282443,37.1030863],[137.0287504,37.1031802],[137.0289719,37.103061],[137.0293515,37.103155],[137.0299367,37.1034073],[137.0301265,37.1037352],[137.0300079,37.1039497],[137.0300395,37.1040758],[137.0301265,37.1041705],[137.0312022,37.1045874],[137.0311389,37.1047388],[137.0313445,37.1051677],[137.0312654,37.1053191],[137.031392,37.1053822],[137.0316609,37.1049785],[137.0324517,37.1052939],[137.0328313,37.104701],[137.0331635,37.1048019],[137.034337,37.1026897],[137.0341077,37.1025825],[137.0334512,37.1022924],[137.0331239,37.1021331],[137.0329894,37.1019754],[137.0328787,37.1018051],[137.0328708,37.1015465],[137.0326019,37.1009599],[137.0321353,37.1010167],[137.0316924,37.1012374],[137.0313286,37.1013699],[137.0312416,37.1014708],[137.0309727,37.1015213],[137.0307197,37.101433],[137.0305615,37.1015024],[137.030174,37.1017231],[137.0300237,37.1019881],[137.0298102,37.1021457],[137.0295413,37.1022151],[137.0293119,37.1021457],[137.0291143,37.1020266],[137.0292092,37.1017743],[137.0294306,37.1014085],[137.0298809,37.1006003],[137.0297781,37.1004047],[137.0295883,37.1002155],[137.0291533,37.1002534],[137.0287025,37.1005057],[137.0281653,37.1005632],[137.0280229,37.1009669],[137.0278173,37.1013706],[137.0275326,37.1017743],[137.0256978,37.1011562]]]}}
