{"type":"Feature","id":"attraction-large-park-W471845642","properties":{"id":"attraction-large-park-W471845642","kind":"attraction","name":"菅生沼遊歩道","shortName":"菅生沼遊歩道","context":"日本","subtype":"large-park","subtypeLabel":"大型都市公園・広域公園","statusLabel":"","aliases":[],"osmType":"way","osmId":471845642,"osmDate":null,"officialAreaKm2":null,"areaSourceLabel":"","areaSourceUrl":"","boundarySourceLabel":"© OpenStreetMap contributors","boundarySourceUrl":"https://www.openstreetmap.org/copyright","geometryFile":"attractions/large-park-W471845642.geojson"},"geometry":{"type":"Polygon","coordinates":[[[139.9188662,36.022634],[139.9184836,36.022404],[139.9148663,36.0214548],[139.9147838,36.0216826],[139.9148228,36.0218893],[139.914486,36.022273],[139.9143671,36.0223124],[139.913904,36.0223021],[139.9136021,36.0223461],[139.913438,36.0224967],[139.913248,36.0229809],[139.9132349,36.0231882],[139.9135667,36.023807],[139.9134732,36.0240748],[139.9133102,36.0243789],[139.9132585,36.0245654],[139.9132491,36.0252032],[139.9126193,36.0258491],[139.9123188,36.0262066],[139.912174,36.0263772],[139.9118704,36.0275247],[139.9114262,36.0294651],[139.9110079,36.031022],[139.9103478,36.0311352],[139.9101942,36.0314914],[139.909298,36.0323656],[139.9095089,36.0324445],[139.9093194,36.0327616],[139.9087165,36.0331957],[139.9082845,36.0337631],[139.9107994,36.0347361],[139.9115998,36.0336967],[139.9127358,36.0329804],[139.9141577,36.0322349],[139.9156902,36.0307639],[139.9167273,36.029448],[139.9173574,36.027842],[139.9177437,36.0271111],[139.917998,36.0263179],[139.9182686,36.0255609],[139.9182487,36.0252226],[139.9184915,36.0249399],[139.9184782,36.0245174],[139.9185226,36.0242886],[139.9187258,36.0232404],[139.9188662,36.022634]]]}}
