{"type":"Feature","id":"attraction-large-park-W62242472","properties":{"id":"attraction-large-park-W62242472","kind":"attraction","name":"姫の沢公園","shortName":"姫の沢公園","context":"日本","subtype":"large-park","subtypeLabel":"大型都市公園・広域公園","statusLabel":"","aliases":["Hime-no-Sawa Park"],"osmType":"way","osmId":62242472,"osmDate":null,"officialAreaKm2":null,"areaSourceLabel":"","areaSourceUrl":"","boundarySourceLabel":"© OpenStreetMap contributors","boundarySourceUrl":"https://www.openstreetmap.org/copyright","geometryFile":"attractions/large-park-W62242472.geojson"},"geometry":{"type":"Polygon","coordinates":[[[139.055735,35.115222],[139.0557256,35.1154583],[139.0555651,35.1156456],[139.0551167,35.1158454],[139.0545791,35.1158044],[139.0542365,35.1158214],[139.0539836,35.1158183],[139.0539116,35.1158174],[139.0537911,35.1158159],[139.0530393,35.1159933],[139.052492,35.116069],[139.05201,35.116226],[139.0517511,35.1162977],[139.051448,35.1164122],[139.0507961,35.1165285],[139.0505695,35.1164779],[139.0503524,35.1162034],[139.0496557,35.1163838],[139.0490987,35.1159409],[139.0486408,35.1155446],[139.0484729,35.1155039],[139.0473376,35.1144353],[139.0466237,35.1149719],[139.0465815,35.1153052],[139.0466,35.115537],[139.046485,35.115754],[139.046511,35.115961],[139.046647,35.116195],[139.04713,35.116344],[139.04804,35.116333],[139.0480813,35.1163747],[139.0480809,35.1164189],[139.0480734,35.1166289],[139.0486383,35.1168696],[139.0487909,35.1171765],[139.04872,35.117072],[139.048476,35.11698],[139.048247,35.1168751],[139.047884,35.116844],[139.047291,35.117126],[139.046836,35.117448],[139.04658,35.117861],[139.04646,35.118366],[139.046436,35.119354],[139.046486,35.120482],[139.046387,35.120759],[139.046228,35.120984],[139.046007,35.121196],[139.045771,35.121369],[139.045652,35.121836],[139.045629,35.122162],[139.045545,35.122464],[139.045308,35.122689],[139.044995,35.122886],[139.044866,35.123112],[139.0448441,35.123378],[139.0448934,35.1235036],[139.0451227,35.1235754],[139.0455913,35.1237429],[139.0460641,35.1234849],[139.047751,35.122559],[139.048247,35.12244],[139.048849,35.122424],[139.0492771,35.1224312],[139.04962,35.122437],[139.050399,35.122753],[139.05096,35.123142],[139.05126,35.123502],[139.051441,35.123695],[139.052172,35.123428],[139.052625,35.123194],[139.053084,35.122708],[139.053417,35.12232],[139.053455,35.122004],[139.053373,35.121572],[139.053274,35.121216],[139.053279,35.120976],[139.053329,35.120837],[139.053936,35.120581],[139.054158,35.120357],[139.054348,35.120132],[139.054295,35.119776],[139.054333,35.11946],[139.05451,35.119146],[139.054887,35.118874],[139.055341,35.11859],[139.055405,35.118092],[139.055631,35.117665],[139.0559481,35.117277],[139.056266,35.116915],[139.0562224,35.1167571],[139.056266,35.116231],[139.056139,35.115748],[139.056041,35.115328],[139.055735,35.115222]]]}}
