{"type":"Feature","id":"attraction-large-airport-W141057752","properties":{"id":"attraction-large-airport-W141057752","kind":"attraction","name":"大樹町多目的航空公園","shortName":"大樹町多目的航空公園","context":"日本","subtype":"airport","subtypeLabel":"空港・飛行場","statusLabel":"","aliases":["大樹町"],"osmType":"way","osmId":141057752,"osmDate":null,"officialAreaKm2":null,"areaSourceLabel":"","areaSourceUrl":"","boundarySourceLabel":"© OpenStreetMap contributors","boundarySourceUrl":"https://www.openstreetmap.org/copyright","geometryFile":"attractions/large-airport-W141057752.geojson"},"geometry":{"type":"Polygon","coordinates":[[[143.4314879,42.5002594],[143.4318755,42.4993074],[143.4326535,42.4973965],[143.4327692,42.4971124],[143.4327795,42.4970871],[143.4367076,42.4979796],[143.4391313,42.49853],[143.439021,42.4988074],[143.4490609,42.5010368],[143.4486035,42.502062],[143.4385623,42.499876],[143.4385224,42.4999686],[143.4385015,42.5000172],[143.4378083,42.5016267],[143.4347397,42.5009629],[143.4314879,42.5002594]]]}}
