{"type":"Feature","id":"attraction-large-park-W727091518","properties":{"id":"attraction-large-park-W727091518","kind":"attraction","name":"甫喜ヶ峰森林公園","shortName":"甫喜ヶ峰森林公園","context":"日本","subtype":"large-park","subtypeLabel":"大型都市公園・広域公園","statusLabel":"","aliases":[],"osmType":"way","osmId":727091518,"osmDate":null,"officialAreaKm2":null,"areaSourceLabel":"","areaSourceUrl":"","boundarySourceLabel":"© OpenStreetMap contributors","boundarySourceUrl":"https://www.openstreetmap.org/copyright","geometryFile":"attractions/large-park-W727091518.geojson"},"geometry":{"type":"Polygon","coordinates":[[[133.680084,33.6705965],[133.6807939,33.6707831],[133.6810647,33.6709619],[133.681457,33.6709852],[133.6821108,33.6710629],[133.6827833,33.6713039],[133.6832036,33.6714438],[133.6836426,33.6715526],[133.6839283,33.6717929],[133.6837454,33.6718436],[133.683721,33.6720263],[133.6836966,33.6720906],[133.6833917,33.6721684],[133.682603,33.6721413],[133.6823672,33.6721312],[133.6823144,33.6721583],[133.6823306,33.6722462],[133.6828266,33.6724628],[133.6829201,33.6725541],[133.6829364,33.6726218],[133.6828551,33.6726691],[133.6825339,33.6728958],[133.6824323,33.6730988],[133.6823225,33.673383],[133.6822412,33.6734338],[133.6830868,33.673921],[133.6833632,33.6739954],[133.6835503,33.6739717],[133.6837373,33.6738871],[133.6839202,33.6737044],[133.6841357,33.6736503],[133.6843999,33.6736909],[133.68453,33.6737518],[133.6847414,33.6737281],[133.6848024,33.6734439],[133.685026,33.6734507],[133.6850667,33.6735691],[133.6852943,33.6739514],[133.6860383,33.6744623],[133.6861562,33.6745131],[133.6862944,33.6746484],[133.6864083,33.6747228],[133.6866156,33.6747465],[133.6868148,33.6746416],[133.6869856,33.6744792],[133.6871604,33.674398],[133.6873352,33.6744149],[133.6874165,33.6744691],[133.6874328,33.6745469],[133.68751,33.6755991],[133.6875669,33.6756904],[133.6877255,33.675731],[133.688254,33.6754401],[133.6883191,33.6752337],[133.6883882,33.6747668],[133.688441,33.6745367],[133.6885264,33.6744691],[133.6886524,33.6744961],[133.6891078,33.6749935],[133.6892053,33.6750781],[133.6892988,33.675122],[133.689433,33.6750781],[133.6895387,33.6749157],[133.6895834,33.6748785],[133.6897867,33.6747397],[133.6898802,33.6747364],[133.6900794,33.6748615],[133.6901566,33.6749258],[133.6902217,33.6750172],[133.6902258,33.6750882],[133.6902513,33.6752883],[133.6902443,33.6753291],[133.6901205,33.6755409],[133.6899571,33.6758052],[133.689887,33.6759121],[133.68988,33.6759762],[133.6898823,33.6760539],[133.6899477,33.6760986],[133.6900271,33.6761181],[133.6901275,33.6761103],[133.6902443,33.676019],[133.6903073,33.6759101],[133.6905758,33.6756498],[133.690793,33.675436],[133.6909658,33.6752844],[133.6910895,33.6752009],[133.691246,33.6751173],[133.6913184,33.6750726],[133.6913791,33.6748025],[133.6914538,33.6745072],[133.691671,33.6742429],[133.6917667,33.674171],[133.6921333,33.6739903],[133.6922781,33.6739262],[133.6927731,33.6737279],[133.6931607,33.6736172],[133.6935763,33.6736658],[133.6937024,33.6736774],[133.6937888,33.6735997],[133.6938075,33.6735356],[133.6937421,33.6733665],[133.693665,33.6733218],[133.6935903,33.6732868],[133.6935179,33.6732188],[133.6934755,33.673048],[133.6934719,33.6727446],[133.6935073,33.6725178],[133.6936524,33.6724],[133.6937834,33.6723529],[133.6944098,33.6723499],[133.6945797,33.6723558],[133.6946894,33.6724059],[133.6949018,33.6725855],[133.6949938,33.6726945],[133.6951,33.6727682],[133.6953371,33.6728889],[133.6955954,33.6729714],[133.6956981,33.6730833],[133.6957759,33.6732659],[133.6958573,33.6736606],[133.6959494,33.6738933],[133.6959848,33.6739934],[133.6960945,33.674123],[133.696183,33.6742261],[133.6963316,33.6742379],[133.6964873,33.6742173],[133.6966607,33.6740111],[133.6967138,33.6737725],[133.6968625,33.6736017],[133.6968979,33.6735133],[133.6969049,33.6734338],[133.6968908,33.6733131],[133.6969049,33.6732424],[133.6974181,33.6725973],[133.6984126,33.6714722],[133.6985224,33.671428],[133.6986781,33.6714692],[133.6987772,33.6715635],[133.6989754,33.6718021],[133.699078,33.671858],[133.6992939,33.6717697],[133.6999026,33.6710745],[133.699662,33.6699995],[133.6996974,33.6699435],[133.699846,33.6695517],[133.6998354,33.6694486],[133.6997009,33.6691718],[133.6995275,33.6687977],[133.6994213,33.6687211],[133.6993399,33.6687211],[133.6984728,33.6689626],[133.6983949,33.6689214],[133.6984728,33.6687064],[133.6987843,33.6683824],[133.6988197,33.6682557],[133.6987347,33.6681997],[133.6984657,33.6681821],[133.6983949,33.6681173],[133.6983348,33.6678198],[133.6982782,33.667808],[133.6981543,33.668079],[133.6980304,33.668185],[133.6976057,33.6682145],[133.6974925,33.6682145],[133.6973155,33.6682734],[133.6971562,33.668347],[133.6961546,33.6680319],[133.696098,33.6680819],[133.6961334,33.6688478],[133.6960839,33.6688743],[133.6958538,33.6689067],[133.6957653,33.6689538],[133.695737,33.6690805],[133.6956662,33.6690922],[133.6952734,33.6689862],[133.6951672,33.6689833],[133.6950009,33.6690157],[133.6948841,33.6689509],[133.6948593,33.6685886],[133.6950044,33.6679523],[133.6949832,33.6679081],[133.6942187,33.6675458],[133.6941444,33.6674427],[133.6941408,33.6671158],[133.6939922,33.6670363],[133.6939356,33.6670745],[133.6939037,33.6673956],[133.6939356,33.6675517],[133.694155,33.6679288],[133.6941939,33.6680436],[133.6940063,33.6682263],[133.69384,33.6685149],[133.6934401,33.6686917],[133.6933056,33.66878],[133.6923712,33.6689273],[133.692304,33.6689891],[133.6923005,33.6690333],[133.692481,33.6692012],[133.6925871,33.6694133],[133.6926721,33.6697049],[133.6926615,33.6701232],[133.6926331,33.6701703],[133.6924916,33.6702969],[133.6923854,33.6703529],[133.6922014,33.6702439],[133.6920952,33.6702439],[133.6920138,33.6703117],[133.6919253,33.6703529],[133.6918722,33.6703559],[133.691805,33.6703205],[133.6917165,33.670185],[133.6916811,33.6701673],[133.6910724,33.6703647],[133.6910122,33.6704177],[133.690991,33.6705237],[133.690998,33.670671],[133.6909626,33.6708006],[133.6908635,33.6709037],[133.6906406,33.6709832],[133.6905592,33.6710775],[133.6904211,33.6711217],[133.69023,33.6710952],[133.6900991,33.6709597],[133.6900531,33.6708801],[133.6899787,33.6708801],[133.6899292,33.6708801],[133.6898584,33.6709361],[133.6897593,33.6711659],[133.6897062,33.671428],[133.6895859,33.671534],[133.6894372,33.6715488],[133.6892107,33.6714545],[133.6889099,33.671319],[133.6889028,33.6712159],[133.6887188,33.6710775],[133.6885772,33.6709891],[133.6884533,33.6708183],[133.6885171,33.6706416],[133.6887506,33.6703529],[133.6889099,33.6703028],[133.6890586,33.6702822],[133.6892567,33.6702616],[133.6893771,33.6702704],[133.6894656,33.6702204],[133.6895045,33.6701556],[133.6894549,33.6700201],[133.6889948,33.669702],[133.688786,33.6694162],[133.6886763,33.6691394],[133.6886834,33.6689715],[133.6884781,33.6688802],[133.6883118,33.6685886],[133.6880817,33.6685267],[133.6875862,33.6687889],[133.6875367,33.6688566],[133.6874128,33.6692866],[133.6872252,33.669431],[133.6869421,33.6694045],[133.6858485,33.6683441],[133.6857848,33.6681526],[133.6859299,33.6678139],[133.685937,33.6677167],[133.6856609,33.6675223],[133.6855937,33.6675105],[133.6854698,33.6675753],[133.6853318,33.6674899],[133.6850876,33.6676195],[133.6848752,33.6674339],[133.6841568,33.6677432],[133.6837285,33.6677785],[133.6833003,33.6677226],[133.6831375,33.6677373],[133.6828685,33.6677697],[133.6825075,33.6678993],[133.6822456,33.6678492],[133.6820014,33.6677461],[133.6815236,33.6674958],[133.6812334,33.6674162],[133.6812298,33.6672542],[133.6813396,33.6670716],[133.6814847,33.6670569],[133.6815484,33.6671305],[133.6815979,33.66716],[133.6819837,33.6671983],[133.6822491,33.6672454],[133.6824756,33.6672042],[133.6825889,33.6670745],[133.6826243,33.6668536],[133.6827128,33.6665443],[133.682688,33.6665237],[133.6825924,33.6665591],[133.6824155,33.6667446],[133.6823482,33.6668065],[133.682143,33.6668301],[133.6818103,33.6668124],[133.681743,33.6667505],[133.6816262,33.6665267],[133.6815484,33.6665296],[133.6814422,33.6667358],[133.6812794,33.6668212],[133.681067,33.6668507],[133.6809007,33.6668477],[133.6807874,33.666886],[133.6807768,33.6670775],[133.6807981,33.6671158],[133.6807945,33.6672336],[133.6806742,33.6672807],[133.6805893,33.6672837],[133.6803663,33.6672601],[133.680069,33.6669125],[133.6798496,33.6665443],[133.67957,33.6663175],[133.6793541,33.6660937],[133.6792585,33.6660907],[133.6790993,33.6662085],[133.6790355,33.666344],[133.6789648,33.6664913],[133.6788692,33.6665149],[133.6785967,33.6664501],[133.6782251,33.6662321],[133.678041,33.6662203],[133.6777791,33.6662616],[133.6774146,33.6664795],[133.6774111,33.6665532],[133.6775066,33.6666327],[133.6775809,33.6668212],[133.6775455,33.6669656],[133.6774535,33.6671276],[133.6770855,33.66759],[133.6769722,33.6676371],[133.6769297,33.6677756],[133.6769297,33.6679464],[133.6769616,33.6680525],[133.6782074,33.6690864],[133.6786922,33.6693838],[133.6790922,33.6696813],[133.6797328,33.6704118],[133.6798142,33.6705002],[133.680084,33.6705965]]]}}
