{"type":"Feature","id":"attraction-large-park-W144845440","properties":{"id":"attraction-large-park-W144845440","kind":"attraction","name":"千葉公園","shortName":"千葉公園","context":"日本","subtype":"large-park","subtypeLabel":"大型都市公園・広域公園","statusLabel":"著名な公園","aliases":[],"osmType":"way","osmId":144845440,"osmDate":null,"officialAreaKm2":null,"areaSourceLabel":"","areaSourceUrl":"","boundarySourceLabel":"© OpenStreetMap contributors","boundarySourceUrl":"https://www.openstreetmap.org/copyright","geometryFile":"attractions/large-park-W144845440.geojson"},"geometry":{"type":"Polygon","coordinates":[[[140.1132143,35.6215285],[140.1132198,35.621607],[140.1131775,35.6221428],[140.1133881,35.6221924],[140.1132412,35.6225658],[140.1133458,35.6226077],[140.1132164,35.6228143],[140.1141596,35.6225967],[140.1141974,35.6227222],[140.1142477,35.6228296],[140.1144878,35.6230923],[140.1145696,35.6231386],[140.1154064,35.6234744],[140.1154675,35.6234564],[140.1165806,35.6216544],[140.1166549,35.6214013],[140.1174892,35.6201293],[140.1175474,35.6200404],[140.1179712,35.6193079],[140.1181542,35.61872],[140.1182487,35.6182622],[140.1182729,35.6179844],[140.1182827,35.6173144],[140.1183199,35.6166674],[140.1181999,35.6166199],[140.1180917,35.6165775],[140.1180883,35.616558],[140.117942,35.6165586],[140.1179578,35.6168484],[140.1179203,35.6170054],[140.1178639,35.6170403],[140.1175771,35.617035],[140.1175835,35.6173202],[140.117537,35.617328],[140.117341,35.6173656],[140.1171067,35.6174196],[140.1169037,35.6174458],[140.1165622,35.6174594],[140.1159973,35.6181378],[140.1157978,35.6183774],[140.1157799,35.6188391],[140.1156496,35.6189431],[140.1146724,35.6197774],[140.1142429,35.6201516],[140.1135751,35.619539],[140.1135027,35.6195325],[140.1130259,35.6198443],[140.1124735,35.6193228],[140.1117642,35.6187039],[140.1117341,35.6187091],[140.111443,35.6194737],[140.1117489,35.6196039],[140.1119826,35.619703],[140.1119176,35.6204568],[140.1116118,35.6205026],[140.1116843,35.6210542],[140.1117111,35.6210826],[140.112128,35.6213511],[140.1122259,35.6214293],[140.1126275,35.6214546],[140.1132143,35.6215285]]]}}
