{"type":"Feature","id":"attraction-large-park-W35866698","properties":{"id":"attraction-large-park-W35866698","kind":"attraction","name":"山下公園","shortName":"山下公園","context":"日本","subtype":"large-park","subtypeLabel":"大型都市公園・広域公園","statusLabel":"著名な公園","aliases":["Yamashita Park"],"osmType":"way","osmId":35866698,"osmDate":null,"officialAreaKm2":null,"areaSourceLabel":"","areaSourceUrl":"","boundarySourceLabel":"© OpenStreetMap contributors","boundarySourceUrl":"https://www.openstreetmap.org/copyright","geometryFile":"attractions/large-park-W35866698.geojson"},"geometry":{"type":"Polygon","coordinates":[[[139.646749,35.4480735],[139.6462378,35.4475002],[139.6462239,35.4475078],[139.6461619,35.4474371],[139.6474665,35.4466502],[139.6479084,35.4463892],[139.6494934,35.4454644],[139.6495816,35.4454173],[139.6502752,35.4450392],[139.6504768,35.4449188],[139.6506829,35.4447903],[139.6512683,35.4444059],[139.651858,35.444019],[139.6525982,35.4435323],[139.6529752,35.4433316],[139.6535691,35.4438358],[139.6535094,35.4442737],[139.6534338,35.4443139],[139.6533764,35.4442471],[139.6519466,35.445061],[139.6510669,35.4455718],[139.6505868,35.4458487],[139.6502552,35.4460392],[139.6502852,35.4460747],[139.6502392,35.4460998],[139.6502542,35.4461173],[139.6502613,35.446137],[139.650259,35.4461681],[139.6502486,35.4461984],[139.6502328,35.4462192],[139.6502134,35.4462388],[139.6501922,35.4462556],[139.6501666,35.4462705],[139.6501394,35.4462815],[139.650111,35.44629],[139.6500826,35.4462947],[139.6500521,35.4462935],[139.6500212,35.4462874],[139.6499968,35.4462765],[139.6499729,35.4462559],[139.6499304,35.4462801],[139.6499017,35.4462448],[139.6478828,35.4474139],[139.6479031,35.4474395],[139.6478702,35.447459],[139.6478839,35.4474814],[139.647883,35.4475086],[139.6478721,35.4475338],[139.6478588,35.4475485],[139.6478415,35.447564],[139.6478259,35.4475732],[139.6478014,35.4475828],[139.6477719,35.4475901],[139.6477434,35.4475904],[139.6477125,35.4475826],[139.6476906,35.4475637],[139.6476604,35.44758],[139.647637,35.4475535],[139.646749,35.4480735]]]}}
