{"type":"Feature","id":"attraction-large-park-R6838566","properties":{"id":"attraction-large-park-R6838566","kind":"attraction","name":"霞ヶ浦緑地","shortName":"霞ヶ浦緑地","context":"日本","subtype":"large-park","subtypeLabel":"大型都市公園・広域公園","statusLabel":"著名な公園","aliases":[],"osmType":"relation","osmId":6838566,"osmDate":null,"officialAreaKm2":null,"areaSourceLabel":"","areaSourceUrl":"","boundarySourceLabel":"© OpenStreetMap contributors","boundarySourceUrl":"https://www.openstreetmap.org/copyright","geometryFile":"attractions/large-park-R6838566.geojson"},"geometry":{"type":"Polygon","coordinates":[[[136.6452619,34.985561],[136.6450576,34.9849975],[136.644897,34.984412],[136.6448696,34.9840393],[136.6447912,34.9826957],[136.6446963,34.9825309],[136.6446577,34.9824269],[136.6445376,34.9810772],[136.6444546,34.9799626],[136.6438165,34.9785574],[136.6439077,34.9785311],[136.644106,34.9784804],[136.6445032,34.9783509],[136.6446909,34.9782146],[136.6452234,34.9780608],[136.6458423,34.9778814],[136.6462612,34.9777707],[136.6463809,34.9777893],[136.6465106,34.9778644],[136.6468375,34.978708],[136.6470877,34.9793923],[136.647435,34.980285],[136.6476863,34.9809952],[136.6481066,34.9821206],[136.6485909,34.9834038],[136.649108,34.9848462],[136.649312,34.9853879],[136.6495615,34.986035],[136.6497988,34.9866559],[136.6496862,34.9866778],[136.6494286,34.9867174],[136.6490719,34.9867701],[136.6485717,34.9868306],[136.6486363,34.9871037],[136.6487675,34.9870866],[136.6491376,34.9870371],[136.6495708,34.9869877],[136.6497746,34.9870305],[136.6498498,34.9871327],[136.6498819,34.9874446],[136.6499852,34.988316],[136.6500925,34.9893796],[136.6501944,34.990264],[136.6502601,34.9908365],[136.6503044,34.991222],[136.6498403,34.9916176],[136.6500241,34.9918163],[136.6505059,34.9914941],[136.6507026,34.991752],[136.6514114,34.9927547],[136.6512084,34.992846],[136.651061,34.9926608],[136.6507472,34.9927942],[136.6506604,34.9927112],[136.6501804,34.992229],[136.6498523,34.9920054],[136.6498681,34.9919391],[136.6496057,34.9917297],[136.6495005,34.9917895],[136.6489804,34.9914811],[136.6484407,34.9911158],[136.6480655,34.9908857],[136.6475892,34.9904507],[136.6471886,34.990106],[136.6475137,34.9893237],[136.648388,34.9891774],[136.6487689,34.9890678],[136.6487578,34.9890275],[136.6487494,34.9888852],[136.6487363,34.9885724],[136.6487023,34.9882958],[136.6486702,34.9880333],[136.6483816,34.9870733],[136.6471364,34.9872414],[136.6469115,34.9872077],[136.6466675,34.9872149],[136.6463556,34.9873315],[136.6462579,34.9875386],[136.645961,34.9876243],[136.6457566,34.9870543],[136.6452619,34.985561]]]}}
