{"type":"Feature","id":"attraction-large-park-W483010149","properties":{"id":"attraction-large-park-W483010149","kind":"attraction","name":"呉市総合スポーツセンター","shortName":"呉市総合スポーツセンター","context":"日本","subtype":"large-park","subtypeLabel":"大型都市公園・広域公園","statusLabel":"著名な公園","aliases":[],"osmType":"way","osmId":483010149,"osmDate":null,"officialAreaKm2":null,"areaSourceLabel":"","areaSourceUrl":"","boundarySourceLabel":"© OpenStreetMap contributors","boundarySourceUrl":"https://www.openstreetmap.org/copyright","geometryFile":"attractions/large-park-W483010149.geojson"},"geometry":{"type":"Polygon","coordinates":[[[132.5960715,34.2972108],[132.5959159,34.2973083],[132.5957067,34.2973659],[132.59546,34.2974656],[132.5953017,34.2975277],[132.5952561,34.2975764],[132.5952293,34.2976739],[132.5951435,34.2977471],[132.5950335,34.2978113],[132.5949852,34.2978578],[132.5948913,34.2979797],[132.5948323,34.2980883],[132.5947921,34.298239],[132.5948028,34.2983941],[132.5948538,34.2986046],[132.5948967,34.2987708],[132.5949503,34.298968],[132.5949933,34.2991053],[132.5949959,34.2992161],[132.5950845,34.2992937],[132.5952186,34.299307],[132.5953634,34.2993801],[132.5954975,34.299502],[132.5956048,34.2996504],[132.5957282,34.299923],[132.5958489,34.3001578],[132.5959106,34.3002199],[132.5959857,34.3004149],[132.5960554,34.3006076],[132.5960983,34.3006896],[132.5961761,34.3007605],[132.5962291,34.3007938],[132.5962774,34.3008392],[132.5963149,34.3009345],[132.5963498,34.3010087],[132.5963806,34.3010574],[132.5964423,34.3011018],[132.5965389,34.3011527],[132.5966462,34.3012269],[132.5968943,34.3012369],[132.597184,34.3012635],[132.5974039,34.3012967],[132.5974468,34.3011062],[132.5974656,34.3010486],[132.5977472,34.3009976],[132.5977848,34.3009178],[132.598002,34.3008514],[132.5980718,34.3008004],[132.5982032,34.3007273],[132.5982381,34.3006254],[132.5982434,34.3004969],[132.5983239,34.3003816],[132.5985277,34.3003129],[132.5986753,34.3002864],[132.5988389,34.3003218],[132.5989569,34.3003595],[132.5991312,34.3002864],[132.5993056,34.3002088],[132.5993753,34.3002376],[132.5994611,34.3002864],[132.5995792,34.3002908],[132.5997052,34.3003307],[132.5998608,34.3002664],[132.6000593,34.3001357],[132.6002417,34.3000537],[132.6003999,34.3000027],[132.6004831,34.2998654],[132.6005582,34.2997058],[132.600585,34.2995817],[132.6005206,34.29942],[132.6004562,34.2992804],[132.6003704,34.2991895],[132.6002202,34.29903],[132.6000781,34.2989214],[132.5999466,34.2988173],[132.5997186,34.2987863],[132.5994504,34.2987397],[132.599209,34.2987287],[132.5988979,34.2987021],[132.5986833,34.2986688],[132.5985546,34.2986267],[132.5984741,34.298578],[132.5984473,34.2984805],[132.598399,34.2983409],[132.59834,34.2981924],[132.5981764,34.2982345],[132.5979323,34.2982833],[132.5977392,34.2983542],[132.5972966,34.2984716],[132.5970793,34.298547],[132.5969828,34.2985957],[132.5967494,34.2986533],[132.5966609,34.2984561],[132.5966073,34.2983298],[132.5965885,34.2982456],[132.5965241,34.2980794],[132.5964222,34.2978357],[132.5963471,34.2976252],[132.5962908,34.2974634],[132.5962398,34.2973105],[132.5962157,34.2971842],[132.5960715,34.2972108]]]}}
