{"type":"Feature","id":"attraction-large-park-W493467366","properties":{"id":"attraction-large-park-W493467366","kind":"attraction","name":"あいち健康の森公園","shortName":"あいち健康の森公園","context":"日本","subtype":"large-park","subtypeLabel":"大型都市公園・広域公園","statusLabel":"","aliases":[],"osmType":"way","osmId":493467366,"osmDate":null,"officialAreaKm2":null,"areaSourceLabel":"","areaSourceUrl":"","boundarySourceLabel":"© OpenStreetMap contributors","boundarySourceUrl":"https://www.openstreetmap.org/copyright","geometryFile":"attractions/large-park-W493467366.geojson"},"geometry":{"type":"Polygon","coordinates":[[[136.9440232,35.000913],[136.9440339,35.0009965],[136.9441519,35.0010581],[136.9456972,35.0013552],[136.9456948,35.0012958],[136.9456919,35.0012234],[136.945649,35.0010959],[136.9456221,35.0009817],[136.94559,35.0008674],[136.9455041,35.0007883],[136.9454022,35.0006565],[136.9452413,35.0004324],[136.9452574,35.0002874],[136.9453646,35.0000062],[136.945649,34.9996063],[136.9458528,34.9993075],[136.946121,34.9992679],[136.9461908,34.9994041],[136.9461264,34.9994261],[136.9460827,34.999786],[136.9461736,35.0001234],[136.946261,35.0004564],[136.9464303,35.0005817],[136.9466267,35.0007112],[136.9468486,35.0008426],[136.9472098,35.0009941],[136.9472148,35.0010463],[136.947198,35.0012372],[136.9474582,35.0011254],[136.9478208,35.0010586],[136.9479838,35.0014485],[136.9482479,35.0016219],[136.9483151,35.0017981],[136.9484161,35.0020129],[136.9486092,35.0020568],[136.9488238,35.002092],[136.9489847,35.0021842],[136.9490916,35.0022545],[136.9493652,35.0022633],[136.9494564,35.0023205],[136.9494622,35.002527],[136.9492423,35.0026984],[136.9494676,35.0028917],[136.9494267,35.0029617],[136.9497883,35.0031031],[136.9499515,35.0031046],[136.9502717,35.0030462],[136.9503515,35.0029711],[136.9503838,35.0028981],[136.9502762,35.0027258],[136.9501221,35.0026851],[136.9500845,35.0025819],[136.9501114,35.0024897],[136.9518172,35.0012922],[136.9519291,35.0011832],[136.9519076,35.0010118],[136.9518218,35.0008053],[136.9517413,35.0006735],[136.951575,35.0005065],[136.9513497,35.0003835],[136.9508347,35.0001191],[136.9504726,34.9999181],[136.9501347,34.999661],[136.949965,34.999409],[136.9495946,34.9995769],[136.9496312,34.9993412],[136.9496567,34.998999],[136.9498022,34.9990456],[136.9499666,34.9990207],[136.9502549,34.9989983],[136.9506404,34.9988791],[136.9507605,34.9988229],[136.9507854,34.9987784],[136.9508853,34.9986744],[136.9509877,34.998554],[136.9513977,34.9981397],[136.951382,34.9981333],[136.950436,34.9977486],[136.9498957,34.9975289],[136.9496704,34.9975289],[136.9495686,34.9975835],[136.9494664,34.9976077],[136.9494401,34.9969754],[136.9495689,34.9964622],[136.9508375,34.9941285],[136.9511701,34.9932864],[136.9510511,34.9932634],[136.9491276,34.992892],[136.9492563,34.992492],[136.9495299,34.9923866],[136.9494763,34.9922899],[136.948913,34.9923646],[136.9487038,34.9923778],[136.9484677,34.9924349],[136.9482263,34.9925008],[136.9479903,34.9926019],[136.9478133,34.9926634],[136.9470261,34.9933589],[136.9469457,34.9934072],[136.9468437,34.9934731],[136.9467526,34.9934951],[136.9466293,34.993522],[136.9465838,34.9935319],[136.9463585,34.9935627],[136.9441459,34.9935846],[136.9440226,34.9936022],[136.9439797,34.9936813],[136.9439789,34.9938868],[136.9439784,34.9940243],[136.9439779,34.9941468],[136.9439689,34.9964494],[136.9440102,34.9994517],[136.9440226,35.0003517],[136.9440232,35.000913]]]}}
