{"type":"Feature","id":"attraction-large-park-R7702314","properties":{"id":"attraction-large-park-R7702314","kind":"attraction","name":"東三河ふるさと公園","shortName":"東三河ふるさと公園","context":"愛知県・豊川市","subtype":"large-park","subtypeLabel":"大型都市公園・広域公園","statusLabel":"","aliases":["Higashimikawa Furusato Park"],"osmType":"relation","osmId":7702314,"osmDate":null,"officialAreaKm2":null,"areaSourceLabel":"","areaSourceUrl":"","boundarySourceLabel":"© OpenStreetMap contributors","boundarySourceUrl":"https://www.openstreetmap.org/copyright","geometryFile":"attractions/large-park-R7702314.geojson"},"geometry":{"type":"Polygon","coordinates":[[[137.306973,34.8423457],[137.3068561,34.8423171],[137.3066517,34.8423376],[137.3065755,34.8423471],[137.3060455,34.8421551],[137.3059235,34.8420979],[137.3058253,34.8421144],[137.3057489,34.8421443],[137.3057156,34.8422093],[137.3056616,34.8425019],[137.3056016,34.8425381],[137.3055371,34.8425438],[137.3052111,34.8423328],[137.3050729,34.8422733],[137.3049364,34.8422791],[137.3036415,34.842322],[137.3035674,34.8422326],[137.3034803,34.8421824],[137.3033928,34.8421681],[137.3032402,34.8421287],[137.3031007,34.8421467],[137.3030441,34.8422075],[137.3026737,34.8422934],[137.3026085,34.8424151],[137.3025257,34.8424545],[137.302325,34.8425047],[137.3024165,34.8424116],[137.3024208,34.8423508],[137.3024033,34.8422755],[137.3023518,34.8422372],[137.3022171,34.8422058],[137.3017929,34.8420785],[137.3016276,34.8419753],[137.3015753,34.8418894],[137.3019543,34.8418284],[137.3018452,34.8416457],[137.3017754,34.8416886],[137.3013836,34.8416387],[137.3013267,34.8415169],[137.301257,34.8414954],[137.3007554,34.8414095],[137.3004239,34.8412878],[137.3001978,34.8411517],[137.2999623,34.8409371],[137.2997179,34.8406584],[137.299657,34.8405472],[137.2997616,34.840422],[137.2997442,34.8403075],[137.299657,34.8402073],[137.2995522,34.8400856],[137.2991466,34.8399031],[137.298567,34.8398351],[137.2984712,34.8400286],[137.2983709,34.8400928],[137.2982443,34.8401358],[137.2980743,34.8401466],[137.2978779,34.8401644],[137.297721,34.8402899],[137.2974818,34.8403865],[137.2973772,34.8404114],[137.2972594,34.8404473],[137.2970708,34.8404682],[137.296845,34.8403428],[137.2968144,34.8401824],[137.296797,34.8401395],[137.2966618,34.8398674],[137.2966138,34.8397173],[137.2966355,34.8396314],[137.2967868,34.8395456],[137.296871,34.839406],[137.2968667,34.8393237],[137.2968522,34.8392627],[137.2969045,34.8391231],[137.2970151,34.8389549],[137.2971272,34.8388191],[137.2973812,34.8389908],[137.2975858,34.8387044],[137.2976242,34.8384895],[137.2977114,34.8384539],[137.2979174,34.8383075],[137.2978771,34.8381853],[137.2979565,34.8381393],[137.298144,34.8381285],[137.2982706,34.838014],[137.2984004,34.8381173],[137.2984538,34.8381212],[137.2987537,34.8379704],[137.2987276,34.837881],[137.2988636,34.8378456],[137.298998,34.8376842],[137.299068,34.8376415],[137.2991292,34.8377311],[137.2993558,34.837638],[137.299321,34.8375592],[137.2993775,34.8375378],[137.299421,34.8376233],[137.2995173,34.8375772],[137.2995347,34.8374595],[137.2995956,34.8373914],[137.2996959,34.8373056],[137.2996565,34.8372153],[137.300315,34.8370049],[137.3007168,34.8367975],[137.3008976,34.8366645],[137.3010075,34.8365454],[137.3010685,34.8365834],[137.3011119,34.8366014],[137.301224,34.8365992],[137.3013756,34.8365944],[137.3015096,34.8365853],[137.3016156,34.8365845],[137.3017323,34.8365547],[137.3017596,34.8365709],[137.3019152,34.8364384],[137.30207,34.8364439],[137.3021614,34.8363964],[137.3022438,34.8362491],[137.3024653,34.8361522],[137.3024584,34.8360342],[137.3022625,34.8358693],[137.3022639,34.8357971],[137.3021772,34.835722],[137.3019935,34.8355783],[137.3029996,34.8346185],[137.303528,34.834187],[137.303811,34.833903],[137.3041749,34.833563],[137.305124,34.8334692],[137.3060434,34.833387],[137.3063108,34.8333691],[137.3065246,34.8334339],[137.306829,34.8333258],[137.3069616,34.8332014],[137.307154,34.8331498],[137.307267,34.8331212],[137.3074108,34.8332884],[137.3077219,34.8333082],[137.3078906,34.833249],[137.3081175,34.8330484],[137.3082538,34.8330793],[137.3091346,34.8330471],[137.3096711,34.8331651],[137.3099009,34.8334242],[137.30998,34.8334766],[137.3103027,34.8334694],[137.3107694,34.8334764],[137.3110704,34.8337772],[137.3110251,34.8339204],[137.3109764,34.8340743],[137.3108349,34.8345213],[137.3108257,34.8346822],[137.3108955,34.834754],[137.3113096,34.8352251],[137.3120901,34.8358134],[137.3133599,34.836628],[137.3140782,34.8368578],[137.315525,34.8371656],[137.3159697,34.8372303],[137.3160308,34.8374592],[137.3164144,34.8379748],[137.316659,34.8380035],[137.3168945,34.8379462],[137.3175924,34.8377956],[137.3181498,34.8377956],[137.318638,34.837896],[137.3195875,34.8378168],[137.3195805,34.8380105],[137.3195193,34.8382183],[137.3192838,34.8384975],[137.3190483,34.8387612],[137.318926,34.8388545],[137.3187254,34.8389259],[137.3185425,34.8391192],[137.3184813,34.8392266],[137.3179583,34.8392336],[137.3177668,34.8390549],[137.3177383,34.8388334],[137.3173022,34.8385186],[137.317145,34.8385974],[137.3169272,34.8386617],[137.3167636,34.8386467],[137.316563,34.8387898],[137.3164756,34.8390403],[137.3164123,34.8391341],[137.3164058,34.8392983],[137.3164841,34.8394771],[137.3163361,34.8396418],[137.3161006,34.8401719],[137.315996,34.840193],[137.3155684,34.8404294],[137.3150374,34.840315],[137.3148979,34.8403365],[137.3147933,34.8402502],[137.3141651,34.8402789],[137.3140085,34.8403365],[137.3139178,34.8404585],[137.3141882,34.8407376],[137.3138041,34.8409098],[137.3130922,34.840908],[137.3127172,34.8411158],[137.3125,34.8414166],[137.3125745,34.8416327],[137.3123342,34.8418317],[137.3121642,34.8419977],[137.3118546,34.8421038],[137.3115757,34.8421324],[137.3111524,34.8421694],[137.3113445,34.842456],[137.3109652,34.8425978],[137.3108107,34.8427963],[137.3106695,34.8428339],[137.3105251,34.8428568],[137.3104087,34.8428581],[137.3085647,34.8428063],[137.3083912,34.8427985],[137.3082893,34.8427815],[137.3079728,34.8426554],[137.3076945,34.8425796],[137.307217,34.8424733],[137.3070717,34.8424178],[137.3069854,34.8423506],[137.306973,34.8423457]]]}}
