{"type":"Feature","id":"attraction-large-industrial-complex-W183009452","properties":{"id":"attraction-large-industrial-complex-W183009452","kind":"attraction","name":"住友軽金属工業 名古屋製造所","shortName":"住友軽金属工業 名古屋製造所","context":"日本","subtype":"industrial-complex","subtypeLabel":"工業地帯・大規模工場","statusLabel":"","aliases":[],"osmType":"way","osmId":183009452,"osmDate":null,"officialAreaKm2":null,"areaSourceLabel":"","areaSourceUrl":"","boundarySourceLabel":"© OpenStreetMap contributors","boundarySourceUrl":"https://www.openstreetmap.org/copyright","geometryFile":"attractions/large-industrial-complex-W183009452.geojson"},"geometry":{"type":"Polygon","coordinates":[[[136.8991747,35.1100519],[136.8963895,35.1115545],[136.8950812,35.1123112],[136.8951409,35.1123951],[136.8948682,35.1125453],[136.8894151,35.1058505],[136.8933912,35.1032158],[136.8936359,35.103462],[136.8948135,35.1027114],[136.8948603,35.1027078],[136.8949038,35.1027155],[136.8949529,35.1027482],[136.8971512,35.1062755],[136.8981262,35.1078784],[136.8987503,35.1090277],[136.8986373,35.1090939],[136.8990157,35.1097732],[136.8991266,35.1097353],[136.8992239,35.1098993],[136.8991128,35.10994],[136.8991747,35.1100519]]]}}
