{"type":"Feature","id":"attraction-large-park-W215943030","properties":{"id":"attraction-large-park-W215943030","kind":"attraction","name":"城山公園","shortName":"城山公園","context":"日本","subtype":"large-park","subtypeLabel":"大型都市公園・広域公園","statusLabel":"著名な公園","aliases":[],"osmType":"way","osmId":215943030,"osmDate":null,"officialAreaKm2":null,"areaSourceLabel":"","areaSourceUrl":"","boundarySourceLabel":"© OpenStreetMap contributors","boundarySourceUrl":"https://www.openstreetmap.org/copyright","geometryFile":"attractions/large-park-W215943030.geojson"},"geometry":{"type":"Polygon","coordinates":[[[132.7592683,33.8418063],[132.759278,33.8445829],[132.7602146,33.8445943],[132.7602666,33.8446281],[132.7602687,33.8440956],[132.760281,33.8438454],[132.7604141,33.8433401],[132.7604961,33.8433401],[132.7606047,33.843192],[132.7607244,33.8430728],[132.7615285,33.8426857],[132.7615298,33.8424738],[132.7623558,33.8424534],[132.7623493,33.8422722],[132.7630398,33.8422579],[132.7630136,33.8427216],[132.7630759,33.8427226],[132.7631465,33.8427238],[132.7631234,33.8416971],[132.764099,33.8416904],[132.764079,33.841152],[132.7640003,33.841152],[132.764,33.8411453],[132.7639996,33.841135],[132.7639985,33.8411077],[132.7639966,33.8410743],[132.7639956,33.8410509],[132.7639946,33.8410264],[132.7643808,33.8410292],[132.7643968,33.8410336],[132.7644229,33.841043],[132.7645148,33.8410429],[132.76449,33.8402985],[132.7642546,33.8403046],[132.7642197,33.8396527],[132.763263,33.8396602],[132.7614863,33.8397059],[132.7614268,33.839709],[132.761383,33.8397087],[132.7592653,33.839756],[132.7592701,33.8417096],[132.7592695,33.8417265],[132.7592682,33.8417719],[132.7592683,33.8418063]]]}}
