{"type":"Feature","id":"attraction-large-park-R13160160","properties":{"id":"attraction-large-park-R13160160","kind":"attraction","name":"秋田県立中央公園","shortName":"秋田県立中央公園","context":"日本","subtype":"large-park","subtypeLabel":"大型都市公園・広域公園","statusLabel":"","aliases":[],"osmType":"relation","osmId":13160160,"osmDate":null,"officialAreaKm2":null,"areaSourceLabel":"","areaSourceUrl":"","boundarySourceLabel":"© OpenStreetMap contributors","boundarySourceUrl":"https://www.openstreetmap.org/copyright","geometryFile":"attractions/large-park-R13160160.geojson"},"geometry":{"type":"MultiPolygon","coordinates":[[[[140.2287536,39.6163057],[140.2288002,39.6165338],[140.2287563,39.6172962],[140.2288029,39.6174356],[140.2288995,39.6175072],[140.2290179,39.617544],[140.2326392,39.6177046],[140.2330222,39.6176718],[140.2341816,39.6174503],[140.2344055,39.6173869],[140.2348029,39.6172637],[140.2349414,39.6179148],[140.234707,39.61812],[140.2339647,39.6191979],[140.2337818,39.6194004],[140.2336184,39.6195468],[140.2328388,39.6200912],[140.2327056,39.6202034],[140.2325955,39.6203566],[140.2325404,39.6204824],[140.232512,39.6206192],[140.2324872,39.6213797],[140.2324552,39.6215124],[140.2323842,39.621667],[140.2322776,39.6217764],[140.2321107,39.6218804],[140.2313861,39.6222347],[140.2311819,39.622366],[140.230999,39.6224973],[140.2308481,39.622682],[140.2304538,39.6233166],[140.2302352,39.6236593],[140.2301167,39.6238046],[140.2299131,39.6239712],[140.2296646,39.6240943],[140.2294565,39.6241617],[140.2287859,39.6242405],[140.2281302,39.6243025],[140.2277691,39.6243105],[140.2276161,39.6242937],[140.2274044,39.6242529],[140.2263508,39.6238888],[140.2260874,39.6238126],[140.2258332,39.6237754],[140.2255997,39.6237745],[140.225403,39.6238037],[140.2240964,39.6241023],[140.2237697,39.6241537],[140.2233464,39.6241874],[140.2215636,39.6241457],[140.2214394,39.624175],[140.2207546,39.6246154],[140.2205487,39.624713],[140.2202315,39.624819],[140.2199761,39.624861],[140.2196864,39.624873],[140.2180785,39.6248205],[140.217655,39.6248026],[140.2172853,39.6247497],[140.2168359,39.6246303],[140.2166577,39.6245893],[140.2160874,39.624441],[140.2141787,39.6239077],[140.2139408,39.6238665],[140.2136611,39.623866],[140.2098319,39.6243684],[140.2085717,39.6245169],[140.2081888,39.6245926],[140.20687,39.62508],[140.2066879,39.6251476],[140.2062355,39.6253448],[140.2058656,39.6254716],[140.2051517,39.6257501],[140.2048446,39.6258525],[140.2046678,39.6259181],[140.2042523,39.6260155],[140.2036344,39.6261077],[140.2034432,39.6261092],[140.2032956,39.6261],[140.2031135,39.6260744],[140.202958,39.6260376],[140.2028383,39.6259925],[140.2025631,39.6258379],[140.2023965,39.6257752],[140.2022413,39.6257373],[140.2020278,39.6257326],[140.2006173,39.6259077],[140.2001579,39.6259089],[140.1996754,39.6258474],[140.1989732,39.6257054],[140.1983924,39.6256166],[140.1980474,39.6255833],[140.1963004,39.625504],[140.1947436,39.6254337],[140.1946443,39.6246537],[140.1946638,39.6242125],[140.1946569,39.6239884],[140.1946592,39.6238847],[140.1946765,39.6237439],[140.1947812,39.6232052],[140.1958793,39.6199617],[140.1960037,39.6195324],[140.1960683,39.6191024],[140.1960832,39.6184444],[140.1959865,39.6172424],[140.195939,39.616908],[140.1959517,39.6165003],[140.1960024,39.6161635],[140.1961671,39.6158437],[140.1964397,39.6153652],[140.1965474,39.6152432],[140.1972731,39.6141276],[140.1973871,39.6139055],[140.1976026,39.6133147],[140.1977991,39.6124066],[140.1979607,39.6119501],[140.1980558,39.6118085],[140.19823,39.6116352],[140.1984075,39.61154],[140.1986547,39.6114423],[140.1988892,39.611374],[140.1994469,39.6113032],[140.200068,39.6111811],[140.2003373,39.6110615],[140.2005902,39.6108878],[140.2006579,39.6108356],[140.2019141,39.6095675],[140.2020637,39.6092835],[140.2020836,39.609065],[140.2026921,39.6091923],[140.2035526,39.6092425],[140.2038386,39.6093269],[140.2037692,39.609374],[140.2030501,39.6097079],[140.2029853,39.6098383],[140.2028499,39.6100714],[140.2031248,39.6102176],[140.203334,39.610363],[140.2034333,39.6105197],[140.2034721,39.6106927],[140.2034491,39.6108584],[140.2030431,39.6106181],[140.2028731,39.6106424],[140.2026083,39.6106165],[140.2022932,39.6106557],[140.2020707,39.6107341],[140.2020235,39.6109951],[140.2020535,39.6110679],[140.203,39.611487],[140.2032153,39.6116289],[140.2032467,39.611908],[140.2032134,39.6120842],[140.2032243,39.6122223],[140.2031934,39.6123254],[140.2030354,39.6124595],[140.2029503,39.6125048],[140.2028,39.6125459],[140.2026185,39.6125584],[140.2024343,39.6124799],[140.2023315,39.6123851],[140.2023049,39.6122096],[140.2023213,39.6120548],[140.2024129,39.6119498],[140.2024984,39.6118893],[140.2024275,39.6117955],[140.2022896,39.6116728],[140.201952,39.6116293],[140.2017016,39.6115427],[140.201588,39.6114417],[140.2015944,39.611295],[140.201448,39.6112104],[140.2012833,39.6111722],[140.201144,39.6111228],[140.2009937,39.6115878],[140.2010876,39.6118709],[140.2010125,39.6119959],[140.2008086,39.6120383],[140.2002668,39.6118585],[140.2000442,39.6121478],[140.1992905,39.6121106],[140.1985551,39.6124801],[140.1983061,39.6127214],[140.1984707,39.6128934],[140.1987855,39.6130242],[140.199222,39.613203],[140.199479,39.613279],[140.1996173,39.6133083],[140.1993861,39.6134533],[140.1990122,39.6135276],[140.198759,39.613583],[140.1991196,39.6166497],[140.2010251,39.6165262],[140.2012256,39.6179087],[140.2043043,39.6184475],[140.2263339,39.616592],[140.2277208,39.6164695],[140.2287536,39.6163057]]],[[[140.2253994,39.616923],[140.2254451,39.6169989],[140.2254648,39.6169151],[140.2253994,39.616923]]],[[[140.2263028,39.6169188],[140.2262547,39.6168453],[140.2263241,39.6168392],[140.2263028,39.6169188]]]]}}
