{"type":"Feature","id":"attraction-large-park-W455102271","properties":{"id":"attraction-large-park-W455102271","kind":"attraction","name":"橿原公苑","shortName":"橿原公苑","context":"日本","subtype":"large-park","subtypeLabel":"大型都市公園・広域公園","statusLabel":"著名な公園","aliases":[],"osmType":"way","osmId":455102271,"osmDate":null,"officialAreaKm2":null,"areaSourceLabel":"","areaSourceUrl":"","boundarySourceLabel":"© OpenStreetMap contributors","boundarySourceUrl":"https://www.openstreetmap.org/copyright","geometryFile":"attractions/large-park-W455102271.geojson"},"geometry":{"type":"Polygon","coordinates":[[[135.7917076,34.4860994],[135.7920952,34.4863487],[135.7935986,34.4863624],[135.7937957,34.4863642],[135.7940291,34.4863653],[135.7942651,34.4863664],[135.7942543,34.4870069],[135.7942517,34.4871573],[135.794249,34.487317],[135.7942558,34.4879498],[135.7942598,34.4883274],[135.7942517,34.4891453],[135.7940962,34.4891453],[135.793659,34.4888999],[135.7932727,34.4898351],[135.7931283,34.4902025],[135.7930856,34.4903113],[135.7926752,34.4913273],[135.7925495,34.4915736],[135.7925364,34.4915926],[135.792459,34.4917112],[135.7922622,34.4919635],[135.792139,34.4919338],[135.7920552,34.4919148],[135.7919162,34.4918717],[135.7915304,34.4917273],[135.7907186,34.4915003],[135.7909197,34.4909852],[135.790571,34.4908813],[135.7907161,34.4904961],[135.7909573,34.4898555],[135.7912818,34.4890022],[135.791432,34.4884053],[135.7914388,34.4878205],[135.7913885,34.4874496],[135.7913878,34.4872578],[135.7914153,34.4871357],[135.7915011,34.4870561],[135.7916171,34.4870235],[135.791719,34.4870213],[135.7917231,34.4864984],[135.7915634,34.4864747],[135.7915172,34.4864293],[135.7915259,34.4863039],[135.7916077,34.4861796],[135.7917076,34.4860994]]]}}
