{"type":"Feature","id":"attraction-large-industrial-complex-W279373034","properties":{"id":"attraction-large-industrial-complex-W279373034","kind":"attraction","name":"JSR株式会社","shortName":"JSR株式会社","context":"日本","subtype":"industrial-complex","subtypeLabel":"工業地帯・大規模工場","statusLabel":"","aliases":[],"osmType":"way","osmId":279373034,"osmDate":null,"officialAreaKm2":null,"areaSourceLabel":"","areaSourceUrl":"","boundarySourceLabel":"© OpenStreetMap contributors","boundarySourceUrl":"https://www.openstreetmap.org/copyright","geometryFile":"attractions/large-industrial-complex-W279373034.geojson"},"geometry":{"type":"Polygon","coordinates":[[[136.6073185,34.9364525],[136.6069624,34.936453],[136.606788,34.9356469],[136.6058238,34.9357942],[136.605809,34.9357195],[136.6054188,34.9357777],[136.605408,34.9357239],[136.605271,34.9357399],[136.6052603,34.935392],[136.6053337,34.9350957],[136.6050989,34.9350104],[136.6050736,34.9349984],[136.6042682,34.9310518],[136.6043029,34.9310244],[136.6061574,34.9307732],[136.6103429,34.9301915],[136.6113505,34.9300521],[136.6116372,34.9300182],[136.6119726,34.9299932],[136.612274,34.9299812],[136.6125886,34.9299855],[136.6130529,34.9321242],[136.6148031,34.9321374],[136.6144258,34.9339649],[136.6148245,34.9340206],[136.6148653,34.9354772],[136.6150769,34.935479],[136.61534,34.9361769],[136.6156343,34.9368233],[136.6160908,34.937792],[136.6167057,34.9391512],[136.6149533,34.9395765],[136.6149701,34.9398148],[136.6136782,34.9398581],[136.6133714,34.9398745],[136.6111006,34.9402192],[136.6109253,34.9375982],[136.6100962,34.9376116],[136.6100566,34.9375884],[136.6100424,34.9375529],[136.6099253,34.9373381],[136.6098488,34.9362333],[136.6099006,34.9362317],[136.6099302,34.9362307],[136.6099276,34.9361592],[136.6098981,34.9361592],[136.6099007,34.9360383],[136.609493,34.9357821],[136.6083974,34.9359668],[136.6081922,34.9360405],[136.6079065,34.9360889],[136.6078435,34.9362197],[136.60735,34.9362879],[136.6073728,34.9364061],[136.6073131,34.9364259],[136.6073185,34.9364525]]]}}
