{"type":"Feature","id":"attraction-large-park-W548673849","properties":{"id":"attraction-large-park-W548673849","kind":"attraction","name":"宮代町総合運動公園","shortName":"宮代町総合運動公園","context":"日本","subtype":"large-park","subtypeLabel":"大型都市公園・広域公園","statusLabel":"著名な公園","aliases":[],"osmType":"way","osmId":548673849,"osmDate":null,"officialAreaKm2":null,"areaSourceLabel":"","areaSourceUrl":"","boundarySourceLabel":"© OpenStreetMap contributors","boundarySourceUrl":"https://www.openstreetmap.org/copyright","geometryFile":"attractions/large-park-W548673849.geojson"},"geometry":{"type":"Polygon","coordinates":[[[139.6952854,36.056349],[139.6950155,36.0555432],[139.695518,36.055382],[139.6951359,36.0543882],[139.6952314,36.0542942],[139.6954515,36.0540592],[139.6955097,36.0539551],[139.6955097,36.0538376],[139.6952024,36.0527565],[139.6952148,36.0527263],[139.6960454,36.052639],[139.6966351,36.0529814],[139.6967805,36.0528404],[139.6972498,36.0530553],[139.6971127,36.0532299],[139.6972498,36.0533038],[139.6973951,36.0534515],[139.6975114,36.0533944],[139.6976734,36.0535354],[139.6977855,36.053475],[139.6979018,36.0535892],[139.6979059,36.0536261],[139.697989,36.0537369],[139.6985247,36.0535254],[139.6986087,36.0535379],[139.6988152,36.053802],[139.6989569,36.0538468],[139.6992588,36.0538543],[139.6995454,36.0543998],[139.6996088,36.0544758],[139.6994259,36.0546971],[139.6991394,36.0550698],[139.6989774,36.0553888],[139.6989193,36.0556238],[139.698886,36.0557044],[139.6988113,36.0557514],[139.6966351,36.0561878],[139.6961326,36.0562818],[139.6952854,36.056349]]]}}
