{"type":"Feature","id":"attraction-large-industrial-complex-W432384122","properties":{"id":"attraction-large-industrial-complex-W432384122","kind":"attraction","name":"王子製紙","shortName":"王子製紙","context":"日本","subtype":"industrial-complex","subtypeLabel":"工業地帯・大規模工場","statusLabel":"","aliases":[],"osmType":"way","osmId":432384122,"osmDate":null,"officialAreaKm2":null,"areaSourceLabel":"","areaSourceUrl":"","boundarySourceLabel":"© OpenStreetMap contributors","boundarySourceUrl":"https://www.openstreetmap.org/copyright","geometryFile":"attractions/large-industrial-complex-W432384122.geojson"},"geometry":{"type":"Polygon","coordinates":[[[141.5848793,42.6365523],[141.5854678,42.6367291],[141.5860193,42.636745],[141.5866386,42.6366249],[141.5871624,42.6366317],[141.5887984,42.6371598],[141.5893869,42.6374408],[141.5899291,42.6377854],[141.5912447,42.638803],[141.5918301,42.6390796],[141.5921752,42.639211],[141.5929582,42.6397605],[141.5936401,42.6399838],[141.5900966,42.6455513],[141.5835704,42.643401],[141.5817756,42.6424617],[141.5827209,42.6399436],[141.5848793,42.6365523]]]}}
