{"type":"Feature","id":"attraction-large-park-W64733385","properties":{"id":"attraction-large-park-W64733385","kind":"attraction","name":"大通公園","shortName":"大通公園","context":"日本","subtype":"large-park","subtypeLabel":"大型都市公園・広域公園","statusLabel":"著名な公園","aliases":["Ōdōri Park"],"osmType":"way","osmId":64733385,"osmDate":null,"officialAreaKm2":null,"areaSourceLabel":"","areaSourceUrl":"","boundarySourceLabel":"© OpenStreetMap contributors","boundarySourceUrl":"https://www.openstreetmap.org/copyright","geometryFile":"attractions/large-park-W64733385.geojson"},"geometry":{"type":"Polygon","coordinates":[[[141.3566509,43.0614113],[141.3567731,43.0609341],[141.3567222,43.0608827],[141.3562687,43.060819],[141.3561324,43.0607756],[141.3555062,43.0606988],[141.3551455,43.0606873],[141.3546996,43.0606304],[141.3546895,43.0606659],[141.3542463,43.0606074],[141.3541901,43.0605493],[141.3538766,43.0605259],[141.353533,43.0604346],[141.3398188,43.0585469],[141.3379591,43.0582994],[141.3366657,43.0581077],[141.3365105,43.0587076],[141.3413508,43.0593689],[141.3541657,43.0610728],[141.3541766,43.0610117],[141.3546638,43.0610715],[141.3547144,43.0611458],[141.3550178,43.0611861],[141.355379,43.0612567],[141.3560474,43.0613528],[141.3560525,43.0613303],[141.3566509,43.0614113]]]}}
