{"type":"Feature","id":"attraction-large-park-W736842409","properties":{"id":"attraction-large-park-W736842409","kind":"attraction","name":"大滝山自然公園","shortName":"大滝山自然公園","context":"日本","subtype":"large-park","subtypeLabel":"大型都市公園・広域公園","statusLabel":"","aliases":[],"osmType":"way","osmId":736842409,"osmDate":null,"officialAreaKm2":null,"areaSourceLabel":"","areaSourceUrl":"","boundarySourceLabel":"© OpenStreetMap contributors","boundarySourceUrl":"https://www.openstreetmap.org/copyright","geometryFile":"attractions/large-park-W736842409.geojson"},"geometry":{"type":"Polygon","coordinates":[[[140.1555473,39.7816243],[140.1546676,39.7803381],[140.1542599,39.7800743],[140.1544959,39.7797445],[140.1533924,39.7793899],[140.1522429,39.7777986],[140.1538307,39.7771389],[140.1549143,39.7765782],[140.1554293,39.7760753],[140.1554078,39.7754239],[140.1559067,39.7749827],[140.156474,39.7748075],[140.1571915,39.7746858],[140.157614,39.7747539],[140.1580719,39.7748415],[140.1582694,39.7746152],[140.1585062,39.7744885],[140.1587605,39.7741829],[140.1591072,39.7741362],[140.159545,39.7742355],[140.1599014,39.7741051],[140.1602813,39.7740186],[140.1608027,39.7737748],[140.1615253,39.7736989],[140.161854,39.7737904],[140.1622032,39.7738236],[140.1627771,39.7737087],[140.1629337,39.773906],[140.1628381,39.7747146],[140.1626501,39.7757738],[140.1626715,39.7767268],[140.1630178,39.7767731],[140.1638193,39.7760176],[140.1642538,39.7759598],[140.1646642,39.776269],[140.1650625,39.7773388],[140.1654655,39.7777748],[140.1654953,39.7782814],[140.1657034,39.779318],[140.1654533,39.7799517],[140.1650708,39.7801037],[140.1647616,39.7798993],[140.1646498,39.7796735],[140.1628537,39.7799588],[140.1603539,39.7797115],[140.1595599,39.7796455],[140.1595599,39.7803381],[140.1608903,39.7812451],[140.1646025,39.7816738],[140.1659758,39.7824159],[140.1651818,39.7836856],[140.1631648,39.782927],[140.1622207,39.7843781],[140.161062,39.7836526],[140.1601286,39.7835289],[140.1598738,39.7835681],[140.159458,39.7837144],[140.1590986,39.7838587],[140.15853,39.7840565],[140.1581008,39.7837845],[140.157575,39.783735],[140.1568884,39.7834712],[140.1564808,39.7832815],[140.1560623,39.7833476],[140.1556332,39.7834712],[140.1555473,39.7816243]]]}}
