{"type":"Feature","id":"attraction-large-park-W436816857","properties":{"id":"attraction-large-park-W436816857","kind":"attraction","name":"北神戸田園スポーツ公園","shortName":"北神戸田園スポーツ公園","context":"日本","subtype":"large-park","subtypeLabel":"大型都市公園・広域公園","statusLabel":"著名な公園","aliases":[],"osmType":"way","osmId":436816857,"osmDate":null,"officialAreaKm2":null,"areaSourceLabel":"","areaSourceUrl":"","boundarySourceLabel":"© OpenStreetMap contributors","boundarySourceUrl":"https://www.openstreetmap.org/copyright","geometryFile":"attractions/large-park-W436816857.geojson"},"geometry":{"type":"Polygon","coordinates":[[[135.219392,34.8489335],[135.2202122,34.848839],[135.2211577,34.8485494],[135.2216263,34.8483675],[135.2220656,34.8481593],[135.2226193,34.8478624],[135.2233637,34.8472154],[135.2235109,34.8471019],[135.2242977,34.8462349],[135.2246939,34.84574],[135.2247347,34.8456791],[135.2247453,34.84564],[135.2247333,34.8456045],[135.2246901,34.8455454],[135.2246397,34.8454804],[135.2246085,34.8453721],[135.2245965,34.8452243],[135.2245989,34.8450253],[135.2245773,34.8449071],[135.2245221,34.8447613],[135.2244453,34.8446234],[135.2242676,34.8444007],[135.224018,34.8441013],[135.2238475,34.8439535],[135.2237251,34.8438629],[135.2236146,34.8438156],[135.2234922,34.8437821],[135.2233194,34.8437624],[135.2231177,34.8437781],[135.2229785,34.8437998],[135.2228728,34.8438038],[135.2227552,34.843788],[135.2226376,34.8437486],[135.2225055,34.8436718],[135.2223951,34.8435575],[135.2223351,34.8434432],[135.2223231,34.8433289],[135.2223207,34.8432107],[135.2222967,34.8431102],[135.2222607,34.8429979],[135.2222099,34.8429217],[135.2219265,34.8424696],[135.2210509,34.842041],[135.2202772,34.8430863],[135.2193877,34.8425958],[135.2193946,34.8426411],[135.2184764,34.8433229],[135.2183545,34.8433767],[135.2181606,34.8433889],[135.2178963,34.8433764],[135.2178158,34.8434087],[135.2177316,34.8434968],[135.2176352,34.8438193],[135.2174647,34.8441877],[135.2171649,34.8446355],[135.2168806,34.8444582],[135.2165484,34.8447632],[135.2164931,34.8451072],[135.2170664,34.8451494],[135.2171258,34.8452598],[135.2170787,34.8454392],[135.2168087,34.8455729],[135.2165581,34.8456527],[135.2162775,34.8457415],[135.2162122,34.8458477],[135.2161218,34.845975],[135.2165422,34.8462432],[135.2164846,34.8463956],[135.2164361,34.846514],[135.2164204,34.8466976],[135.2165985,34.8467651],[135.216792,34.8468728],[135.2166735,34.8470543],[135.2167351,34.847182],[135.2168318,34.8472893],[135.2170076,34.8472863],[135.2171318,34.8471586],[135.2174012,34.846995],[135.2180424,34.8463325],[135.2182491,34.8464612],[135.2185695,34.8468861],[135.2182125,34.84716],[135.2179578,34.8476402],[135.2181166,34.8478218],[135.2184969,34.8480357],[135.2186101,34.848405],[135.219392,34.8489335]]]}}
