{"type":"Feature","id":"attraction-large-industrial-complex-W551659569","properties":{"id":"attraction-large-industrial-complex-W551659569","kind":"attraction","name":"ENEOS知多製造所","shortName":"ENEOS知多製造所","context":"日本","subtype":"industrial-complex","subtypeLabel":"工業地帯・大規模工場","statusLabel":"","aliases":["Aichi Kitahama refinery","Idemitsu Kosan"],"osmType":"way","osmId":551659569,"osmDate":null,"officialAreaKm2":null,"areaSourceLabel":"","areaSourceUrl":"","boundarySourceLabel":"© OpenStreetMap contributors","boundarySourceUrl":"https://www.openstreetmap.org/copyright","geometryFile":"attractions/large-industrial-complex-W551659569.geojson"},"geometry":{"type":"Polygon","coordinates":[[[136.8575771,34.9921521],[136.8563087,34.9926583],[136.8578317,34.9947743],[136.8558249,34.9957145],[136.8543749,34.9936151],[136.8516079,34.9948729],[136.8487425,34.9907061],[136.8425425,34.9935818],[136.8463113,34.9989842],[136.8515095,34.9982601],[136.8546034,35.0027238],[136.8551416,35.0035998],[136.8562237,35.0051868],[136.8567534,35.005114],[136.8569065,35.0044158],[136.8571179,35.003177],[136.8571951,35.0029938],[136.8573577,35.002814],[136.8575529,35.0026142],[136.8577602,35.0024543],[136.8579798,35.0023111],[136.8625491,35.0001773],[136.8634664,34.9997598],[136.8635093,34.9996675],[136.8625598,34.9983712],[136.8595559,34.9942563],[136.8575771,34.9921521]]]}}
