{"type":"Feature","id":"attraction-large-park-W93074476","properties":{"id":"attraction-large-park-W93074476","kind":"attraction","name":"牛久浄苑","shortName":"牛久浄苑","context":"日本","subtype":"large-park","subtypeLabel":"大型都市公園・広域公園","statusLabel":"著名な公園","aliases":["Ushiku Park"],"osmType":"way","osmId":93074476,"osmDate":null,"officialAreaKm2":null,"areaSourceLabel":"","areaSourceUrl":"","boundarySourceLabel":"© OpenStreetMap contributors","boundarySourceUrl":"https://www.openstreetmap.org/copyright","geometryFile":"attractions/large-park-W93074476.geojson"},"geometry":{"type":"Polygon","coordinates":[[[140.2178355,35.9777685],[140.2180362,35.9776774],[140.218638,35.9778556],[140.2185792,35.9785722],[140.2187211,35.9792097],[140.2191468,35.9800174],[140.2209669,35.9801163],[140.2209844,35.9799542],[140.2219764,35.9801022],[140.2227837,35.9797023],[140.223377,35.9792407],[140.2236693,35.9790133],[140.2237965,35.9787679],[140.2241097,35.9785065],[140.2242761,35.978804],[140.2239114,35.979258],[140.2237296,35.9794844],[140.2230385,35.9800139],[140.2224024,35.9805286],[140.2224512,35.9807464],[140.2231675,35.9809681],[140.2235861,35.981022],[140.2240286,35.981079],[140.2239815,35.9811641],[140.2239315,35.9812546],[140.2238955,35.9813197],[140.2231358,35.9817891],[140.2229866,35.9818659],[140.2222203,35.9820577],[140.2209972,35.9832881],[140.2208421,35.9834389],[140.2206776,35.983591],[140.2204183,35.9837797],[140.2201005,35.9839484],[140.2188655,35.9842382],[140.2187477,35.9841795],[140.2186552,35.9837514],[140.2180342,35.9837861],[140.2176193,35.9835315],[140.2173959,35.9832122],[140.2172049,35.9825103],[140.217756,35.9823127],[140.2167503,35.9813398],[140.2163589,35.981514],[140.2161084,35.9811687],[140.2156152,35.9808171],[140.2151025,35.9810452],[140.2146398,35.9803674],[140.2154086,35.9799879],[140.2153052,35.9795749],[140.2147422,35.9791029],[140.2143489,35.9790525],[140.2139719,35.9790041],[140.2131702,35.9794577],[140.2125757,35.9787357],[140.2132802,35.9783833],[140.2130454,35.9779319],[140.2136619,35.977821],[140.2133274,35.9763672],[140.2146409,35.9766274],[140.2146391,35.9767711],[140.214636,35.9770194],[140.2144892,35.9777162],[140.2147583,35.9779578],[140.2147933,35.9781523],[140.2148317,35.9783656],[140.2150767,35.9783472],[140.2154628,35.9783181],[140.2168827,35.9778318],[140.2174044,35.9776433],[140.2178355,35.9777685]]]}}
