{"type":"Feature","id":"attraction-large-industrial-complex-W353626719","properties":{"id":"attraction-large-industrial-complex-W353626719","kind":"attraction","name":"株式会社 日立製作所","shortName":"株式会社 日立製作所","context":"日本","subtype":"industrial-complex","subtypeLabel":"工業地帯・大規模工場","statusLabel":"","aliases":["Hitachi, Ltd."],"osmType":"way","osmId":353626719,"osmDate":null,"officialAreaKm2":null,"areaSourceLabel":"","areaSourceUrl":"","boundarySourceLabel":"© OpenStreetMap contributors","boundarySourceUrl":"https://www.openstreetmap.org/copyright","geometryFile":"attractions/large-industrial-complex-W353626719.geojson"},"geometry":{"type":"Polygon","coordinates":[[[131.8710396,33.9957198],[131.8723182,33.9956991],[131.8722465,33.9936992],[131.8716092,33.9898788],[131.872183,33.989982],[131.872183,33.990114],[131.872539,33.990197],[131.873848,33.99045],[131.875165,33.990428],[131.875105,33.988234],[131.8776042,33.9858959],[131.8779168,33.9912213],[131.8779463,33.9918529],[131.8778658,33.9920753],[131.8778451,33.992293],[131.8776998,33.9926298],[131.8777656,33.9940457],[131.8777714,33.9947891],[131.8775937,33.9948938],[131.8772679,33.9951223],[131.8767916,33.9955064],[131.8763064,33.9959171],[131.8756317,33.9965026],[131.8748943,33.9971398],[131.874418,33.9975676],[131.874159,33.9977749],[131.8739094,33.9980376],[131.8736389,33.9983481],[131.8735021,33.9985591],[131.8733331,33.9987752],[131.8729869,33.9993948],[131.8729144,33.9994382],[131.8728031,33.9994282],[131.8721674,33.9989868],[131.8719716,33.9987978],[131.8718395,33.9985988],[131.8717859,33.9984123],[131.8717556,33.9981273],[131.8717006,33.9971585],[131.8716612,33.9969326],[131.8715673,33.9967586],[131.871414,33.9965916],[131.871175,33.9964178],[131.871084,33.9963786],[131.8710396,33.9957198]]]}}
