{"type":"Feature","id":"attraction-large-park-W610820643","properties":{"id":"attraction-large-park-W610820643","kind":"attraction","name":"伊勢原市総合運動公園","shortName":"伊勢原市総合運動公園","context":"神奈川県・伊勢原市","subtype":"large-park","subtypeLabel":"大型都市公園・広域公園","statusLabel":"著名な公園","aliases":[],"osmType":"way","osmId":610820643,"osmDate":null,"officialAreaKm2":null,"areaSourceLabel":"","areaSourceUrl":"","boundarySourceLabel":"© OpenStreetMap contributors","boundarySourceUrl":"https://www.openstreetmap.org/copyright","geometryFile":"attractions/large-park-W610820643.geojson"},"geometry":{"type":"Polygon","coordinates":[[[139.309592,35.4229405],[139.3092979,35.4228653],[139.308849,35.4226462],[139.307484,35.422751],[139.3069726,35.4227865],[139.3046819,35.4226387],[139.3045376,35.4226397],[139.3044187,35.4224867],[139.3043857,35.4224287],[139.3043694,35.4223772],[139.3043687,35.4223153],[139.3043781,35.4222112],[139.3043667,35.4221894],[139.3043507,35.4221801],[139.304255,35.4221316],[139.3041951,35.4220894],[139.3041142,35.4220344],[139.3040443,35.4219566],[139.3039898,35.421865],[139.3039549,35.4218177],[139.303909,35.4217685],[139.3038887,35.4217139],[139.3038687,35.4216825],[139.3038495,35.4215669],[139.3038611,35.4214895],[139.3038639,35.4213941],[139.3037449,35.4211366],[139.3035994,35.420875],[139.3035145,35.4206968],[139.3035033,35.4206574],[139.3034955,35.4204998],[139.3034835,35.4204566],[139.3034328,35.4203578],[139.3033498,35.4202335],[139.3033043,35.4201927],[139.3032694,35.4201663],[139.3032205,35.4201389],[139.3031994,35.420112],[139.3031915,35.4200844],[139.3031923,35.4200477],[139.3031973,35.4200134],[139.3032232,35.419965],[139.3032386,35.419921],[139.3032381,35.4198935],[139.303221,35.4198638],[139.3031499,35.4198104],[139.3030815,35.4197494],[139.3030335,35.419681],[139.3029882,35.4196105],[139.3029006,35.4194047],[139.3028276,35.419345],[139.3027472,35.4193129],[139.3027087,35.4192989],[139.3026994,35.4191064],[139.3027199,35.4190183],[139.3027346,35.4188836],[139.3027267,35.4187591],[139.3027341,35.4186551],[139.3027897,35.4184689],[139.302843,35.4181582],[139.3030371,35.418648],[139.3034521,35.4189257],[139.3035303,35.4192595],[139.3037168,35.4193751],[139.3040237,35.4198658],[139.3040616,35.4199173],[139.3041167,35.4199464],[139.3041924,35.4199521],[139.3045503,35.4198278],[139.3046003,35.4197963],[139.3046366,35.4197166],[139.3048403,35.4196832],[139.3048717,35.4196947],[139.3049884,35.419794],[139.305062,35.4198257],[139.3055764,35.4195169],[139.3059569,35.4197592],[139.3060652,35.419874],[139.3061469,35.4199301],[139.3062415,35.4199536],[139.3064147,35.4199804],[139.3065558,35.4200073],[139.3066873,35.4200449],[139.3067581,35.4200591],[139.3068103,35.4200595],[139.3068367,35.4200555],[139.3070901,35.4199466],[139.3071245,35.4199341],[139.3071481,35.4199416],[139.3071739,35.4199605],[139.3072975,35.4200565],[139.3075773,35.4202539],[139.3076333,35.4202988],[139.3076582,35.4203378],[139.3076848,35.4203977],[139.3076911,35.4205074],[139.3076803,35.4205795],[139.3076482,35.4207086],[139.3076281,35.4208664],[139.3076242,35.4209245],[139.3076438,35.4210271],[139.3076834,35.4211432],[139.3077422,35.4212642],[139.3077739,35.4213106],[139.3078148,35.4213386],[139.3078659,35.4213736],[139.3079103,35.4213963],[139.3079831,35.4214285],[139.3080339,35.4214433],[139.3081334,35.4214662],[139.3082165,35.4214823],[139.3082898,35.4214977],[139.3083517,35.4215052],[139.3084674,35.4215058],[139.3085324,35.4215039],[139.3086045,35.4214916],[139.3086575,35.4214793],[139.3087142,35.4214451],[139.3087678,35.4214054],[139.30888,35.4213125],[139.308946,35.421261],[139.308978,35.4212538],[139.309046,35.4212455],[139.3091195,35.4212552],[139.3092571,35.4212829],[139.3093145,35.4212915],[139.3093939,35.4212983],[139.3095565,35.4213299],[139.3096155,35.4213501],[139.3096553,35.4213741],[139.3096752,35.4213978],[139.3096857,35.4214296],[139.3096869,35.4214717],[139.3096744,35.4215126],[139.309654,35.4216167],[139.3096572,35.4216777],[139.3096701,35.4217941],[139.3096916,35.4218429],[139.3097289,35.4218879],[139.309769,35.4219246],[139.3099144,35.4220284],[139.3099645,35.4220621],[139.3100026,35.4220924],[139.3100418,35.4221493],[139.3100423,35.4221901],[139.3100195,35.4222165],[139.3100034,35.4222253],[139.3099584,35.4222403],[139.3099296,35.4222428],[139.3099072,35.4222443],[139.309865,35.4222447],[139.309832,35.4222564],[139.3098148,35.4222768],[139.3097966,35.4223064],[139.3097817,35.4223625],[139.3097505,35.42245],[139.3097301,35.4225197],[139.3097274,35.4225615],[139.3097322,35.42259],[139.3097443,35.4226163],[139.3097609,35.4226454],[139.3097879,35.4226584],[139.3098351,35.4226682],[139.3099111,35.4226829],[139.3099183,35.4227104],[139.3097882,35.4230469],[139.309592,35.4229405]]]}}
