{"type":"Feature","id":"attraction-large-park-W197881711","properties":{"id":"attraction-large-park-W197881711","kind":"attraction","name":"かごしま健康の森公園","shortName":"かごしま健康の森公園","context":"日本","subtype":"large-park","subtypeLabel":"大型都市公園・広域公園","statusLabel":"著名な公園","aliases":[],"osmType":"way","osmId":197881711,"osmDate":null,"officialAreaKm2":null,"areaSourceLabel":"","areaSourceUrl":"","boundarySourceLabel":"© OpenStreetMap contributors","boundarySourceUrl":"https://www.openstreetmap.org/copyright","geometryFile":"attractions/large-park-W197881711.geojson"},"geometry":{"type":"Polygon","coordinates":[[[130.5020159,31.6470066],[130.501914,31.6467919],[130.5018657,31.6466504],[130.5018121,31.6464677],[130.5017477,31.646349],[130.5016404,31.6462165],[130.5015117,31.6461115],[130.5014044,31.6461115],[130.5013078,31.6461115],[130.5012059,31.6460841],[130.5011308,31.6460339],[130.5010771,31.6459334],[130.501045,31.6457781],[130.5010128,31.6456457],[130.5008626,31.6453306],[130.5007767,31.6451936],[130.5006373,31.6451433],[130.5004817,31.645157],[130.500428,31.6451662],[130.5003261,31.6447141],[130.5005461,31.644673],[130.5007553,31.6446319],[130.5008518,31.6445862],[130.5009108,31.6444949],[130.5009484,31.64423],[130.5010128,31.644093],[130.5011077,31.6440053],[130.5011791,31.6439697],[130.501281,31.6439103],[130.5013293,31.643819],[130.5013293,31.6437002],[130.5015224,31.64365],[130.5018067,31.6435997],[130.5020427,31.6436043],[130.5024236,31.6436591],[130.5025776,31.6436582],[130.5027331,31.6436582],[130.5028849,31.6436271],[130.5030083,31.6435815],[130.5031693,31.6434947],[130.5033248,31.6434125],[130.5034643,31.6433075],[130.5035877,31.6431613],[130.5037218,31.6430517],[130.5038345,31.6429695],[130.5039793,31.642869],[130.504167,31.6427594],[130.5046284,31.6425494],[130.5048698,31.6424443],[130.5051541,31.6423438],[130.5055119,31.6422744],[130.5057254,31.6422822],[130.5058461,31.6423142],[130.5059373,31.6423484],[130.5060875,31.6424078],[130.5061841,31.6424626],[130.5063289,31.6425539],[130.5064442,31.6426293],[130.506558,31.6427197],[130.5066197,31.6427745],[130.5067001,31.6428773],[130.5068063,31.643022],[130.5069388,31.6432769],[130.506978,31.6434262],[130.5067725,31.6435328],[130.5065381,31.6436545],[130.5064791,31.6438646],[130.5064898,31.6441204],[130.5064147,31.6444218],[130.5063058,31.6446309],[130.5063005,31.6447679],[130.5063541,31.6448502],[130.5064292,31.6449232],[130.5065151,31.6449598],[130.5066669,31.6449789],[130.5067688,31.6450155],[130.5068369,31.6450876],[130.5068691,31.6451561],[130.5068798,31.6452155],[130.5069281,31.6452794],[130.5069941,31.6452803],[130.5071336,31.6452164],[130.5072891,31.6451296],[130.5074125,31.6450474],[130.5075627,31.6449698],[130.5076217,31.6449287],[130.507788,31.6448922],[130.5079811,31.644883],[130.5081474,31.6449241],[130.5082923,31.6450474],[130.5085106,31.6452886],[130.5086769,31.6454941],[130.5088432,31.6455945],[130.5089237,31.6456813],[130.508929,31.6458],[130.5089344,31.6459918],[130.5088716,31.6461983],[130.5088073,31.6463581],[130.5087804,31.6465179],[130.5088218,31.646791],[130.5088378,31.6469372],[130.5088931,31.6471892],[130.5088126,31.6473491],[130.5087214,31.6473947],[130.508582,31.6474267],[130.5084264,31.6474267],[130.5081474,31.6474313],[130.5079007,31.6474998],[130.5075788,31.6475774],[130.5073642,31.6476642],[130.5072462,31.6477875],[130.507096,31.6478697],[130.5069083,31.6478879],[130.5067044,31.6479427],[130.5065381,31.6479427],[130.5064416,31.6478879],[130.5063343,31.6478012],[130.5062592,31.6477327],[130.5062163,31.6476185],[130.5062431,31.6474906],[130.5063235,31.6474267],[130.506522,31.6472943],[130.5066883,31.6470888],[130.5065316,31.6469665],[130.5064952,31.6469381],[130.506345,31.646897],[130.5060392,31.6468924],[130.5055403,31.646897],[130.5051458,31.6468855],[130.5049127,31.6468787],[130.5046284,31.6468056],[130.5044353,31.6467463],[130.5043012,31.6466549],[130.5041456,31.6466001],[130.5038291,31.6472714],[130.5034965,31.6472486],[130.503239,31.6472303],[130.5029279,31.6472303],[130.5026436,31.6472349],[130.5023539,31.6471984],[130.5021715,31.6471573],[130.5020688,31.6471073],[130.5020159,31.6470066]]]}}
