{"type":"Feature","id":"attraction-large-park-R12913811","properties":{"id":"attraction-large-park-R12913811","kind":"attraction","name":"三段池公園","shortName":"三段池公園","context":"日本","subtype":"large-park","subtypeLabel":"大型都市公園・広域公園","statusLabel":"著名な公園","aliases":[],"osmType":"relation","osmId":12913811,"osmDate":null,"officialAreaKm2":null,"areaSourceLabel":"","areaSourceUrl":"","boundarySourceLabel":"© OpenStreetMap contributors","boundarySourceUrl":"https://www.openstreetmap.org/copyright","geometryFile":"attractions/large-park-R12913811.geojson"},"geometry":{"type":"Polygon","coordinates":[[[135.1372437,35.318552],[135.1381228,35.3181801],[135.137919,35.317791],[135.1377511,35.3175508],[135.1376996,35.3174717],[135.1376294,35.3173637],[135.1371676,35.3164076],[135.1368964,35.3158951],[135.137034,35.3158494],[135.1373604,35.3157196],[135.1373608,35.3155814],[135.1373271,35.3153534],[135.1372964,35.3151469],[135.1373719,35.3149775],[135.1374272,35.3148681],[135.1375552,35.3147803],[135.1371078,35.3148323],[135.1370016,35.3145694],[135.1371751,35.3144684],[135.1370618,35.3144453],[135.1368601,35.3144337],[135.1366654,35.3144251],[135.1364885,35.3144164],[135.1363256,35.3144251],[135.1362272,35.3144467],[135.1361628,35.3144885],[135.1360744,35.3143788],[135.1363681,35.3143009],[135.1367043,35.3142951],[135.1369309,35.314298],[135.1370972,35.3143384],[135.137083,35.3140958],[135.1369415,35.3136973],[135.137076,35.3132814],[135.1372317,35.3129955],[135.1374653,35.3126894],[135.1375644,35.3124063],[135.1376316,35.3121666],[135.1377689,35.3120168],[135.1379455,35.3119489],[135.1380617,35.3119264],[135.1380846,35.3118201],[135.1382828,35.3116352],[135.1384669,35.3114504],[135.138527,35.3113407],[135.1387778,35.3113022],[135.1391352,35.3112979],[135.1392208,35.3110062],[135.1392381,35.3109474],[135.1392792,35.3107539],[135.139289,35.3106089],[135.1392796,35.3098213],[135.1387523,35.3097951],[135.1388996,35.309648],[135.1389849,35.309492],[135.1390906,35.3093112],[135.1391597,35.3091918],[135.1391597,35.3090243],[135.1390195,35.3089944],[135.1389504,35.3089032],[135.1388996,35.3087058],[135.1389321,35.3084835],[135.1390297,35.3082314],[135.1390866,35.3079726],[135.1391211,35.3076309],[135.1387186,35.3073339],[135.1384706,35.307324],[135.1380987,35.3076143],[135.1375193,35.3076771],[135.1371097,35.3075808],[135.136944,35.3076168],[135.1367167,35.3076716],[135.1364936,35.3077457],[135.1363137,35.3078319],[135.1361368,35.3079243],[135.1358232,35.3080128],[135.1357319,35.3078421],[135.1357441,35.3077289],[135.1358342,35.3076037],[135.1358683,35.3074938],[135.1358805,35.3073653],[135.1358726,35.3071906],[135.135822,35.3068822],[135.1354724,35.3070692],[135.1353085,35.3072004],[135.1352889,35.3073483],[135.1353058,35.3077662],[135.1351807,35.308076],[135.1350847,35.3082155],[135.1350467,35.30838],[135.1350174,35.3086253],[135.1347142,35.3094251],[135.1350926,35.3093383],[135.1352094,35.3093583],[135.1352844,35.3094744],[135.1351962,35.3096875],[135.1350105,35.3099918],[135.1345597,35.3104137],[135.1344434,35.3105504],[135.1344391,35.3107098],[135.1346735,35.3110441],[135.1340799,35.3118734],[135.134271,35.3120128],[135.1340337,35.3121548],[135.1335664,35.3119815],[135.1334195,35.3121751],[135.1335332,35.3124788],[135.1330891,35.3126169],[135.1331721,35.3127237],[135.1332013,35.3128802],[135.1334132,35.3131474],[135.1335047,35.3132303],[135.1333715,35.3133812],[135.1336099,35.3136027],[135.1335352,35.3140431],[135.1334234,35.3140795],[135.1330107,35.3140563],[135.1321159,35.3140497],[135.1320664,35.314492],[135.1319328,35.3144922],[135.1319781,35.3149759],[135.1331698,35.31511],[135.1332188,35.3151728],[135.1331541,35.3152604],[135.1325983,35.3152809],[135.1323204,35.3154048],[135.1320851,35.3154949],[135.132089,35.3155797],[135.1322308,35.3159743],[135.1315595,35.3161349],[135.1314246,35.3165815],[135.1316727,35.3168621],[135.1321577,35.3172161],[135.1324312,35.3172768],[135.1327284,35.3172424],[135.1329883,35.3173452],[135.1331157,35.3177794],[135.1341857,35.3179312],[135.1344059,35.3179076],[135.1345886,35.3179755],[135.1349637,35.3179018],[135.1354322,35.3178891],[135.135854,35.3178764],[135.1362384,35.3179399],[135.1367232,35.3180738],[135.1370026,35.3184517],[135.1372437,35.318552]],[[135.1343882,35.3159461],[135.1339902,35.3159424],[135.1339801,35.3160124],[135.1337976,35.3160058],[135.1333312,35.3161684],[135.133235,35.3162665],[135.1332279,35.3164941],[135.1332189,35.3170042],[135.1332494,35.3174911],[135.1333183,35.3175527],[135.1337172,35.3177008],[135.1338927,35.3177421],[135.1343757,35.3177215],[135.1345549,35.3175655],[135.1345489,35.3170787],[135.1345478,35.3170487],[135.1346233,35.3170504],[135.1346264,35.3166369],[135.134559,35.3166137],[135.1345521,35.3160927],[135.1343882,35.3159461]],[[135.1358617,35.3176229],[135.1358687,35.3175565],[135.1360088,35.3173615],[135.1360665,35.3172945],[135.1361854,35.3171998],[135.1362574,35.3171739],[135.1363769,35.3172161],[135.1363911,35.3172211],[135.1364022,35.3172273],[135.1363202,35.3174828],[135.1363423,35.3176816],[135.1363756,35.3177357],[135.1364298,35.3177897],[135.1365186,35.3178759],[135.1365839,35.3178949],[135.1367787,35.317912],[135.1369495,35.3178982],[135.1371618,35.3178399],[135.1373423,35.3177288],[135.1373312,35.3177206],[135.1373076,35.3176563],[135.1373325,35.3175773],[135.13733,35.3174762],[135.1373174,35.3174406],[135.1372461,35.3173022],[135.1371706,35.3171323],[135.1370406,35.3169101],[135.1366632,35.3164321],[135.1365102,35.3162832],[135.1363474,35.3159607],[135.1361682,35.3158082],[135.1359646,35.3157029],[135.135751,35.3156636],[135.135595,35.3156605],[135.1353928,35.3156561],[135.1352379,35.3156818],[135.1351276,35.3157231],[135.1350378,35.3157849],[135.134957,35.3158511],[135.1349231,35.3159108],[135.1351061,35.3159963],[135.1350787,35.3160253],[135.1350041,35.3161558],[135.13499,35.3162838],[135.1350087,35.3164971],[135.1350099,35.3166387],[135.1350098,35.3168626],[135.1350548,35.3171436],[135.1350547,35.3173449],[135.1350783,35.3174311],[135.135154,35.3175222],[135.1352492,35.3175892],[135.1353412,35.3176188],[135.1354489,35.3176189],[135.1354524,35.3177407],[135.1357091,35.3177252],[135.1358499,35.3177357],[135.1361792,35.3177774],[135.1363263,35.3178123],[135.1363103,35.3177642],[135.1362789,35.3177582],[135.136133,35.317727],[135.1358993,35.3176829],[135.1358617,35.3176229]]]}}
