{"type":"Feature","id":"attraction-large-park-W493360885","properties":{"id":"attraction-large-park-W493360885","kind":"attraction","name":"ぐんまこどもの国","shortName":"ぐんまこどもの国","context":"群馬県・太田市","subtype":"large-park","subtypeLabel":"大型都市公園・広域公園","statusLabel":"著名な公園","aliases":[],"osmType":"way","osmId":493360885,"osmDate":null,"officialAreaKm2":null,"areaSourceLabel":"","areaSourceUrl":"","boundarySourceLabel":"© OpenStreetMap contributors","boundarySourceUrl":"https://www.openstreetmap.org/copyright","geometryFile":"attractions/large-park-W493360885.geojson"},"geometry":{"type":"Polygon","coordinates":[[[139.3657847,36.3166653],[139.3657293,36.316771],[139.3658279,36.3168733],[139.3664971,36.3175434],[139.3662802,36.3177153],[139.3663545,36.317795],[139.366324,36.3178203],[139.3662852,36.3177838],[139.3660669,36.3179561],[139.3657093,36.3181751],[139.3657859,36.3182408],[139.3665288,36.3188989],[139.3666277,36.3189701],[139.3667159,36.3190113],[139.3669378,36.3191464],[139.3671253,36.3193289],[139.3673347,36.3196089],[139.36747,36.3197776],[139.3676186,36.3199463],[139.3677298,36.3200431],[139.3678254,36.3201149],[139.3680033,36.3202512],[139.3681055,36.3203474],[139.3682033,36.3204651],[139.3683342,36.3206444],[139.3684712,36.3208755],[139.3685706,36.321299],[139.3685783,36.321352],[139.3687569,36.3216102],[139.3696851,36.3224383],[139.3708722,36.3227396],[139.3720431,36.3226872],[139.3721182,36.3225591],[139.3721252,36.3225472],[139.3723116,36.3222292],[139.3723195,36.3222156],[139.371818,36.3218472],[139.3717666,36.3218094],[139.3716887,36.3217847],[139.3708559,36.3215211],[139.3695084,36.320802],[139.3694631,36.3204357],[139.3691683,36.3202401],[139.3689104,36.3196427],[139.3687958,36.3193479],[139.3690732,36.3192738],[139.3692426,36.3192205],[139.3695446,36.3191438],[139.369988,36.3190147],[139.3700268,36.3190478],[139.3700688,36.3191366],[139.369789,36.3196532],[139.3698169,36.3198335],[139.3700303,36.3200087],[139.3702212,36.3200388],[139.3707939,36.319809],[139.3710921,36.3199814],[139.3720789,36.3201066],[139.3727662,36.3196753],[139.3733878,36.3195448],[139.373487,36.3196154],[139.3735845,36.3196578],[139.3737433,36.3193356],[139.3733828,36.3191932],[139.3735551,36.3188789],[139.3735392,36.3185731],[139.373431,36.318442],[139.3730207,36.3183623],[139.3717234,36.3183835],[139.37009,36.3182571],[139.3700081,36.3182143],[139.3698725,36.3181715],[139.3697984,36.3179186],[139.3698477,36.3177045],[139.3697873,36.3176188],[139.3696625,36.3175417],[139.3695954,36.3177118],[139.3697057,36.3182066],[139.3693585,36.3183287],[139.3691044,36.3183875],[139.3688808,36.3183694],[139.368558,36.3182562],[139.3684533,36.3182077],[139.3684451,36.3181592],[139.3685171,36.3179663],[139.3685258,36.3178864],[139.3682326,36.3174289],[139.3682429,36.3173914],[139.3682798,36.3173772],[139.368328,36.3173881],[139.3683836,36.317384],[139.3685014,36.3173572],[139.3689136,36.3171624],[139.368909,36.317024],[139.3688667,36.3169599],[139.3687058,36.3168452],[139.3684557,36.316717],[139.3674526,36.3168274],[139.3671137,36.3168374],[139.3664809,36.3162902],[139.3663285,36.3159481],[139.3661632,36.3157739],[139.3659762,36.3158445],[139.3657223,36.3155705],[139.3656456,36.3156118],[139.3655562,36.3155363],[139.365501,36.3155179],[139.3654334,36.3154843],[139.3653167,36.3154259],[139.3651462,36.3153276],[139.3655762,36.3157449],[139.3662829,36.3164306],[139.3662369,36.3164629],[139.3662109,36.3164798],[139.3661779,36.3165015],[139.3661688,36.3165075],[139.3661321,36.3164753],[139.3657847,36.3166653]]]}}
