{"type":"Feature","id":"attraction-large-industrial-complex-W260860888","properties":{"id":"attraction-large-industrial-complex-W260860888","kind":"attraction","name":"ダイセル","shortName":"ダイセル","context":"日本","subtype":"industrial-complex","subtypeLabel":"工業地帯・大規模工場","statusLabel":"","aliases":[],"osmType":"way","osmId":260860888,"osmDate":null,"officialAreaKm2":null,"areaSourceLabel":"","areaSourceUrl":"","boundarySourceLabel":"© OpenStreetMap contributors","boundarySourceUrl":"https://www.openstreetmap.org/copyright","geometryFile":"attractions/large-industrial-complex-W260860888.geojson"},"geometry":{"type":"Polygon","coordinates":[[[134.5963236,34.7833057],[134.5962762,34.7832293],[134.5960938,34.7830564],[134.5957948,34.7829264],[134.594896,34.7827745],[134.5945017,34.7827063],[134.5938806,34.7823726],[134.5932505,34.782076],[134.5937135,34.7812451],[134.5927609,34.7808882],[134.5928152,34.7808089],[134.5922859,34.7805849],[134.5931342,34.7792021],[134.5932915,34.7789369],[134.5932954,34.7787724],[134.5933268,34.7786943],[134.592962,34.7785728],[134.5923772,34.7784585],[134.5915109,34.7783439],[134.5905694,34.7781192],[134.5904702,34.7780201],[134.5905035,34.7779175],[134.5929861,34.7757311],[134.5948368,34.7741073],[134.5953993,34.7736738],[134.5955013,34.7737267],[134.5955335,34.7736975],[134.5955738,34.7737246],[134.5956119,34.7737487],[134.5956382,34.7736981],[134.5982249,34.7749519],[134.5982946,34.7749788],[134.5985818,34.77513],[134.5989116,34.7750255],[134.5989755,34.77503],[134.5995519,34.7733362],[134.6012259,34.7737254],[134.601126,34.7740228],[134.6035377,34.7745926],[134.6030994,34.7758933],[134.6030099,34.7761381],[134.6030475,34.7761722],[134.6042196,34.776408],[134.6041996,34.7765559],[134.6033949,34.7781412],[134.6037246,34.778315],[134.60352,34.7786884],[134.6023092,34.7811732],[134.6022502,34.7811985],[134.6021114,34.7812062],[134.601986,34.7812514],[134.6005807,34.7813815],[134.6005492,34.7814432],[134.6002411,34.7817479],[134.5969049,34.7832162],[134.5967521,34.7832614],[134.5963236,34.7833057]]]}}
