{"type":"Feature","id":"attraction-large-industrial-complex-W605420894","properties":{"id":"attraction-large-industrial-complex-W605420894","kind":"attraction","name":"舞鶴火力発電所","shortName":"舞鶴火力発電所","context":"日本","subtype":"industrial-complex","subtypeLabel":"工業地帯・大規模工場","statusLabel":"","aliases":["Maizuru Power Plant","関西電力"],"osmType":"way","osmId":605420894,"osmDate":null,"officialAreaKm2":null,"areaSourceLabel":"","areaSourceUrl":"","boundarySourceLabel":"© OpenStreetMap contributors","boundarySourceUrl":"https://www.openstreetmap.org/copyright","geometryFile":"attractions/large-industrial-complex-W605420894.geojson"},"geometry":{"type":"Polygon","coordinates":[[[135.3472817,35.532558],[135.3476465,35.5314841],[135.344696,35.5248744],[135.3444868,35.5221326],[135.3438024,35.5220939],[135.3424433,35.5220865],[135.3422465,35.522047],[135.34213,35.5220415],[135.341997,35.5220798],[135.3418276,35.5221788],[135.3413161,35.5228713],[135.3407017,35.52351],[135.3405192,35.5236323],[135.3402139,35.5236758],[135.3401943,35.5234913],[135.3396073,35.523508],[135.3396381,35.5237413],[135.3390815,35.5236343],[135.338427,35.524226],[135.338323,35.524336],[135.3390849,35.5253284],[135.3391122,35.5254276],[135.3403079,35.5297815],[135.3459084,35.5330295],[135.3472817,35.532558]]]}}
