{"type":"Feature","id":"attraction-large-park-W162972760","properties":{"id":"attraction-large-park-W162972760","kind":"attraction","name":"綾瀬スポーツ公園","shortName":"綾瀬スポーツ公園","context":"日本","subtype":"large-park","subtypeLabel":"大型都市公園・広域公園","statusLabel":"著名な公園","aliases":["Ayase Sports Park"],"osmType":"way","osmId":162972760,"osmDate":null,"officialAreaKm2":null,"areaSourceLabel":"","areaSourceUrl":"","boundarySourceLabel":"© OpenStreetMap contributors","boundarySourceUrl":"https://www.openstreetmap.org/copyright","geometryFile":"attractions/large-park-W162972760.geojson"},"geometry":{"type":"Polygon","coordinates":[[[139.4474349,35.4397903],[139.4476089,35.4398755],[139.4483139,35.4398576],[139.4490654,35.4397951],[139.4494063,35.4397664],[139.4493939,35.4394285],[139.4494963,35.4388383],[139.4494619,35.4380209],[139.4496171,35.4370216],[139.4496625,35.436582],[139.4495684,35.4363631],[139.4496945,35.4354217],[139.4497159,35.4353709],[139.4496341,35.434576],[139.4495764,35.4344367],[139.4495865,35.4338286],[139.448645,35.433904],[139.448403,35.4339439],[139.447432,35.4341439],[139.4473448,35.4342029],[139.4472737,35.4342968],[139.4472513,35.4343774],[139.4472582,35.4345117],[139.447261,35.4346241],[139.4472828,35.4347582],[139.4473127,35.4348901],[139.4474682,35.4354704],[139.4475004,35.4356943],[139.4475862,35.4362921],[139.4476506,35.4375246],[139.4475809,35.4380709],[139.4475432,35.4382065],[139.4474334,35.43843],[139.4472387,35.4387562],[139.4472109,35.4388088],[139.4474101,35.4396691],[139.4474349,35.4397903]]]}}
