{"type":"Feature","id":"attraction-large-industrial-complex-W561141793","properties":{"id":"attraction-large-industrial-complex-W561141793","kind":"attraction","name":"(株)富山環境整備","shortName":"(株)富山環境整備","context":"日本","subtype":"industrial-complex","subtypeLabel":"工業地帯・大規模工場","statusLabel":"","aliases":[],"osmType":"way","osmId":561141793,"osmDate":null,"officialAreaKm2":null,"areaSourceLabel":"","areaSourceUrl":"","boundarySourceLabel":"© OpenStreetMap contributors","boundarySourceUrl":"https://www.openstreetmap.org/copyright","geometryFile":"attractions/large-industrial-complex-W561141793.geojson"},"geometry":{"type":"Polygon","coordinates":[[[137.0718399,36.6287843],[137.0713971,36.6286675],[137.0706505,36.6284492],[137.070524,36.6284086],[137.0702773,36.6284035],[137.0699166,36.6285355],[137.0693283,36.6288808],[137.0690562,36.6289722],[137.0686956,36.6290839],[137.0682464,36.6291245],[137.0675379,36.6291854],[137.0670697,36.6293174],[137.0666395,36.6296474],[137.065836,36.6306019],[137.0653667,36.631161],[137.0649797,36.6315836],[137.0644912,36.6319145],[137.0639901,36.6321233],[137.0634381,36.6323065],[137.0625817,36.6325967],[137.0635382,36.6348913],[137.0628301,36.6356967],[137.0630911,36.6364774],[137.0635411,36.6368274],[137.0643858,36.6370996],[137.0662411,36.6371885],[137.0686781,36.6366718],[137.0700638,36.6384903],[137.0711085,36.6395248],[137.0724942,36.6401016],[137.0728276,36.6390314],[137.0735612,36.6378838],[137.072094,36.6368612],[137.0729536,36.6362785],[137.0727906,36.6348752],[137.0717532,36.6335195],[137.0711085,36.6329963],[137.0703379,36.6329666],[137.0699823,36.6324671],[137.0697452,36.6313968],[137.070375,36.6309567],[137.0713086,36.6301421],[137.0718051,36.6292382],[137.0718399,36.6287843]]]}}
