{"type":"Feature","id":"attraction-large-park-W278762831","properties":{"id":"attraction-large-park-W278762831","kind":"attraction","name":"笠岡総合スポーツ公園","shortName":"笠岡総合スポーツ公園","context":"日本","subtype":"large-park","subtypeLabel":"大型都市公園・広域公園","statusLabel":"著名な公園","aliases":[],"osmType":"way","osmId":278762831,"osmDate":null,"officialAreaKm2":null,"areaSourceLabel":"","areaSourceUrl":"","boundarySourceLabel":"© OpenStreetMap contributors","boundarySourceUrl":"https://www.openstreetmap.org/copyright","geometryFile":"attractions/large-park-W278762831.geojson"},"geometry":{"type":"Polygon","coordinates":[[[133.4880085,34.505551],[133.4876061,34.5053347],[133.4871455,34.5046861],[133.4866966,34.5042537],[133.4864235,34.5040889],[133.4860379,34.5033986],[133.4866034,34.5028125],[133.4887268,34.5004988],[133.4899038,34.5011932],[133.4907425,34.5017411],[133.491863,34.5029648],[133.4918775,34.502997],[133.4918644,34.5031396],[133.4918548,34.5031717],[133.4898109,34.5044319],[133.4889119,34.5049831],[133.4880085,34.505551]]]}}
