{"type":"Feature","id":"attraction-large-park-W80625724","properties":{"id":"attraction-large-park-W80625724","kind":"attraction","name":"モリリン加瀬沼公園","shortName":"モリリン加瀬沼公園","context":"日本","subtype":"large-park","subtypeLabel":"大型都市公園・広域公園","statusLabel":"著名な公園","aliases":["Moririn Kasenuma Park","加瀬沼公園"],"osmType":"way","osmId":80625724,"osmDate":null,"officialAreaKm2":null,"areaSourceLabel":"","areaSourceUrl":"","boundarySourceLabel":"© OpenStreetMap contributors","boundarySourceUrl":"https://www.openstreetmap.org/copyright","geometryFile":"attractions/large-park-W80625724.geojson"},"geometry":{"type":"Polygon","coordinates":[[[140.9834282,38.3141963],[140.9839886,38.3140099],[140.9842945,38.3140048],[140.9846364,38.3140534],[140.9846693,38.3140581],[140.9847863,38.3139577],[140.9851394,38.3136217],[140.9851501,38.31362],[140.9857329,38.3135279],[140.9858254,38.3128155],[140.985829,38.3127875],[140.9859992,38.3116403],[140.9855553,38.3110748],[140.9854608,38.3110482],[140.9853696,38.3110528],[140.9851741,38.3111653],[140.9850253,38.3111536],[140.9847343,38.3109234],[140.9845159,38.3108122],[140.9844314,38.3106492],[140.9844081,38.3105813],[140.9843287,38.3105703],[140.9842023,38.3105688],[140.9840446,38.3106616],[140.9837887,38.3107174],[140.9836354,38.3106967],[140.9833172,38.310539],[140.9828623,38.3101718],[140.9823566,38.3097806],[140.9820805,38.3095544],[140.9820884,38.3085302],[140.9807279,38.3085384],[140.980299,38.3090943],[140.979762,38.3097896],[140.9793127,38.3095978],[140.9792647,38.3096734],[140.9789548,38.310198],[140.9789802,38.3102392],[140.9788611,38.3104367],[140.9788982,38.3110659],[140.9790332,38.3111248],[140.9794897,38.3109669],[140.9798527,38.310738],[140.9802307,38.3108864],[140.9804028,38.3109466],[140.9806369,38.3109625],[140.9807831,38.3110486],[140.9806083,38.3115072],[140.9806637,38.3117423],[140.9812454,38.3118733],[140.9814135,38.3118429],[140.9816549,38.3115868],[140.9819516,38.3117338],[140.9817198,38.312388],[140.9821567,38.3124629],[140.9824955,38.3122667],[140.9827947,38.3126147],[140.9830515,38.3132842],[140.9834282,38.3141963]]]}}
