{"type":"Feature","id":"attraction-large-park-W1060171775","properties":{"id":"attraction-large-park-W1060171775","kind":"attraction","name":"小清水原生花園","shortName":"小清水原生花園","context":"日本","subtype":"large-park","subtypeLabel":"大型都市公園・広域公園","statusLabel":"","aliases":["Koshimizu Genseikaen"],"osmType":"way","osmId":1060171775,"osmDate":null,"officialAreaKm2":null,"areaSourceLabel":"","areaSourceUrl":"","boundarySourceLabel":"© OpenStreetMap contributors","boundarySourceUrl":"https://www.openstreetmap.org/copyright","geometryFile":"attractions/large-park-W1060171775.geojson"},"geometry":{"type":"Polygon","coordinates":[[[144.3636061,43.9556579],[144.3637329,43.9556244],[144.3638128,43.9554528],[144.3640285,43.9552624],[144.3643959,43.9551018],[144.364983,43.9549996],[144.365557,43.9549149],[144.3660378,43.9548538],[144.3666279,43.9546993],[144.3670617,43.9544496],[144.3675452,43.9542359],[144.3682802,43.9540428],[144.369089,43.953946],[144.3702385,43.9537216],[144.3709361,43.9534773],[144.3713301,43.9533161],[144.3724997,43.953041],[144.373238,43.952824],[144.37379,43.95269],[144.374207,43.952505],[144.374636,43.952415],[144.375221,43.952224],[144.375775,43.952072],[144.3759848,43.9519756],[144.376201,43.9519157],[144.3768433,43.9518037],[144.3771958,43.9517257],[144.3774538,43.9516624],[144.3776362,43.9516216],[144.3778695,43.95154],[144.3781514,43.9514899],[144.3783321,43.9514615],[144.3784537,43.9513884],[144.3786081,43.9513617],[144.3787891,43.9513221],[144.3789643,43.951254],[144.37912,43.9511627],[144.3793357,43.9510492],[144.379561,43.950952],[144.3799298,43.9508267],[144.3804788,43.9506733],[144.3810797,43.9505323],[144.3817161,43.9504095],[144.3823151,43.9503682],[144.3829274,43.9501256],[144.3831869,43.9499593],[144.3835643,43.9498474],[144.3839459,43.9497581],[144.384415,43.94974],[144.3848797,43.949633],[144.3851018,43.9495003],[144.385377,43.949499],[144.3857163,43.94936],[144.386001,43.949292],[144.386141,43.9493042],[144.3862939,43.9492829],[144.3863959,43.9491996],[144.3866533,43.9491922],[144.3870426,43.949109],[144.3873886,43.949065],[144.3878221,43.9490196],[144.3881607,43.948889],[144.3884262,43.9487828],[144.388657,43.94873],[144.38968,43.948485],[144.3900837,43.9484329],[144.3905666,43.9483019],[144.3906605,43.9482749],[144.3908362,43.9481573],[144.3911678,43.9480406],[144.3915773,43.9478867],[144.3917073,43.9478828],[144.3919024,43.9478288],[144.3920794,43.947825],[144.3925098,43.9476833],[144.3928847,43.9475856],[144.3930745,43.9474696],[144.3936861,43.9473074],[144.3939543,43.9473229],[144.3943617,43.9472047],[144.3948028,43.9470409],[144.3955186,43.946901],[144.3960904,43.9468282],[144.3964326,43.9467686],[144.3967389,43.9466848],[144.3969879,43.9466296],[144.397314,43.9465337],[144.3975431,43.9464152],[144.3977704,43.9463111],[144.3981197,43.9462202],[144.3984927,43.9461281],[144.3988332,43.9460657],[144.3991689,43.9459985],[144.3994278,43.9459665],[144.3996735,43.9459492],[144.3998122,43.9459575],[144.3999436,43.9459324],[144.400185,43.9458822],[144.4005375,43.9457999],[144.4008127,43.9457644],[144.4011526,43.9457188],[144.4013947,43.9456119],[144.401722,43.9455539],[144.4023067,43.9454226],[144.4028184,43.9453534],[144.4030443,43.9452372],[144.403259,43.945089],[144.4038792,43.9448601],[144.4045952,43.9446923],[144.4049387,43.9446461],[144.4052061,43.9446482],[144.4053832,43.9445883],[144.4056989,43.9444844],[144.4060607,43.9444112],[144.4062576,43.9443894],[144.4064393,43.9443985],[144.4068,43.944287],[144.4073707,43.9442407],[144.4077247,43.9441441],[144.408189,43.9439216],[144.4085777,43.9438313],[144.4089907,43.9437618],[144.4093125,43.9437559],[144.4095168,43.9436859],[144.4098489,43.9436314],[144.410506,43.943452],[144.411061,43.943389],[144.4114304,43.9433093],[144.4118256,43.9433214],[144.4122417,43.9432792],[144.4127485,43.9431288],[144.4129907,43.9430448],[144.4135568,43.9427775],[144.4140118,43.9427421],[144.4143839,43.9426954],[144.4147254,43.9426939],[144.414995,43.942649],[144.4151898,43.9425084],[144.4154286,43.9423639],[144.4160505,43.9421697],[144.4163763,43.9420867],[144.416695,43.9420415],[144.4170368,43.9420098],[144.4176874,43.9420586],[144.4180458,43.9419626],[144.4182664,43.941948],[144.4191682,43.9416378],[144.4196445,43.9415717],[144.4199395,43.9414906],[144.4203687,43.941394],[144.420846,43.941397],[144.421135,43.941288],[144.422065,43.94115],[144.422364,43.941133],[144.4228417,43.9410695],[144.4232976,43.940985],[144.4235927,43.9409105],[144.4241023,43.9408787],[144.4247148,43.9407042],[144.4250089,43.9406678],[144.4253469,43.9406794],[144.425556,43.9405983],[144.4259745,43.940382],[144.4261713,43.9403872],[144.426291,43.9402815],[144.426658,43.940124],[144.4268896,43.9401113],[144.4271566,43.9402325],[144.427439,43.9401464],[144.427872,43.939966],[144.4284966,43.9398483],[144.428763,43.939751],[144.4291184,43.9395905],[144.4295585,43.9394515],[144.429894,43.939313],[144.4304812,43.9392174],[144.4311254,43.9390716],[144.4314623,43.9390068],[144.4318166,43.9389876],[144.4321221,43.9389373],[144.4322965,43.9389427],[144.4325564,43.9389644],[144.4332176,43.9388615],[144.4333115,43.938761],[144.4336429,43.9387237],[144.4340249,43.9385896],[144.434402,43.9385433],[144.4347561,43.9384805],[144.434994,43.938424],[144.435155,43.938403],[144.4354971,43.9382974],[144.4359798,43.9382058],[144.4365066,43.9380974],[144.437315,43.937993],[144.4375283,43.9379872],[144.4376847,43.9379705],[144.4378872,43.9379487],[144.4381547,43.9379626],[144.438719,43.937739],[144.4393591,43.9376837],[144.439718,43.937579],[144.4401312,43.9374269],[144.4403779,43.9373497],[144.4408978,43.9373206],[144.441319,43.937188],[144.44155,43.937143],[144.4418519,43.9370373],[144.442179,43.9369801],[144.4424876,43.9369097],[144.442752,43.9368686],[144.4434132,43.9366824],[144.442791,43.934759],[144.4421487,43.9348403],[144.4409278,43.9352057],[144.4387348,43.9358335],[144.4368112,43.93633],[144.4356068,43.9367069],[144.4345412,43.9370839],[144.433603,43.9373404],[144.433173,43.9373255],[144.4308383,43.9378647],[144.4276203,43.9384593],[144.4243255,43.9390663],[144.4214548,43.9396272],[144.419202,43.9400125],[144.4176208,43.9402951],[144.4159479,43.9405801],[144.414559,43.9407962],[144.4140172,43.9408985],[144.4125214,43.9411844],[144.4086188,43.9421307],[144.4085231,43.9421665],[144.405979,43.9428213],[144.4019133,43.9438662],[144.3976752,43.9449142],[144.3933356,43.9460379],[144.3895344,43.9470398],[144.3856982,43.9481039],[144.3837355,43.9487183],[144.3793928,43.9500176],[144.3767987,43.9507851],[144.3744171,43.9515092],[144.3726487,43.9519567],[144.3711274,43.9522922],[144.3698486,43.9525844],[144.3674172,43.9530898],[144.3650408,43.9536272],[144.3636565,43.9539306],[144.3613135,43.9543899],[144.3608306,43.9544222],[144.3610261,43.954525],[144.3610831,43.9545544],[144.3611392,43.9545972],[144.3612845,43.9547067],[144.3614567,43.9548175],[144.3615111,43.9548456],[144.3617558,43.9550136],[144.3618989,43.9551006],[144.3619595,43.9551286],[144.3620003,43.9551433],[144.3620795,43.9551783],[144.3622156,43.9552358],[144.3623461,43.9552981],[144.3624936,43.9553714],[144.3626506,43.9554436],[144.3627436,43.9554831],[144.3628311,43.9555169],[144.3630303,43.9555781],[144.3631244,43.9555803],[144.3632448,43.9555919],[144.3633608,43.9555788],[144.3635217,43.9556132],[144.3636061,43.9556579]]]}}
