{"type":"Feature","id":"attraction-large-park-W464732166","properties":{"id":"attraction-large-park-W464732166","kind":"attraction","name":"岡崎中央総合公園","shortName":"岡崎中央総合公園","context":"愛知県・岡崎市","subtype":"large-park","subtypeLabel":"大型都市公園・広域公園","statusLabel":"著名な公園","aliases":[],"osmType":"way","osmId":464732166,"osmDate":null,"officialAreaKm2":null,"areaSourceLabel":"","areaSourceUrl":"","boundarySourceLabel":"© OpenStreetMap contributors","boundarySourceUrl":"https://www.openstreetmap.org/copyright","geometryFile":"attractions/large-park-W464732166.geojson"},"geometry":{"type":"Polygon","coordinates":[[[137.2196024,34.9500105],[137.2181149,34.9501649],[137.2174622,34.9498785],[137.2167934,34.9497324],[137.2163098,34.9491125],[137.2155202,34.9496015],[137.2148336,34.9504282],[137.2136105,34.9504106],[137.2130526,34.9502171],[137.2116579,34.9508503],[137.2111546,34.9506713],[137.2107285,34.9506289],[137.2103965,34.9502033],[137.2100685,34.9502293],[137.2098098,34.9501866],[137.2092826,34.9500298],[137.2088839,34.9499372],[137.2084249,34.9498984],[137.2083363,34.9497148],[137.2081011,34.9489217],[137.2079188,34.948349],[137.2077483,34.946989],[137.2076881,34.9464272],[137.2079675,34.9463937],[137.2082211,34.9460954],[137.2089933,34.9460634],[137.2092501,34.9459937],[137.2091349,34.9451553],[137.20954,34.9451858],[137.2095014,34.9447718],[137.2099665,34.9443883],[137.2105793,34.9446396],[137.2111429,34.9452748],[137.2119583,34.9453276],[137.2129668,34.945222],[137.2134818,34.9454683],[137.213868,34.9456969],[137.2144688,34.9458025],[137.214898,34.9460663],[137.2155876,34.9488515],[137.2173029,34.9486282],[137.2181691,34.9487396],[137.2188926,34.9490461],[137.2192343,34.9492927],[137.2196024,34.9500105]]]}}
