{"type":"Feature","id":"attraction-large-park-W473413213","properties":{"id":"attraction-large-park-W473413213","kind":"attraction","name":"権現堂公園","shortName":"権現堂公園","context":"日本","subtype":"large-park","subtypeLabel":"大型都市公園・広域公園","statusLabel":"著名な公園","aliases":[],"osmType":"way","osmId":473413213,"osmDate":null,"officialAreaKm2":null,"areaSourceLabel":"","areaSourceUrl":"","boundarySourceLabel":"© OpenStreetMap contributors","boundarySourceUrl":"https://www.openstreetmap.org/copyright","geometryFile":"attractions/large-park-W473413213.geojson"},"geometry":{"type":"Polygon","coordinates":[[[139.726099,36.1065781],[139.7263133,36.1049957],[139.7262629,36.1042055],[139.7262633,36.1041929],[139.7262686,36.1041005],[139.7261789,36.104103],[139.7261708,36.1039526],[139.7261679,36.1037906],[139.7261907,36.1035097],[139.7262423,36.1029866],[139.7262468,36.1024388],[139.7262957,36.1016442],[139.725777,36.1016394],[139.7257313,36.1020442],[139.7256828,36.1020754],[139.7253259,36.1021071],[139.7251523,36.1022325],[139.7250822,36.1024825],[139.7249027,36.1024745],[139.7241715,36.1022645],[139.7241028,36.1022447],[139.7239157,36.102191],[139.7239771,36.1018307],[139.7238158,36.1018203],[139.7237226,36.1016788],[139.7234439,36.1019201],[139.7234251,36.1018386],[139.7234237,36.1016916],[139.7234358,36.1016434],[139.7234653,36.1015995],[139.7236038,36.1014712],[139.7236514,36.1014281],[139.723658,36.1013924],[139.7236297,36.1013723],[139.7236269,36.1013116],[139.7236048,36.1012615],[139.7235888,36.1012265],[139.7235592,36.101186],[139.7235246,36.1011571],[139.723483,36.101127],[139.7234218,36.1010997],[139.7233476,36.1010774],[139.7233077,36.1010587],[139.7232702,36.1010249],[139.7232458,36.100984],[139.723237,36.1008595],[139.7234442,36.1007936],[139.7253077,36.0999794],[139.7253052,36.0994662],[139.725316,36.0985701],[139.7253086,36.0980879],[139.725276,36.0975239],[139.7253832,36.0975341],[139.7254047,36.0973207],[139.7252245,36.0969048],[139.724277,36.0959363],[139.7242163,36.0957206],[139.7241632,36.0957238],[139.7241058,36.0954432],[139.7239473,36.0954611],[139.7239078,36.0953878],[139.7235879,36.0954686],[139.7234409,36.0951786],[139.7232616,36.0950126],[139.7238604,36.0945153],[139.7240244,36.0945167],[139.7241168,36.0945175],[139.7242029,36.094424],[139.7247047,36.0948039],[139.7248481,36.0948406],[139.7249125,36.094796],[139.7249434,36.0947736],[139.7258446,36.0953964],[139.7260244,36.0955582],[139.726125,36.0956912],[139.7261699,36.0957876],[139.726205,36.0959087],[139.7262216,36.0960259],[139.7261752,36.0981444],[139.726227,36.0990086],[139.7261846,36.1001425],[139.7262098,36.1002277],[139.7262456,36.100309],[139.7263237,36.1004025],[139.7264077,36.1005533],[139.7264313,36.1006404],[139.7264374,36.1007191],[139.7263576,36.1015818],[139.7263642,36.1027712],[139.7263376,36.1035437],[139.726326,36.1038715],[139.7263896,36.103949],[139.7264973,36.1039982],[139.7265446,36.1040174],[139.7265123,36.1040869],[139.7263406,36.1040955],[139.7263446,36.1041876],[139.7263451,36.1042025],[139.7265205,36.1041983],[139.7265207,36.104263],[139.7265008,36.1043232],[139.7264569,36.1043873],[139.7264237,36.104516],[139.7264381,36.1047682],[139.7264804,36.1052444],[139.7262195,36.106889],[139.726099,36.1065781]]]}}
