{"type":"Feature","id":"attraction-large-park-R7547829","properties":{"id":"attraction-large-park-R7547829","kind":"attraction","name":"泉自然公園","shortName":"泉自然公園","context":"日本","subtype":"large-park","subtypeLabel":"大型都市公園・広域公園","statusLabel":"","aliases":[],"osmType":"relation","osmId":7547829,"osmDate":null,"officialAreaKm2":null,"areaSourceLabel":"","areaSourceUrl":"","boundarySourceLabel":"© OpenStreetMap contributors","boundarySourceUrl":"https://www.openstreetmap.org/copyright","geometryFile":"attractions/large-park-R7547829.geojson"},"geometry":{"type":"Polygon","coordinates":[[[140.231134,35.5777824],[140.2310012,35.5774135],[140.2317397,35.5772962],[140.2316914,35.5771203],[140.2316682,35.5770097],[140.2316632,35.5769672],[140.2316847,35.5766835],[140.2316609,35.5766142],[140.2315881,35.5765177],[140.2315064,35.5764222],[140.2314615,35.576348],[140.231406,35.5762009],[140.2313908,35.5761343],[140.2313626,35.5760806],[140.2312874,35.5759796],[140.2312069,35.5758957],[140.2308683,35.5755472],[140.2307417,35.5753915],[140.2303656,35.5748967],[140.2300838,35.5745576],[140.2295478,35.5738899],[140.2292706,35.5736158],[140.2291074,35.5734697],[140.2290397,35.57342],[140.2288673,35.5733212],[140.2288154,35.5733035],[140.2286222,35.5732756],[140.2283606,35.5731727],[140.2282893,35.5731044],[140.2281659,35.5730653],[140.2277412,35.5729102],[140.2276035,35.5728703],[140.2274536,35.5728503],[140.2273516,35.5728468],[140.2271957,35.5728699],[140.2271203,35.5728874],[140.2270234,35.5729193],[140.2269475,35.5729561],[140.2268787,35.5729961],[140.2268324,35.5730282],[140.2266903,35.5731544],[140.2265343,35.5732927],[140.226488,35.573337],[140.2263742,35.5734145],[140.2262244,35.5734823],[140.226172,35.5734971],[140.2260617,35.5735119],[140.2259549,35.5735173],[140.2258257,35.5735199],[140.2256772,35.5735159],[140.2251656,35.5734684],[140.2248829,35.5734405],[140.2246061,35.5734192],[140.2237963,35.5749509],[140.2230804,35.5759313],[140.2220552,35.5765203],[140.2218315,35.5772857],[140.2220795,35.5791067],[140.2226659,35.5802214],[140.223415,35.5802571],[140.2239273,35.5807464],[140.2239273,35.5816193],[140.2240561,35.5822575],[140.224905,35.5824662],[140.2250376,35.5823874],[140.2252555,35.5823155],[140.2259243,35.5822122],[140.2262717,35.5821843],[140.2265406,35.5821284],[140.2270499,35.5821501],[140.2272251,35.5821238],[140.2282224,35.5818003],[140.2283403,35.5816926],[140.2283869,35.5816504],[140.2285157,35.581569],[140.2285851,35.5815449],[140.2286866,35.581488],[140.2287483,35.5814103],[140.2288257,35.5812579],[140.2288782,35.5811797],[140.2289853,35.5811048],[140.2291482,35.5806972],[140.2292371,35.5804614],[140.2292761,35.5803869],[140.22931,35.5803493],[140.2293399,35.5803267],[140.229372,35.5803077],[140.2294317,35.5802714],[140.2294551,35.5802508],[140.2294822,35.580224],[140.2295046,35.5801745],[140.2295368,35.5800917],[140.2295375,35.5800591],[140.2295334,35.5800057],[140.2295283,35.5799868],[140.2295115,35.5799535],[140.2295106,35.5799402],[140.2295139,35.5799263],[140.2295203,35.5799136],[140.2295495,35.5798807],[140.2296016,35.5798365],[140.2296249,35.5798128],[140.2296411,35.5797944],[140.2296447,35.5797817],[140.2297112,35.5793871],[140.2297723,35.5790748],[140.2297655,35.5788635],[140.2297744,35.5788458],[140.2297909,35.5788378],[140.2300078,35.5787999],[140.230081,35.5784392],[140.2300921,35.5783743],[140.23015,35.5782697],[140.2302345,35.5781673],[140.2302652,35.578115],[140.2302823,35.5780318],[140.2302908,35.5778866],[140.2303012,35.5778597],[140.2303075,35.5778506],[140.2303278,35.5778424],[140.2305316,35.5778589],[140.2307634,35.5778921],[140.2308454,35.5778994],[140.231134,35.5777824]]]}}
