{"type":"Feature","id":"attraction-large-park-W755791386","properties":{"id":"attraction-large-park-W755791386","kind":"attraction","name":"大野極楽寺公園","shortName":"大野極楽寺公園","context":"愛知県・一宮市","subtype":"large-park","subtypeLabel":"大型都市公園・広域公園","statusLabel":"","aliases":[],"osmType":"way","osmId":755791386,"osmDate":null,"officialAreaKm2":null,"areaSourceLabel":"","areaSourceUrl":"","boundarySourceLabel":"© OpenStreetMap contributors","boundarySourceUrl":"https://www.openstreetmap.org/copyright","geometryFile":"attractions/large-park-W755791386.geojson"},"geometry":{"type":"Polygon","coordinates":[[[136.8143474,35.3553122],[136.8138381,35.3553419],[136.8132666,35.3551836],[136.812907,35.3551721],[136.8127139,35.3552485],[136.8124995,35.3553819],[136.8122231,35.3554712],[136.8113769,35.3556003],[136.8105796,35.3557763],[136.809288,35.3561699],[136.8088329,35.3563601],[136.8082134,35.3564754],[136.8081597,35.3565169],[136.8075971,35.3566935],[136.8068197,35.3568784],[136.8068373,35.3569364],[136.8068756,35.3570433],[136.807102,35.3575431],[136.8072016,35.3578584],[136.8073217,35.3585036],[136.8091504,35.3584093],[136.8121216,35.3582766],[136.8146311,35.3581295],[136.8182537,35.3577337],[136.8193426,35.3575545],[136.8210723,35.3572313],[136.8238574,35.356533],[136.8238765,35.3559392],[136.8241776,35.3559348],[136.8249403,35.3559949],[136.8252956,35.3559741],[136.8255332,35.3557127],[136.825544,35.3543969],[136.825495,35.3534215],[136.8245579,35.353561],[136.8243621,35.353517],[136.8236209,35.3534623],[136.8221913,35.3534517],[136.8214818,35.353494],[136.8207591,35.3536057],[136.8204627,35.3536427],[136.8203293,35.3536725],[136.8201633,35.3537103],[136.8199381,35.3537696],[136.8197592,35.3538216],[136.8195309,35.3538975],[136.8193222,35.3539759],[136.8190843,35.3540706],[136.8181701,35.3545368],[136.8181054,35.3545571],[136.8179058,35.3546251],[136.817662,35.3547098],[136.8174784,35.3547936],[136.817285,35.3549124],[136.8167944,35.3550979],[136.8165343,35.3551747],[136.816317,35.3552368],[136.8161773,35.3552489],[136.8157865,35.355255],[136.8154492,35.3552704],[136.8143474,35.3553122]]]}}
