{"type":"Feature","id":"attraction-large-industrial-complex-W794479547","properties":{"id":"attraction-large-industrial-complex-W794479547","kind":"attraction","name":"ダイハツ工業滋賀工場第2地区","shortName":"ダイハツ工業滋賀工場第2地区","context":"日本","subtype":"industrial-complex","subtypeLabel":"工業地帯・大規模工場","statusLabel":"","aliases":["ダイハツ工業竜王工場第2地区"],"osmType":"way","osmId":794479547,"osmDate":null,"officialAreaKm2":null,"areaSourceLabel":"","areaSourceUrl":"","boundarySourceLabel":"© OpenStreetMap contributors","boundarySourceUrl":"https://www.openstreetmap.org/copyright","geometryFile":"attractions/large-industrial-complex-W794479547.geojson"},"geometry":{"type":"Polygon","coordinates":[[[136.1358821,35.0356197],[136.1357009,35.0355494],[136.1357225,35.0354655],[136.1357534,35.0353455],[136.1358242,35.035099],[136.1359359,35.0349086],[136.1361502,35.0347014],[136.1368475,35.0343388],[136.1373617,35.0340124],[136.137515,35.0337955],[136.1380508,35.0327427],[136.1381028,35.0323191],[136.1381898,35.0321457],[136.1384001,35.0319463],[136.1384291,35.031761],[136.1382969,35.0314393],[136.1382254,35.0312803],[136.1372637,35.0310635],[136.1372942,35.0300359],[136.1372164,35.029735],[136.1364855,35.0293265],[136.1364121,35.0291401],[136.136908,35.028399],[136.1370592,35.0278454],[136.1398557,35.0271345],[136.1402619,35.0269616],[136.1402725,35.026848],[136.1403397,35.0267323],[136.1404699,35.0266202],[136.1409533,35.0263854],[136.1417423,35.0259647],[136.1422208,35.0257677],[136.1423953,35.0256304],[136.1425397,35.0254546],[136.1426539,35.0253654],[136.1428092,35.0253183],[136.1429647,35.0253292],[136.143142,35.0253681],[136.1438778,35.0256108],[136.1443457,35.0258827],[136.1446307,35.0259702],[136.1448441,35.0260627],[136.1449608,35.0261841],[136.1448794,35.0265868],[136.1449238,35.0267149],[136.1451214,35.0268185],[136.1454977,35.0273514],[136.1458526,35.0278339],[136.1463655,35.0281159],[136.1465763,35.0283109],[136.1467657,35.0285594],[136.1469953,35.0290022],[136.1476095,35.0302587],[136.1480443,35.0312205],[136.148385,35.0324125],[136.1486186,35.0328964],[136.1490456,35.0334346],[136.1493631,35.0345527],[136.1493521,35.0349489],[136.149165,35.0353565],[136.1490732,35.0356245],[136.1491297,35.0358923],[136.1491145,35.0360223],[136.148941,35.0364628],[136.1488196,35.0366071],[136.1485782,35.036864],[136.14858,35.0370875],[136.1485585,35.0374545],[136.1485512,35.0378646],[136.1484047,35.0381775],[136.1478807,35.039007],[136.1471521,35.0400932],[136.1469159,35.0403029],[136.1467259,35.0403212],[136.1465449,35.0402519],[136.1462241,35.0397698],[136.1460383,35.039686],[136.1455556,35.0397386],[136.1455416,35.0396719],[136.1454405,35.0396848],[136.1454279,35.0396309],[136.1448569,35.0397799],[136.1446761,35.0399045],[136.1445244,35.0401278],[136.1443166,35.0405715],[136.1441161,35.040818],[136.1437061,35.0411759],[136.1434837,35.0412841],[136.1432213,35.0413133],[136.1429364,35.0412267],[136.1424142,35.0405992],[136.1416901,35.0401069],[136.1408919,35.0396457],[136.1404724,35.0395822],[136.1405525,35.0391654],[136.1400168,35.0387203],[136.138081,35.037147],[136.1378574,35.037323],[136.1361617,35.0358947],[136.1358821,35.0356197]]]}}
