{"type":"Feature","id":"attraction-large-park-W552815088","properties":{"id":"attraction-large-park-W552815088","kind":"attraction","name":"矢箸森林公園","shortName":"矢箸森林公園","context":"日本","subtype":"large-park","subtypeLabel":"大型都市公園・広域公園","statusLabel":"","aliases":[],"osmType":"way","osmId":552815088,"osmDate":null,"officialAreaKm2":null,"areaSourceLabel":"","areaSourceUrl":"","boundarySourceLabel":"© OpenStreetMap contributors","boundarySourceUrl":"https://www.openstreetmap.org/copyright","geometryFile":"attractions/large-park-W552815088.geojson"},"geometry":{"type":"Polygon","coordinates":[[[131.5860292,34.0935836],[131.5851807,34.0940672],[131.5850768,34.0940691],[131.5849753,34.0940235],[131.5849427,34.0939542],[131.5849566,34.0938807],[131.5851983,34.0936875],[131.5852848,34.093518],[131.585351,34.0933228],[131.5853221,34.093219],[131.5852373,34.0930898],[131.5850803,34.0929904],[131.5850886,34.0928672],[131.5855803,34.0927033],[131.5856774,34.0926056],[131.5864736,34.092035],[131.5868367,34.0917795],[131.5869312,34.0917653],[131.5870017,34.0918006],[131.5867732,34.0920718],[131.5866841,34.0922917],[131.5868689,34.0923026],[131.5872561,34.0917872],[131.5875728,34.0915016],[131.5877748,34.0914073],[131.5881587,34.0913752],[131.5884191,34.0910679],[131.5885163,34.090861],[131.5884942,34.0907117],[131.5883618,34.0905745],[131.5883306,34.0904468],[131.587889,34.089955],[131.587737,34.089871],[131.587666,34.089802],[131.587603,34.089704],[131.587548,34.089607],[131.587491,34.089561],[131.586944,34.089026],[131.5865829,34.0885472],[131.5863655,34.0882445],[131.5859292,34.0878058],[131.5857969,34.0877953],[131.5854118,34.0879178],[131.5852699,34.0878323],[131.585427,34.0873735],[131.5847629,34.0874652],[131.5846348,34.0874196],[131.5845894,34.0872223],[131.5846271,34.0868969],[131.5847253,34.0866633],[131.5847858,34.0864702],[131.5846848,34.0863016],[131.5842357,34.0857346],[131.5839988,34.0856585],[131.5831666,34.0856308],[131.5830364,34.0856017],[131.5829672,34.0855229],[131.5828567,34.0852883],[131.582838,34.0849974],[131.5827688,34.0849228],[131.5826531,34.0849125],[131.5822852,34.0848924],[131.5819269,34.0847577],[131.5816706,34.0848201],[131.5813413,34.084837],[131.5811829,34.0847789],[131.5809791,34.0846007],[131.5809033,34.084484],[131.5808882,34.0842935],[131.5809336,34.084071],[131.5817807,34.084265],[131.5820892,34.0842939],[131.582776,34.0842664],[131.5835926,34.0842662],[131.5839948,34.0842464],[131.584493,34.0842897],[131.5850201,34.084419],[131.5851211,34.0843049],[131.5842855,34.0840601],[131.5835492,34.0839613],[131.5830534,34.0839202],[131.5824015,34.0838653],[131.5820875,34.0837543],[131.5814931,34.0835464],[131.5814605,34.0833906],[131.5815301,34.0833173],[131.5818694,34.083384],[131.5824883,34.083705],[131.5827426,34.0837187],[131.5828967,34.0836155],[131.5831666,34.0836139],[131.5832535,34.0831974],[131.5833942,34.0831734],[131.5835306,34.0831811],[131.5834903,34.083637],[131.5835151,34.0837414],[131.5836133,34.083744],[131.5840406,34.0837466],[131.5844841,34.0838012],[131.58475,34.0838697],[131.5852911,34.0839985],[131.5856162,34.0841924],[131.5863451,34.0846836],[131.5870588,34.0849016],[131.5876237,34.0849245],[131.588294,34.0847587],[131.5888586,34.0846442],[131.5892286,34.0847055],[131.5897241,34.084888],[131.5907644,34.0850792],[131.5920289,34.0851698],[131.5922727,34.0850867],[131.5924903,34.0848596],[131.5924251,34.0846854],[131.5919183,34.0839758],[131.5914995,34.0832762],[131.5913,34.0828543],[131.591307,34.0826628],[131.5914429,34.0824513],[131.5916247,34.0823722],[131.5920131,34.0823059],[131.5922262,34.0823819],[131.5925481,34.0827433],[131.593112,34.0827893],[131.5931977,34.0824506],[131.5944412,34.0822492],[131.5944825,34.0817717],[131.5945556,34.0815809],[131.5947182,34.0813322],[131.5950832,34.0809134],[131.5952995,34.0807547],[131.5958051,34.0805286],[131.5964867,34.08038],[131.5966492,34.0804152],[131.5968121,34.0804913],[131.5968834,34.0806446],[131.5965968,34.0808155],[131.5956438,34.0812389],[131.5953793,34.0814475],[131.5952374,34.0816989],[131.5946243,34.0837565],[131.5945852,34.0845188],[131.5946025,34.0849416],[131.5942802,34.0849242],[131.5942493,34.0851371],[131.595008,34.0854109],[131.5956488,34.0856946],[131.596415,34.0859661],[131.5972344,34.0859391],[131.5974701,34.0860359],[131.5983702,34.0861323],[131.5979416,34.0862935],[131.5971403,34.08663],[131.5967394,34.0868999],[131.5965622,34.0871708],[131.596066,34.087472],[131.5953443,34.0876745],[131.5946048,34.0879132],[131.5942392,34.0881755],[131.5935472,34.0888215],[131.5925794,34.0903803],[131.5923272,34.0906176],[131.591982,34.0907393],[131.5909217,34.0910841],[131.5904931,34.0913678],[131.5889311,34.0917062],[131.5883859,34.0917684],[131.5882195,34.0921061],[131.587227,34.0928086],[131.5867438,34.0931841],[131.5864695,34.0934734],[131.5862789,34.0936138],[131.58616,34.0936197],[131.5860292,34.0935836]]]}}
