{"type":"Feature","id":"attraction-large-industrial-complex-W594393680","properties":{"id":"attraction-large-industrial-complex-W594393680","kind":"attraction","name":"三井E&S造船株式会社","shortName":"三井E&S造船株式会社","context":"日本","subtype":"industrial-complex","subtypeLabel":"工業地帯・大規模工場","statusLabel":"","aliases":[],"osmType":"way","osmId":594393680,"osmDate":null,"officialAreaKm2":null,"areaSourceLabel":"","areaSourceUrl":"","boundarySourceLabel":"© OpenStreetMap contributors","boundarySourceUrl":"https://www.openstreetmap.org/copyright","geometryFile":"attractions/large-industrial-complex-W594393680.geojson"},"geometry":{"type":"Polygon","coordinates":[[[133.9383892,34.4792326],[133.9381029,34.4791804],[133.9381021,34.4791979],[133.9377319,34.4791891],[133.9377116,34.4792625],[133.9372698,34.4793544],[133.9371512,34.4793895],[133.9370295,34.4794404],[133.9369571,34.4794888],[133.9368662,34.4795606],[133.9368078,34.4796323],[133.9366864,34.479794],[133.9362386,34.4800597],[133.9360888,34.4801453],[133.9360178,34.4801474],[133.9354779,34.4799012],[133.9338225,34.4794076],[133.9337682,34.4793711],[133.9336698,34.4791958],[133.9335284,34.4791686],[133.933427,34.4788779],[133.9334082,34.4788052],[133.9332894,34.478009],[133.9331038,34.4779587],[133.9330694,34.4778564],[133.9330485,34.4778536],[133.9330119,34.4777817],[133.9324834,34.4769488],[133.9321243,34.4767466],[133.9323298,34.4762285],[133.9325127,34.4756841],[133.9325623,34.4756358],[133.9326186,34.4754906],[133.9326179,34.4754049],[133.9327745,34.4750095],[133.9331406,34.4740013],[133.9332385,34.4738069],[133.9334606,34.4734134],[133.9334921,34.4733247],[133.9335097,34.4733239],[133.9335859,34.4731537],[133.9336342,34.4729931],[133.933665,34.4727012],[133.9336476,34.4725419],[133.9335765,34.4722014],[133.9335135,34.472051],[133.9334464,34.4719449],[133.9333509,34.4718616],[133.9332231,34.4717695],[133.9331233,34.4717356],[133.932885,34.4716967],[133.9296173,34.4711209],[133.9295727,34.4711345],[133.9294964,34.4711208],[133.9294123,34.4710958],[133.9291126,34.4709852],[133.9290957,34.470954],[133.9292956,34.4703117],[133.9293182,34.4701966],[133.9295287,34.4694996],[133.9295416,34.469411],[133.9295172,34.4693412],[133.9294993,34.4692964],[133.9294833,34.4692956],[133.9294627,34.4692561],[133.9294217,34.4692063],[133.9294519,34.4691604],[133.929724,34.4691398],[133.929735,34.469139],[133.9297204,34.4685629],[133.9303768,34.4685264],[133.9303826,34.4682012],[133.9307576,34.4681986],[133.9307669,34.4690836],[133.9314374,34.4690902],[133.9315206,34.4693356],[133.9327624,34.4693489],[133.9327517,34.4691432],[133.9335751,34.4691388],[133.9335751,34.4690382],[133.9338192,34.4690255],[133.9338421,34.4691364],[133.934001,34.4691409],[133.9343852,34.4689443],[133.9344019,34.4688724],[133.9343113,34.4688006],[133.9343018,34.4684889],[133.934491,34.4679371],[133.9346124,34.4676479],[133.9345729,34.4673808],[133.9347956,34.4673211],[133.9349149,34.4673797],[133.9350209,34.4675466],[133.9351335,34.4679668],[133.9353199,34.4681471],[133.9353809,34.4684406],[133.9355884,34.4688019],[133.9356922,34.4688101],[133.9358469,34.4684666],[133.9363459,34.4673411],[133.9364464,34.4672636],[133.9366731,34.4671774],[133.9363566,34.466671],[133.9363757,34.4665621],[133.9368798,34.4659343],[133.9372015,34.4654171],[133.937872,34.4641654],[133.9382636,34.4634445],[133.9380908,34.4633829],[133.9384043,34.4627725],[133.9386266,34.4625513],[133.938733,34.4618965],[133.9367723,34.4615405],[133.9366892,34.4611711],[133.9358483,34.4611067],[133.9353132,34.4610379],[133.9350101,34.4610064],[133.9347016,34.4608284],[133.934648,34.4603772],[133.9366865,34.4601804],[133.9368318,34.4598034],[133.93688,34.4597812],[133.9369626,34.4592972],[133.9370225,34.4591819],[133.9370398,34.4591637],[133.937075,34.4591523],[133.9374058,34.4591278],[133.9375007,34.4591033],[133.9375888,34.4590466],[133.9376863,34.4589977],[133.9377115,34.458973],[133.9377271,34.4589431],[133.9378083,34.4587484],[133.937809,34.4587239],[133.9378175,34.458712],[133.9378535,34.4586742],[133.9378721,34.4586667],[133.9380087,34.4586448],[133.9380942,34.4586392],[133.9381771,34.4586397],[133.9382744,34.4586443],[133.9383743,34.458655],[133.9384695,34.4586684],[133.9385666,34.4586928],[133.9386823,34.4587324],[133.9390266,34.4588914],[133.9391226,34.4589294],[133.9392091,34.4589585],[133.9392609,34.4589671],[133.9393153,34.4589618],[133.9393734,34.4589472],[133.9399809,34.4586666],[133.940046,34.4586456],[133.9401046,34.4586337],[133.9401617,34.4586285],[133.9402165,34.4586299],[133.9403009,34.4586543],[133.9403893,34.4586843],[133.9404201,34.4587113],[133.9404336,34.4587293],[133.9404376,34.4587515],[133.9404403,34.4587715],[133.9403416,34.4594351],[133.9409726,34.4595302],[133.9425712,34.4594716],[133.9425935,34.4598168],[133.9426884,34.461284],[133.9425351,34.4616378],[133.9428006,34.4617274],[133.9426281,34.4621218],[133.9431823,34.4623028],[133.9432566,34.4623329],[133.9433043,34.4623699],[133.9433537,34.4624185],[133.9434003,34.4624726],[133.943443,34.4625334],[133.9434853,34.4626096],[133.9435039,34.4626487],[133.9435131,34.4626878],[133.9435187,34.462774],[133.9435314,34.4632218],[133.9435328,34.4637616],[133.9435422,34.4643092],[133.9435147,34.4643911],[133.9434875,34.4644487],[133.9434087,34.4645297],[133.9433307,34.464592],[133.9432253,34.4646643],[133.9424498,34.465152],[133.9420222,34.4649898],[133.941859,34.4652841],[133.9420948,34.4653674],[133.9420952,34.4653791],[133.9419574,34.4654634],[133.941371,34.4652452],[133.9408465,34.4650379],[133.9402997,34.4654168],[133.9402755,34.4654172],[133.940276,34.4654287],[133.9406805,34.4656299],[133.9403281,34.4661041],[133.9387504,34.4682347],[133.9386784,34.4683247],[133.9386954,34.4683577],[133.9387073,34.4683594],[133.9387415,34.4684182],[133.9387593,34.4684363],[133.9387919,34.4684989],[133.9388381,34.4685605],[133.9390194,34.4688718],[133.9389439,34.4690536],[133.938201,34.4693452],[133.9381457,34.4693109],[133.9381253,34.4693113],[133.9380202,34.4692444],[133.9376794,34.4693767],[133.9377545,34.4695188],[133.9377597,34.4695673],[133.9377969,34.4696386],[133.9376359,34.4697027],[133.936823,34.4700157],[133.9367282,34.4700609],[133.9366898,34.4700543],[133.9366801,34.4700948],[133.9366942,34.470101],[133.9366617,34.4702196],[133.9365774,34.4702116],[133.9365153,34.4702981],[133.9365494,34.4703122],[133.9365382,34.4703397],[133.9365041,34.4703344],[133.9364882,34.4704125],[133.9365452,34.4704375],[133.9364956,34.4705142],[133.9365242,34.4705277],[133.9365427,34.4705663],[133.9362716,34.4710591],[133.93617,34.4710203],[133.9361153,34.4710463],[133.9360885,34.4711569],[133.9360631,34.4712011],[133.9361724,34.4712508],[133.9361715,34.4712573],[133.935853,34.4718361],[133.9355881,34.4718703],[133.9355607,34.4718834],[133.9355374,34.471901],[133.9354812,34.4719936],[133.9355419,34.4720577],[133.936779,34.4724601],[133.9367865,34.4724641],[133.9367907,34.4724697],[133.936791,34.4724787],[133.9367803,34.4724952],[133.9367713,34.4724946],[133.9367535,34.4725296],[133.9367625,34.4725344],[133.9367635,34.4725396],[133.9367629,34.4725452],[133.9367496,34.4725664],[133.9367386,34.4725727],[133.936723,34.4725721],[133.9355048,34.4721771],[133.9353648,34.4721981],[133.9352348,34.4724316],[133.9350941,34.4726639],[133.9351043,34.4726687],[133.9351039,34.472678],[133.9350013,34.4727893],[133.9348941,34.4728976],[133.9346634,34.4731213],[133.9346062,34.4731193],[133.9345183,34.473108],[133.934359,34.4732434],[133.9343518,34.473656],[133.9343364,34.4740536],[133.9343674,34.4742728],[133.9343747,34.4743811],[133.9346773,34.4745226],[133.9347467,34.4745082],[133.9350383,34.4746464],[133.935167,34.4747421],[133.9392147,34.4753785],[133.9392548,34.4754336],[133.9388373,34.4772992],[133.9387923,34.4772954],[133.9387304,34.4775551],[133.938772,34.4775617],[133.9387458,34.4776799],[133.9387203,34.477695],[133.9385482,34.4776678],[133.9385583,34.4776148],[133.9385121,34.4776105],[133.9385083,34.4776661],[133.9384849,34.4776629],[133.9383722,34.4782024],[133.9386157,34.4782422],[133.9385312,34.4786396],[133.9384372,34.4790295],[133.9384282,34.4790702],[133.9383892,34.4792326]]]}}
