{"type":"Feature","id":"attraction-large-park-W1145844875","properties":{"id":"attraction-large-park-W1145844875","kind":"attraction","name":"田川中央公園","shortName":"田川中央公園","context":"日本","subtype":"large-park","subtypeLabel":"大型都市公園・広域公園","statusLabel":"著名な公園","aliases":[],"osmType":"way","osmId":1145844875,"osmDate":null,"officialAreaKm2":null,"areaSourceLabel":"","areaSourceUrl":"","boundarySourceLabel":"© OpenStreetMap contributors","boundarySourceUrl":"https://www.openstreetmap.org/copyright","geometryFile":"attractions/large-park-W1145844875.geojson"},"geometry":{"type":"Polygon","coordinates":[[[130.8078894,33.6325078],[130.8084335,33.631765],[130.8088794,33.6321319],[130.8089749,33.6321496],[130.8091488,33.6318956],[130.8092163,33.6316959],[130.809302,33.6309574],[130.8107889,33.6311825],[130.8109004,33.6310221],[130.8125232,33.6312224],[130.8125569,33.6310961],[130.812894,33.6311311],[130.8135626,33.62897],[130.8125401,33.6287903],[130.8125756,33.628653],[130.8120991,33.6281864],[130.8117002,33.6280812],[130.8103968,33.6281958],[130.8100653,33.6280578],[130.8085962,33.6283525],[130.8082478,33.6288437],[130.8073489,33.6294892],[130.8062,33.6311428],[130.8060203,33.6319497],[130.8078894,33.6325078]]]}}
