{"type":"Feature","id":"attraction-large-industrial-complex-W614885765","properties":{"id":"attraction-large-industrial-complex-W614885765","kind":"attraction","name":"三菱ケミカル","shortName":"三菱ケミカル","context":"日本","subtype":"industrial-complex","subtypeLabel":"工業地帯・大規模工場","statusLabel":"同名の分割区域3区画","aliases":["Mitsubishi Chemical"],"osmType":"way","osmId":614885765,"osmDate":null,"officialAreaKm2":null,"areaSourceLabel":"","areaSourceUrl":"","boundarySourceLabel":"© OpenStreetMap contributors","boundarySourceUrl":"https://www.openstreetmap.org/copyright","geometryFile":"attractions/large-industrial-complex-W614885765.geojson"},"geometry":{"type":"MultiPolygon","coordinates":[[[[140.6979768,35.9049562],[140.6973619,35.9046912],[140.7018265,35.8982543],[140.698822,35.8968753],[140.6970455,35.899432],[140.6960803,35.8989907],[140.6949995,35.8984965],[140.6924361,35.8973244],[140.6908579,35.896564],[140.6900355,35.8977525],[140.6837135,35.8948127],[140.6791002,35.9013788],[140.6957835,35.909113],[140.6977281,35.9058869],[140.6968188,35.9054741],[140.6970699,35.905112],[140.697697,35.9053822],[140.6979768,35.9049562]]],[[[133.7582146,34.5074856],[133.7582789,34.5069971],[133.7644159,34.5063451],[133.764322,34.5060621],[133.7643837,34.5058964],[133.7624632,34.4995935],[133.7616692,34.4995268],[133.7615074,34.4996286],[133.7613009,34.4995917],[133.761105,34.4994759],[133.7599831,34.4993514],[133.7599235,34.4996759],[133.7595701,34.4996672],[133.7480497,34.5014374],[133.7484632,34.5066334],[133.7510857,34.5067102],[133.7515642,34.5067474],[133.7520588,34.506809],[133.7527358,34.5067152],[133.7527702,34.5069304],[133.753008,34.506967],[133.7532743,34.5069938],[133.7535484,34.5070219],[133.7550634,34.5071817],[133.7554323,34.5071939],[133.7559775,34.5072498],[133.7582146,34.5074856]]],[[[137.2451524,36.7519043],[137.2505262,36.752029],[137.2506389,36.7521149],[137.2505678,36.7625362],[137.2499496,36.7626672],[137.2497001,36.7626973],[137.2477468,36.7628461],[137.2477103,36.7628313],[137.2477126,36.7622708],[137.2451055,36.7622514],[137.2450961,36.7622332],[137.2451524,36.7519043]]]]}}
