{"type":"Feature","id":"attraction-large-park-W429223378","properties":{"id":"attraction-large-park-W429223378","kind":"attraction","name":"ふきだし公園","shortName":"ふきだし公園","context":"日本","subtype":"large-park","subtypeLabel":"大型都市公園・広域公園","statusLabel":"著名な公園","aliases":[],"osmType":"way","osmId":429223378,"osmDate":null,"officialAreaKm2":null,"areaSourceLabel":"","areaSourceUrl":"","boundarySourceLabel":"© OpenStreetMap contributors","boundarySourceUrl":"https://www.openstreetmap.org/copyright","geometryFile":"attractions/large-park-W429223378.geojson"},"geometry":{"type":"Polygon","coordinates":[[[140.87232,42.8588389],[140.8726958,42.8588542],[140.8728807,42.8588715],[140.873043,42.858894],[140.8731025,42.8589027],[140.8731445,42.8588939],[140.873173,42.8588668],[140.8731884,42.8588207],[140.8731967,42.8587696],[140.8731808,42.8587004],[140.8731439,42.8586415],[140.8730924,42.8585766],[140.8727732,42.8582773],[140.8724778,42.8579964],[140.87235,42.8578934],[140.8722392,42.8578053],[140.8721147,42.8577332],[140.8720118,42.8576886],[140.8718188,42.8576407],[140.871442,42.8575936],[140.8712619,42.8576289],[140.8709179,42.8577129],[140.8708262,42.8577353],[140.8705847,42.8577908],[140.8702926,42.8577784],[140.8699752,42.8576723],[140.8698418,42.8575864],[140.8696281,42.8574489],[140.8695265,42.8574614],[140.8693995,42.8573372],[140.8690017,42.8575979],[140.8684176,42.8577344],[140.8679181,42.8576537],[140.8676557,42.8579888],[140.867461,42.8584728],[140.8671224,42.858479],[140.8668092,42.8587583],[140.8667584,42.8590685],[140.8667584,42.8594036],[140.8666738,42.8598504],[140.8667669,42.860384],[140.8669023,42.8605392],[140.8671478,42.8606074],[140.867461,42.8606446],[140.8678843,42.8606571],[140.8681467,42.8604771],[140.8685276,42.8602599],[140.8686207,42.8601172],[140.8687308,42.8600924],[140.8688324,42.8601669],[140.868934,42.8602847],[140.8689509,42.8604523],[140.8689763,42.8605578],[140.8692387,42.8604647],[140.8695773,42.8602661],[140.8698313,42.8600924],[140.8700768,42.8598938],[140.8703223,42.8596891],[140.8705339,42.8594471],[140.8707371,42.8592795],[140.8711434,42.8590871],[140.8714651,42.858932],[140.8717158,42.8588881],[140.8718545,42.8588638],[140.8721592,42.8588327],[140.87232,42.8588389]]]}}
