{"type":"Feature","id":"attraction-large-industrial-complex-W1128351028","properties":{"id":"attraction-large-industrial-complex-W1128351028","kind":"attraction","name":"安原工業団地","shortName":"安原工業団地","context":"日本","subtype":"industrial-complex","subtypeLabel":"工業地帯・大規模工場","statusLabel":"","aliases":[],"osmType":"way","osmId":1128351028,"osmDate":null,"officialAreaKm2":null,"areaSourceLabel":"","areaSourceUrl":"","boundarySourceLabel":"© OpenStreetMap contributors","boundarySourceUrl":"https://www.openstreetmap.org/copyright","geometryFile":"attractions/large-industrial-complex-W1128351028.geojson"},"geometry":{"type":"Polygon","coordinates":[[[136.577255,36.5696443],[136.5769743,36.5697707],[136.5749955,36.569856],[136.5746258,36.5695975],[136.5744762,36.5695068],[136.5743599,36.569411],[136.5743272,36.5693297],[136.5742676,36.5692866],[136.5740232,36.5692267],[136.5738712,36.5692243],[136.5720755,36.5692506],[136.5720236,36.5692527],[136.5719536,36.5692194],[136.5719276,36.5691881],[136.5718965,36.569136],[136.571885,36.5687163],[136.571876,36.5686456],[136.5699615,36.5686921],[136.5693454,36.5680729],[136.5693215,36.5680107],[136.5696691,36.5680109],[136.5696406,36.5669003],[136.5695889,36.5652759],[136.5695771,36.5641989],[136.5695037,36.5620653],[136.5695023,36.5620258],[136.5698641,36.5620258],[136.5729236,36.5622596],[136.5730337,36.5622406],[136.5746212,36.562299],[136.5750641,36.5623049],[136.5757444,36.5625684],[136.5757975,36.5625937],[136.5765879,36.5629048],[136.5766351,36.5629001],[136.5768006,36.5628512],[136.5768457,36.5627054],[136.5770439,36.5620641],[136.5777169,36.562148],[136.5788602,36.5622834],[136.5789251,36.5622469],[136.5791381,36.5610412],[136.5791748,36.5610348],[136.5793458,36.560124],[136.579586,36.5611351],[136.5798688,36.5623959],[136.5800348,36.5631086],[136.5802943,36.5642276],[136.5803695,36.5645777],[136.580686,36.5658446],[136.5806238,36.5658884],[136.5791916,36.5657238],[136.57798,36.5655779],[136.5763726,36.5653893],[136.5759935,36.5680687],[136.5766192,36.5681426],[136.5766698,36.568153],[136.576697,36.568178],[136.576889,36.568973],[136.5773793,36.5690219],[136.5777698,36.569074],[136.5777841,36.569098],[136.5777763,36.569149],[136.5781162,36.5691938],[136.5781291,36.5691355],[136.5784015,36.5691615],[136.579075,36.5692346],[136.5792393,36.5683273],[136.5793043,36.5682723],[136.5798726,36.5682806],[136.5798726,36.5683741],[136.5802731,36.5684346],[136.5802492,36.5685665],[136.5810549,36.568639],[136.5810175,36.5689341],[136.5809459,36.5694343],[136.5806598,36.5694607],[136.5804542,36.5694631],[136.5790654,36.5694678],[136.5776319,36.5694774],[136.577255,36.5696443]]]}}
