{"type":"Feature","id":"attraction-large-park-W1147776042","properties":{"id":"attraction-large-park-W1147776042","kind":"attraction","name":"島原総合運動公園","shortName":"島原総合運動公園","context":"日本","subtype":"large-park","subtypeLabel":"大型都市公園・広域公園","statusLabel":"著名な公園","aliases":[],"osmType":"way","osmId":1147776042,"osmDate":null,"officialAreaKm2":null,"areaSourceLabel":"","areaSourceUrl":"","boundarySourceLabel":"© OpenStreetMap contributors","boundarySourceUrl":"https://www.openstreetmap.org/copyright","geometryFile":"attractions/large-park-W1147776042.geojson"},"geometry":{"type":"Polygon","coordinates":[[[130.3600387,32.7726815],[130.3600911,32.7726831],[130.3605239,32.772822],[130.3605538,32.7728455],[130.3605641,32.7728732],[130.3606004,32.7733702],[130.3605693,32.7740012],[130.3606319,32.7741351],[130.3612051,32.7743769],[130.3603488,32.7758928],[130.3605077,32.7759612],[130.3604559,32.7760933],[130.3600901,32.7762937],[130.3598147,32.7767831],[130.3590146,32.7775475],[130.3588852,32.777706],[130.358438,32.7775879],[130.3580351,32.7778272],[130.3576138,32.7781271],[130.3573773,32.7783865],[130.3571478,32.778677],[130.3571616,32.7782092],[130.3570705,32.7770504],[130.3571082,32.7768848],[130.3580874,32.7751398],[130.3589582,32.773524],[130.3590487,32.773437],[130.3600387,32.7726815]]]}}
