{"type":"Feature","id":"attraction-large-park-W423057324","properties":{"id":"attraction-large-park-W423057324","kind":"attraction","name":"三国運動公園","shortName":"三国運動公園","context":"日本","subtype":"large-park","subtypeLabel":"大型都市公園・広域公園","statusLabel":"著名な公園","aliases":[],"osmType":"way","osmId":423057324,"osmDate":null,"officialAreaKm2":null,"areaSourceLabel":"","areaSourceUrl":"","boundarySourceLabel":"© OpenStreetMap contributors","boundarySourceUrl":"https://www.openstreetmap.org/copyright","geometryFile":"attractions/large-park-W423057324.geojson"},"geometry":{"type":"Polygon","coordinates":[[[136.1438763,36.2264106],[136.1438388,36.2265945],[136.1437958,36.2269007],[136.1437958,36.2271257],[136.1437958,36.2273031],[136.1440295,36.2281092],[136.1503531,36.2273888],[136.1505269,36.2268849],[136.1507623,36.2266962],[136.1506275,36.2261412],[136.1503408,36.2261172],[136.1502466,36.2260309],[136.1502198,36.2259465],[136.1502305,36.2257755],[136.1503387,36.22561],[136.1504611,36.2253212],[136.1505473,36.2244654],[136.1497914,36.2233992],[136.1496377,36.2232007],[136.1494012,36.2231207],[136.1482739,36.2228474],[136.1473936,36.2233102],[136.1472318,36.223536],[136.1469982,36.2241476],[136.1469108,36.2247958],[136.1464148,36.2248071],[136.1456828,36.2247088],[136.145086,36.2246352],[136.1449492,36.2246428],[136.144862,36.2246651],[136.1445683,36.2247791],[136.1443363,36.2248754],[136.1440198,36.2250193],[136.1440027,36.2250383],[136.1439903,36.2253839],[136.1439528,36.2257528],[136.1438763,36.2264106]]]}}
