{"type":"Feature","id":"attraction-large-industrial-complex-W619489687","properties":{"id":"attraction-large-industrial-complex-W619489687","kind":"attraction","name":"JXTGエネルギー 麻里布製油所","shortName":"JXTGエネルギー 麻里布製油所","context":"日本","subtype":"industrial-complex","subtypeLabel":"工業地帯・大規模工場","statusLabel":"","aliases":["Marifu Refinery"],"osmType":"way","osmId":619489687,"osmDate":null,"officialAreaKm2":null,"areaSourceLabel":"","areaSourceUrl":"","boundarySourceLabel":"© OpenStreetMap contributors","boundarySourceUrl":"https://www.openstreetmap.org/copyright","geometryFile":"attractions/large-industrial-complex-W619489687.geojson"},"geometry":{"type":"Polygon","coordinates":[[[132.2383202,34.2070663],[132.2396296,34.2004183],[132.2376586,34.2001419],[132.2384144,34.1963102],[132.2404936,34.1966291],[132.2403286,34.1974188],[132.240549,34.197452],[132.244473,34.202126],[132.246739,34.204825],[132.246206,34.207457],[132.2462011,34.2075051],[132.2458239,34.2075351],[132.2382529,34.2081383],[132.2381642,34.2078583],[132.2375742,34.2080269],[132.2350757,34.2081988],[132.2345285,34.2082864],[132.2343595,34.2083075],[132.2341798,34.2083119],[132.2332853,34.2082443],[132.232891,34.2082047],[132.2330064,34.2072283],[132.2331136,34.207144],[132.2383202,34.2070663]]]}}
