{"type":"Feature","id":"attraction-large-park-W23344558","properties":{"id":"attraction-large-park-W23344558","kind":"attraction","name":"大濠公園","shortName":"大濠公園","context":"福岡県・福岡市","subtype":"large-park","subtypeLabel":"大型都市公園・広域公園","statusLabel":"著名な公園","aliases":["Ōhori Park"],"osmType":"way","osmId":23344558,"osmDate":null,"officialAreaKm2":null,"areaSourceLabel":"","areaSourceUrl":"","boundarySourceLabel":"© OpenStreetMap contributors","boundarySourceUrl":"https://www.openstreetmap.org/copyright","geometryFile":"attractions/large-park-W23344558.geojson"},"geometry":{"type":"Polygon","coordinates":[[[130.3776907,33.590003],[130.3776351,33.59001],[130.3775149,33.5900253],[130.3773715,33.5900436],[130.3772778,33.5900555],[130.3771836,33.5896205],[130.3750686,33.5897943],[130.3740965,33.5898761],[130.3735165,33.5899083],[130.3734348,33.5898881],[130.3738568,33.5886711],[130.373558,33.5885813],[130.3733044,33.5878235],[130.3732704,33.5875052],[130.3737157,33.5858244],[130.3737664,33.5851698],[130.373833,33.5846266],[130.3743987,33.5836597],[130.375349,33.583003],[130.3760391,33.582772],[130.3768226,33.5827217],[130.3772461,33.5827367],[130.3782412,33.5827937],[130.3783511,33.5822107],[130.3797807,33.5823723],[130.3796473,33.5831425],[130.380159,33.5832115],[130.3803998,33.5834939],[130.3798813,33.5852964],[130.3792547,33.5857566],[130.3789476,33.5864183],[130.3787944,33.5867787],[130.3783884,33.587249],[130.3782663,33.5879563],[130.3782746,33.5880752],[130.3783058,33.5882301],[130.3780985,33.5881906],[130.3777456,33.5880233],[130.3777395,33.5880509],[130.3777068,33.5881751],[130.3775751,33.588565],[130.3774835,33.5887567],[130.3774652,33.588788],[130.3775105,33.5889839],[130.3774915,33.5889865],[130.3776827,33.589957],[130.3776907,33.590003]]]}}
