{"type":"Feature","id":"attraction-large-industrial-complex-W935834642","properties":{"id":"attraction-large-industrial-complex-W935834642","kind":"attraction","name":"ブリヂストン北海道プルービンググラウンド","shortName":"ブリヂストン北海道プルービンググラウンド","context":"北海道・士別市","subtype":"industrial-complex","subtypeLabel":"工業地帯・大規模工場","statusLabel":"","aliases":["Bridgestone Hokkaido Proving Ground","ブリヂストン"],"osmType":"way","osmId":935834642,"osmDate":null,"officialAreaKm2":null,"areaSourceLabel":"","areaSourceUrl":"","boundarySourceLabel":"© OpenStreetMap contributors","boundarySourceUrl":"https://www.openstreetmap.org/copyright","geometryFile":"attractions/large-industrial-complex-W935834642.geojson"},"geometry":{"type":"Polygon","coordinates":[[[142.447997,44.2459312],[142.4471804,44.2449345],[142.4464595,44.2442447],[142.445542,44.2437139],[142.4449875,44.2434936],[142.4444279,44.2433924],[142.4435406,44.2435441],[142.4413921,44.2434569],[142.4413355,44.2439719],[142.4401003,44.2447066],[142.4400447,44.2462056],[142.436771,44.2460242],[142.4367317,44.2488715],[142.440147,44.2497251],[142.4400234,44.2508303],[142.4392804,44.2533984],[142.4380592,44.2561479],[142.4403727,44.2560114],[142.4422998,44.2560594],[142.4425195,44.2519247],[142.4440196,44.2508206],[142.4442313,44.2508026],[142.4449219,44.2507917],[142.4451841,44.2509109],[142.4453403,44.2509434],[142.4455974,44.250947],[142.4459503,44.2508387],[142.4464494,44.2507087],[142.4467367,44.2504848],[142.4469787,44.2503656],[142.4473871,44.2502718],[142.447745,44.2500804],[142.4482894,44.2498132],[142.4491767,44.2505498],[142.4500034,44.2501923],[142.4510621,44.2491343],[142.4515863,44.2486829],[142.4521358,44.2478596],[142.4530281,44.2466282],[142.4508655,44.2456929],[142.4501597,44.2458156],[142.4496253,44.2459709],[142.4489297,44.2461732],[142.44836,44.2463718],[142.447997,44.2459312]]]}}
