{"type":"Feature","id":"attraction-large-park-R2442032","properties":{"id":"attraction-large-park-R2442032","kind":"attraction","name":"洗堰緑地","shortName":"洗堰緑地","context":"日本","subtype":"large-park","subtypeLabel":"大型都市公園・広域公園","statusLabel":"著名な公園","aliases":[],"osmType":"relation","osmId":2442032,"osmDate":null,"officialAreaKm2":null,"areaSourceLabel":"","areaSourceUrl":"","boundarySourceLabel":"© OpenStreetMap contributors","boundarySourceUrl":"https://www.openstreetmap.org/copyright","geometryFile":"attractions/large-park-R2442032.geojson"},"geometry":{"type":"Polygon","coordinates":[[[136.9042542,35.230135],[136.9042526,35.2305969],[136.9042573,35.2306847],[136.9042822,35.2307242],[136.9043196,35.2307407],[136.9043664,35.2307369],[136.904426,35.2306826],[136.9046011,35.2303928],[136.9047041,35.2302225],[136.9048023,35.2298353],[136.9047039,35.2297442],[136.9047408,35.2296328],[136.9050467,35.2283353],[136.9052494,35.2275134],[136.905559,35.2261737],[136.905688,35.2258456],[136.9060086,35.2253518],[136.9063919,35.2247136],[136.9073317,35.2239188],[136.9075491,35.2236448],[136.9077813,35.2232534],[136.9079987,35.2227506],[136.9081584,35.2222845],[136.9083268,35.2216078],[136.908371,35.2212934],[136.9078772,35.2212917],[136.9072506,35.2212915],[136.9066211,35.2212986],[136.9061722,35.2211684],[136.9052248,35.2207301],[136.9042651,35.2202421],[136.9034061,35.219664],[136.9023979,35.2188066],[136.9012912,35.2175208],[136.8994874,35.2166058],[136.8991536,35.2169608],[136.9003735,35.2180357],[136.9013428,35.219499],[136.9028535,35.2215157],[136.903016,35.2216637],[136.9031058,35.2217022],[136.9031922,35.2217258],[136.9032344,35.2218386],[136.9037622,35.2221673],[136.9039515,35.2222829],[136.9040382,35.2223806],[136.9041116,35.2225606],[136.9041659,35.2229833],[136.9041941,35.2230941],[136.9042356,35.2232026],[136.904386,35.2235362],[136.9025439,35.2233021],[136.9025177,35.2233149],[136.9022554,35.2243802],[136.903204,35.2243674],[136.9032066,35.2252317],[136.9030867,35.2257192],[136.9028053,35.2257192],[136.9027427,35.227335],[136.9037688,35.2273951],[136.9038103,35.2275061],[136.9036933,35.2282486],[136.9036343,35.2285703],[136.9035552,35.2290662],[136.9034877,35.2296642],[136.9034462,35.2299995],[136.9034333,35.2303621],[136.9037562,35.2303467],[136.9037604,35.2301185],[136.9042542,35.230135]],[[136.9078741,35.2215104],[136.9078782,35.2219541],[136.9077569,35.2223433],[136.9071407,35.2222371],[136.9072479,35.2218487],[136.9072516,35.2215131],[136.9078741,35.2215104]]]}}
