{"type":"Feature","id":"attraction-large-industrial-complex-W469917133","properties":{"id":"attraction-large-industrial-complex-W469917133","kind":"attraction","name":"スズキ自動車","shortName":"スズキ自動車","context":"日本","subtype":"industrial-complex","subtypeLabel":"工業地帯・大規模工場","statusLabel":"","aliases":[],"osmType":"way","osmId":469917133,"osmDate":null,"officialAreaKm2":null,"areaSourceLabel":"","areaSourceUrl":"","boundarySourceLabel":"© OpenStreetMap contributors","boundarySourceUrl":"https://www.openstreetmap.org/copyright","geometryFile":"attractions/large-industrial-complex-W469917133.geojson"},"geometry":{"type":"Polygon","coordinates":[[[138.1702992,34.7296058],[138.1696687,34.7298162],[138.1688936,34.7298865],[138.1678514,34.7310837],[138.167536,34.731446],[138.1665531,34.7333414],[138.1653611,34.7343322],[138.1651559,34.7350567],[138.1649426,34.7358094],[138.1653511,34.7360879],[138.1663489,34.7370591],[138.1656239,34.7386041],[138.1659622,34.7397487],[138.1658657,34.7403605],[138.1652524,34.740775],[138.1651222,34.7421774],[138.1654275,34.7436432],[138.166593,34.744568],[138.1675249,34.745343],[138.169222,34.7459024],[138.1702096,34.7458475],[138.1712136,34.7455962],[138.171349,34.7453561],[138.1727554,34.7446871],[138.1737746,34.7433702],[138.174522,34.7406928],[138.175293,34.7382218],[138.1766724,34.7340523],[138.176748,34.7331815],[138.1767685,34.7324734],[138.1764967,34.7316709],[138.1753668,34.7307555],[138.1732782,34.7298873],[138.1716942,34.7295202],[138.1702992,34.7296058]]]}}
