{"type":"Feature","id":"attraction-large-park-W481773242","properties":{"id":"attraction-large-park-W481773242","kind":"attraction","name":"佐伯運動公園","shortName":"佐伯運動公園","context":"日本","subtype":"large-park","subtypeLabel":"大型都市公園・広域公園","statusLabel":"著名な公園","aliases":[],"osmType":"way","osmId":481773242,"osmDate":null,"officialAreaKm2":null,"areaSourceLabel":"","areaSourceUrl":"","boundarySourceLabel":"© OpenStreetMap contributors","boundarySourceUrl":"https://www.openstreetmap.org/copyright","geometryFile":"attractions/large-park-W481773242.geojson"},"geometry":{"type":"Polygon","coordinates":[[[132.3414809,34.395824],[132.3413897,34.3957554],[132.3413012,34.3957421],[132.3411725,34.3957266],[132.3410384,34.395762],[132.3409498,34.3958174],[132.3408077,34.3959037],[132.3406843,34.3959634],[132.3404402,34.3960298],[132.3402578,34.3960741],[132.3401345,34.3961339],[132.3399842,34.3962113],[132.3398501,34.3963264],[132.339708,34.3964503],[132.3395497,34.396634],[132.3394585,34.3967425],[132.3393432,34.3968819],[132.3392654,34.3970014],[132.339252,34.3971209],[132.3392547,34.3972139],[132.3392171,34.3973069],[132.3391474,34.3973998],[132.3389999,34.3974906],[132.3388202,34.3975791],[132.3387048,34.3974197],[132.3386458,34.3973777],[132.3384688,34.3974751],[132.3382623,34.3975724],[132.3381255,34.3975924],[132.3378814,34.3976809],[132.3377017,34.3977694],[132.3375676,34.3978712],[132.337345,34.3979553],[132.3370982,34.3980903],[132.3369802,34.3982275],[132.3368863,34.3983603],[132.3367629,34.3985108],[132.3369882,34.3986038],[132.3370848,34.3986525],[132.3369882,34.3988251],[132.3368487,34.3990044],[132.3367468,34.3991416],[132.3366234,34.3992854],[132.3365269,34.3994005],[132.336433,34.399489],[132.3363311,34.3995953],[132.3362506,34.3996528],[132.336146,34.3996904],[132.3360494,34.3997126],[132.3360065,34.3997502],[132.3359502,34.3998254],[132.3359502,34.3999073],[132.3359851,34.4000667],[132.3360119,34.4002017],[132.3359931,34.4003101],[132.3359663,34.4003699],[132.3359985,34.4004761],[132.3360146,34.4005978],[132.3360629,34.4006775],[132.3361085,34.4007638],[132.3362104,34.4008103],[132.3363606,34.4008169],[132.3365349,34.4007704],[132.3367549,34.4007262],[132.3371009,34.400735],[132.3374093,34.4005934],[132.3374549,34.4004495],[132.3373932,34.4003588],[132.3373235,34.4002039],[132.3373155,34.3999936],[132.3373315,34.3998099],[132.3373503,34.3997015],[132.3374227,34.3995333],[132.3374683,34.3993607],[132.3374549,34.3990885],[132.3374549,34.3988428],[132.3374791,34.3986458],[132.3375783,34.3984998],[132.3377661,34.3983692],[132.3378224,34.3984267],[132.3377768,34.398471],[132.3377446,34.3984992],[132.3377285,34.3985501],[132.3377205,34.3986165],[132.3377392,34.398674],[132.3377661,34.3987515],[132.337805,34.3988644],[132.3378345,34.3989463],[132.3378693,34.3990082],[132.337931,34.3990613],[132.337994,34.3990857],[132.3380745,34.3991045],[132.3381308,34.3991255],[132.3381603,34.3991698],[132.3382019,34.3992517],[132.3382408,34.3993347],[132.3382837,34.3994398],[132.3383025,34.3995007],[132.3383213,34.3995604],[132.3383789,34.399608],[132.3384661,34.3996312],[132.3386123,34.3996102],[132.3387384,34.399587],[132.3388684,34.3995682],[132.3390575,34.3995372],[132.3391903,34.3995626],[132.3393553,34.3995693],[132.3394947,34.3995925],[132.3396289,34.3996168],[132.3397844,34.3996213],[132.3398944,34.3995471],[132.3400164,34.3994973],[132.3400741,34.3994807],[132.3401854,34.3994885],[132.3402739,34.3994791],[132.3403557,34.3994392],[132.3404711,34.3993695],[132.3405314,34.3993164],[132.3406481,34.3992157],[132.3407138,34.3991272],[132.3408063,34.3990874],[132.3408922,34.3989579],[132.3409525,34.3988694],[132.3410437,34.3988008],[132.3411591,34.3987554],[132.3412757,34.3987277],[132.3413857,34.398741],[132.3414729,34.3987266],[132.3415614,34.3986746],[132.3416687,34.3986082],[132.3418162,34.3985717],[132.3419449,34.3985119],[132.3421247,34.3984367],[132.3422574,34.3983769],[132.3423795,34.3982984],[132.3425109,34.398201],[132.3426048,34.3980494],[132.3426919,34.3979553],[132.3427389,34.3978568],[132.3426919,34.3977694],[132.3425847,34.3976278],[132.3424935,34.3976278],[132.3423513,34.3976931],[132.3422909,34.3977783],[132.3422038,34.3978602],[132.3421019,34.3979144],[132.3419879,34.3979398],[132.3419101,34.3978402],[132.3418323,34.3977318],[132.3417518,34.3976742],[132.3416097,34.3976211],[132.3414756,34.3975946],[132.3413522,34.3974972],[132.3413844,34.3973555],[132.3414595,34.3972449],[132.3415748,34.3971387],[132.3416526,34.3970236],[132.3416365,34.3968775],[132.3416097,34.3967713],[132.3415694,34.3966318],[132.3415668,34.3964614],[132.3417116,34.3963552],[132.3418269,34.3962733],[132.3418806,34.3962224],[132.3418752,34.3961759],[132.3417947,34.396094],[132.3416419,34.3959679],[132.3414809,34.395824]]]}}
