{"type":"Feature","id":"attraction-large-large-port-W1180020851","properties":{"id":"attraction-large-large-port-W1180020851","kind":"attraction","name":"秋田港洋上風力発電施設建設工事拠点","shortName":"秋田港洋上風力発電施設建設工事拠点","context":"日本","subtype":"large-port","subtypeLabel":"港湾・埠頭","statusLabel":"","aliases":[],"osmType":"way","osmId":1180020851,"osmDate":null,"officialAreaKm2":null,"areaSourceLabel":"","areaSourceUrl":"","boundarySourceLabel":"© OpenStreetMap contributors","boundarySourceUrl":"https://www.openstreetmap.org/copyright","geometryFile":"attractions/large-large-port-W1180020851.geojson"},"geometry":{"type":"Polygon","coordinates":[[[140.033422,39.7810156],[140.0348169,39.7766279],[140.0396875,39.7775422],[140.0382925,39.7819303],[140.033422,39.7810156]]]}}
