{"type":"Feature","id":"attraction-large-park-R15512029","properties":{"id":"attraction-large-park-R15512029","kind":"attraction","name":"海の中道海浜公園","shortName":"海の中道海浜公園","context":"日本","subtype":"large-park","subtypeLabel":"大型都市公園・広域公園","statusLabel":"","aliases":["Uminonakamichi Seaside Park"],"osmType":"relation","osmId":15512029,"osmDate":null,"officialAreaKm2":null,"areaSourceLabel":"","areaSourceUrl":"","boundarySourceLabel":"© OpenStreetMap contributors","boundarySourceUrl":"https://www.openstreetmap.org/copyright","geometryFile":"attractions/large-park-R15512029.geojson"},"geometry":{"type":"MultiPolygon","coordinates":[[[[130.3757957,33.6709417],[130.3754454,33.6715966],[130.3750415,33.671548],[130.3746072,33.6714392],[130.3737852,33.6707784],[130.3732038,33.67059],[130.3708651,33.669766],[130.369275,33.6691044],[130.3677022,33.6688592],[130.3662508,33.6682434],[130.3658524,33.6682231],[130.3609775,33.66675],[130.3605082,33.6664721],[130.3602653,33.6664702],[130.3580517,33.6657958],[130.3580144,33.6658833],[130.3573699,33.6656578],[130.3573022,33.6657472],[130.3568235,33.6655704],[130.3567675,33.6656151],[130.3565466,33.6655326],[130.3565142,33.6655929],[130.3562043,33.6654769],[130.3561564,33.6655539],[130.3557629,33.6654073],[130.3557283,33.6654834],[130.3554418,33.6653702],[130.3553983,33.6654296],[130.354987,33.6652885],[130.3549491,33.6653572],[130.3546492,33.6652579],[130.3546158,33.6653201],[130.3542769,33.6652134],[130.3541509,33.6654119],[130.3538923,33.6654166],[130.3535868,33.6655288],[130.3534218,33.6655075],[130.3531666,33.6655604],[130.3528321,33.665295],[130.3526872,33.6650408],[130.3516275,33.6636529],[130.3513363,33.6634623],[130.3507696,33.6633298],[130.3503232,33.6628],[130.3500223,33.6627612],[130.3495856,33.6626804],[130.3492906,33.6625722],[130.3491605,33.6625738],[130.3484036,33.6618872],[130.3472642,33.6612297],[130.3471944,33.6611037],[130.3468702,33.6611619],[130.3463889,33.6609244],[130.3462918,33.6609664],[130.3461637,33.6608985],[130.3461773,33.6607644],[130.3460085,33.6606384],[130.3452942,33.6603573],[130.345005,33.6604413],[130.3448245,33.6602766],[130.3447197,33.6602749],[130.3445411,33.6604833],[130.3444596,33.6604672],[130.3444518,33.6602846],[130.3441549,33.6603541],[130.3440966,33.660262],[130.3439317,33.660262],[130.3437511,33.661052],[130.3387022,33.6603289],[130.3394096,33.659104],[130.3399463,33.6583798],[130.3402512,33.6578282],[130.3421266,33.6571067],[130.3423848,33.6570938],[130.3425264,33.6570178],[130.3426837,33.6568789],[130.3429108,33.6568046],[130.3433358,33.6567028],[130.3452494,33.6563097],[130.3454684,33.6555397],[130.3456702,33.6551503],[130.3459808,33.6548433],[130.3468736,33.6542989],[130.3470638,33.6542649],[130.3473297,33.6542569],[130.3475549,33.6541777],[130.3478732,33.654294],[130.3482983,33.6543651],[130.3486768,33.6543554],[130.3547079,33.6536845],[130.3552208,33.6536403],[130.3554852,33.6536226],[130.355905,33.6536087],[130.3563118,33.6536233],[130.3568409,33.6537213],[130.3572291,33.653827],[130.3576211,33.6539808],[130.3581471,33.6543169],[130.358499,33.6546276],[130.3588159,33.6550618],[130.3590439,33.6555285],[130.3591801,33.6562319],[130.3592009,33.6568166],[130.3591382,33.6583603],[130.359144,33.6585623],[130.3592817,33.6591041],[130.359557,33.6597109],[130.3599294,33.6602742],[130.3604288,33.6608754],[130.3620655,33.6627212],[130.3632181,33.663978],[130.3638683,33.6647582],[130.3649137,33.6658821],[130.3653461,33.6662742],[130.3658576,33.6666045],[130.3663222,33.6668543],[130.3671838,33.6671765],[130.3726967,33.6694498],[130.3758525,33.6708503],[130.3757957,33.6709417]]],[[[130.3860583,33.6690889],[130.3862428,33.6691278],[130.3866747,33.6693552],[130.387025,33.6695767],[130.3873589,33.6698429],[130.3878049,33.6704959],[130.3879753,33.670937],[130.3885529,33.6773206],[130.3887804,33.677912],[130.3889883,33.6782626],[130.3889855,33.6783818],[130.379198,33.6722009],[130.3783509,33.671788],[130.3670702,33.6670046],[130.3660322,33.6665492],[130.3653536,33.6661117],[130.3648279,33.6656083],[130.3643048,33.665029],[130.3638153,33.664443],[130.3598006,33.6597894],[130.3595152,33.6592948],[130.3593787,33.658854],[130.3593047,33.6574817],[130.3593078,33.6573406],[130.3593079,33.6558161],[130.3591151,33.6552482],[130.3586983,33.6545311],[130.3584576,33.6543533],[130.3579762,33.6540383],[130.3574005,33.6537469],[130.3569311,33.6535895],[130.3562143,33.6535137],[130.3550561,33.653539],[130.3519692,33.6538791],[130.3517521,33.6538947],[130.3527772,33.6523339],[130.351675,33.6512979],[130.3537415,33.649741],[130.3542155,33.6502172],[130.3547105,33.6499937],[130.354902,33.6501569],[130.3552873,33.6499392],[130.3554554,33.650052],[130.3557543,33.6500831],[130.3559504,33.6502502],[130.3569054,33.6505301],[130.3572674,33.650637],[130.3578199,33.6515558],[130.3581294,33.6519614],[130.3583862,33.6527399],[130.3587512,33.6540416],[130.3588516,33.6543079],[130.3590361,33.6548482],[130.3596572,33.6554216],[130.3601639,33.6577772],[130.3603413,33.6584166],[130.3607032,33.6588559],[130.3612753,33.659575],[130.3619151,33.6598568],[130.3629425,33.6601911],[130.363587,33.6597557],[130.3663049,33.6627487],[130.3673253,33.6631355],[130.3668303,33.6635319],[130.36694,33.6641344],[130.3683784,33.6651566],[130.3691092,33.6653004],[130.3704495,33.665932],[130.3728592,33.6665053],[130.3751382,33.6669737],[130.3787668,33.6675955],[130.3812722,33.6680581],[130.3815618,33.6680503],[130.3840953,33.6685439],[130.3858138,33.6686663],[130.3859959,33.6689539],[130.3860583,33.6690889]]]]}}
