{"type":"Feature","id":"attraction-large-park-W47023570","properties":{"id":"attraction-large-park-W47023570","kind":"attraction","name":"鶴舞公園","shortName":"鶴舞公園","context":"愛知県・名古屋市","subtype":"large-park","subtypeLabel":"大型都市公園・広域公園","statusLabel":"著名な公園","aliases":["Tsuruma Park"],"osmType":"way","osmId":47023570,"osmDate":null,"officialAreaKm2":null,"areaSourceLabel":"","areaSourceUrl":"","boundarySourceLabel":"© OpenStreetMap contributors","boundarySourceUrl":"https://www.openstreetmap.org/copyright","geometryFile":"attractions/large-park-W47023570.geojson"},"geometry":{"type":"Polygon","coordinates":[[[136.922986,35.1562406],[136.9228303,35.156292],[136.9216069,35.1567183],[136.9209837,35.1569341],[136.9209579,35.156943],[136.9193491,35.1574999],[136.9193411,35.1575027],[136.9192741,35.157526],[136.919192,35.1575539],[136.9189016,35.157655],[136.9178839,35.1565651],[136.9179082,35.1564368],[136.9175954,35.1561228],[136.9174465,35.1559733],[136.9174231,35.1559495],[136.9174007,35.1559276],[136.9172522,35.155782],[136.9172237,35.1557524],[136.9166538,35.1551293],[136.9167544,35.1548126],[136.9170903,35.1537792],[136.9171278,35.1536409],[136.9171693,35.1534673],[136.9172185,35.1531668],[136.9172304,35.1530745],[136.9176321,35.1527424],[136.9176498,35.1524517],[136.9178628,35.1524716],[136.9179461,35.1524793],[136.9183625,35.1525182],[136.9190837,35.1527032],[136.9195146,35.1528138],[136.9195485,35.1528221],[136.919591,35.1528326],[136.9196092,35.1528371],[136.9200845,35.1529697],[136.9201473,35.1529825],[136.9202046,35.1529904],[136.9203542,35.1529977],[136.9203731,35.1530033],[136.9204278,35.1530344],[136.9204582,35.1530333],[136.9204866,35.1530323],[136.9205655,35.1530252],[136.9206183,35.1530176],[136.9207065,35.1530044],[136.9220907,35.1530518],[136.922059,35.1538936],[136.923321,35.1539531],[136.9233117,35.1539835],[136.9233008,35.1540667],[136.9233007,35.1541014],[136.9232781,35.1542973],[136.9232526,35.154459],[136.9232216,35.1545114],[136.9231876,35.1545191],[136.9231618,35.1545928],[136.9231537,35.1547405],[136.9231621,35.154823],[136.9231419,35.154942],[136.9231574,35.1549624],[136.9231347,35.1552057],[136.9230432,35.1561866],[136.9230212,35.156221],[136.922986,35.1562406]]]}}
