{"type":"Feature","id":"attraction-large-park-W478084251","properties":{"id":"attraction-large-park-W478084251","kind":"attraction","name":"旭山公園","shortName":"旭山公園","context":"日本","subtype":"large-park","subtypeLabel":"大型都市公園・広域公園","statusLabel":"","aliases":[],"osmType":"way","osmId":478084251,"osmDate":null,"officialAreaKm2":null,"areaSourceLabel":"","areaSourceUrl":"","boundarySourceLabel":"© OpenStreetMap contributors","boundarySourceUrl":"https://www.openstreetmap.org/copyright","geometryFile":"attractions/large-park-W478084251.geojson"},"geometry":{"type":"Polygon","coordinates":[[[142.4734937,43.7683702],[142.4726172,43.7686965],[142.4723391,43.7687448],[142.4721581,43.7689555],[142.4719884,43.7689662],[142.4715919,43.7687735],[142.4711874,43.7683491],[142.4709785,43.7678999],[142.4715146,43.7671564],[142.4716093,43.7670472],[142.4717637,43.767047],[142.4720288,43.7669293],[142.4722697,43.7668005],[142.4724897,43.7666031],[142.4726647,43.7661685],[142.4727994,43.7651364],[142.4731731,43.7644679],[142.4737442,43.7637091],[142.4770032,43.7609267],[142.4792256,43.7591624],[142.4795007,43.7592529],[142.4799514,43.7594668],[142.4800169,43.7595959],[142.4799413,43.7604966],[142.4804236,43.7606941],[142.4811524,43.7601025],[142.4814461,43.7596148],[142.4819647,43.7591235],[142.482566,43.7583763],[142.4831779,43.7579041],[142.483704,43.7576413],[142.4840916,43.7578793],[142.4846679,43.75842],[142.484432,43.7586231],[142.4842934,43.7588706],[142.4841401,43.7591113],[142.483809,43.7600517],[142.4836516,43.7609002],[142.4834032,43.761503],[142.4830782,43.7617099],[142.4826259,43.7618262],[142.4822569,43.762328],[142.4819357,43.7633556],[142.4818949,43.76424],[142.4818166,43.7650545],[142.4816813,43.7654584],[142.4811998,43.7661842],[142.4806806,43.7658327],[142.480207,43.7658334],[142.4800406,43.7654804],[142.47932,43.7652482],[142.4787447,43.7656482],[142.4786842,43.7664972],[142.4791226,43.766764],[142.4789331,43.7670385],[142.4782413,43.7678867],[142.478111,43.7679188],[142.4765058,43.7677247],[142.4758637,43.7677655],[142.4753849,43.7678357],[142.4748817,43.7680456],[142.4743571,43.7681863],[142.4734937,43.7683702]]]}}
