{"type":"Feature","id":"attraction-large-park-W766586849","properties":{"id":"attraction-large-park-W766586849","kind":"attraction","name":"緑葉公園","shortName":"緑葉公園","context":"日本","subtype":"large-park","subtypeLabel":"大型都市公園・広域公園","statusLabel":"","aliases":[],"osmType":"way","osmId":766586849,"osmDate":null,"officialAreaKm2":null,"areaSourceLabel":"","areaSourceUrl":"","boundarySourceLabel":"© OpenStreetMap contributors","boundarySourceUrl":"https://www.openstreetmap.org/copyright","geometryFile":"attractions/large-park-W766586849.geojson"},"geometry":{"type":"Polygon","coordinates":[[[141.5421132,42.9728036],[141.5421616,42.9726198],[141.5421369,42.9723261],[141.542151,42.9722382],[141.5421788,42.972179],[141.54144,42.9711638],[141.5416402,42.9708503],[141.5416604,42.9707771],[141.5416758,42.9707215],[141.5417651,42.9702424],[141.5418185,42.9699324],[141.5418966,42.9696074],[141.5420269,42.9694123],[141.5422112,42.9692292],[141.5425881,42.9690569],[141.5428643,42.9689827],[141.5431374,42.968862],[141.5433418,42.9687497],[141.5435347,42.9685539],[141.5436399,42.9683573],[141.543655,42.9682865],[141.543681,42.9681644],[141.543686,42.9679977],[141.5436913,42.9676499],[141.5439825,42.9676618],[141.5441305,42.9676775],[141.5442703,42.9676964],[141.5442756,42.9675351],[141.5446889,42.9675737],[141.5450832,42.9676749],[141.5455589,42.9679233],[141.5458618,42.9680958],[141.5465936,42.9685078],[141.5466952,42.9685718],[141.5467122,42.9685589],[141.5467072,42.96813],[141.5468133,42.9675213],[141.5467286,42.9667004],[141.5465419,42.966522],[141.5466756,42.9665294],[141.5466812,42.9654428],[141.5468068,42.9653379],[141.546982,42.9653224],[141.5471041,42.9653742],[141.5472227,42.9654467],[141.5474616,42.9655309],[141.5490504,42.9659381],[141.5492568,42.9660891],[141.5493708,42.9662357],[141.5494602,42.9664093],[141.5494479,42.9665941],[141.5494635,42.9667009],[141.5494449,42.9673848],[141.5493562,42.967607],[141.5493702,42.9677846],[141.5494589,42.9679521],[141.5495383,42.9680273],[141.5496901,42.968034],[141.5497518,42.9682641],[141.5498181,42.9683798],[141.5499238,42.968486],[141.5500112,42.9685479],[141.5497932,42.9687273],[141.5498887,42.9690769],[141.5497086,42.9692727],[141.5500325,42.9703837],[141.5492982,42.9708802],[141.5490604,42.9710401],[141.5492208,42.97117],[141.5481941,42.971868],[141.5473085,42.9716161],[141.5470069,42.9721263],[141.5469207,42.9722218],[141.5469813,42.9722449],[141.548491,42.9727146],[141.5490089,42.9728904],[141.5493167,42.9730764],[141.5496209,42.9733147],[141.5500296,42.9736511],[141.5498621,42.9737837],[141.5496883,42.9739212],[141.549416,42.9741878],[141.5492665,42.974402],[141.5491634,42.9746043],[141.5490939,42.9748273],[141.5490285,42.9751496],[141.5489621,42.9756096],[141.5488591,42.9762501],[141.548734,42.9769124],[141.548692,42.9771611],[141.5482301,42.9771148],[141.5480745,42.9770602],[141.5475104,42.977046],[141.5471798,42.977039],[141.5469825,42.9769041],[141.5462038,42.9765568],[141.5460047,42.9764215],[141.5448944,42.9754929],[141.5443199,42.9748571],[141.544228,42.9747501],[141.5435927,42.9741421],[141.5431638,42.9737032],[141.5427349,42.9731965],[141.5424899,42.9730112],[141.5423291,42.9729098],[141.5421377,42.9728535],[141.5420773,42.9728445],[141.5421132,42.9728036]]]}}
