{"type":"Feature","id":"attraction-large-industrial-complex-W428376192","properties":{"id":"attraction-large-industrial-complex-W428376192","kind":"attraction","name":"SUBARU群馬製作所　矢島工場","shortName":"SUBARU群馬製作所　矢島工場","context":"日本","subtype":"industrial-complex","subtypeLabel":"工業地帯・大規模工場","statusLabel":"","aliases":[],"osmType":"way","osmId":428376192,"osmDate":null,"officialAreaKm2":null,"areaSourceLabel":"","areaSourceUrl":"","boundarySourceLabel":"© OpenStreetMap contributors","boundarySourceUrl":"https://www.openstreetmap.org/copyright","geometryFile":"attractions/large-industrial-complex-W428376192.geojson"},"geometry":{"type":"Polygon","coordinates":[[[139.3665202,36.2841901],[139.3686105,36.2841286],[139.3684207,36.2806808],[139.3753969,36.2804316],[139.3753341,36.2766267],[139.3753215,36.2758638],[139.3751512,36.2750686],[139.3746829,36.2750882],[139.3711398,36.2752367],[139.3663525,36.2754362],[139.366468,36.2797297],[139.3664999,36.2803216],[139.3665257,36.2808014],[139.3665249,36.2813146],[139.3665235,36.282158],[139.3665224,36.2828335],[139.3665202,36.2841901]]]}}
