{"type":"Feature","id":"attraction-large-park-W1189147664","properties":{"id":"attraction-large-park-W1189147664","kind":"attraction","name":"赤坂総合公園","shortName":"赤坂総合公園","context":"日本","subtype":"large-park","subtypeLabel":"大型都市公園・広域公園","statusLabel":"著名な公園","aliases":["Akasaka General Park"],"osmType":"way","osmId":1189147664,"osmDate":null,"officialAreaKm2":null,"areaSourceLabel":"","areaSourceUrl":"","boundarySourceLabel":"© OpenStreetMap contributors","boundarySourceUrl":"https://www.openstreetmap.org/copyright","geometryFile":"attractions/large-park-W1189147664.geojson"},"geometry":{"type":"Polygon","coordinates":[[[140.5427917,39.2992055],[140.5452658,39.2996645],[140.5458026,39.2996646],[140.5462762,39.2996803],[140.5464571,39.299674],[140.5466339,39.2996551],[140.5467498,39.2996614],[140.5468921,39.2996504],[140.5475223,39.299512],[140.5479186,39.2994444],[140.5494738,39.2996247],[140.5494838,39.2995086],[140.5494546,39.2994557],[140.5494452,39.2994056],[140.5494429,39.2993297],[140.5494937,39.2992447],[140.5495385,39.2991916],[140.5495729,39.2990506],[140.5496187,39.2989542],[140.5496572,39.2988576],[140.5496603,39.2987348],[140.5496588,39.2985405],[140.5496449,39.2984106],[140.5496326,39.2983402],[140.5494724,39.2976774],[140.5494548,39.2976019],[140.549408,39.2974029],[140.5492962,39.2971748],[140.5492195,39.2970029],[140.5491396,39.2968238],[140.5492721,39.2966915],[140.5497418,39.2967558],[140.5498974,39.2968178],[140.5499128,39.2968572],[140.5501538,39.296893],[140.5501884,39.2967456],[140.5501978,39.2964643],[140.5500851,39.2964592],[140.5499291,39.2963455],[140.5497673,39.2961769],[140.5497037,39.2960643],[140.5496627,39.2960347],[140.5496843,39.2958838],[140.5497136,39.2958178],[140.5498451,39.2957088],[140.5499376,39.2956216],[140.5500342,39.2955157],[140.5500596,39.2954472],[140.5498207,39.2948196],[140.5497278,39.2946019],[140.5496986,39.2945149],[140.5496641,39.2943437],[140.5496415,39.2942689],[140.5489256,39.2942428],[140.5482299,39.294915],[140.547331,39.2949368],[140.547114,39.2950286],[140.5469691,39.2951419],[140.5464284,39.2956128],[140.5457531,39.2962437],[140.5456252,39.2961615],[140.5451198,39.2957132],[140.5448681,39.2954892],[140.544514,39.2952069],[140.544101,39.295016],[140.5427331,39.2942977],[140.5424809,39.2942479],[140.5422985,39.294306],[140.5422342,39.2944638],[140.5420411,39.294991],[140.5418587,39.2952692],[140.5416334,39.2953688],[140.5413276,39.2953439],[140.5409628,39.2954975],[140.5406027,39.2951689],[140.5397773,39.2956634],[140.541266,39.2969941],[140.5413394,39.2970733],[140.5403567,39.2978844],[140.540083,39.2981093],[140.5403469,39.2980705],[140.540585,39.2980696],[140.5407135,39.2980741],[140.5409224,39.2981174],[140.5410695,39.2981617],[140.5411256,39.2981003],[140.5412155,39.2981834],[140.5413801,39.2983397],[140.5416008,39.2985556],[140.541721,39.2987146],[140.5418424,39.29887],[140.5418938,39.2989798],[140.5419499,39.2990322],[140.5420094,39.2990611],[140.5421238,39.2991027],[140.5427917,39.2992055]]]}}
