{"type":"Feature","id":"attraction-large-military-base-R4866479","properties":{"id":"attraction-large-military-base-R4866479","kind":"attraction","name":"奥間レスト・センター","shortName":"奥間レスト・センター","context":"日本","subtype":"military-base","subtypeLabel":"基地・駐屯地・演習場","statusLabel":"","aliases":["Okuma Rest Center"],"osmType":"relation","osmId":4866479,"osmDate":null,"officialAreaKm2":null,"areaSourceLabel":"","areaSourceUrl":"","boundarySourceLabel":"© OpenStreetMap contributors","boundarySourceUrl":"https://www.openstreetmap.org/copyright","geometryFile":"attractions/large-military-base-R4866479.geojson"},"geometry":{"type":"Polygon","coordinates":[[[128.1617912,26.7425876],[128.1615671,26.7448175],[128.1584647,26.7446269],[128.15812,26.7463566],[128.1578574,26.7470749],[128.1572993,26.7476173],[128.1563472,26.7479251],[128.1522435,26.7479984],[128.1514227,26.7477199],[128.1490426,26.7458143],[128.1486486,26.7451693],[128.1476801,26.7417684],[128.1477129,26.7408888],[128.148189,26.7396868],[128.1486814,26.7390564],[128.1492888,26.7386166],[128.1500767,26.7384407],[128.1524404,26.738558],[128.153688,26.7391004],[128.1552474,26.7377517],[128.1565113,26.7358606],[128.1580218,26.7366235],[128.1586909,26.736935],[128.1588859,26.7371245],[128.1589202,26.7373003],[128.1590147,26.7374876],[128.1591098,26.7375915],[128.1604097,26.7400534],[128.1615631,26.7422236],[128.1616982,26.7423853],[128.1617912,26.7425876]]]}}
