{"type":"Feature","id":"attraction-large-park-W1145086449","properties":{"id":"attraction-large-park-W1145086449","kind":"attraction","name":"高尾山自然公園","shortName":"高尾山自然公園","context":"日本","subtype":"large-park","subtypeLabel":"大型都市公園・広域公園","statusLabel":"","aliases":[],"osmType":"way","osmId":1145086449,"osmDate":null,"officialAreaKm2":null,"areaSourceLabel":"","areaSourceUrl":"","boundarySourceLabel":"© OpenStreetMap contributors","boundarySourceUrl":"https://www.openstreetmap.org/copyright","geometryFile":"attractions/large-park-W1145086449.geojson"},"geometry":{"type":"Polygon","coordinates":[[[131.6516094,33.2075188],[131.6517722,33.207199],[131.6526499,33.2068673],[131.6544691,33.2068496],[131.6591196,33.2071102],[131.6597652,33.2072379],[131.6595657,33.2080206],[131.6595124,33.2086575],[131.6596921,33.2086975],[131.6598298,33.2088032],[131.6599759,33.2092451],[131.6599365,33.209506],[131.6598551,33.2098044],[131.6591753,33.2100559],[131.6589393,33.2104978],[131.6591359,33.2108574],[131.6588691,33.2113862],[131.6587005,33.2115295],[131.6585994,33.2117528],[131.6583578,33.2119526],[131.6581443,33.2121993],[131.6578662,33.2128456],[131.6577511,33.2130054],[131.6572117,33.2136846],[131.65656,33.2147469],[131.656296,33.2149913],[131.6558943,33.2151793],[131.6547735,33.2156164],[131.6543886,33.2158914],[131.6537397,33.2160653],[131.6530122,33.2163591],[131.6522228,33.2166129],[131.6517425,33.2155577],[131.6515627,33.2153415],[131.651852,33.2151323],[131.6517987,33.2146764],[131.6519953,33.2145354],[131.6524532,33.2144813],[131.65247,33.213452],[131.6519279,33.2133415],[131.6516807,33.2131841],[131.6515571,33.2130031],[131.6516217,33.2125448],[131.6518998,33.2121359],[131.6518998,33.2119902],[131.6519953,33.2117457],[131.6517032,33.2113721],[131.6519082,33.2110947],[131.6517959,33.2106153],[131.6515515,33.2104202],[131.6514307,33.2100841],[131.6515206,33.2097292],[131.6517846,33.2097175],[131.6517144,33.2094425],[131.6516329,33.2092944],[131.6516695,33.209144],[131.6518577,33.208956],[131.651588,33.2085988],[131.6514813,33.2083802],[131.6515487,33.2080535],[131.6516094,33.2075188]]]}}
