{"type":"Feature","id":"attraction-large-park-W560239853","properties":{"id":"attraction-large-park-W560239853","kind":"attraction","name":"ひばり公園","shortName":"ひばり公園","context":"日本","subtype":"large-park","subtypeLabel":"大型都市公園・広域公園","statusLabel":"著名な公園","aliases":[],"osmType":"way","osmId":560239853,"osmDate":null,"officialAreaKm2":null,"areaSourceLabel":"","areaSourceUrl":"","boundarySourceLabel":"© OpenStreetMap contributors","boundarySourceUrl":"https://www.openstreetmap.org/copyright","geometryFile":"attractions/large-park-W560239853.geojson"},"geometry":{"type":"Polygon","coordinates":[[[136.2493543,35.1279904],[136.2495514,35.1279148],[136.2495946,35.1283532],[136.2489291,35.1286455],[136.2488184,35.1284821],[136.2481403,35.1274813],[136.2476104,35.1268211],[136.247383,35.1267871],[136.247093,35.1264253],[136.2469393,35.1262336],[136.2468494,35.1260546],[136.2467126,35.1257822],[136.2465852,35.1254852],[136.2465737,35.1252156],[136.2467367,35.1249646],[136.2470989,35.1246872],[136.247276,35.1245936],[136.2475956,35.1243496],[136.2480843,35.1239963],[136.2482877,35.1237897],[136.2485789,35.123644],[136.2488007,35.1235356],[136.2490441,35.1238355],[136.2492906,35.1241404],[136.2495032,35.1244151],[136.2497034,35.1246268],[136.2498757,35.1247187],[136.2502213,35.1244284],[136.2503334,35.124161],[136.2505482,35.1242489],[136.2507864,35.124394],[136.2509078,35.1244627],[136.2508378,35.1245582],[136.250721,35.1250051],[136.2506463,35.1254673],[136.2505669,35.1257308],[136.250421,35.125795],[136.2503653,35.1259691],[136.2495723,35.1263449],[136.2494648,35.1262465],[136.248414,35.126785],[136.2489698,35.1274955],[136.2493543,35.1279904]]]}}
