{"type":"Feature","id":"attraction-large-park-W690346593","properties":{"id":"attraction-large-park-W690346593","kind":"attraction","name":"青野山　県立自然公園","shortName":"青野山　県立自然公園","context":"日本","subtype":"large-park","subtypeLabel":"大型都市公園・広域公園","statusLabel":"","aliases":[],"osmType":"way","osmId":690346593,"osmDate":null,"officialAreaKm2":null,"areaSourceLabel":"","areaSourceUrl":"","boundarySourceLabel":"© OpenStreetMap contributors","boundarySourceUrl":"https://www.openstreetmap.org/copyright","geometryFile":"attractions/large-park-W690346593.geojson"},"geometry":{"type":"Polygon","coordinates":[[[131.788357,34.4588026],[131.7877805,34.4588742],[131.7867641,34.4586965],[131.7856269,34.4585904],[131.7844252,34.4584134],[131.7840605,34.4581834],[131.7836313,34.457458],[131.7837171,34.4566088],[131.7843394,34.4546094],[131.7842536,34.4539548],[131.7838244,34.4533178],[131.7821078,34.451283],[131.780477,34.4506283],[131.7795114,34.4503983],[131.7788033,34.4505044],[131.7781811,34.4505929],[131.7773442,34.4503629],[131.7771511,34.4500267],[131.7768936,34.4498144],[131.7763786,34.4497967],[131.7759924,34.4499028],[131.7741256,34.4515307],[131.7734818,34.4523092],[131.7735677,34.4559541],[131.7738681,34.4566088],[131.7747693,34.4574226],[131.7752092,34.4587673],[131.775236,34.4591742],[131.7753701,34.4595634],[131.775535,34.460079],[131.7763311,34.4615587],[131.7772685,34.4632265],[131.7776711,34.4642868],[131.7778861,34.4653046],[131.7781836,34.4664273],[131.7785747,34.4670571],[131.7788728,34.4679761],[131.778922,34.4690324],[131.7789274,34.4695643],[131.7781926,34.4705566],[131.7772994,34.4718314],[131.7771047,34.4723315],[131.7770178,34.4728556],[131.7770703,34.4732833],[131.7772534,34.473796],[131.7774696,34.4741771],[131.7777806,34.4745258],[131.7781247,34.4747657],[131.7784878,34.4749991],[131.7792872,34.4751915],[131.7813248,34.4756767],[131.7829059,34.4761127],[131.7835965,34.4764762],[131.7841714,34.4769813],[131.7847802,34.4777325],[131.7853763,34.4784304],[131.7860082,34.478563],[131.7870733,34.4786605],[131.7879064,34.4786633],[131.788616,34.4784834],[131.7902979,34.477739],[131.7922684,34.4769572],[131.7936232,34.4767433],[131.7953099,34.4767606],[131.7965215,34.4771765],[131.7976777,34.4781421],[131.7986896,34.4791184],[131.7994704,34.4800848],[131.8000224,34.4805705],[131.8008752,34.4809342],[131.8016778,34.4810723],[131.804575,34.4805192],[131.8050372,34.4805026],[131.805022,34.4801565],[131.8049083,34.4798562],[131.8047675,34.4793999],[131.8050665,34.4788432],[131.8048541,34.4778455],[131.8051702,34.4761979],[131.8053608,34.4760105],[131.8056058,34.4755264],[131.8062158,34.4751368],[131.8067819,34.4748681],[131.8073439,34.4742482],[131.8074757,34.473302],[131.8083941,34.4726321],[131.8088327,34.4722898],[131.8098006,34.4716554],[131.8101523,34.4712145],[131.8099806,34.470302],[131.8093974,34.4694283],[131.8098437,34.4693075],[131.8106801,34.47023],[131.8109801,34.4701756],[131.8109822,34.4698753],[131.8111012,34.4690818],[131.811793,34.4688001],[131.81233,34.4693149],[131.8125147,34.4682893],[131.8128184,34.4680432],[131.8130754,34.4684343],[131.8136123,34.4682938],[131.8136834,34.4690065],[131.813995,34.4690875],[131.8143814,34.4690714],[131.8150066,34.4687958],[131.8153029,34.4690132],[131.8153827,34.4685649],[131.8144171,34.4675985],[131.8139846,34.4666372],[131.8136273,34.4656851],[131.814125,34.4631353],[131.8146735,34.460698],[131.8150097,34.4585892],[131.814499,34.4581489],[131.814632,34.4574609],[131.8142682,34.4574867],[131.8139395,34.45733],[131.8139541,34.4576674],[131.8136739,34.4577796],[131.8132407,34.4576639],[131.8129738,34.4578356],[131.8127567,34.4582117],[131.8129071,34.4585419],[131.8117078,34.4586851],[131.8114993,34.4579939],[131.8102081,34.457614],[131.8093461,34.4576261],[131.8081896,34.4578326],[131.8072423,34.4582136],[131.8065971,34.4585003],[131.8063189,34.458851],[131.8058749,34.4593543],[131.8055003,34.4594191],[131.8049449,34.4592633],[131.8044966,34.4588317],[131.8039201,34.4583747],[131.8034189,34.4577423],[131.8026323,34.4570534],[131.8012557,34.456164],[131.7993974,34.4554944],[131.7984888,34.4553856],[131.7975515,34.4551296],[131.7968906,34.4552642],[131.796117,34.4554173],[131.7953458,34.4554181],[131.7938313,34.4556147],[131.7927157,34.4558432],[131.7916647,34.456293],[131.7900888,34.4574655],[131.7891791,34.4581323],[131.7885981,34.4586419],[131.788357,34.4588026]]]}}
