{"type":"Feature","id":"attraction-large-military-base-W1371155555","properties":{"id":"attraction-large-military-base-W1371155555","kind":"attraction","name":"航空自衛隊経ヶ岬分屯基地庁舎地区","shortName":"航空自衛隊経ヶ岬分屯基地庁舎地区","context":"日本","subtype":"military-base","subtypeLabel":"基地・駐屯地・演習場","statusLabel":"","aliases":[],"osmType":"way","osmId":1371155555,"osmDate":null,"officialAreaKm2":null,"areaSourceLabel":"","areaSourceUrl":"","boundarySourceLabel":"© OpenStreetMap contributors","boundarySourceUrl":"https://www.openstreetmap.org/copyright","geometryFile":"attractions/large-military-base-W1371155555.geojson"},"geometry":{"type":"Polygon","coordinates":[[[135.1939841,35.7646536],[135.1938352,35.7646188],[135.1934463,35.7644632],[135.1927771,35.7651466],[135.192824,35.7652108],[135.19282,35.7653664],[135.1928683,35.7654208],[135.1927704,35.7654807],[135.192643,35.765769],[135.1928481,35.7658876],[135.1929179,35.7662478],[135.1925504,35.7664393],[135.1925611,35.7664731],[135.1930828,35.766768],[135.1930815,35.7668289],[135.1930319,35.7669247],[135.1930332,35.7669845],[135.1931432,35.7670988],[135.1931566,35.7671837],[135.1935562,35.7671924],[135.1938111,35.7670378],[135.1936971,35.76667],[135.1936528,35.7666047],[135.1936863,35.766534],[135.1937735,35.7664796],[135.1938124,35.7664763],[135.1939814,35.7665645],[135.1943354,35.7670661],[135.1944023,35.7670474],[135.1945634,35.7667963],[135.1942724,35.7660748],[135.1942281,35.7660596],[135.1942161,35.7660193],[135.1944655,35.7659627],[135.1944642,35.7659224],[135.1944374,35.7656069],[135.1945339,35.7652271],[135.1944226,35.7646699],[135.1939841,35.7646536]]]}}
