{"type":"Feature","id":"attraction-large-park-W638205991","properties":{"id":"attraction-large-park-W638205991","kind":"attraction","name":"茂原公園","shortName":"茂原公園","context":"日本","subtype":"large-park","subtypeLabel":"大型都市公園・広域公園","statusLabel":"著名な公園","aliases":[],"osmType":"way","osmId":638205991,"osmDate":null,"officialAreaKm2":null,"areaSourceLabel":"","areaSourceUrl":"","boundarySourceLabel":"© OpenStreetMap contributors","boundarySourceUrl":"https://www.openstreetmap.org/copyright","geometryFile":"attractions/large-park-W638205991.geojson"},"geometry":{"type":"Polygon","coordinates":[[[140.2858847,35.4319029],[140.2862289,35.4310305],[140.2861376,35.4308855],[140.2860464,35.4308024],[140.2859777,35.4307692],[140.2859684,35.4307647],[140.2858833,35.4307384],[140.2858845,35.4306801],[140.285886,35.4305286],[140.285969,35.4305284],[140.2859675,35.4301021],[140.2858459,35.4297283],[140.2847729,35.4296565],[140.2846317,35.4297921],[140.2843683,35.4297788],[140.2843019,35.429505],[140.2839915,35.4293829],[140.2836212,35.4299557],[140.2834877,35.4299364],[140.2826593,35.4292317],[140.2821167,35.4294711],[140.2814513,35.429444],[140.2813498,35.4290419],[140.2795663,35.4289844],[140.2790592,35.4304657],[140.2811797,35.4309784],[140.2814456,35.4313338],[140.2818157,35.4310701],[140.2822544,35.4312419],[140.2823585,35.4312927],[140.2824098,35.4313231],[140.2824951,35.4313816],[140.2825453,35.4314322],[140.282571,35.4314857],[140.2825716,35.431529],[140.28257,35.4315738],[140.2825252,35.4317778],[140.2825131,35.4317881],[140.2826022,35.4319249],[140.2826064,35.4319335],[140.2826068,35.4319467],[140.2826014,35.43196],[140.2824491,35.4324049],[140.2824683,35.4324228],[140.2828308,35.4325092],[140.2828564,35.4324983],[140.2832694,35.4313205],[140.2858847,35.4319029]]]}}
