{"type":"Feature","id":"attraction-large-industrial-complex-W1434903201","properties":{"id":"attraction-large-industrial-complex-W1434903201","kind":"attraction","name":"作東IC産業団地","shortName":"作東IC産業団地","context":"日本","subtype":"industrial-complex","subtypeLabel":"工業地帯・大規模工場","statusLabel":"","aliases":[],"osmType":"way","osmId":1434903201,"osmDate":null,"officialAreaKm2":null,"areaSourceLabel":"","areaSourceUrl":"","boundarySourceLabel":"© OpenStreetMap contributors","boundarySourceUrl":"https://www.openstreetmap.org/copyright","geometryFile":"attractions/large-industrial-complex-W1434903201.geojson"},"geometry":{"type":"Polygon","coordinates":[[[134.2401999,35.0059035],[134.2398271,35.0057958],[134.2395079,35.0056926],[134.2391673,35.0053718],[134.2390385,35.0048665],[134.2382231,35.0048247],[134.2382097,35.003746],[134.2380381,35.003634],[134.2377806,35.0028474],[134.2378288,35.0025991],[134.2371154,35.0022212],[134.2362973,35.000747],[134.2382902,34.99893],[134.2371663,34.9980599],[134.2367855,34.9979017],[134.2364126,34.9978621],[134.2361605,34.9979105],[134.2356536,34.9980818],[134.2352325,34.9982291],[134.2349938,34.9982334],[134.2348891,34.997359],[134.2349723,34.9971568],[134.2355704,34.9967218],[134.2357904,34.9963438],[134.2361739,34.9961131],[134.2389286,34.9958583],[134.2391512,34.9964339],[134.2388079,34.9967965],[134.2391217,34.9975084],[134.2390466,34.9977259],[134.2391217,34.998407],[134.2398995,34.9993342],[134.240436,34.9989739],[134.2417341,34.9989959],[134.2428338,34.9996506],[134.2441589,34.9997121],[134.2448562,35.0007536],[134.2447329,35.0030737],[134.2456233,35.0044578],[134.2452586,35.0046995],[134.2438102,35.003601],[134.2425388,35.0035571],[134.2416322,35.0046819],[134.2412433,35.0058507],[134.2401999,35.0059035]]]}}
