{"type":"Feature","id":"attraction-large-park-W61933558","properties":{"id":"attraction-large-park-W61933558","kind":"attraction","name":"城山公園","shortName":"城山公園","context":"日本","subtype":"large-park","subtypeLabel":"大型都市公園・広域公園","statusLabel":"著名な公園","aliases":["Shiroyama Park"],"osmType":"way","osmId":61933558,"osmDate":null,"officialAreaKm2":null,"areaSourceLabel":"","areaSourceUrl":"","boundarySourceLabel":"© OpenStreetMap contributors","boundarySourceUrl":"https://www.openstreetmap.org/copyright","geometryFile":"attractions/large-park-W61933558.geojson"},"geometry":{"type":"Polygon","coordinates":[[[137.2641055,36.134934],[137.2643849,36.1350787],[137.2646124,36.1351132],[137.264654,36.1352091],[137.2646448,36.1356131],[137.2648918,36.1357197],[137.2650128,36.1355931],[137.2657153,36.1353068],[137.2660291,36.1356645],[137.2653444,36.1361896],[137.2658023,36.1367149],[137.2661133,36.1366402],[137.2663328,36.1368564],[137.2664497,36.1370904],[137.266734,36.1372531],[137.2663501,36.1375453],[137.266271,36.1375321],[137.2661166,36.1376491],[137.2660802,36.1377316],[137.2660116,36.1381252],[137.2658496,36.1383703],[137.2656099,36.1384444],[137.2653045,36.1386444],[137.2651157,36.1388244],[137.2649022,36.1391986],[137.2646523,36.1395261],[137.2640655,36.1400475],[137.2639807,36.1406094],[137.2637998,36.1408128],[137.2636008,36.1407894],[137.2634784,36.1407522],[137.2633384,36.1406921],[137.2628473,36.1405858],[137.2625915,36.1405819],[137.2625453,36.1405145],[137.2626326,36.140433],[137.2626465,36.1403578],[137.2626771,36.1402951],[137.2627253,36.140226],[137.2627681,36.1400575],[137.2627878,36.1397764],[137.2627873,36.1397297],[137.2626836,36.1397583],[137.262639,36.1397492],[137.2625731,36.1397224],[137.2624952,36.1397166],[137.2624062,36.1397574],[137.2620454,36.1398673],[137.2619781,36.1398349],[137.2619441,36.1397001],[137.2618169,36.1394537],[137.2616998,36.1393086],[137.2617145,36.1394528],[137.2614933,36.1391877],[137.2614021,36.1390318],[137.2611695,36.1389117],[137.2611141,36.138869],[137.2610409,36.1386456],[137.2612323,36.1383945],[137.2613306,36.1382104],[137.2614666,36.1380799],[137.2617364,36.1376191],[137.2617503,36.1375915],[137.2619155,36.1374536],[137.2620208,36.1373351],[137.2618631,36.1372574],[137.2613558,36.1370074],[137.2612434,36.1369728],[137.2606756,36.1369025],[137.2605742,36.1373129],[137.2603286,36.1374837],[137.2595433,36.1366701],[137.2597937,36.1365866],[137.2597959,36.1365655],[137.259686,36.1365663],[137.2595905,36.1363129],[137.2597784,36.136198],[137.2600823,36.1361339],[137.2600091,36.1359784],[137.2597005,36.1359755],[137.2596083,36.1358322],[137.258905,36.1356584],[137.2588631,36.1355998],[137.2591197,36.135384],[137.2589378,36.1353008],[137.2582842,36.1351091],[137.2583023,36.1347917],[137.2583509,36.1346157],[137.2584572,36.1344324],[137.2585557,36.1343462],[137.2587308,36.1342033],[137.2595232,36.1340355],[137.2600099,36.1339578],[137.2601422,36.1340173],[137.260231,36.1342883],[137.2603345,36.1343822],[137.2613019,36.1345138],[137.2617796,36.1346712],[137.2619916,36.1346366],[137.2621012,36.1346858],[137.2622939,36.1346356],[137.262677,36.1346096],[137.2630051,36.1348063],[137.2636688,36.1346745],[137.2641055,36.134934]]]}}
