{"type":"Feature","id":"attraction-large-industrial-complex-W945433694","properties":{"id":"attraction-large-industrial-complex-W945433694","kind":"attraction","name":"太陽石油 沖縄事業所","shortName":"太陽石油 沖縄事業所","context":"沖縄県・西原町","subtype":"industrial-complex","subtypeLabel":"工業地帯・大規模工場","statusLabel":"","aliases":[],"osmType":"way","osmId":945433694,"osmDate":null,"officialAreaKm2":null,"areaSourceLabel":"","areaSourceUrl":"","boundarySourceLabel":"© OpenStreetMap contributors","boundarySourceUrl":"https://www.openstreetmap.org/copyright","geometryFile":"attractions/large-industrial-complex-W945433694.geojson"},"geometry":{"type":"Polygon","coordinates":[[[127.7809657,26.2222779],[127.7791554,26.2232066],[127.779028,26.2232082],[127.7773504,26.2204714],[127.776078,26.2211207],[127.7760409,26.2219001],[127.775694,26.2222065],[127.7757949,26.2229002],[127.7765381,26.2239242],[127.7778972,26.2243702],[127.7781856,26.2246687],[127.7783201,26.2249465],[127.7785787,26.2254671],[127.7799097,26.22665],[127.7798727,26.2266832],[127.7801487,26.2270667],[127.780095,26.2274493],[127.7797732,26.2276851],[127.7801031,26.2283299],[127.7810982,26.2294415],[127.7833254,26.2307612],[127.7834608,26.2307894],[127.7844678,26.2306464],[127.7853692,26.231269],[127.7854983,26.231315],[127.786691,26.2315754],[127.7867713,26.2315437],[127.7868687,26.2315802],[127.7898087,26.2300335],[127.7898301,26.2299553],[127.788177,26.2273415],[127.788234,26.2273056],[127.7883136,26.2273881],[127.7888327,26.2271257],[127.7886914,26.2268969],[127.7886132,26.2269342],[127.7885857,26.2268595],[127.7879779,26.227226],[127.787284,26.2261786],[127.7834837,26.2261796],[127.7809657,26.2222779]]]}}
