{"type":"Feature","id":"attraction-large-park-W163951424","properties":{"id":"attraction-large-park-W163951424","kind":"attraction","name":"札幌芸術の森","shortName":"札幌芸術の森","context":"北海道・札幌市","subtype":"large-park","subtypeLabel":"大型都市公園・広域公園","statusLabel":"著名な公園","aliases":["Sapporo Art Park"],"osmType":"way","osmId":163951424,"osmDate":null,"officialAreaKm2":null,"areaSourceLabel":"","areaSourceUrl":"","boundarySourceLabel":"© OpenStreetMap contributors","boundarySourceUrl":"https://www.openstreetmap.org/copyright","geometryFile":"attractions/large-park-W163951424.geojson"},"geometry":{"type":"Polygon","coordinates":[[[141.3372337,42.9348981],[141.3373316,42.9347184],[141.3394116,42.93411],[141.3400687,42.9348215],[141.3397147,42.9351455],[141.3398595,42.9361784],[141.3398864,42.9365849],[141.3400446,42.9369285],[141.3404282,42.9373546],[141.3408252,42.9378593],[141.3409244,42.9381322],[141.341198,42.9384483],[141.3416539,42.9387187],[141.3432606,42.9395592],[141.3434537,42.9399048],[141.3432874,42.9405553],[141.3433518,42.9410102],[141.3435368,42.9415076],[141.3436629,42.941806],[141.3436119,42.9421687],[141.3431962,42.9425149],[141.3429468,42.9426857],[141.3429709,42.9428742],[141.3429173,42.9429076],[141.3424881,42.9427701],[141.3421072,42.9426007],[141.3419275,42.9424946],[141.3418041,42.9421516],[141.3416727,42.9416647],[141.3406454,42.9415606],[141.3403665,42.941488],[141.340176,42.9415096],[141.3395725,42.9416307],[141.3386767,42.9417845],[141.337982,42.94181],[141.3376333,42.9418394],[141.3376065,42.9415469],[141.3375958,42.9411974],[141.3375716,42.9408204],[141.3375555,42.9404866],[141.3374026,42.9395833],[141.3372846,42.9390296],[141.3371746,42.9384444],[141.3369735,42.9375294],[141.3369145,42.9370895],[141.3368823,42.9368186],[141.3368716,42.93663],[141.3367777,42.9361332],[141.3366087,42.9358838],[141.3364665,42.9356698],[141.3363485,42.9354931],[141.3367133,42.9352771],[141.3371425,42.9350728],[141.3372337,42.9348981]]]}}
