{"type":"Feature","id":"attraction-large-park-W236415912","properties":{"id":"attraction-large-park-W236415912","kind":"attraction","name":"安城産業文化公園 デンパーク","shortName":"安城産業文化公園 デンパーク","context":"日本","subtype":"large-park","subtypeLabel":"大型都市公園・広域公園","statusLabel":"著名な公園","aliases":[],"osmType":"way","osmId":236415912,"osmDate":null,"officialAreaKm2":null,"areaSourceLabel":"","areaSourceUrl":"","boundarySourceLabel":"© OpenStreetMap contributors","boundarySourceUrl":"https://www.openstreetmap.org/copyright","geometryFile":"attractions/large-park-W236415912.geojson"},"geometry":{"type":"Polygon","coordinates":[[[137.063345,34.9334592],[137.0622094,34.9327697],[137.0609198,34.9320361],[137.060098,34.9316729],[137.0593228,34.9314138],[137.0586426,34.9312806],[137.0580514,34.9312362],[137.0574131,34.9312846],[137.0570577,34.9312846],[137.0569108,34.9313052],[137.0566299,34.9312933],[137.0567879,34.931161],[137.0569871,34.9309417],[137.0572583,34.9307263],[137.0576065,34.9305105],[137.0579796,34.9303258],[137.0583175,34.9302184],[137.0590401,34.9300584],[137.0592768,34.9300098],[137.0615619,34.9295403],[137.0636673,34.9291062],[137.0639941,34.9290811],[137.064162,34.9296234],[137.0628291,34.9302124],[137.0626584,34.930317],[137.06235,34.9306798],[137.0619047,34.9311768],[137.0622035,34.9313435],[137.0636787,34.932212],[137.0639351,34.9323949],[137.0641444,34.9326325],[137.063767,34.9330228],[137.0634529,34.9333476],[137.063345,34.9334592]]]}}
