{"type":"Feature","id":"attraction-large-park-R16519399","properties":{"id":"attraction-large-park-R16519399","kind":"attraction","name":"フラワーパーク江南","shortName":"フラワーパーク江南","context":"愛知県・江南市","subtype":"botanical-garden","subtypeLabel":"植物園・植物公園","statusLabel":"","aliases":[],"osmType":"relation","osmId":16519399,"osmDate":null,"officialAreaKm2":null,"areaSourceLabel":"","areaSourceUrl":"","boundarySourceLabel":"© OpenStreetMap contributors","boundarySourceUrl":"https://www.openstreetmap.org/copyright","geometryFile":"attractions/large-park-R16519399.geojson"},"geometry":{"type":"MultiPolygon","coordinates":[[[[136.8641758,35.3648661],[136.8641403,35.3649585],[136.8641545,35.3650206],[136.8642041,35.3650746],[136.8642389,35.3650841],[136.8643362,35.3650899],[136.864583,35.3650856],[136.8646929,35.36568],[136.8646876,35.36589],[136.8645763,35.3660567],[136.8651114,35.3665156],[136.8645006,35.367149],[136.8631552,35.3663895],[136.8617949,35.3656378],[136.860274,35.36491],[136.8597478,35.3646413],[136.8596809,35.3646108],[136.8589881,35.3642948],[136.8641758,35.3648661]]],[[[136.8591523,35.3622327],[136.8597054,35.3623409],[136.859931,35.3623301],[136.860369,35.362359],[136.8606256,35.3624059],[136.8607628,35.3623878],[136.8611654,35.3624889],[136.8614529,35.362662],[136.8617936,35.3629651],[136.863112,35.3641233],[136.8635412,35.3645129],[136.8638597,35.3646897],[136.8641758,35.3648661],[136.8589881,35.3642948],[136.8573871,35.363481],[136.857622,35.3630347],[136.8582056,35.361926],[136.8585241,35.3619982],[136.8591523,35.3622327]]]]}}
