{"type":"Feature","id":"attraction-large-park-R15238351","properties":{"id":"attraction-large-park-R15238351","kind":"attraction","name":"篠崎公園","shortName":"篠崎公園","context":"日本","subtype":"large-park","subtypeLabel":"大型都市公園・広域公園","statusLabel":"著名な公園","aliases":["Shinozaki Park"],"osmType":"relation","osmId":15238351,"osmDate":null,"officialAreaKm2":null,"areaSourceLabel":"","areaSourceUrl":"","boundarySourceLabel":"© OpenStreetMap contributors","boundarySourceUrl":"https://www.openstreetmap.org/copyright","geometryFile":"attractions/large-park-R15238351.geojson"},"geometry":{"type":"MultiPolygon","coordinates":[[[[139.8979289,35.7046662],[139.8980083,35.7044607],[139.8981112,35.7044859],[139.8981166,35.7044727],[139.8982137,35.7044975],[139.8982202,35.7044822],[139.8984109,35.7045346],[139.8983523,35.7046875],[139.8981578,35.7046373],[139.8981268,35.7047127],[139.8979289,35.7046662]]],[[[139.8975369,35.7068029],[139.8977122,35.7063511],[139.898508,35.70657],[139.8983853,35.7068656],[139.8979895,35.7067639],[139.8979336,35.7069058],[139.8975369,35.7068029]]],[[[139.896305,35.7062301],[139.8966498,35.7053176],[139.8968248,35.7048616],[139.8973255,35.7049846],[139.8974809,35.7046151],[139.8980933,35.7047525],[139.8980843,35.7047843],[139.8982457,35.7048196],[139.89764,35.7063412],[139.8970354,35.7078322],[139.8964997,35.7092494],[139.8981651,35.7096847],[139.8981957,35.7097046],[139.8979298,35.7097499],[139.8974482,35.7098285],[139.896596,35.709958],[139.8965844,35.7096817],[139.8965723,35.709642],[139.8963814,35.7096195],[139.8963338,35.7097862],[139.8963373,35.7100012],[139.8947643,35.7102473],[139.8951034,35.7093585],[139.8956314,35.7079684],[139.8960106,35.7070067],[139.896305,35.7062301]]],[[[139.8968458,35.7047999],[139.8970401,35.704272],[139.8975291,35.7043991],[139.8974636,35.7045684],[139.8974379,35.7045614],[139.897301,35.7049132],[139.8968458,35.7047999]]],[[[139.8975309,35.704338],[139.8975049,35.7043439],[139.8970582,35.7042366],[139.8971943,35.7038697],[139.8973017,35.7036209],[139.8977822,35.703645],[139.8977936,35.7036758],[139.8975309,35.704338]]],[[[139.8973265,35.7035245],[139.8976541,35.7026467],[139.8981503,35.7027732],[139.8978501,35.7035671],[139.8977661,35.7035511],[139.8973265,35.7035245]]],[[[139.8981798,35.7026584],[139.897683,35.7025209],[139.8978097,35.7023039],[139.8979756,35.7018502],[139.8980562,35.7018085],[139.898471,35.701893],[139.8983874,35.7021246],[139.8981798,35.7026584]]],[[[139.8984804,35.7021492],[139.8986484,35.7021936],[139.898734,35.7019733],[139.8988836,35.7020235],[139.8988079,35.7022358],[139.8992,35.7023394],[139.898985,35.7028807],[139.8982984,35.7026985],[139.8982783,35.7026834],[139.8984804,35.7021492]]],[[[139.8991682,35.7026575],[139.8995421,35.7027539],[139.8995873,35.702638],[139.8992135,35.7025417],[139.8991682,35.7026575]]],[[[139.8983455,35.7029933],[139.8981785,35.70295],[139.8982374,35.7027827],[139.8982567,35.7027767],[139.8984123,35.7028182],[139.8983455,35.7029933]]],[[[139.8992013,35.7034629],[139.8992561,35.7033264],[139.8989413,35.7032432],[139.8988866,35.7033797],[139.8992013,35.7034629]]],[[[139.8986945,35.7055419],[139.8986176,35.7055222],[139.8986567,35.7054214],[139.8986873,35.7054138],[139.8987391,35.7054271],[139.8986945,35.7055419]]],[[[139.8983576,35.7052825],[139.8984476,35.705062],[139.898839,35.7051673],[139.898749,35.7053878],[139.8983576,35.7052825]]],[[[139.8984611,35.7055936],[139.898547,35.7053726],[139.8986045,35.7053874],[139.8986149,35.7054058],[139.8985527,35.705566],[139.8985692,35.7055702],[139.8985512,35.7056167],[139.8984611,35.7055936]]],[[[139.8987788,35.7064306],[139.8988661,35.7062139],[139.89867,35.7061619],[139.8985828,35.7063786],[139.8987788,35.7064306]]],[[[139.8992363,35.7069938],[139.8992873,35.7068666],[139.8990511,35.7068055],[139.8989905,35.7069587],[139.8988174,35.7069137],[139.8987352,35.7071175],[139.8990563,35.7071484],[139.8991238,35.7069664],[139.8992363,35.7069938]]],[[[139.8989832,35.7072769],[139.8990756,35.7072852],[139.8990133,35.7074581],[139.8991051,35.707481],[139.8990711,35.7075706],[139.8988863,35.7075196],[139.8989832,35.7072769]]],[[[139.8978223,35.7077466],[139.8977958,35.7077558],[139.8977269,35.7079453],[139.89782,35.707971],[139.8978951,35.7077786],[139.8980032,35.7078084],[139.8980866,35.7075887],[139.8979003,35.7075394],[139.8978223,35.7077466]]],[[[139.898489,35.7084073],[139.8984473,35.7085115],[139.8982949,35.7084713],[139.8983132,35.7084256],[139.8981157,35.7083734],[139.8981391,35.708315],[139.898489,35.7084073]]],[[[139.8955711,35.70929],[139.8957355,35.709331],[139.8960274,35.709262],[139.8961473,35.7092709],[139.8962513,35.7090461],[139.8959754,35.7089787],[139.8959524,35.7090323],[139.895698,35.7089613],[139.8955711,35.70929]]]]}}
