{"type":"Feature","id":"attraction-large-park-W398517029","properties":{"id":"attraction-large-park-W398517029","kind":"attraction","name":"筆山公園","shortName":"筆山公園","context":"日本","subtype":"large-park","subtypeLabel":"大型都市公園・広域公園","statusLabel":"著名な公園","aliases":[],"osmType":"way","osmId":398517029,"osmDate":null,"officialAreaKm2":null,"areaSourceLabel":"","areaSourceUrl":"","boundarySourceLabel":"© OpenStreetMap contributors","boundarySourceUrl":"https://www.openstreetmap.org/copyright","geometryFile":"attractions/large-park-W398517029.geojson"},"geometry":{"type":"Polygon","coordinates":[[[133.5326277,33.5512669],[133.5327473,33.5509224],[133.532521,33.5507247],[133.5319984,33.5508891],[133.5316412,33.5510054],[133.5310889,33.5510844],[133.5307596,33.5511217],[133.5305767,33.5509009],[133.530531,33.5502431],[133.531115,33.5499296],[133.5312498,33.5497255],[133.5319559,33.5498965],[133.5323288,33.5499021],[133.5326113,33.5497933],[133.5330685,33.5492438],[133.5344783,33.5490962],[133.5346735,33.5492011],[133.5347625,33.549175],[133.5348646,33.5491198],[133.5350556,33.5491707],[133.5349561,33.5493773],[133.5352535,33.5499099],[133.5354214,33.5498916],[133.5354446,33.5495856],[133.5357571,33.5495992],[133.5358313,33.5494869],[133.5356281,33.5492719],[133.5363134,33.5491926],[133.5365692,33.5492769],[133.5371942,33.5492371],[133.5377072,33.5492627],[133.5380317,33.5493761],[133.5379582,33.5494676],[133.5380341,33.5495915],[133.538249,33.5494948],[133.5388623,33.5498608],[133.5388791,33.5498407],[133.5388718,33.549711],[133.5389148,33.5496798],[133.5390526,33.5496537],[133.5391743,33.5496143],[133.5394089,33.5496428],[133.5394501,33.5496143],[133.5397952,33.5500157],[133.5402649,33.5503162],[133.5403449,33.5503812],[133.5402232,33.5504954],[133.5406329,33.5509263],[133.5409852,33.5513685],[133.541027,33.5514961],[133.5410264,33.5515883],[133.5408872,33.5516574],[133.5404931,33.5517619],[133.5399071,33.5519284],[133.53986,33.5519486],[133.5398147,33.5519526],[133.5395311,33.551887],[133.5394334,33.5518805],[133.5391336,33.5520074],[133.5390356,33.5520522],[133.5390278,33.5520807],[133.5391147,33.5521575],[133.5391024,33.552196],[133.5389035,33.5523552],[133.5384022,33.5526759],[133.538188,33.5527776],[133.5369068,33.5529118],[133.536856,33.5530054],[133.5367944,33.5530253],[133.5367066,33.5529592],[133.5362656,33.5529293],[133.5357512,33.5528462],[133.5356628,33.5528622],[133.5353689,33.5527954],[133.5353054,33.552812],[133.5348818,33.5527511],[133.5348173,33.5527166],[133.534667,33.5526975],[133.5345573,33.5526752],[133.5344395,33.5526445],[133.5343547,33.5526115],[133.5342644,33.5525553],[133.5342298,33.5525465],[133.5341971,33.5525317],[133.5341827,33.5525071],[133.5341355,33.5524699],[133.5340695,33.5524244],[133.5339864,33.5523756],[133.5336482,33.5521394],[133.5337214,33.552109],[133.5336949,33.5520158],[133.5335648,33.5518667],[133.5332274,33.5516278],[133.5331745,33.5516798],[133.5329172,33.5515359],[133.5327528,33.5513832],[133.5326277,33.5512669]]]}}
