{"type":"Feature","id":"attraction-large-park-W170066391","properties":{"id":"attraction-large-park-W170066391","kind":"attraction","name":"百合が原公園","shortName":"百合が原公園","context":"日本","subtype":"large-park","subtypeLabel":"大型都市公園・広域公園","statusLabel":"著名な公園","aliases":["Yurigahara Park"],"osmType":"way","osmId":170066391,"osmDate":null,"officialAreaKm2":null,"areaSourceLabel":"","areaSourceUrl":"","boundarySourceLabel":"© OpenStreetMap contributors","boundarySourceUrl":"https://www.openstreetmap.org/copyright","geometryFile":"attractions/large-park-W170066391.geojson"},"geometry":{"type":"Polygon","coordinates":[[[141.3612019,43.1267874],[141.3620951,43.1261532],[141.3622346,43.1262374],[141.3626561,43.126159],[141.3635274,43.1255033],[141.3640642,43.125834],[141.3643025,43.1261043],[141.3647505,43.1258948],[141.365067,43.1261493],[141.365303,43.1263059],[141.3658881,43.1265603],[141.366446,43.1267267],[141.3672798,43.126995],[141.3677228,43.1273042],[141.3683933,43.1280167],[141.3688328,43.1285454],[141.3688784,43.1287391],[141.3688569,43.1288977],[141.3687956,43.1292284],[141.3687069,43.1295734],[141.3686329,43.1298449],[141.3685434,43.1301741],[141.3684845,43.1303892],[141.3680523,43.1303052],[141.3677469,43.1307905],[141.3675672,43.1311194],[141.3671832,43.1313309],[141.366451,43.1317341],[141.3661885,43.131456],[141.3658854,43.1316166],[141.3643861,43.1301015],[141.3626047,43.1283026],[141.361226,43.126901],[141.3612851,43.1268638],[141.3612019,43.1267874]]]}}
