{"type":"Feature","id":"attraction-large-park-W296883641","properties":{"id":"attraction-large-park-W296883641","kind":"attraction","name":"錦江湾公園","shortName":"錦江湾公園","context":"日本","subtype":"large-park","subtypeLabel":"大型都市公園・広域公園","statusLabel":"著名な公園","aliases":["Kinkouwan park"],"osmType":"way","osmId":296883641,"osmDate":null,"officialAreaKm2":null,"areaSourceLabel":"","areaSourceUrl":"","boundarySourceLabel":"© OpenStreetMap contributors","boundarySourceUrl":"https://www.openstreetmap.org/copyright","geometryFile":"attractions/large-park-W296883641.geojson"},"geometry":{"type":"Polygon","coordinates":[[[130.505025,31.4635423],[130.5051728,31.463644],[130.5050851,31.4643409],[130.5052683,31.4642711],[130.5053603,31.4642228],[130.5054806,31.464262],[130.5056505,31.4643677],[130.5056682,31.4645005],[130.5057354,31.4645911],[130.5057496,31.464739],[130.5057213,31.4649051],[130.506107,31.4649624],[130.50633,31.4643073],[130.5064185,31.4642681],[130.5067229,31.4642349],[130.506914,31.4642258],[130.5069883,31.464253],[130.5070449,31.4643737],[130.5071228,31.4644643],[130.5074413,31.4645971],[130.5075758,31.4648085],[130.5077952,31.4649171],[130.5083474,31.4648688],[130.5086305,31.4648869],[130.5094587,31.4651103],[130.5097276,31.4651284],[130.5102373,31.465225],[130.5107328,31.4650198],[130.5111009,31.4646635],[130.5106408,31.4643617],[130.510485,31.4640175],[130.5103364,31.4638424],[130.50994,31.4632809],[130.5096144,31.4629609],[130.5092746,31.4626772],[130.5091189,31.4625383],[130.5088924,31.462647],[130.5083686,31.4629368],[130.5081704,31.4630455],[130.5077386,31.4627436],[130.5074696,31.4622907],[130.5072998,31.4621821],[130.5073281,31.4620553],[130.5070733,31.4619406],[130.5073705,31.4617956],[130.5072785,31.4616749],[130.507321,31.4614575],[130.5073635,31.4609262],[130.507505,31.4606424],[130.5074272,31.4602922],[130.5073776,31.4601232],[130.5075121,31.4597911],[130.5079852,31.4595209],[130.508227,31.459459],[130.5080925,31.4591812],[130.5074555,31.4592779],[130.506868,31.4595556],[130.506599,31.4601775],[130.5063823,31.4602598],[130.5064066,31.4602616],[130.5063791,31.4605246],[130.5063826,31.4607281],[130.5063356,31.4610186],[130.5063075,31.4611285],[130.5062699,31.4614442],[130.5062168,31.4617655],[130.5061112,31.4620526],[130.5059534,31.4623656],[130.505785,31.462647],[130.5055465,31.4629111],[130.5051361,31.4633216],[130.505025,31.4635423]]]}}
