{"type":"Feature","id":"attraction-large-park-W457201166","properties":{"id":"attraction-large-park-W457201166","kind":"attraction","name":"のかみふれあい公園","shortName":"のかみふれあい公園","context":"日本","subtype":"large-park","subtypeLabel":"大型都市公園・広域公園","statusLabel":"著名な公園","aliases":[],"osmType":"way","osmId":457201166,"osmDate":null,"officialAreaKm2":null,"areaSourceLabel":"","areaSourceUrl":"","boundarySourceLabel":"© OpenStreetMap contributors","boundarySourceUrl":"https://www.openstreetmap.org/copyright","geometryFile":"attractions/large-park-W457201166.geojson"},"geometry":{"type":"Polygon","coordinates":[[[135.3502388,34.1808386],[135.3500276,34.1811043],[135.3495529,34.1816479],[135.3487697,34.1822648],[135.3481823,34.182247],[135.3481688,34.1818831],[135.34837,34.1816324],[135.3482681,34.1812174],[135.3481058,34.1812052],[135.3478282,34.1804552],[135.3477518,34.1804486],[135.3474748,34.1796592],[135.3472978,34.1794262],[135.3471127,34.1792997],[135.3468123,34.1790645],[135.3465146,34.1789491],[135.3460157,34.1788715],[135.3460077,34.1786274],[135.3459352,34.1782302],[135.3456643,34.1780216],[135.345431,34.1781193],[135.3454229,34.1782435],[135.3455517,34.1785187],[135.3455624,34.1786341],[135.34527,34.178654],[135.3449589,34.1787628],[135.3449965,34.1782124],[135.344967,34.1781614],[135.3447443,34.1781658],[135.344578,34.1781392],[135.3444949,34.1779661],[135.3442669,34.1776999],[135.3441174,34.1774463],[135.344053,34.1771867],[135.3439377,34.1770813],[135.3440771,34.1769315],[135.3442099,34.1767729],[135.3443601,34.1766575],[135.3445076,34.1766131],[135.3446538,34.1766187],[135.3447061,34.1772267],[135.3448536,34.1773864],[135.3450481,34.1776927],[135.3452305,34.1777703],[135.3454089,34.1776372],[135.3456087,34.1773343],[135.3457119,34.1773232],[135.3459413,34.1773432],[135.3460036,34.1774724],[135.3462075,34.1775723],[135.346296,34.1777653],[135.3464891,34.177863],[135.3466956,34.1779584],[135.3468351,34.1779872],[135.3471516,34.1779783],[135.3474198,34.1779229],[135.3474708,34.1782402],[135.3471516,34.1784843],[135.3471704,34.1788482],[135.3474306,34.1791056],[135.3487636,34.1791966],[135.3491016,34.179079],[135.3494798,34.1792898],[135.3498285,34.1794207],[135.3498928,34.179454],[135.3499331,34.1797979],[135.3500967,34.1799643],[135.3503783,34.1799133],[135.3503864,34.1797446],[135.3506009,34.179627],[135.3507297,34.179596],[135.3509067,34.1796337],[135.3510837,34.1799954],[135.3510918,34.180164],[135.3509925,34.1803327],[135.3508343,34.1803992],[135.3504078,34.1805013],[135.3502388,34.1808386]]]}}
