{"type":"Feature","id":"attraction-large-military-base-W686597003","properties":{"id":"attraction-large-military-base-W686597003","kind":"attraction","name":"航空自衛隊海栗島分屯基地","shortName":"航空自衛隊海栗島分屯基地","context":"日本","subtype":"military-base","subtypeLabel":"基地・駐屯地・演習場","statusLabel":"","aliases":[],"osmType":"way","osmId":686597003,"osmDate":null,"officialAreaKm2":null,"areaSourceLabel":"","areaSourceUrl":"","boundarySourceLabel":"© OpenStreetMap contributors","boundarySourceUrl":"https://www.openstreetmap.org/copyright","geometryFile":"attractions/large-military-base-W686597003.geojson"},"geometry":{"type":"Polygon","coordinates":[[[129.4346255,34.7079872],[129.4347355,34.7079729],[129.4348361,34.7079134],[129.4349648,34.7078384],[129.4351096,34.7078031],[129.4352169,34.7078362],[129.4353484,34.7079068],[129.4355428,34.7079465],[129.435638,34.7079321],[129.4357118,34.7078979],[129.4357641,34.7078109],[129.435925,34.7077094],[129.4359773,34.7075981],[129.4359961,34.7074393],[129.4359572,34.7073026],[129.4359063,34.7071538],[129.4359049,34.7070744],[129.4359344,34.7070093],[129.4360229,34.7069234],[129.4361235,34.7068285],[129.4362389,34.706758],[129.4363073,34.7067337],[129.4363837,34.7067161],[129.4365111,34.7066852],[129.4365875,34.7067029],[129.4366707,34.7067348],[129.436727,34.7067547],[129.4367994,34.7067745],[129.4368303,34.7068153],[129.4367646,34.7068329],[129.4367404,34.7068748],[129.4367874,34.7069167],[129.4368424,34.7069311],[129.4369175,34.7069112],[129.4370019,34.7069145],[129.437234,34.7069895],[129.4372661,34.7070645],[129.4372581,34.7071251],[129.4372889,34.7071891],[129.4373184,34.7072541],[129.4373989,34.707339],[129.4374391,34.7073798],[129.4375129,34.7073952],[129.4375934,34.7073831],[129.4377516,34.7073875],[129.4378857,34.7073996],[129.4379662,34.7074261],[129.4380252,34.7074724],[129.438099,34.7074889],[129.4381875,34.7074933],[129.4382787,34.7075121],[129.4383363,34.7074922],[129.4383994,34.7074316],[129.4384423,34.7073103],[129.4385375,34.7071835],[129.4386904,34.7070821],[129.4388111,34.7070193],[129.4389667,34.7069421],[129.4391061,34.706909],[129.4392027,34.7068737],[129.4393102,34.7068509],[129.4395702,34.7068925],[129.4396782,34.7069289],[129.4397732,34.7069739],[129.439896,34.7070964],[129.4399926,34.7072276],[129.440053,34.707285],[129.4401669,34.7074084],[129.4401361,34.7074547],[129.4401455,34.7074988],[129.4402233,34.7075396],[129.4402662,34.7076278],[129.4403413,34.7078461],[129.4403842,34.7077976],[129.4404231,34.7075992],[129.4404285,34.7074492],[129.4405277,34.7073103],[129.4405948,34.7072486],[129.4406882,34.7072059],[129.440804,34.7072045],[129.4408335,34.7071846],[129.440808,34.7070931],[129.4408268,34.7070402],[129.4409072,34.7070027],[129.4410172,34.7069245],[129.4410843,34.7068274],[129.441158,34.7067569],[129.4412251,34.7066455],[129.4412559,34.7065518],[129.4412895,34.7064625],[129.4412908,34.706403],[129.441209,34.7063479],[129.4411553,34.7062552],[129.4410937,34.7061924],[129.4410199,34.7061053],[129.4409743,34.706016],[129.440922,34.7059642],[129.4408885,34.705908],[129.440926,34.7058925],[129.4409287,34.705822],[129.4408549,34.7058175],[129.4407986,34.7058506],[129.4406752,34.7058473],[129.4406122,34.7058054],[129.4405103,34.705822],[129.4404379,34.7059124],[129.4403104,34.705973],[129.4402085,34.7060149],[129.4400449,34.7060766],[129.4397432,34.7061538],[129.4395433,34.7061417],[129.4391289,34.706242],[129.4388661,34.7062497],[129.4386005,34.7062552],[129.4384745,34.7062464],[129.4383444,34.7062222],[129.4382156,34.7062001],[129.4381915,34.7062354],[129.4380708,34.7062608],[129.4378898,34.7063026],[129.4377248,34.7063335],[129.4375907,34.7063004],[129.4374847,34.7062729],[129.4372796,34.7061979],[129.4370596,34.7061891],[129.4369175,34.706156],[129.4368209,34.706113],[129.4366948,34.7060392],[129.4366412,34.7060149],[129.4365728,34.7059818],[129.4365004,34.7059388],[129.4363824,34.7058914],[129.436314,34.7058451],[129.4362979,34.7057955],[129.4363019,34.705693],[129.4363086,34.7056445],[129.4362093,34.7055552],[129.4361611,34.7055088],[129.436098,34.7054052],[129.4360444,34.705381],[129.4359948,34.7053181],[129.4359733,34.7052464],[129.4359143,34.7052178],[129.4358794,34.7051549],[129.4358231,34.7051086],[129.4357534,34.7050877],[129.4356246,34.7050403],[129.4356032,34.7049466],[129.4355375,34.7048209],[129.4355147,34.7047459],[129.4354677,34.7047161],[129.4353953,34.7046908],[129.4353497,34.7046742],[129.4352545,34.704639],[129.4351727,34.7046092],[129.4350936,34.7046555],[129.4349018,34.704661],[129.4348106,34.7046687],[129.4347382,34.7046379],[129.434714,34.7045342],[129.4346698,34.7044074],[129.4345772,34.7042465],[129.4345115,34.7042178],[129.4344538,34.7042619],[129.4343975,34.7043909],[129.4343559,34.7044041],[129.434258,34.7043677],[129.434199,34.7043292],[129.4341977,34.7042862],[129.4342446,34.7042068],[129.4343519,34.704155],[129.4343774,34.704102],[129.4343533,34.7040524],[129.4342808,34.7040017],[129.4341226,34.7040138],[129.4340529,34.7040182],[129.4339067,34.7039752],[129.4338544,34.7039885],[129.4337806,34.7039565],[129.4337739,34.7038881],[129.4337672,34.7038407],[129.4337015,34.7038021],[129.4335781,34.7037514],[129.4334386,34.7037173],[129.433326,34.7036952],[129.4331945,34.703682],[129.4331194,34.7037525],[129.4331315,34.7037878],[129.4331355,34.7038606],[129.433216,34.7039003],[129.4332294,34.7039841],[129.4332321,34.7040425],[129.4332013,34.7041329],[129.4331691,34.7041847],[129.4330926,34.7041693],[129.4330309,34.704188],[129.4330028,34.7042498],[129.4330296,34.70436],[129.4330604,34.7044559],[129.4330497,34.7045353],[129.43298,34.7045949],[129.4329786,34.7047393],[129.4330376,34.7048694],[129.433043,34.7049929],[129.4330537,34.7050811],[129.4330162,34.7051803],[129.4329464,34.7052762],[129.4329062,34.7053633],[129.4329035,34.7054956],[129.4329236,34.7056015],[129.4329786,34.7056808],[129.4329773,34.7057988],[129.4329357,34.705876],[129.4329196,34.7060017],[129.4329813,34.7061075],[129.4330068,34.7061715],[129.4330497,34.7062034],[129.4331302,34.7062144],[129.4332294,34.7062718],[129.433322,34.706339],[129.4333823,34.7063897],[129.4334547,34.7064361],[129.4335102,34.7064729],[129.4337015,34.7065474],[129.4338034,34.7066058],[129.4339147,34.7066709],[129.4340274,34.7067293],[129.434128,34.7067679],[129.4341709,34.706866],[129.4341642,34.7069708],[129.4341709,34.7070534],[129.4341588,34.7071196],[129.4341977,34.7072497],[129.4341937,34.7073632],[129.4342084,34.7074239],[129.4342393,34.7075231],[129.434254,34.7076069],[129.4342326,34.7076885],[129.4342124,34.7077701],[129.4342339,34.7078505],[129.4342956,34.7079123],[129.4343814,34.7079509],[129.434486,34.7079575],[129.4346255,34.7079872]]]}}
