{"type":"Feature","id":"attraction-large-large-farm-R8820918","properties":{"id":"attraction-large-large-farm-R8820918","kind":"attraction","name":"農地","shortName":"農地","context":"日本","subtype":"large-farm","subtypeLabel":"大規模農場・牧場","statusLabel":"","aliases":[],"osmType":"relation","osmId":8820918,"osmDate":null,"officialAreaKm2":null,"areaSourceLabel":"","areaSourceUrl":"","boundarySourceLabel":"© OpenStreetMap contributors","boundarySourceUrl":"https://www.openstreetmap.org/copyright","geometryFile":"attractions/large-large-farm-R8820918.geojson"},"geometry":{"type":"Polygon","coordinates":[[[139.7332366,36.3084885],[139.7336379,36.3007951],[139.7335626,36.3002696],[139.7332199,36.2997576],[139.7331196,36.2996296],[139.7316985,36.2982215],[139.7314644,36.2982215],[139.731456,36.2984506],[139.7301436,36.2983832],[139.7301603,36.298107],[139.7300349,36.2981002],[139.7300516,36.2978712],[139.7298594,36.2978509],[139.7298594,36.2975343],[139.7294079,36.2974602],[139.7292993,36.2970829],[139.7291154,36.2971098],[139.7292909,36.2975208],[139.7291822,36.2980194],[139.7280704,36.2979722],[139.7280621,36.2981272],[139.7277528,36.2981002],[139.7278029,36.29744],[139.7274602,36.2975545],[139.727502,36.2969481],[139.7279701,36.2969818],[139.7279617,36.2972176],[139.7284968,36.2970425],[139.7285135,36.296591],[139.7278364,36.2965439],[139.7278447,36.2962946],[139.7271676,36.2965776],[139.7267831,36.2968808],[139.7262815,36.2968942],[139.7261143,36.2970896],[139.7257966,36.298619],[139.7253954,36.2992523],[139.7257381,36.2993466],[139.7259137,36.2993938],[139.7259396,36.2994936],[139.725792,36.2995089],[139.7254839,36.2995051],[139.7255019,36.2997605],[139.725713,36.2997576],[139.7257214,36.3003033],[139.7254622,36.3003505],[139.7256713,36.3016554],[139.7257596,36.3018983],[139.7257921,36.3019268],[139.7265749,36.3019578],[139.7265874,36.3019993],[139.7271798,36.3030513],[139.7273052,36.3034721],[139.7273475,36.3037839],[139.7275105,36.3037832],[139.72749,36.3039971],[139.7270841,36.303987],[139.7267162,36.3040289],[139.7259304,36.3040221],[139.7257883,36.3042849],[139.726131,36.3043253],[139.726131,36.3047295],[139.7267675,36.3047872],[139.726758,36.3049181],[139.726758,36.3052145],[139.7261394,36.3052145],[139.7260809,36.3065686],[139.7271509,36.3069661],[139.7273431,36.3068515],[139.7273599,36.3066427],[139.7271592,36.3066427],[139.7271676,36.3063194],[139.7275034,36.3063261],[139.7274815,36.3066267],[139.7287308,36.3066629],[139.7287141,36.3069998],[139.7298844,36.3070402],[139.729851,36.3078283],[139.7309545,36.3080911],[139.7320579,36.3082932],[139.7332366,36.3084885]],[[139.728794,36.3040286],[139.7288177,36.3034871],[139.729916,36.3035184],[139.7298952,36.3039938],[139.7292851,36.3039764],[139.7292822,36.3040425],[139.728794,36.3040286]],[[139.7314143,36.2989917],[139.7314184,36.2989067],[139.7318367,36.2989197],[139.7318367,36.2990081],[139.7314143,36.2989917]],[[139.7312662,36.2994922],[139.7312744,36.2992986],[139.7310358,36.299292],[139.7310277,36.2994857],[139.7312662,36.2994922]],[[139.7309635,36.2999256],[139.7309735,36.2996532],[139.7313171,36.2996614],[139.7313071,36.2999338],[139.7309635,36.2999256]],[[139.7301119,36.2998213],[139.7301235,36.2996301],[139.7298458,36.2996191],[139.7298342,36.2998103],[139.7301119,36.2998213]],[[139.7303826,36.3007719],[139.7303909,36.3005584],[139.7301712,36.3005528],[139.7301629,36.3007664],[139.7303826,36.3007719]],[[139.7305067,36.3003683],[139.7301858,36.3003548],[139.7301996,36.3001405],[139.7305205,36.3001539],[139.7305067,36.3003683]],[[139.7277332,36.2994682],[139.7266254,36.2994372],[139.7266412,36.2989299],[139.7277648,36.2989627],[139.7277332,36.2994682]],[[139.7281915,36.2999583],[139.7278065,36.2999473],[139.7278316,36.2995505],[139.7278566,36.2995397],[139.7282052,36.2995525],[139.7281915,36.2999583]],[[139.7281414,36.298998],[139.7281277,36.2991927],[139.7281984,36.2991872],[139.7281801,36.2994791],[139.7278498,36.2994717],[139.727827,36.2994571],[139.7278544,36.298998],[139.7281414,36.298998]]]}}
