{"type":"Feature","id":"attraction-large-park-W478019618","properties":{"id":"attraction-large-park-W478019618","kind":"attraction","name":"長根公園","shortName":"長根公園","context":"日本","subtype":"large-park","subtypeLabel":"大型都市公園・広域公園","statusLabel":"著名な公園","aliases":[],"osmType":"way","osmId":478019618,"osmDate":null,"officialAreaKm2":null,"areaSourceLabel":"","areaSourceUrl":"","boundarySourceLabel":"© OpenStreetMap contributors","boundarySourceUrl":"https://www.openstreetmap.org/copyright","geometryFile":"attractions/large-park-W478019618.geojson"},"geometry":{"type":"Polygon","coordinates":[[[141.4858189,40.5104202],[141.4857119,40.5105148],[141.4856395,40.510563],[141.4855058,40.5106389],[141.4848727,40.5109462],[141.4843167,40.5112073],[141.4835456,40.5115611],[141.4833596,40.5116317],[141.4832848,40.5116432],[141.4830876,40.5116534],[141.4830085,40.511643],[141.4823443,40.5114177],[141.4816654,40.5112001],[141.4814127,40.5111188],[141.4812832,40.5110575],[141.4812005,40.5110092],[141.4811159,40.5109591],[141.4809479,40.5108362],[141.4808178,40.5107047],[141.4807119,40.510581],[141.480591,40.5104153],[141.480402,40.5100633],[141.4803695,40.5099741],[141.4801489,40.5094528],[141.4799997,40.509114],[141.4797278,40.5085142],[141.4796926,40.5084431],[141.479675,40.5083433],[141.4796428,40.5080735],[141.4796182,40.5078583],[141.4795813,40.507451],[141.4796108,40.5074321],[141.4795542,40.5070703],[141.4795579,40.5070171],[141.4795993,40.5069879],[141.4809771,40.5068032],[141.4810813,40.5067857],[141.4811105,40.5068383],[141.4812114,40.5068463],[141.4812999,40.5068672],[141.4815755,40.5072323],[141.4816734,40.5073505],[141.4817934,40.5074235],[141.4819068,40.5074393],[141.482002,40.507425],[141.4822631,40.5076456],[141.4823842,40.5076672],[141.4825693,40.5076508],[141.4828846,40.5076581],[141.4830038,40.5074617],[141.4828911,40.5074122],[141.4829522,40.5073179],[141.4830856,40.5072103],[141.4834229,40.5072358],[141.4834511,40.5072527],[141.4831489,40.5076945],[141.4832026,40.5077108],[141.4833128,40.5077443],[141.4834871,40.5081056],[141.4838711,40.5083101],[141.4840122,40.5083852],[141.4839882,40.5084217],[141.484365,40.5086188],[141.4840257,40.5090009],[141.4844468,40.5093904],[141.4847718,40.5096495],[141.4853253,40.5098543],[141.4857048,40.5100389],[141.4859636,40.5102203],[141.4858362,40.5103509],[141.4858189,40.5104202]]]}}
