{"type":"Feature","id":"attraction-large-park-W493158487","properties":{"id":"attraction-large-park-W493158487","kind":"attraction","name":"岐阜ファミリーパーク","shortName":"岐阜ファミリーパーク","context":"日本","subtype":"large-park","subtypeLabel":"大型都市公園・広域公園","statusLabel":"著名な公園","aliases":[],"osmType":"way","osmId":493158487,"osmDate":null,"officialAreaKm2":null,"areaSourceLabel":"","areaSourceUrl":"","boundarySourceLabel":"© OpenStreetMap contributors","boundarySourceUrl":"https://www.openstreetmap.org/copyright","geometryFile":"attractions/large-park-W493158487.geojson"},"geometry":{"type":"Polygon","coordinates":[[[136.829899,35.5134768],[136.8297757,35.5139333],[136.8296833,35.5142242],[136.8295601,35.514475],[136.8294923,35.5146555],[136.8292273,35.515142],[136.8302009,35.5151922],[136.8301667,35.5168122],[136.8301238,35.5175703],[136.8303096,35.5175772],[136.8309157,35.5175997],[136.8316007,35.5180971],[136.8319818,35.5185326],[136.8324871,35.5187733],[136.8333682,35.5189088],[136.8351629,35.5187157],[136.8364616,35.518016],[136.8377495,35.5169978],[136.8379467,35.5153176],[136.8377495,35.5139082],[136.8369477,35.5137641],[136.8355019,35.5135456],[136.8347054,35.513522],[136.8334545,35.5137025],[136.833054,35.5135972],[136.8323981,35.5135722],[136.8318327,35.5135506],[136.829899,35.5134768]]]}}
