{"type":"Feature","id":"attraction-large-park-W296118406","properties":{"id":"attraction-large-park-W296118406","kind":"attraction","name":"柴又公園","shortName":"柴又公園","context":"日本","subtype":"large-park","subtypeLabel":"大型都市公園・広域公園","statusLabel":"","aliases":["Shibamata Park"],"osmType":"way","osmId":296118406,"osmDate":null,"officialAreaKm2":null,"areaSourceLabel":"","areaSourceUrl":"","boundarySourceLabel":"© OpenStreetMap contributors","boundarySourceUrl":"https://www.openstreetmap.org/copyright","geometryFile":"attractions/large-park-W296118406.geojson"},"geometry":{"type":"Polygon","coordinates":[[[139.8799275,35.7644028],[139.8805793,35.7637354],[139.8811796,35.7630146],[139.8815604,35.762501],[139.881929,35.7618711],[139.8821709,35.7609517],[139.8824552,35.7591039],[139.8823317,35.7586495],[139.8823585,35.7585367],[139.8823619,35.7585],[139.8824733,35.758186],[139.8824896,35.7581672],[139.8825214,35.7580769],[139.8825733,35.758062],[139.8828269,35.7575438],[139.8829337,35.7573913],[139.8833502,35.7570025],[139.8835576,35.7568089],[139.8839315,35.7563222],[139.8844642,35.7555969],[139.884775,35.75512],[139.8856858,35.7542411],[139.8861368,35.7540767],[139.886595,35.7534141],[139.8875579,35.7526452],[139.8880094,35.7518869],[139.88885,35.751004],[139.8895072,35.7502373],[139.8895513,35.7499822],[139.8895081,35.7498108],[139.8887957,35.7486392],[139.8888658,35.7486017],[139.8895263,35.7496523],[139.8896717,35.7497868],[139.8898962,35.7497385],[139.8900205,35.7495755],[139.8911285,35.7485105],[139.8915222,35.7482188],[139.8922989,35.7477292],[139.8937677,35.7468559],[139.894797,35.7462641],[139.8952244,35.7460855],[139.8958004,35.7457586],[139.896551,35.7452633],[139.8971787,35.7448299],[139.8976663,35.7444404],[139.8978318,35.744291],[139.8980256,35.7440546],[139.8983862,35.7435809],[139.8985068,35.7434644],[139.8986484,35.7432191],[139.8988179,35.7428487],[139.899114,35.7421398],[139.8993008,35.7416841],[139.8994829,35.741165],[139.8996627,35.7405279],[139.8997612,35.7401042],[139.8998439,35.73967],[139.8999303,35.7384304],[139.8998854,35.7382894],[139.899907,35.7380795],[139.8999444,35.7379013],[139.8999178,35.737754],[139.8999119,35.7374901],[139.8998783,35.7374908],[139.8998763,35.737436],[139.8999127,35.7374342],[139.8999071,35.7373554],[139.8999072,35.7370657],[139.8998403,35.7364264],[139.8996674,35.7360188],[139.8993081,35.7352654],[139.8988714,35.7344338],[139.8987216,35.7342366],[139.8984301,35.7338668],[139.8981526,35.7335499],[139.8978539,35.7332708],[139.8975945,35.733034],[139.8975208,35.7329666],[139.8972302,35.7326296],[139.8969441,35.7323129],[139.8967421,35.7320478],[139.896521,35.7318094],[139.8964922,35.7317513],[139.896477,35.7316326],[139.896447,35.7316061],[139.8963972,35.731604],[139.8961408,35.7316709],[139.8955183,35.7318297],[139.8954869,35.7318005],[139.8955586,35.7317712],[139.8960324,35.7316011],[139.8962423,35.7315389],[139.8963021,35.7315578],[139.8963628,35.7315596],[139.8964145,35.7315545],[139.8964639,35.7315298],[139.8965354,35.731428],[139.8965883,35.7313528],[139.8961962,35.7293363],[139.8962581,35.72826],[139.8964022,35.7264765],[139.8966355,35.7251086],[139.8969774,35.7240184],[139.8970349,35.7239232],[139.8972331,35.7235952],[139.8985764,35.7221534],[139.8995293,35.7213221],[139.8994566,35.7213139],[139.8995224,35.7212619],[139.8995591,35.7212328],[139.899627,35.7212702],[139.9001672,35.720992],[139.9001911,35.721003],[139.9004614,35.7208391],[139.9008031,35.7206163],[139.9012891,35.7202843],[139.9022574,35.7195753],[139.9028309,35.7190625],[139.902809,35.7190483],[139.9035103,35.718473],[139.904473,35.7171971],[139.9050196,35.7164859],[139.9058966,35.7151776],[139.9066539,35.7141482],[139.906658,35.7140907],[139.9065835,35.7139957],[139.906498,35.7139464],[139.9065316,35.7138991],[139.9066731,35.7139275],[139.9068457,35.7139612],[139.907841,35.7130781],[139.9092609,35.7119273],[139.9099518,35.711424],[139.9100828,35.7113981],[139.91024,35.7113145],[139.910384,35.711212],[139.9114948,35.7105802],[139.9122882,35.7102014],[139.9131424,35.709398],[139.9131649,35.7093769],[139.9133903,35.7091649],[139.9138654,35.7088878],[139.9143577,35.7085503],[139.9145943,35.7084889],[139.9147597,35.708079],[139.9149368,35.7076028],[139.9151395,35.7069942],[139.9152582,35.7065604],[139.9153316,35.7061391],[139.9153984,35.705702],[139.9154487,35.7054064],[139.9154024,35.7054041],[139.9154292,35.7052439],[139.9154744,35.7052474],[139.9155306,35.7049152],[139.9155893,35.7047497],[139.9155996,35.7046977],[139.9154572,35.7046003],[139.915338,35.704537],[139.9151451,35.7046439],[139.9152048,35.7047152],[139.9145329,35.7053696],[139.9145124,35.7053886],[139.9144891,35.7054116],[139.9141788,35.7057169],[139.9141643,35.7057153],[139.9141476,35.7057345],[139.9141298,35.7057505],[139.9141284,35.7057639],[139.9139434,35.7059218],[139.9136022,35.7062785],[139.9134896,35.706346],[139.9134959,35.7063675],[139.9135024,35.7063901],[139.9133221,35.7065862],[139.9131705,35.706705],[139.9127376,35.7071921],[139.9123416,35.7076344],[139.9119947,35.7080274],[139.9116958,35.7083603],[139.9115095,35.7085807],[139.9114759,35.7086203],[139.9112844,35.7088469],[139.9107733,35.7093768],[139.9107538,35.709397],[139.9107376,35.7094138],[139.910216,35.7099569],[139.9088878,35.7112463],[139.9088519,35.7112812],[139.9085594,35.7115539],[139.9082409,35.7118484],[139.9082703,35.7118704],[139.9083096,35.7118999],[139.9082706,35.7119481],[139.9075354,35.7126103],[139.9070359,35.7129357],[139.9063339,35.7134828],[139.9061704,35.7137008],[139.9060873,35.7137751],[139.9057492,35.7139737],[139.9055068,35.7141692],[139.905461,35.7142062],[139.9054504,35.7142147],[139.9037247,35.7154315],[139.9036776,35.7154642],[139.9031214,35.7158493],[139.9027399,35.7161448],[139.9024025,35.7164395],[139.9023849,35.7164547],[139.9023657,35.7164757],[139.9022575,35.7165944],[139.9022218,35.7166463],[139.9021826,35.716702],[139.9021377,35.7167576],[139.9017306,35.7171257],[139.901663,35.7171832],[139.901635,35.7171744],[139.9016007,35.7172144],[139.9015309,35.7172524],[139.9014688,35.7172969],[139.9013847,35.7173695],[139.900846,35.7178372],[139.900288,35.7183128],[139.9002786,35.7183125],[139.900263,35.7183247],[139.9002406,35.7183425],[139.9002416,35.7183524],[139.8994662,35.7189953],[139.8989194,35.7194508],[139.8985968,35.719737],[139.8985925,35.7197412],[139.8982941,35.7200281],[139.8980737,35.7202467],[139.8980168,35.7203103],[139.897961,35.7203801],[139.8979258,35.7204676],[139.8978451,35.7205353],[139.8978752,35.7205577],[139.8971471,35.72152],[139.8971375,35.7215225],[139.8971273,35.7215367],[139.8971154,35.721554],[139.8971169,35.721563],[139.8969948,35.7217055],[139.8968755,35.7218448],[139.89684,35.7219076],[139.8967499,35.7220671],[139.8965681,35.7224025],[139.8964073,35.7227547],[139.8962965,35.7230987],[139.8960887,35.7238438],[139.8959091,35.7245099],[139.8958963,35.7245537],[139.8958407,35.7247438],[139.8957441,35.7250227],[139.8956302,35.7253085],[139.8956221,35.7253097],[139.8956148,35.7253282],[139.8956058,35.7253514],[139.895612,35.7253566],[139.8954541,35.7257439],[139.8952264,35.7263023],[139.8952183,35.7263057],[139.8952111,35.7263229],[139.8952011,35.7263467],[139.895206,35.7263522],[139.8950298,35.7268536],[139.8950112,35.7269296],[139.8950096,35.7269596],[139.895006,35.7270258],[139.8950006,35.7270746],[139.8949857,35.7271316],[139.8948542,35.7275456],[139.894783,35.7278088],[139.8946745,35.7282746],[139.89466,35.7283294],[139.894626,35.7284115],[139.8945998,35.7284734],[139.8945834,35.7285385],[139.8945459,35.7287615],[139.8945398,35.7287646],[139.8945361,35.7287835],[139.8945311,35.7288046],[139.8945368,35.7288084],[139.8944878,35.7291421],[139.8944806,35.7291436],[139.8944785,35.7291623],[139.8944761,35.7291832],[139.894482,35.7291885],[139.8944542,35.7293755],[139.8944356,35.7295626],[139.8944213,35.72979],[139.8944139,35.7297927],[139.8944127,35.7298127],[139.8944116,35.7298318],[139.8944204,35.7298355],[139.8944203,35.7301846],[139.8944336,35.730374],[139.8944543,35.7305246],[139.8944921,35.7307429],[139.8945428,35.7309816],[139.8946057,35.7312103],[139.8947046,35.7315201],[139.8950251,35.7321632],[139.8950136,35.7322147],[139.8950239,35.7322321],[139.8951349,35.7324205],[139.895469,35.7329881],[139.8954916,35.7330266],[139.8955166,35.7330691],[139.8956629,35.7333175],[139.8958958,35.7336783],[139.8959533,35.7337548],[139.8960157,35.7338577],[139.8960612,35.7338557],[139.8960968,35.7338541],[139.8961146,35.7338531],[139.8965778,35.7347938],[139.8966677,35.734991],[139.8967495,35.7351526],[139.8968281,35.7353088],[139.8968656,35.7353834],[139.896883,35.7354193],[139.8969219,35.7354997],[139.8969877,35.7355855],[139.8970904,35.7358484],[139.8971872,35.7361515],[139.8972992,35.7365154],[139.8973706,35.7368369],[139.8973144,35.7369085],[139.897323,35.736934],[139.897331,35.7369576],[139.8973371,35.7369759],[139.8973666,35.7370635],[139.89737,35.7372743],[139.8973817,35.7373406],[139.8973972,35.7374283],[139.8974089,35.7374947],[139.8974128,35.7375689],[139.897388,35.7376753],[139.8973926,35.7377229],[139.8973941,35.7377391],[139.8973971,35.7377683],[139.8974804,35.7385719],[139.8975024,35.7388084],[139.8975219,35.7391544],[139.8975251,35.7394453],[139.8975185,35.73974],[139.8975013,35.7400299],[139.8974748,35.7403247],[139.8974656,35.7403305],[139.8974637,35.7403489],[139.8974616,35.7403695],[139.8974667,35.7403758],[139.897431,35.7406375],[139.8973931,35.7408524],[139.8973423,35.7410999],[139.8972942,35.7413126],[139.8972266,35.7415754],[139.8972157,35.7415779],[139.8972108,35.7415965],[139.8972047,35.7416157],[139.8972099,35.7416237],[139.8971238,35.7419102],[139.8970148,35.7422267],[139.8969154,35.7424736],[139.8967972,35.742718],[139.8966806,35.7429411],[139.8966679,35.7429413],[139.8966577,35.742958],[139.8966459,35.7429775],[139.896651,35.742985],[139.8965358,35.7431777],[139.8963566,35.743447],[139.8961659,35.7436911],[139.8959636,35.7439265],[139.8957252,35.7441767],[139.8954873,35.744412],[139.8953453,35.7445476],[139.8953325,35.7445494],[139.8953181,35.7445625],[139.8953012,35.7445779],[139.8952973,35.7445924],[139.8950191,35.7448282],[139.8945349,35.745177],[139.8942864,35.7453283],[139.8940505,35.7454629],[139.8939829,35.74552],[139.8939128,35.7455802],[139.8938643,35.7456019],[139.8938168,35.7456223],[139.8937433,35.7456454],[139.8935781,35.7456906],[139.8935889,35.7457305],[139.8935915,35.7457402],[139.8928864,35.7460808],[139.8921852,35.7464155],[139.8919997,35.7464872],[139.8917994,35.7465666],[139.8916025,35.7466533],[139.8911696,35.7468656],[139.8911132,35.7468939],[139.890913,35.7469948],[139.8905733,35.7471775],[139.8902443,35.7473768],[139.8899453,35.7475717],[139.8896439,35.7477718],[139.8893529,35.7479855],[139.8891739,35.7481274],[139.8890784,35.7482172],[139.8889796,35.7483355],[139.8888748,35.7484479],[139.888826,35.7484859],[139.8887522,35.7485295],[139.8885716,35.74861],[139.8883215,35.7487576],[139.8877065,35.7492687],[139.8872453,35.7497235],[139.8868645,35.7501471],[139.8862755,35.7508286],[139.8862365,35.7508732],[139.8858243,35.7513686],[139.8855415,35.7517354],[139.885435,35.7519048],[139.8853978,35.7518888],[139.88532,35.7519928],[139.8853431,35.7520011],[139.8853743,35.7520123],[139.885003,35.7524946],[139.8844151,35.7532369],[139.8842597,35.7534391],[139.8841552,35.7535752],[139.8839026,35.7539068],[139.8834412,35.7545063],[139.882733,35.7554336],[139.8822328,35.7560682],[139.8820079,35.7564365],[139.881846,35.7567963],[139.8817026,35.7570604],[139.881763,35.7570916],[139.8817117,35.7572015],[139.8816281,35.7574004],[139.8815531,35.7573781],[139.8815389,35.7573739],[139.8814667,35.7573525],[139.8814389,35.7573444],[139.8814164,35.7573376],[139.8812644,35.7572925],[139.8812231,35.7571875],[139.8812967,35.7570244],[139.8813952,35.7568059],[139.8814267,35.7567362],[139.8814959,35.7564971],[139.8814759,35.7564899],[139.8814352,35.7564751],[139.8813028,35.7566374],[139.8811627,35.7568312],[139.8811036,35.7569204],[139.8810562,35.7570002],[139.8810031,35.7571126],[139.8809653,35.7571027],[139.8809226,35.757091],[139.8809177,35.7570395],[139.8809143,35.7570037],[139.8808721,35.7569727],[139.8806445,35.7569453],[139.8805253,35.7569349],[139.8803017,35.7569134],[139.8802731,35.7569428],[139.8801563,35.7576138],[139.880466,35.7576768],[139.8805323,35.7577175],[139.8805858,35.7577717],[139.8806065,35.757879],[139.880615,35.758001],[139.8806897,35.7577105],[139.880786,35.7577279],[139.8807316,35.7579689],[139.8807073,35.7582759],[139.88069,35.7584235],[139.8807182,35.7584244],[139.8808305,35.7580068],[139.8809251,35.7579651],[139.8809543,35.7578853],[139.8811279,35.7574107],[139.8814518,35.7575034],[139.8814934,35.757517],[139.8815725,35.7575429],[139.881332,35.7580953],[139.8812451,35.7584729],[139.8811764,35.7588538],[139.8810824,35.7597434],[139.8810437,35.7599522],[139.8809798,35.7602409],[139.8808728,35.7605379],[139.880736,35.7608841],[139.8805952,35.7612231],[139.8802539,35.7620459],[139.8801521,35.762328],[139.880076,35.7626193],[139.8800138,35.7629969],[139.879986,35.7633688],[139.8799882,35.7639306],[139.8799447,35.7641395],[139.8798263,35.7643686],[139.8799275,35.7644028]]]}}
