{"type":"Feature","id":"attraction-large-park-R3998527","properties":{"id":"attraction-large-park-R3998527","kind":"attraction","name":"浜寺公園","shortName":"浜寺公園","context":"日本","subtype":"large-park","subtypeLabel":"大型都市公園・広域公園","statusLabel":"","aliases":[],"osmType":"relation","osmId":3998527,"osmDate":null,"officialAreaKm2":null,"areaSourceLabel":"","areaSourceUrl":"","boundarySourceLabel":"© OpenStreetMap contributors","boundarySourceUrl":"https://www.openstreetmap.org/copyright","geometryFile":"attractions/large-park-R3998527.geojson"},"geometry":{"type":"Polygon","coordinates":[[[135.4403918,34.5450795],[135.4414434,34.5466787],[135.4422452,34.5479716],[135.442456,34.5479382],[135.4425372,34.5479253],[135.4427414,34.547894],[135.4429452,34.5478626],[135.4430642,34.5478346],[135.4436621,34.547529],[135.4437928,34.5474573],[135.443863,34.547421],[135.4439419,34.5473796],[135.4459911,34.5463125],[135.4460259,34.5462149],[135.4459235,34.5459804],[135.4457324,34.5455661],[135.4455975,34.545325],[135.445482,34.5451461],[135.4452939,34.5448954],[135.4449444,34.5444363],[135.4446013,34.5439858],[135.4443544,34.5436631],[135.4440101,34.5432122],[135.4439159,34.5430863],[135.4436372,34.5427147],[135.4435637,34.5426166],[135.4433999,34.5424064],[135.4432813,34.5422253],[135.4431809,34.5420419],[135.4431113,34.5419163],[135.4428527,34.5414326],[135.4428449,34.541418],[135.4428226,34.5413768],[135.4427886,34.541314],[135.4427486,34.54124],[135.4427408,34.5412255],[135.4424935,34.5407644],[135.4424661,34.5407183],[135.4422203,34.5402482],[135.4422052,34.5402239],[135.4421781,34.5401713],[135.4421059,34.5400366],[135.4418106,34.5394949],[135.4417802,34.5394374],[135.4417403,34.5393611],[135.4417049,34.5393729],[135.4413283,34.539508],[135.4412658,34.5395324],[135.4411942,34.5395063],[135.441096,34.5394705],[135.4409376,34.5394114],[135.4409162,34.5391128],[135.4404313,34.5392402],[135.4403027,34.5390385],[135.4401406,34.5388584],[135.4401174,34.5388356],[135.4400972,34.5388086],[135.4393245,34.537778],[135.4382878,34.536235],[135.4382533,34.5362505],[135.4382314,34.5362193],[135.4382239,34.5362054],[135.4380531,34.5360222],[135.4380004,34.5360367],[135.4379399,34.5359515],[135.4379208,34.5359406],[135.4377445,34.5356939],[135.4377266,34.5356711],[135.4375371,34.5354485],[135.4374652,34.5353581],[135.4374629,34.5353553],[135.4368006,34.5345584],[135.4359342,34.533602],[135.4351806,34.5328822],[135.4348412,34.53258],[135.4346459,34.5326778],[135.4346274,34.5326871],[135.4346064,34.5326976],[135.4341302,34.5322121],[135.4340743,34.5322109],[135.4336085,34.5324307],[135.4334909,34.5324671],[135.4334175,34.532512],[135.4332547,34.5324222],[135.4331265,34.532352],[135.4330343,34.5322447],[135.4327946,34.5319589],[135.4321866,34.5322786],[135.4319778,34.5323812],[135.4328781,34.5337088],[135.4338825,34.5352492],[135.434723,34.5365235],[135.4353106,34.5374186],[135.4358848,34.5382639],[135.4362213,34.538799],[135.4367956,34.5396871],[135.4369144,34.5398554],[135.4376477,34.5409696],[135.4388983,34.5428672],[135.4403918,34.5450795]],[[135.4398339,34.5439051],[135.4408175,34.5453817],[135.4421316,34.5473463],[135.4421832,34.5473379],[135.4429102,34.5472201],[135.4429391,34.5472076],[135.4428037,34.5468336],[135.4427112,34.5466867],[135.4426869,34.5466482],[135.4425287,34.5462686],[135.4424287,34.5460609],[135.4423211,34.5458668],[135.4424129,34.5458259],[135.442254,34.5454334],[135.4421214,34.5451945],[135.4420354,34.544988],[135.441885,34.5447345],[135.4410276,34.543709],[135.4410228,34.5435982],[135.44109,34.5435092],[135.4411573,34.5434717],[135.4411741,34.5434163],[135.4411525,34.5433688],[135.4411045,34.5433154],[135.4410564,34.54327],[135.441018,34.5432146],[135.4410012,34.5431434],[135.4409748,34.5430623],[135.4409316,34.5429991],[135.4408836,34.5429358],[135.440826,34.5428883],[135.4407227,34.5428191],[135.4406075,34.542738],[135.4402945,34.542483],[135.4401757,34.5424826],[135.4392265,34.5428818],[135.439192,34.542935],[135.4398339,34.5439051]]]}}
