{"type":"Feature","id":"attraction-large-park-W541972996","properties":{"id":"attraction-large-park-W541972996","kind":"attraction","name":"小戸公園","shortName":"小戸公園","context":"日本","subtype":"large-park","subtypeLabel":"大型都市公園・広域公園","statusLabel":"著名な公園","aliases":[],"osmType":"way","osmId":541972996,"osmDate":null,"officialAreaKm2":null,"areaSourceLabel":"","areaSourceUrl":"","boundarySourceLabel":"© OpenStreetMap contributors","boundarySourceUrl":"https://www.openstreetmap.org/copyright","geometryFile":"attractions/large-park-W541972996.geojson"},"geometry":{"type":"Polygon","coordinates":[[[130.3141567,33.5980815],[130.3141655,33.5980191],[130.3141801,33.5979162],[130.3143209,33.5979204],[130.3143574,33.5975776],[130.314555,33.5957913],[130.314711,33.595494],[130.3147288,33.5954478],[130.3147572,33.5951657],[130.3150044,33.5950038],[130.3150686,33.5946137],[130.3150747,33.5945158],[130.3151222,33.5937469],[130.3151408,33.5936945],[130.3154367,33.5932524],[130.3152859,33.5922415],[130.3151518,33.5919153],[130.3151075,33.5918512],[130.3137951,33.5906444],[130.3134627,33.5902155],[130.3132598,33.5899382],[130.3128912,33.5894008],[130.3125713,33.5889281],[130.3125087,33.5887783],[130.3124642,33.5887072],[130.3123589,33.5886924],[130.3122659,33.5886062],[130.3121305,33.5883584],[130.3119399,33.5880335],[130.3115893,33.589718],[130.3129288,33.5898983],[130.313293,33.5905703],[130.3132917,33.5909715],[130.3137624,33.5914725],[130.3134698,33.5929211],[130.3138391,33.5930568],[130.3137558,33.5933093],[130.3136425,33.5936494],[130.313512,33.5938583],[130.3134009,33.5940326],[130.3132783,33.5941705],[130.3131082,33.5942956],[130.3129515,33.5943984],[130.3128133,33.5944905],[130.3126457,33.5945781],[130.3124174,33.5946845],[130.3121479,33.5947167],[130.3121047,33.5946784],[130.3120528,33.5947079],[130.3119684,33.5947161],[130.3119259,33.5946969],[130.3119333,33.5946622],[130.3118585,33.5946611],[130.3117478,33.5946216],[130.3116581,33.5945452],[130.3115912,33.5944667],[130.3115199,33.5943749],[130.3116085,33.5942704],[130.3115355,33.5940508],[130.3116148,33.5940208],[130.3114953,33.5939196],[130.3115031,33.593876],[130.3114488,33.5938339],[130.3114318,33.5937301],[130.3113673,33.5937061],[130.3112738,33.5936842],[130.3111751,33.5937059],[130.3110848,33.5937966],[130.310735,33.594186],[130.310493,33.594474],[130.310379,33.59515],[130.310251,33.595384],[130.310298,33.595598],[130.310933,33.595717],[130.3110166,33.5955723],[130.3112654,33.5956319],[130.3114908,33.5957159],[130.3118202,33.5958995],[130.311853,33.5963245],[130.3118875,33.5965929],[130.3119354,33.5969044],[130.3119876,33.5971131],[130.3121181,33.5973529],[130.312451,33.597749],[130.3125083,33.5977728],[130.312945,33.597954],[130.3131169,33.5979928],[130.313277,33.598029],[130.313469,33.59805],[130.3141567,33.5980815]]]}}
