{"type":"Feature","id":"attraction-large-park-W180385036","properties":{"id":"attraction-large-park-W180385036","kind":"attraction","name":"猪高緑地","shortName":"猪高緑地","context":"日本","subtype":"large-park","subtypeLabel":"大型都市公園・広域公園","statusLabel":"","aliases":[],"osmType":"way","osmId":180385036,"osmDate":null,"officialAreaKm2":null,"areaSourceLabel":"","areaSourceUrl":"","boundarySourceLabel":"© OpenStreetMap contributors","boundarySourceUrl":"https://www.openstreetmap.org/copyright","geometryFile":"attractions/large-park-W180385036.geojson"},"geometry":{"type":"Polygon","coordinates":[[[137.0267011,35.1568937],[137.0267401,35.1567804],[137.0267444,35.1566105],[137.0267771,35.1565321],[137.0268062,35.1564745],[137.0267817,35.1564269],[137.0267373,35.1564582],[137.0266837,35.1563869],[137.0266393,35.1563193],[137.0263683,35.1562304],[137.0262382,35.1562154],[137.0261035,35.1561615],[137.0260637,35.1561966],[137.0260943,35.1562229],[137.0260912,35.1562992],[137.0261448,35.1562917],[137.0261632,35.1563105],[137.026128,35.1563493],[137.0260376,35.1564519],[137.0259994,35.1564832],[137.0260101,35.1565258],[137.0258524,35.1565133],[137.0257712,35.1565271],[137.025635,35.1565158],[137.0255952,35.1565608],[137.0255814,35.1566309],[137.0255462,35.156671],[137.0255355,35.1567824],[137.0255554,35.156845],[137.0254972,35.156885],[137.0254313,35.1568876],[137.0254099,35.1569364],[137.0254191,35.1569777],[137.0254145,35.1570315],[137.0253885,35.1571041],[137.0253441,35.1571467],[137.0252706,35.1571216],[137.0252293,35.1570878],[137.0251757,35.1570891],[137.0251083,35.1571016],[137.0250578,35.1571692],[137.0250134,35.1571842],[137.0249537,35.1572268],[137.0248985,35.1572017],[137.0248511,35.1572831],[137.0248036,35.1573507],[137.0247087,35.157357],[137.0246138,35.1573194],[137.0245541,35.157357],[137.0245051,35.1573857],[137.0245035,35.1574296],[137.0244714,35.1574471],[137.0244224,35.1574608],[137.0243964,35.1574859],[137.0243229,35.1574585],[137.0242882,35.1573877],[137.0242687,35.1573611],[137.0242406,35.1573098],[137.0241626,35.1573647],[137.024102,35.1574072],[137.0239808,35.1576922],[137.0240111,35.1577453],[137.0240825,35.1577364],[137.0241128,35.1577966],[137.0241648,35.1578338],[137.0241583,35.1579011],[137.0241302,35.1579913],[137.0240977,35.1580675],[137.0239418,35.1585826],[137.0238639,35.1586675],[137.0237664,35.1586994],[137.0237123,35.1587826],[137.0236149,35.1588446],[137.0234958,35.158864],[137.0234048,35.1589065],[137.0232966,35.159034],[137.0233247,35.1591526],[137.0232294,35.1592269],[137.0231667,35.1593013],[137.0230974,35.1593526],[137.0229653,35.1592924],[137.0229047,35.1592977],[137.0227791,35.1593314],[137.022699,35.1593668],[137.0226145,35.1593969],[137.022201,35.1595562],[137.0220906,35.159611],[137.0220299,35.159673],[137.0220581,35.1597456],[137.022123,35.1597456],[137.022175,35.1597243],[137.0222183,35.1598518],[137.0222291,35.1599173],[137.0220862,35.1599775],[137.021978,35.1599934],[137.0219173,35.1599102],[137.0218805,35.1598323],[137.0218957,35.1598005],[137.021978,35.1597739],[137.0219996,35.1597173],[137.0219671,35.1596801],[137.0219,35.1597155],[137.0218242,35.1597066],[137.0217658,35.1597527],[137.0217961,35.1597969],[137.0217788,35.1598465],[137.0217874,35.1598872],[137.0217614,35.1599403],[137.0217593,35.1599775],[137.0218545,35.16002],[137.0218199,35.1600465],[137.0217203,35.1600872],[137.0217268,35.1601173],[137.0217896,35.1601226],[137.0217441,35.1601704],[137.0217225,35.1602625],[137.0217549,35.1603297],[137.0217485,35.1603811],[137.0217311,35.1604359],[137.0217116,35.1605014],[137.0217051,35.1605935],[137.021729,35.1606572],[137.0217138,35.1607209],[137.0217138,35.160774],[137.0217073,35.1608926],[137.0216987,35.1609953],[137.0217355,35.1610236],[137.0217181,35.161082],[137.0216878,35.1611227],[137.0216878,35.1611688],[137.021729,35.1612042],[137.0218134,35.1612254],[137.0218416,35.1612166],[137.0218589,35.1611564],[137.0218091,35.1611033],[137.0217658,35.1610767],[137.0217658,35.1610095],[137.0218502,35.1610006],[137.0219477,35.1610077],[137.0219606,35.1610696],[137.0219325,35.1611405],[137.0219325,35.1612219],[137.0219325,35.1612661],[137.0220234,35.1613051],[137.0220776,35.1612962],[137.0221512,35.1612325],[137.0222031,35.1612413],[137.0222811,35.1613104],[137.0223417,35.1613387],[137.0224153,35.1613157],[137.0224803,35.1612608],[137.0225561,35.1612661],[137.0225604,35.1613192],[137.0225799,35.1613493],[137.0226492,35.1613086],[137.022725,35.1612608],[137.0227401,35.1612431],[137.0228051,35.1612254],[137.0229047,35.1612183],[137.0229263,35.161259],[137.0228419,35.1613387],[137.0227315,35.1613865],[137.0226968,35.1614343],[137.0226708,35.1615281],[137.0226383,35.1616733],[137.0225885,35.1617317],[137.0225431,35.1617458],[137.0224933,35.1616609],[137.0224067,35.161629],[137.0223634,35.1616644],[137.0222443,35.1616396],[137.0221902,35.161629],[137.0221533,35.1615777],[137.0221079,35.1616095],[137.0219217,35.1615263],[137.0217333,35.1614874],[137.0215839,35.1614237],[137.0213695,35.1616325],[137.0212981,35.1617122],[137.0211227,35.1618697],[137.020982,35.1620007],[137.0208932,35.162091],[137.0208997,35.1621441],[137.0208564,35.1621795],[137.0208629,35.162222],[137.0209322,35.1621937],[137.0209603,35.16216],[137.0210101,35.1621795],[137.0210621,35.162176],[137.0210924,35.1622078],[137.0211379,35.1622149],[137.0211552,35.1622503],[137.0212007,35.1622627],[137.0212483,35.1623247],[137.0212959,35.1623264],[137.0213371,35.1623512],[137.0213111,35.1623937],[137.0213414,35.1624433],[137.0214107,35.162468],[137.0214778,35.1624964],[137.0215752,35.1625406],[137.0216532,35.1625742],[137.0216402,35.1626521],[137.021625,35.1627017],[137.0216099,35.1627548],[137.0215687,35.1628114],[137.0215254,35.1628238],[137.0214475,35.1629707],[137.0213262,35.1630716],[137.0212266,35.1631053],[137.0211249,35.1630734],[137.0209906,35.1630681],[137.020878,35.1630557],[137.0208023,35.1631035],[137.0207719,35.1631141],[137.0207135,35.1630433],[137.0206529,35.1630433],[137.0205208,35.1627725],[137.0204255,35.1628203],[137.0204407,35.1628645],[137.0203129,35.1628663],[137.0202631,35.1629229],[137.0203194,35.162946],[137.0203519,35.1629672],[137.0203216,35.1630221],[137.0203671,35.1630451],[137.0203844,35.163084],[137.0203454,35.1631159],[137.0201873,35.1632009],[137.0201181,35.1632416],[137.0201137,35.1633],[137.020131,35.1633779],[137.0200769,35.1634186],[137.0199968,35.1634522],[137.019921,35.1634239],[137.0198474,35.1634947],[137.0197673,35.1635177],[137.0197218,35.1635478],[137.01954,35.1637567],[137.0186912,35.1646488],[137.0186479,35.1647302],[137.0185916,35.1648258],[137.0185136,35.1647957],[137.0184444,35.1648452],[137.0184227,35.1648966],[137.0183642,35.1649019],[137.0182582,35.1649391],[137.018204,35.1650081],[137.0181997,35.165063],[137.018204,35.1651107],[137.0181607,35.1652223],[137.0181196,35.1653072],[137.0181109,35.165378],[137.0181066,35.1654294],[137.0181521,35.1654506],[137.0181521,35.1655267],[137.0181217,35.165601],[137.0182365,35.1656117],[137.0182885,35.1656187],[137.0184076,35.1656152],[137.0184855,35.1656382],[137.0185353,35.1656418],[137.0186327,35.1656046],[137.0188341,35.1655143],[137.0189532,35.1654541],[137.018938,35.1654895],[137.0189943,35.1654825],[137.0188987,35.1656372],[137.0188681,35.1657324],[137.0188007,35.1658125],[137.0185986,35.1657624],[137.0184578,35.1657724],[137.0185068,35.1658575],[137.0184601,35.1659261],[137.018604,35.1659937],[137.0185765,35.1660638],[137.0184846,35.1660938],[137.0185091,35.1661564],[137.0185673,35.1662315],[137.0186775,35.1662615],[137.0186622,35.1663466],[137.0185305,35.1664067],[137.0182886,35.1664392],[137.018209,35.1664968],[137.0181294,35.1665343],[137.0180069,35.1664467],[137.0178538,35.1664092],[137.0177589,35.1664242],[137.0176456,35.1664568],[137.0175537,35.1664668],[137.0175629,35.1665093],[137.0175997,35.1665744],[137.0175874,35.166647],[137.0175109,35.1666495],[137.0174496,35.1665869],[137.0173976,35.1666595],[137.0172353,35.1667797],[137.0172424,35.1668171],[137.0175406,35.1670758],[137.0176646,35.1672059],[137.0179448,35.1676014],[137.0181836,35.1679131],[137.0183781,35.1681872],[137.0185419,35.1684049],[137.0185863,35.1683887],[137.0186276,35.1683386],[137.0186491,35.1683011],[137.0186797,35.1682773],[137.0187149,35.1682773],[137.0187991,35.1681972],[137.0188496,35.1681646],[137.0189614,35.1681471],[137.0190058,35.1681071],[137.0190089,35.1680132],[137.0189844,35.1679431],[137.0189323,35.1679081],[137.0188573,35.1679218],[137.0188129,35.1679031],[137.0188205,35.1678655],[137.0188328,35.1678317],[137.0187731,35.1677691],[137.0187272,35.1677666],[137.0187088,35.1677153],[137.0187899,35.1676703],[137.0188343,35.167654],[137.0188404,35.1676027],[137.0188818,35.1675489],[137.0194437,35.1672948],[137.0196722,35.1675994],[137.0196094,35.1676454],[137.019657,35.1677516],[137.0196917,35.1677976],[137.0196613,35.1678419],[137.0195119,35.1678525],[137.0194145,35.1679003],[137.0193625,35.1679746],[137.0194102,35.1680578],[137.019447,35.1681304],[137.0194751,35.1681428],[137.0195149,35.168156],[137.0195593,35.1681069],[137.0196116,35.1681267],[137.0196613,35.1681161],[137.0196783,35.1681278],[137.0197293,35.1681342],[137.0197541,35.1681182],[137.0198064,35.1681599],[137.019843,35.1681866],[137.0199371,35.1682154],[137.0199907,35.1682037],[137.020022,35.1682432],[137.0201109,35.1682699],[137.0201384,35.1682421],[137.020171,35.1682421],[137.0202024,35.1682731],[137.0202286,35.1682443],[137.0202769,35.1682432],[137.0202939,35.168271],[137.020337,35.1682667],[137.0203723,35.168303],[137.0204298,35.1682956],[137.0204416,35.1683127],[137.0205135,35.168318],[137.0205514,35.1683308],[137.0205945,35.1683105],[137.0206272,35.1683127],[137.0206743,35.1682763],[137.0207135,35.1682517],[137.0207488,35.1682347],[137.020788,35.1681823],[137.0207841,35.1681417],[137.0208455,35.1680979],[137.0208442,35.1680477],[137.0208468,35.1679846],[137.0208455,35.1679355],[137.0208912,35.1678906],[137.0208756,35.167881],[137.0208821,35.1678447],[137.0208677,35.1678094],[137.0208703,35.1677581],[137.0208533,35.1677047],[137.0208233,35.1676716],[137.0208024,35.1676448],[137.0207788,35.1675989],[137.0206714,35.1675589],[137.0206683,35.1674888],[137.0206897,35.1674137],[137.0207096,35.1673536],[137.020751,35.1672935],[137.0208428,35.167266],[137.0209102,35.1672435],[137.0209806,35.1672422],[137.0210005,35.1672798],[137.0210327,35.1673073],[137.0210709,35.1673223],[137.02115,35.1673361],[137.0211827,35.1673425],[137.0212023,35.1673564],[137.0212533,35.167366],[137.0212455,35.1673927],[137.021282,35.1674034],[137.0212977,35.1674429],[137.0213278,35.1674429],[137.02135,35.1674643],[137.0213945,35.1674728],[137.0214467,35.1674653],[137.021465,35.167475],[137.0214951,35.1674632],[137.0215121,35.167476],[137.0215461,35.1675092],[137.0215748,35.1674953],[137.021618,35.1675284],[137.021631,35.1675583],[137.0216297,35.1675861],[137.0216036,35.167616],[137.0216297,35.167632],[137.0216049,35.1676684],[137.0215853,35.1676833],[137.0215801,35.1677164],[137.021601,35.167741],[137.0215984,35.1677784],[137.0216154,35.1678105],[137.0215971,35.1678436],[137.0215774,35.1678735],[137.0215879,35.1678927],[137.021584,35.1679248],[137.0215552,35.1679633],[137.0215709,35.1679878],[137.02155,35.1680113],[137.0215343,35.1680413],[137.021533,35.1680669],[137.0215461,35.1680979],[137.0215395,35.1681438],[137.0215709,35.1681738],[137.021567,35.1682047],[137.0215918,35.1682421],[137.0216114,35.1682656],[137.0216297,35.1682924],[137.021652,35.1683094],[137.0216742,35.1683501],[137.0217082,35.1683671],[137.0217539,35.1683704],[137.0217879,35.1683842],[137.0218088,35.1684003],[137.0218585,35.1684099],[137.0218977,35.1684152],[137.0219565,35.1684184],[137.0219748,35.1684441],[137.0219879,35.1684857],[137.0219839,35.1685199],[137.0220232,35.1685413],[137.0220462,35.1685626],[137.0220462,35.1686189],[137.0219957,35.1686502],[137.0219421,35.1686715],[137.0219008,35.168694],[137.0218809,35.1687253],[137.0218564,35.1687729],[137.0218732,35.1688167],[137.0218319,35.168843],[137.0218334,35.1688843],[137.0217752,35.168893],[137.0217369,35.1689093],[137.0216987,35.1689556],[137.0216451,35.1689656],[137.0215854,35.1690182],[137.0215649,35.1690831],[137.0216082,35.1691185],[137.0215259,35.1692034],[137.0215302,35.1692849],[137.0215735,35.169299],[137.0216038,35.1694619],[137.0216298,35.1695256],[137.0215952,35.1695893],[137.0216645,35.1697451],[137.0216645,35.1698866],[137.0216818,35.1699787],[137.0218203,35.1700176],[137.0219589,35.1700318],[137.0220152,35.1701026],[137.0219286,35.1701521],[137.0218074,35.1701769],[137.0217597,35.1702513],[137.0217554,35.1703539],[137.021829,35.1704105],[137.021803,35.1705486],[137.0219113,35.170669],[137.0219416,35.1708105],[137.0219892,35.1708813],[137.0220455,35.1711504],[137.0220888,35.171299],[137.0220585,35.1713486],[137.0218637,35.1714017],[137.0217597,35.1714442],[137.0217228,35.1714632],[137.0218116,35.1715481],[137.0221299,35.1714101],[137.0225001,35.1711994],[137.0233922,35.1706207],[137.0238685,35.1702756],[137.0242669,35.1699711],[137.0243795,35.1698437],[137.0244077,35.1697764],[137.0242821,35.1697216],[137.0243232,35.1696632],[137.0242496,35.1695446],[137.024163,35.1696154],[137.0241089,35.1695906],[137.0240937,35.1695251],[137.0240721,35.1694755],[137.0240331,35.169426],[137.0239725,35.1693693],[137.0239357,35.1693339],[137.0239443,35.1693039],[137.023927,35.1692543],[137.0238599,35.169203],[137.0238555,35.1691375],[137.0239183,35.1691375],[137.0239551,35.1690631],[137.0240006,35.1690384],[137.0240612,35.1690596],[137.0240482,35.1691251],[137.0241327,35.1691304],[137.0242106,35.169141],[137.0242734,35.1691746],[137.0243276,35.1691888],[137.024347,35.169272],[137.024386,35.1693056],[137.0244055,35.1693357],[137.0243839,35.1694401],[137.0244813,35.169518],[137.0245224,35.1695747],[137.0245679,35.1696331],[137.0246069,35.1696614],[137.0246372,35.1696171],[137.024726,35.1695357],[137.0247844,35.1695676],[137.0250832,35.1693941],[137.0256202,35.1690755],[137.025919,35.1688844],[137.0257588,35.1686932],[137.0256786,35.168649],[137.025644,35.1685693],[137.0256851,35.1685375],[137.0256245,35.1684773],[137.0255747,35.1684861],[137.0255357,35.1683375],[137.0254881,35.1681976],[137.025434,35.1680171],[137.0253495,35.1679091],[137.0253214,35.1678578],[137.0253798,35.1678259],[137.0253257,35.167695],[137.0253084,35.1676171],[137.0252651,35.1675799],[137.0252802,35.1674595],[137.0252543,35.1673498],[137.0255271,35.1672921],[137.0256786,35.1673169],[137.0256397,35.1674762],[137.0256613,35.1675293],[137.0259125,35.1675647],[137.0259168,35.1677559],[137.0258345,35.1678444],[137.0258887,35.1679849],[137.0259644,35.1680663],[137.0260186,35.1681088],[137.0260207,35.1681814],[137.0261485,35.168215],[137.0262871,35.1682292],[137.0263823,35.1682239],[137.0264993,35.1681478],[137.0266551,35.1681017],[137.0267071,35.1680575],[137.0268002,35.1680292],[137.0269388,35.1679991],[137.0270059,35.1679885],[137.02706,35.1679088],[137.0269929,35.1677938],[137.0268868,35.1674982],[137.0268197,35.1672716],[137.0267721,35.1670398],[137.0267569,35.1668592],[137.0267396,35.1667265],[137.0266335,35.16673],[137.0264646,35.1667035],[137.0263499,35.1666486],[137.0262459,35.1665831],[137.0261333,35.1664911],[137.0260467,35.1663388],[137.0259969,35.166199],[137.0259991,35.1661052],[137.0259255,35.1659671],[137.0257739,35.1657353],[137.0255011,35.1654007],[137.0254881,35.1653228],[137.0254853,35.165273],[137.0254626,35.1651871],[137.02539,35.1650092],[137.0253532,35.164911],[137.0253218,35.1648322],[137.0252742,35.1647871],[137.0251973,35.1647181],[137.0251205,35.1646765],[137.0249927,35.1646862],[137.0248271,35.1646181],[137.0246863,35.1645579],[137.0246062,35.1645012],[137.0245478,35.1644782],[137.0245218,35.1644446],[137.0244244,35.1644428],[137.0243226,35.1643703],[137.024262,35.164303],[137.0241342,35.1642216],[137.0238701,35.1641136],[137.0238462,35.1640215],[137.023764,35.1639684],[137.0237163,35.1639136],[137.0236514,35.1638286],[137.0235756,35.1637649],[137.0235215,35.163733],[137.0235843,35.1636534],[137.0235973,35.1635879],[137.0235236,35.1635277],[137.0234803,35.163464],[137.0234543,35.1633861],[137.0232746,35.163356],[137.023214,35.1634056],[137.0231447,35.1633949],[137.0231447,35.1633542],[137.0230711,35.1633153],[137.0230993,35.1632852],[137.0229369,35.1631312],[137.0229997,35.1629666],[137.0230689,35.1627913],[137.02324,35.1627489],[137.0232681,35.1626161],[137.0233547,35.1625754],[137.023463,35.1625754],[137.0234998,35.1626196],[137.0235128,35.1627117],[137.0235734,35.1627365],[137.0238181,35.1627471],[137.0238506,35.1627666],[137.0238484,35.1628427],[137.0238744,35.1628639],[137.0238787,35.1630692],[137.0238896,35.1632126],[137.0239112,35.1632799],[137.0239827,35.1633525],[137.0240257,35.163525],[137.0241482,35.1636201],[137.0243105,35.1637102],[137.024289,35.1637753],[137.0244452,35.163923],[137.0246044,35.1639931],[137.0246442,35.1640932],[137.0247484,35.1641408],[137.0248953,35.1642134],[137.0249848,35.1641413],[137.0250445,35.1641576],[137.0250169,35.1642201],[137.0250628,35.1642564],[137.0251363,35.1642589],[137.0251746,35.1642364],[137.0252466,35.1641213],[137.0255359,35.1641137],[137.0256829,35.1641188],[137.0257671,35.1640474],[137.0257947,35.1640011],[137.0259573,35.164057],[137.0261043,35.164062],[137.0261563,35.1641947],[137.026141,35.1642973],[137.0262849,35.1643799],[137.026389,35.1644025],[137.0265452,35.164385],[137.0266217,35.1643074],[137.026686,35.1643174],[137.0267167,35.164415],[137.0268024,35.16444],[137.0268453,35.1643499],[137.02683,35.1643049],[137.0265605,35.1641797],[137.0266126,35.164057],[137.0267779,35.164057],[137.026879,35.1640796],[137.0268759,35.1639944],[137.026735,35.1638868],[137.0267932,35.1638468],[137.0269096,35.1638292],[137.0269555,35.1637166],[137.0270933,35.1636966],[137.0271637,35.163664],[137.0272066,35.1636165],[137.0272005,35.1635589],[137.0270933,35.1636089],[137.0270137,35.1635789],[137.0269984,35.1635263],[137.026931,35.1634663],[137.0268453,35.1633862],[137.0268177,35.1633186],[137.0266095,35.1631158],[137.0265663,35.1630741],[137.0265238,35.1630332],[137.0264748,35.1630257],[137.0264809,35.1629531],[137.0264472,35.1628555],[137.0263308,35.1627904],[137.0262658,35.1627485],[137.0262298,35.1627253],[137.0261747,35.1627503],[137.0261196,35.1626827],[137.025994,35.1626527],[137.0258317,35.1625651],[137.0258164,35.1625025],[137.0257031,35.1624624],[137.0256235,35.1624024],[137.0255439,35.1623498],[137.0254888,35.1623097],[137.0254,35.1622697],[137.0252408,35.1622697],[137.0250877,35.1622397],[137.0249468,35.1622121],[137.0248733,35.1622422],[137.0247876,35.1621796],[137.0245916,35.1622146],[137.024515,35.1622597],[137.0243007,35.1622397],[137.0242487,35.1621871],[137.0242885,35.162132],[137.0242823,35.1620719],[137.0242823,35.1620018],[137.024215,35.1620068],[137.0241752,35.1619342],[137.0241415,35.1618817],[137.0240741,35.1618717],[137.02412,35.1617891],[137.024215,35.1617715],[137.0242242,35.1616589],[137.024267,35.1616263],[137.0242578,35.1615412],[137.024218,35.1614811],[137.0242456,35.1614035],[137.024267,35.1612959],[137.0242976,35.1612008],[137.0243375,35.1611858],[137.0243864,35.1610831],[137.0243681,35.160978],[137.0243436,35.1609479],[137.0243191,35.1608753],[137.0243895,35.1608052],[137.0244906,35.1607652],[137.0245242,35.1607151],[137.0245794,35.160605],[137.0246008,35.1604848],[137.0246926,35.1603296],[137.0248519,35.1601944],[137.0249529,35.1601669],[137.0251765,35.1601068],[137.0253204,35.1600768],[137.0254214,35.1600242],[137.0255347,35.1598264],[137.0256113,35.1597714],[137.0256878,35.1597013],[137.0258317,35.1596136],[137.0259726,35.159541],[137.0261777,35.1594885],[137.0263707,35.1594684],[137.0265268,35.1594584],[137.0267259,35.1594534],[137.0267044,35.1594034],[137.0265605,35.1593583],[137.0264656,35.1591931],[137.0263125,35.159158],[137.026092,35.1589953],[137.0261257,35.1588726],[137.026438,35.1588977],[137.0265452,35.1588802],[137.0266126,35.1589177],[137.0267534,35.1588626],[137.0267289,35.1587875],[137.0266401,35.1586874],[137.0262604,35.1584546],[137.0262022,35.1583619],[137.0260124,35.1582693],[137.0256725,35.1580015],[137.0256786,35.1578938],[137.0257368,35.1578162],[137.0256205,35.157701],[137.0255623,35.157686],[137.025599,35.1575083],[137.0257307,35.1573355],[137.0258562,35.1572354],[137.0260736,35.1571227],[137.0261655,35.1570602],[137.0262267,35.156915],[137.0262757,35.1568849],[137.0264043,35.1568649],[137.0265697,35.1568724],[137.0267011,35.1568937]]]}}
