{"type":"Feature","id":"attraction-large-park-W474357813","properties":{"id":"attraction-large-park-W474357813","kind":"attraction","name":"亀岡運動公園","shortName":"亀岡運動公園","context":"日本","subtype":"large-park","subtypeLabel":"大型都市公園・広域公園","statusLabel":"著名な公園","aliases":[],"osmType":"way","osmId":474357813,"osmDate":null,"officialAreaKm2":null,"areaSourceLabel":"","areaSourceUrl":"","boundarySourceLabel":"© OpenStreetMap contributors","boundarySourceUrl":"https://www.openstreetmap.org/copyright","geometryFile":"attractions/large-park-W474357813.geojson"},"geometry":{"type":"Polygon","coordinates":[[[135.5471713,35.0157657],[135.5475388,35.0157799],[135.5476018,35.015837],[135.54774,35.0158766],[135.548149,35.0158689],[135.5484427,35.0158964],[135.5484561,35.015837],[135.5486975,35.0158447],[135.5488638,35.015859],[135.5490945,35.0153274],[135.5492098,35.0150583],[135.549238,35.0149463],[135.5492326,35.0148331],[135.5499072,35.0148595],[135.5499032,35.0150078],[135.5499387,35.0151522],[135.5497013,35.0157322],[135.5506964,35.0157618],[135.5514971,35.0157937],[135.5514622,35.0151478],[135.5514575,35.0150957],[135.5516171,35.0151],[135.5516627,35.0150726],[135.5516654,35.014887],[135.55166,35.01453],[135.5516463,35.0143584],[135.5516228,35.014159],[135.5516188,35.014036],[135.5516246,35.0139763],[135.5516197,35.0134185],[135.5516181,35.0132308],[135.5516161,35.0131847],[135.5516188,35.0130634],[135.551655,35.0130387],[135.5516563,35.0130096],[135.5516604,35.0127657],[135.55166,35.0123129],[135.5516728,35.0121152],[135.551706,35.0116788],[135.5517241,35.0114207],[135.5517459,35.0111568],[135.5517358,35.0109618],[135.5517003,35.0105335],[135.5516922,35.0103583],[135.5516912,35.0103223],[135.5516416,35.0102773],[135.5513506,35.010241],[135.551079,35.0102718],[135.5506317,35.0102712],[135.550617,35.0102608],[135.5505533,35.0102157],[135.5502502,35.0102059],[135.550215,35.0099238],[135.5499769,35.0099299],[135.5499179,35.009965],[135.5498884,35.0100386],[135.5497117,35.0099686],[135.549636,35.0099873],[135.5495173,35.0098774],[135.5491941,35.0098533],[135.5491149,35.0097896],[135.54873,35.009817],[135.5488098,35.0100647],[135.5489614,35.0103855],[135.5492786,35.0109209],[135.5487394,35.0111055],[135.54849,35.0110143],[135.5481641,35.0110198],[135.5481622,35.0110795],[135.5481439,35.0116507],[135.5481405,35.0117542],[135.5481326,35.0120023],[135.5481304,35.012051],[135.548121,35.0122608],[135.5481205,35.0122714],[135.5480816,35.0122758],[135.5480561,35.0128712],[135.5481363,35.0129494],[135.5481899,35.0130005],[135.5481899,35.0130988],[135.5481182,35.0130977],[135.5480189,35.0131894],[135.547925,35.0136826],[135.5478486,35.0140923],[135.5477909,35.0144372],[135.547693,35.0145723],[135.547339,35.0149952],[135.547304,35.0150407],[135.5471882,35.0151901],[135.5470694,35.0153433],[135.5470104,35.0155388],[135.5469782,35.0157475],[135.5471713,35.0157657]]]}}
