{"type":"Feature","id":"attraction-large-park-W558250866","properties":{"id":"attraction-large-park-W558250866","kind":"attraction","name":"長尾山総合公園","shortName":"長尾山総合公園","context":"日本","subtype":"large-park","subtypeLabel":"大型都市公園・広域公園","statusLabel":"","aliases":[],"osmType":"way","osmId":558250866,"osmDate":null,"officialAreaKm2":null,"areaSourceLabel":"","areaSourceUrl":"","boundarySourceLabel":"© OpenStreetMap contributors","boundarySourceUrl":"https://www.openstreetmap.org/copyright","geometryFile":"attractions/large-park-W558250866.geojson"},"geometry":{"type":"Polygon","coordinates":[[[136.4994148,36.0843941],[136.4990218,36.083822],[136.4990683,36.0836301],[136.4990633,36.0833794],[136.4985807,36.0824775],[136.4988547,36.0822353],[136.4991776,36.0823725],[136.4995346,36.0824226],[136.5000185,36.0820749],[136.4998915,36.0819786],[136.5000622,36.0817996],[136.5007371,36.0816061],[136.5012273,36.0818582],[136.501682,36.0818314],[136.5023282,36.0817595],[136.5026509,36.0816457],[136.5029203,36.0814493],[136.5032927,36.0808006],[136.5023534,36.0805575],[136.5021239,36.0803634],[136.5014666,36.0801797],[136.5008121,36.0798716],[136.5010785,36.0796434],[136.5014183,36.0796289],[136.5014598,36.0793955],[136.5015882,36.0790033],[136.5019289,36.0790737],[136.502839,36.0793402],[136.5037351,36.0798484],[136.5048104,36.0802686],[136.5059787,36.0808262],[136.5069951,36.0813514],[136.5071762,36.081411],[136.5073678,36.0814928],[136.5075423,36.0814966],[136.5077206,36.0814869],[136.5080538,36.0814417],[136.5082839,36.081502],[136.5085021,36.0815336],[136.5088637,36.0815617],[136.5089558,36.0814402],[136.5090859,36.0813893],[136.5092507,36.0814988],[136.5094675,36.0810994],[136.5098796,36.0808922],[136.5110967,36.0807102],[136.5114484,36.0806844],[136.5129639,36.081192],[136.5135461,36.0814018],[136.5147316,36.0819267],[136.5157855,36.0825744],[136.5164234,36.0829386],[136.5168775,36.083243],[136.5173241,36.0834588],[136.5178429,36.0836932],[136.5181437,36.0838302],[136.5184112,36.0839511],[136.5189166,36.0841731],[136.5193318,36.0843956],[136.5195716,36.0845136],[136.5197264,36.0845828],[136.5198747,36.0846435],[136.5199882,36.0847201],[136.5200547,36.0847802],[136.5201513,36.0848998],[136.520352,36.0851784],[136.520582,36.0854592],[136.5207899,36.0855977],[136.5209436,36.085664],[136.5213042,36.0857758],[136.5215209,36.0858662],[136.5217624,36.0859777],[136.5218922,36.0860692],[136.5219778,36.0861735],[136.5220189,36.0862838],[136.5220308,36.0864391],[136.5220708,36.0865958],[136.5221271,36.0866804],[136.5221897,36.0867578],[136.5221944,36.0868986],[136.5222018,36.0870006],[136.5222282,36.0871083],[136.5222968,36.0872584],[136.5224702,36.087421],[136.5227602,36.0876453],[136.5229128,36.0878872],[136.522954,36.0881861],[136.5229969,36.0882777],[136.5231038,36.0884126],[136.52325,36.088515],[136.5236934,36.0886809],[136.5245898,36.088848],[136.5251376,36.089172],[136.5255155,36.0893946],[136.5258417,36.0894769],[136.5263917,36.0895181],[136.5269337,36.0896064],[136.5269936,36.0897258],[136.5263331,36.0900134],[136.5259048,36.090037],[136.5253251,36.0898702],[136.5240444,36.0894018],[136.5220823,36.0891178],[136.5212838,36.089638],[136.520965,36.0898351],[136.5202358,36.090116],[136.5202922,36.0902851],[136.5202063,36.090452],[136.5196624,36.0904201],[136.5181709,36.0899498],[136.5171222,36.0896443],[136.5163037,36.0895048],[136.5162192,36.089507],[136.5161217,36.0894656],[136.5157847,36.0892263],[136.5153153,36.0888448],[136.5151866,36.08877],[136.5150002,36.088666],[136.5148016,36.0885787],[136.514563,36.088485],[136.5143377,36.088343],[136.5138307,36.0880504],[136.5137288,36.0881068],[136.5136336,36.0881739],[136.5135287,36.0882459],[136.5133908,36.0881078],[136.5132976,36.0880412],[136.5131427,36.0880211],[136.5129201,36.0880061],[136.5125339,36.0879724],[136.5121718,36.0879225],[136.5116485,36.087742],[136.5112866,36.087473],[136.5110043,36.0872408],[136.5108226,36.0871574],[136.5103638,36.0870234],[136.5102084,36.0869861],[136.5100267,36.0869531],[136.5098785,36.0869244],[136.5096103,36.0869049],[136.5094601,36.0869146],[136.5093555,36.0869601],[136.5092503,36.0870146],[136.5089545,36.0870089],[136.5088096,36.0870338],[136.5085957,36.0871265],[136.5083127,36.0872972],[136.5080272,36.0874371],[136.5077662,36.0874738],[136.507486,36.0875302],[136.5072151,36.0876201],[136.5068905,36.0877935],[136.5068476,36.0878391],[136.5067832,36.0878586],[136.5066997,36.0878631],[136.5060121,36.087838],[136.5048674,36.087866],[136.5048299,36.0878575],[136.5047899,36.087836],[136.5046924,36.0877236],[136.5046062,36.0875994],[136.5044839,36.0872202],[136.504413,36.0871565],[136.5041687,36.0871265],[136.5040212,36.0870595],[136.5033882,36.0866502],[136.5031005,36.0865033],[136.5027871,36.0863777],[136.5027351,36.0863749],[136.5026848,36.0863789],[136.5026345,36.0864014],[136.5025882,36.0864437],[136.5025211,36.0864677],[136.5024421,36.0864773],[136.5023767,36.0864725],[136.5021143,36.0863773],[136.5013578,36.0861542],[136.5013115,36.0860487],[136.5013517,36.0859143],[136.5013206,36.0858167],[136.5011586,36.0857441],[136.5009883,36.0856477],[136.5009264,36.0855456],[136.5008251,36.085337],[136.5000966,36.0853317],[136.4998931,36.0846547],[136.4994148,36.0843941]]]}}
