{"type":"Feature","id":"attraction-large-park-W458202822","properties":{"id":"attraction-large-park-W458202822","kind":"attraction","name":"みかも山公園","shortName":"みかも山公園","context":"日本","subtype":"large-park","subtypeLabel":"大型都市公園・広域公園","statusLabel":"","aliases":[],"osmType":"way","osmId":458202822,"osmDate":null,"officialAreaKm2":null,"areaSourceLabel":"","areaSourceUrl":"","boundarySourceLabel":"© OpenStreetMap contributors","boundarySourceUrl":"https://www.openstreetmap.org/copyright","geometryFile":"attractions/large-park-W458202822.geojson"},"geometry":{"type":"Polygon","coordinates":[[[139.6246037,36.2973671],[139.6248224,36.297382],[139.6254171,36.2974615],[139.6262459,36.297603],[139.6265263,36.2976725],[139.6270808,36.2977644],[139.6270223,36.2979333],[139.6269083,36.298189],[139.6268405,36.2985094],[139.6267758,36.299001],[139.6266741,36.2994033],[139.6266279,36.2995697],[139.6267191,36.2997224],[139.62664,36.300314],[139.6275873,36.3002059],[139.6293884,36.2998986],[139.6298965,36.3025518],[139.6302387,36.3037019],[139.6294603,36.3039443],[139.6291542,36.3040396],[139.6308255,36.3054133],[139.6310151,36.3055691],[139.6318889,36.3071595],[139.6326033,36.3084596],[139.633444,36.3099189],[139.633927,36.3107338],[139.634293,36.3112863],[139.6343817,36.3113917],[139.634845,36.3118226],[139.6352882,36.3121896],[139.6327841,36.3131913],[139.6321677,36.3137934],[139.6311309,36.3140342],[139.630354,36.315263],[139.6292264,36.3158995],[139.6288012,36.3155212],[139.6277659,36.3157198],[139.6266814,36.3156006],[139.6264103,36.3157595],[139.6236148,36.3157372],[139.6234778,36.3157361],[139.6233813,36.3160733],[139.623312,36.3163257],[139.6230505,36.316401],[139.6225462,36.3164649],[139.6225882,36.3167848],[139.6226806,36.3169648],[139.6228917,36.3171648],[139.623047,36.3173204],[139.6232324,36.3175531],[139.6231968,36.3176098],[139.6230649,36.3177052],[139.6229395,36.3178566],[139.6228261,36.3179949],[139.6227197,36.3180387],[139.6225914,36.3180844],[139.622439,36.3181236],[139.6222478,36.3181424],[139.6220576,36.3180504],[139.6213864,36.3175834],[139.6215298,36.3171228],[139.6216644,36.3165208],[139.6215729,36.3164554],[139.6216407,36.3158596],[139.6217208,36.3152191],[139.62169,36.3140672],[139.6215667,36.3131237],[139.6218194,36.3131684],[139.6221645,36.3133224],[139.621844,36.3127116],[139.621881,36.3125577],[139.6230518,36.3120363],[139.6237851,36.3118377],[139.6244814,36.3115447],[139.624771,36.3112667],[139.6246539,36.3108843],[139.6243766,36.3107552],[139.6236002,36.3108893],[139.6231101,36.311031],[139.6229631,36.3111216],[139.6227252,36.3112816],[139.6223308,36.3113461],[139.6219673,36.311654],[139.6216592,36.3119817],[139.6215236,36.3121555],[139.6213893,36.312482],[139.6209604,36.3111058],[139.6210178,36.3108545],[139.6208535,36.3103227],[139.6201557,36.3090632],[139.619698,36.308026],[139.6208828,36.3074167],[139.6209686,36.306725],[139.6221059,36.3066818],[139.6232539,36.3063879],[139.6234749,36.3057825],[139.6235758,36.305506],[139.6235007,36.3050304],[139.6236616,36.3041658],[139.6237903,36.30382],[139.6223527,36.3036125],[139.6204537,36.3029035],[139.6187478,36.303085],[139.6180397,36.3017535],[139.6182543,36.3003095],[139.6185654,36.2987272],[139.6186941,36.2979316],[139.6192091,36.2979662],[139.6199279,36.2976809],[139.6201747,36.2975079],[139.6216982,36.2974388],[139.6217411,36.2980268],[139.6219235,36.2985975],[139.6223527,36.2988914],[139.6225458,36.2995745],[139.622814,36.2997042],[139.6242728,36.2995162],[139.6244682,36.2982748],[139.6243503,36.298242],[139.6246037,36.2973671]]]}}
