{"type":"Feature","id":"attraction-large-park-W506315444","properties":{"id":"attraction-large-park-W506315444","kind":"attraction","name":"菊池公園","shortName":"菊池公園","context":"日本","subtype":"large-park","subtypeLabel":"大型都市公園・広域公園","statusLabel":"著名な公園","aliases":[],"osmType":"way","osmId":506315444,"osmDate":null,"officialAreaKm2":null,"areaSourceLabel":"","areaSourceUrl":"","boundarySourceLabel":"© OpenStreetMap contributors","boundarySourceUrl":"https://www.openstreetmap.org/copyright","geometryFile":"attractions/large-park-W506315444.geojson"},"geometry":{"type":"Polygon","coordinates":[[[130.8171908,32.9870362],[130.8174253,32.9866784],[130.8175799,32.9864093],[130.8179595,32.9865916],[130.818524,32.9868778],[130.8187229,32.9870087],[130.8188363,32.9871316],[130.8189582,32.987252],[130.8192004,32.9872517],[130.8193844,32.9872796],[130.8198185,32.9874589],[130.8200757,32.9874917],[130.8203254,32.9874828],[130.8208074,32.9872261],[130.8208562,32.9871427],[130.8212454,32.9867685],[130.8214082,32.986677],[130.8218251,32.9865609],[130.822027,32.9865049],[130.8222094,32.9863847],[130.8223671,32.9862417],[130.8225699,32.9861756],[130.8228368,32.9861555],[130.822763,32.9860091],[130.8226295,32.9858889],[130.8222354,32.985684],[130.8219358,32.9855378],[130.821703,32.9855297],[130.8216362,32.9855638],[130.8215694,32.985531],[130.8217962,32.9853288],[130.8218055,32.985236],[130.8217782,32.9849836],[130.8211592,32.9846623],[130.8201747,32.9843816],[130.8199945,32.9843302],[130.8192155,32.9838811],[130.8185379,32.9842898],[130.8178604,32.9845367],[130.8174976,32.9849454],[130.8173662,32.9849463],[130.8168708,32.9849496],[130.8169291,32.9851455],[130.8168809,32.9853689],[130.8167033,32.9856095],[130.8164952,32.9860373],[130.8163734,32.9862587],[130.8161755,32.9864481],[130.8162009,32.9865758],[130.8163051,32.9866866],[130.8171908,32.9870362]]]}}
