{"type":"Feature","id":"attraction-large-park-R9671830","properties":{"id":"attraction-large-park-R9671830","kind":"attraction","name":"会津レクリエーション公園","shortName":"会津レクリエーション公園","context":"日本","subtype":"large-park","subtypeLabel":"大型都市公園・広域公園","statusLabel":"著名な公園","aliases":[],"osmType":"relation","osmId":9671830,"osmDate":null,"officialAreaKm2":null,"areaSourceLabel":"","areaSourceUrl":"","boundarySourceLabel":"© OpenStreetMap contributors","boundarySourceUrl":"https://www.openstreetmap.org/copyright","geometryFile":"attractions/large-park-R9671830.geojson"},"geometry":{"type":"MultiPolygon","coordinates":[[[[140.0191681,37.5186817],[140.0191614,37.5184509],[140.0190032,37.5181222],[140.0190568,37.5179626],[140.0190394,37.5179158],[140.0186062,37.5177042],[140.0184479,37.5178712],[140.018338,37.5180254],[140.018287,37.5181818],[140.0182548,37.5184062],[140.0182763,37.5185285],[140.0183326,37.5187636],[140.0184587,37.5188349],[140.0191681,37.5186817]]],[[[140.0124498,37.5178004],[140.012484,37.5177015],[140.0125484,37.5176377],[140.0126778,37.5175106],[140.0128126,37.5173701],[140.0128019,37.5172999],[140.0128528,37.5173042],[140.0129843,37.5173212],[140.0131533,37.5173212],[140.0133303,37.5172936],[140.0134644,37.5172234],[140.0135717,37.5171446],[140.0136173,37.5170744],[140.0137031,37.517068],[140.0138372,37.5171106],[140.0139821,37.5171191],[140.0141269,37.5170893],[140.0142422,37.5170276],[140.0140733,37.5167404],[140.0140625,37.516566],[140.014092,37.5164256],[140.0140786,37.516149],[140.0140759,37.5159618],[140.0141081,37.5157937],[140.0142637,37.515515],[140.0145829,37.5154533],[140.0146741,37.5153554],[140.0147465,37.5152278],[140.0147921,37.515015],[140.0148752,37.5146129],[140.0148752,37.5142342],[140.0148243,37.5140087],[140.0149637,37.5137002],[140.0150818,37.5135406],[140.0151783,37.5134938],[140.0151595,37.5133428],[140.0152239,37.5132109],[140.0153902,37.5131024],[140.0154519,37.5130705],[140.0154385,37.5129619],[140.0154117,37.5127513],[140.0154653,37.5126513],[140.0156316,37.5123918],[140.0157094,37.5122407],[140.0157282,37.5120216],[140.0157604,37.5118386],[140.015806,37.5117705],[140.0160071,37.5115982],[140.0161922,37.5113429],[140.0162056,37.5111918],[140.0161546,37.5111024],[140.0161546,37.5109578],[140.0159186,37.5104322],[140.0161654,37.5101641],[140.0168627,37.5103556],[140.0176674,37.5092131],[140.018118,37.5094429],[140.0183541,37.5096067],[140.018582,37.509779],[140.0187859,37.5100237],[140.0189871,37.5103344],[140.0191534,37.5108237],[140.0193304,37.5113386],[140.0193894,37.5116322],[140.0194752,37.5120918],[140.0195181,37.5125492],[140.0195369,37.5129385],[140.0195289,37.5133641],[140.0193277,37.5146768],[140.019097,37.5162383],[140.0189629,37.5167149],[140.0188047,37.5170064],[140.0185847,37.5173425],[140.0181904,37.5177892],[140.0180402,37.5179807],[140.0179732,37.5181424],[140.0179169,37.5183445],[140.0179169,37.5185892],[140.0179973,37.5187402],[140.0180188,37.5188381],[140.017949,37.5189551],[140.0175494,37.5190402],[140.0171927,37.5191061],[140.0168252,37.5191636],[140.0163934,37.5191891],[140.0157791,37.5189338],[140.0152454,37.5186913],[140.0148833,37.5185041],[140.0145695,37.5184232],[140.0141805,37.5183445],[140.0137621,37.518153],[140.0131479,37.5178743],[140.0128931,37.5177956],[140.0124633,37.5178807],[140.0124498,37.5178004]]]]}}
