{"type":"Feature","id":"attraction-large-industrial-complex-W551626977","properties":{"id":"attraction-large-industrial-complex-W551626977","kind":"attraction","name":"愛知製鋼","shortName":"愛知製鋼","context":"日本","subtype":"industrial-complex","subtypeLabel":"工業地帯・大規模工場","statusLabel":"","aliases":[],"osmType":"way","osmId":551626977,"osmDate":null,"officialAreaKm2":null,"areaSourceLabel":"","areaSourceUrl":"","boundarySourceLabel":"© OpenStreetMap contributors","boundarySourceUrl":"https://www.openstreetmap.org/copyright","geometryFile":"attractions/large-industrial-complex-W551626977.geojson"},"geometry":{"type":"Polygon","coordinates":[[[136.899338,35.0513436],[136.8978809,35.0514048],[136.8963352,35.0514392],[136.8962137,35.0513169],[136.8962231,35.0499673],[136.8893234,35.0499215],[136.8894129,35.0436776],[136.8948525,35.0436709],[136.8959258,35.0433248],[136.8962298,35.0436682],[136.8969023,35.0448388],[136.8972491,35.0456269],[136.8979287,35.0470004],[136.8983038,35.0479044],[136.899132,35.0493936],[136.899338,35.0513436]]]}}
