{"type":"Feature","id":"attraction-large-industrial-complex-W435652900","properties":{"id":"attraction-large-industrial-complex-W435652900","kind":"attraction","name":"三菱自動車工業 十勝研究所","shortName":"三菱自動車工業 十勝研究所","context":"日本","subtype":"industrial-complex","subtypeLabel":"工業地帯・大規模工場","statusLabel":"","aliases":["Mitsubishi Motors, Tokachi proving ground"],"osmType":"way","osmId":435652900,"osmDate":null,"officialAreaKm2":null,"areaSourceLabel":"","areaSourceUrl":"","boundarySourceLabel":"© OpenStreetMap contributors","boundarySourceUrl":"https://www.openstreetmap.org/copyright","geometryFile":"attractions/large-industrial-complex-W435652900.geojson"},"geometry":{"type":"Polygon","coordinates":[[[143.3070505,43.0481277],[143.3073432,43.0478396],[143.308079,43.0480653],[143.3093353,43.0481277],[143.3102663,43.0479346],[143.3137626,43.0464491],[143.3141813,43.0463303],[143.3155107,43.0461134],[143.3169377,43.0461342],[143.3191249,43.0462976],[143.3235441,43.0469364],[143.3242271,43.0469809],[143.324906,43.0469007],[143.3253898,43.0467314],[143.325837,43.0464669],[143.3275608,43.0449606],[143.3281381,43.0446368],[143.3288455,43.044405],[143.32957,43.0443519],[143.330085,43.0444225],[143.331984,43.0449713],[143.335326,43.0458808],[143.3361199,43.0459397],[143.3368388,43.0458887],[143.3381745,43.0456535],[143.3390056,43.0453124],[143.3393816,43.0457595],[143.3394731,43.0459735],[143.3393077,43.0465313],[143.3371346,43.0492832],[143.3370461,43.0494485],[143.3370583,43.0495257],[143.3371539,43.0497144],[143.3377169,43.0504616],[143.3378613,43.0507275],[143.3379161,43.0509042],[143.3379121,43.0512518],[143.3364232,43.0537585],[143.3357402,43.0540794],[143.3354393,43.0543229],[143.3345449,43.0552914],[143.3341872,43.0557904],[143.3339602,43.0560692],[143.3338222,43.0565269],[143.3344956,43.0633592],[143.3342715,43.0637959],[143.3350467,43.0640415],[143.3350467,43.0641712],[143.3347478,43.0641712],[143.3340193,43.0657065],[143.3339539,43.0662524],[143.3341033,43.0676239],[143.3344302,43.0680401],[143.3344396,43.0692546],[143.3348505,43.0699779],[143.3347758,43.072441],[143.3350654,43.0744468],[143.3305915,43.0785675],[143.3300404,43.079584],[143.3298536,43.0802116],[143.3298536,43.08058],[143.329013,43.0820671],[143.3278922,43.0830631],[143.3269956,43.0836702],[143.3260242,43.0840795],[143.3250155,43.0844274],[143.3234651,43.0847412],[143.3221855,43.0848162],[143.3206257,43.0847071],[143.3194489,43.0844206],[143.3177023,43.0838203],[143.3166189,43.0833496],[143.3157502,43.0827493],[143.3152832,43.0823332],[143.3139383,43.0785539],[143.3139663,43.0677535],[143.3138822,43.0609844],[143.3125653,43.0607524],[143.3114538,43.0603635],[143.3105385,43.0593876],[143.3099781,43.0573744],[143.3099128,43.055211],[143.3100982,43.0548216],[143.3100338,43.0539004],[143.3096368,43.0524069],[143.3070505,43.0481277]]]}}
