{"type":"Feature","id":"attraction-large-park-W378518158","properties":{"id":"attraction-large-park-W378518158","kind":"attraction","name":"富士市総合運動公園","shortName":"富士市総合運動公園","context":"日本","subtype":"large-park","subtypeLabel":"大型都市公園・広域公園","statusLabel":"著名な公園","aliases":[],"osmType":"way","osmId":378518158,"osmDate":null,"officialAreaKm2":null,"areaSourceLabel":"","areaSourceUrl":"","boundarySourceLabel":"© OpenStreetMap contributors","boundarySourceUrl":"https://www.openstreetmap.org/copyright","geometryFile":"attractions/large-park-W378518158.geojson"},"geometry":{"type":"Polygon","coordinates":[[[138.683514,35.1965151],[138.683567,35.1960976],[138.6833411,35.1951678],[138.6840613,35.195045],[138.6839789,35.1947886],[138.6838551,35.194805],[138.6837151,35.1946761],[138.6836233,35.1944993],[138.6832217,35.1942361],[138.6829449,35.1936122],[138.6829482,35.1934255],[138.6831211,35.1931895],[138.6834826,35.1929845],[138.6842647,35.1927261],[138.6843391,35.1927064],[138.6845186,35.1929204],[138.684915,35.1933801],[138.6850925,35.1937712],[138.6852914,35.1936659],[138.6854187,35.1936822],[138.6855403,35.1938245],[138.6859952,35.1941028],[138.6861027,35.1942097],[138.6863257,35.1945115],[138.6866108,35.194909],[138.6866925,35.1950253],[138.6867614,35.1951211],[138.6868725,35.1951676],[138.6869532,35.1951663],[138.6871672,35.1951895],[138.6891835,35.1947488],[138.6893167,35.1947849],[138.6894003,35.1948436],[138.6897425,35.1957288],[138.6896897,35.1958142],[138.6881144,35.1963025],[138.6878928,35.1963913],[138.6868123,35.1969818],[138.6867872,35.1970399],[138.6866059,35.1971093],[138.686341,35.1971786],[138.6860069,35.1971575],[138.6858488,35.1971362],[138.6856986,35.1971061],[138.6855365,35.1970535],[138.6849746,35.1967847],[138.6847791,35.1967455],[138.6845637,35.1967372],[138.6844985,35.1967677],[138.6842584,35.1967503],[138.6840795,35.1967555],[138.6840051,35.1966763],[138.683514,35.1965151]]]}}
