{"type":"Feature","id":"attraction-large-park-R16202745","properties":{"id":"attraction-large-park-R16202745","kind":"attraction","name":"青葉山公園","shortName":"青葉山公園","context":"日本","subtype":"large-park","subtypeLabel":"大型都市公園・広域公園","statusLabel":"著名な公園","aliases":["Aobayama Park"],"osmType":"relation","osmId":16202745,"osmDate":null,"officialAreaKm2":null,"areaSourceLabel":"","areaSourceUrl":"","boundarySourceLabel":"© OpenStreetMap contributors","boundarySourceUrl":"https://www.openstreetmap.org/copyright","geometryFile":"attractions/large-park-R16202745.geojson"},"geometry":{"type":"MultiPolygon","coordinates":[[[[140.8580748,38.2605202],[140.8579601,38.2612385],[140.8579152,38.2614168],[140.8578239,38.2617461],[140.8576143,38.2617715],[140.8577823,38.26234],[140.8577731,38.2623666],[140.8577484,38.262386],[140.8576621,38.2624017],[140.857465,38.2619175],[140.8573734,38.2619187],[140.8574085,38.2602748],[140.8580986,38.2601955],[140.8580952,38.2603799],[140.8580748,38.2605202]]],[[[140.8580947,38.259938],[140.8580873,38.2594241],[140.8589183,38.2587018],[140.8592985,38.258111],[140.8591146,38.2580666],[140.8588844,38.257964],[140.8585117,38.2578986],[140.8579437,38.2578266],[140.8579144,38.2577951],[140.8575316,38.2577272],[140.85667,38.2576682],[140.8563613,38.2577095],[140.8562233,38.2578625],[140.8561356,38.2580701],[140.8561309,38.2581156],[140.8561209,38.258212],[140.8561091,38.2598172],[140.8561261,38.2601118],[140.8561967,38.2601056],[140.8562036,38.2601546],[140.8567564,38.2601043],[140.857058,38.2600754],[140.8574932,38.2600295],[140.8580947,38.259938]]],[[[140.8554752,38.2590835],[140.8551653,38.2588032],[140.8550518,38.2585333],[140.8550438,38.2583817],[140.8550875,38.2580417],[140.8550838,38.2578638],[140.8550402,38.2577719],[140.8549695,38.2576758],[140.8548699,38.2575574],[140.8547795,38.2574826],[140.854849,38.2572808],[140.8553635,38.2573217],[140.8554475,38.257321],[140.8555567,38.2573326],[140.8558269,38.2573786],[140.8558416,38.2574006],[140.855893,38.2576587],[140.8558766,38.2583067],[140.8558722,38.2590063],[140.8558729,38.259196],[140.8554752,38.2590835]]],[[[140.8554761,38.2567189],[140.8556353,38.256767],[140.8552777,38.2548055],[140.8542916,38.2552273],[140.854425,38.2554085],[140.8542805,38.2557348],[140.8540361,38.2563005],[140.8544105,38.2563877],[140.8544567,38.2563993],[140.8548044,38.2565057],[140.8550476,38.2565656],[140.8554761,38.2567189]]],[[[140.8608992,38.2553319],[140.8610537,38.2548306],[140.86087,38.2538676],[140.8606878,38.2534889],[140.8604217,38.2530368],[140.8603458,38.2522799],[140.8604513,38.2510739],[140.860704,38.2506953],[140.8615564,38.2502017],[140.8614399,38.2497942],[140.861378,38.249619],[140.8612338,38.2495375],[140.8610344,38.2495303],[140.8608137,38.2496881],[140.8607078,38.2497322],[140.8603217,38.2497931],[140.859507,38.2500135],[140.8589036,38.2501659],[140.8588543,38.2502191],[140.8587076,38.2502433],[140.858384,38.250145],[140.8581772,38.2500436],[140.8579102,38.2499331],[140.8575758,38.2497434],[140.8574007,38.2496176],[140.857227,38.2495505],[140.8570742,38.2496049],[140.8569455,38.2498341],[140.8557663,38.2501627],[140.8551984,38.2503091],[140.855287,38.2508796],[140.8558086,38.2508073],[140.8565358,38.2508231],[140.8565171,38.2514789],[140.8561956,38.2514631],[140.8561742,38.2516648],[140.8561724,38.2516781],[140.8562902,38.251812],[140.8563506,38.2519168],[140.8563676,38.2519542],[140.856347,38.2521419],[140.856421,38.2521506],[140.8563752,38.2525599],[140.8563491,38.2527928],[140.8562767,38.2529888],[140.8562292,38.2530458],[140.8561749,38.2530895],[140.8559936,38.2531609],[140.8559044,38.2531863],[140.8556336,38.2532439],[140.8555753,38.2532513],[140.8555395,38.2532941],[140.8555646,38.253686],[140.8556316,38.2537034],[140.8559544,38.253748],[140.8564272,38.253736],[140.8567414,38.253728],[140.8568079,38.253737],[140.8568446,38.2537518],[140.8568837,38.2537993],[140.8568909,38.253854],[140.8568498,38.2539282],[140.8567637,38.2539824],[140.8566151,38.2540725],[140.8565399,38.254108],[140.8563762,38.2541597],[140.8561292,38.2542082],[140.8559995,38.2542186],[140.8559008,38.2542241],[140.855786,38.2542391],[140.8557073,38.2542535],[140.8556449,38.2543045],[140.8555995,38.2543817],[140.855597,38.2544442],[140.8556786,38.2551012],[140.8557085,38.2552454],[140.8557724,38.2553621],[140.8558382,38.2554655],[140.855874,38.2555334],[140.8558552,38.2556176],[140.8557743,38.2556663],[140.855701,38.2557024],[140.8561189,38.2570609],[140.8562927,38.257182],[140.8565647,38.2572767],[140.8571535,38.2574462],[140.8580045,38.2575688],[140.8589431,38.2577181],[140.8593642,38.2578041],[140.8595251,38.2578256],[140.8608992,38.2553319]]]]}}
