{"type":"Feature","id":"attraction-large-park-W546732160","properties":{"id":"attraction-large-park-W546732160","kind":"attraction","name":"秦野戸川公園","shortName":"秦野戸川公園","context":"神奈川県・秦野市","subtype":"large-park","subtypeLabel":"大型都市公園・広域公園","statusLabel":"著名な公園","aliases":["神奈川県立秦野戸川公園"],"osmType":"way","osmId":546732160,"osmDate":null,"officialAreaKm2":null,"areaSourceLabel":"","areaSourceUrl":"","boundarySourceLabel":"© OpenStreetMap contributors","boundarySourceUrl":"https://www.openstreetmap.org/copyright","geometryFile":"attractions/large-park-W546732160.geojson"},"geometry":{"type":"Polygon","coordinates":[[[139.168629,35.4047917],[139.1686853,35.4047217],[139.1688596,35.4048092],[139.168924,35.404807],[139.1689616,35.4047939],[139.1691118,35.4046168],[139.1691252,35.4045796],[139.1691198,35.4045446],[139.1691064,35.4045184],[139.1690903,35.4044987],[139.1689964,35.404455],[139.1689683,35.4044255],[139.168949,35.4044008],[139.1689723,35.4043686],[139.1692646,35.4039877],[139.1692244,35.4039626],[139.1692955,35.4038909],[139.1695529,35.4036948],[139.1695798,35.4037139],[139.1697984,35.4035215],[139.1700023,35.403305],[139.1702061,35.4030318],[139.1704234,35.4027563],[139.1711444,35.4030171],[139.1710847,35.4032556],[139.1711878,35.4032679],[139.171473,35.403313],[139.1715695,35.4032363],[139.1715912,35.4031133],[139.1716535,35.4029586],[139.1717032,35.4027942],[139.1717561,35.4026918],[139.1718183,35.4026049],[139.171974,35.4025012],[139.17207,35.4023981],[139.1723251,35.4022658],[139.1724528,35.4022073],[139.172639,35.4021178],[139.1729105,35.4017892],[139.1732136,35.4015526],[139.1732226,35.4014736],[139.1734355,35.4014164],[139.173634,35.4013509],[139.1737359,35.4012503],[139.1738539,35.4011235],[139.1739612,35.4009967],[139.174047,35.4008655],[139.1741047,35.400766],[139.1742017,35.4004788],[139.1742762,35.4002664],[139.1743292,35.4001042],[139.1743706,35.4000202],[139.1744285,35.3999569],[139.1745206,35.3998924],[139.1746371,35.3998335],[139.1747605,35.399851],[139.1750716,35.3999123],[139.1753345,35.3999647],[139.1757368,35.4000828],[139.176107,35.4002227],[139.1762089,35.4002664],[139.1763805,35.400367],[139.1763937,35.4005577],[139.1763799,35.4006532],[139.1761925,35.4009388],[139.1760175,35.4011502],[139.1761419,35.4012636],[139.1762361,35.4013468],[139.1759899,35.4015692],[139.1759008,35.401758],[139.1757969,35.401795],[139.1756675,35.4020284],[139.1757494,35.4020607],[139.1756982,35.4021373],[139.1756541,35.4021476],[139.1754263,35.4024338],[139.1756173,35.4025182],[139.1756633,35.4025385],[139.1751358,35.403341],[139.1751255,35.403361],[139.1748931,35.4038129],[139.1748654,35.4038244],[139.1747896,35.4039599],[139.1747463,35.4040714],[139.1747645,35.4040853],[139.1750073,35.4042384],[139.1747809,35.4044764],[139.1754713,35.4048516],[139.1755276,35.4049106],[139.175546,35.4050011],[139.1755254,35.4050943],[139.1754326,35.4052506],[139.1752955,35.4054328],[139.1751498,35.4055351],[139.1749976,35.4055936],[139.1748398,35.4056589],[139.1746908,35.4057391],[139.1745806,35.4058986],[139.1745194,35.4060224],[139.1742807,35.4061542],[139.17404,35.4062973],[139.1738691,35.4064328],[139.1736212,35.4066464],[139.1734435,35.4068653],[139.1733356,35.4070289],[139.1732708,35.4071464],[139.1732596,35.4072977],[139.1733091,35.4076587],[139.1730071,35.4076308],[139.1729424,35.4076257],[139.1728361,35.4076157],[139.1727499,35.4075969],[139.1726528,35.4075567],[139.172602,35.4075203],[139.1725388,35.4075303],[139.1725249,35.4075529],[139.1725188,35.4075944],[139.1725172,35.4076973],[139.1725188,35.4078266],[139.1725142,35.4079509],[139.1725049,35.4079773],[139.1724818,35.4079974],[139.1724541,35.4080062],[139.1723509,35.40801],[139.1722692,35.4080112],[139.172032,35.4079522],[139.1716208,35.4078307],[139.1714814,35.4077856],[139.1714748,35.4076664],[139.1711979,35.4074638],[139.171103,35.407428],[139.1705808,35.4074561],[139.1703967,35.4074907],[139.1700753,35.4075107],[139.1697893,35.4074766],[139.1696699,35.407501],[139.1694514,35.4074963],[139.169127,35.4074691],[139.1688755,35.4075728],[139.16877,35.4076219],[139.1686554,35.4077224],[139.1685761,35.4077873],[139.1684647,35.407913],[139.1683637,35.4080281],[139.16834,35.4080551],[139.1682944,35.4081076],[139.1681885,35.4082737],[139.1680852,35.40843],[139.167994,35.4086497],[139.1679431,35.4088312],[139.1679377,35.4088574],[139.1679028,35.4092378],[139.167659,35.4093587],[139.1674192,35.4093252],[139.1673092,35.4091248],[139.1673231,35.4090403],[139.1666171,35.4090709],[139.1666931,35.4087121],[139.1667163,35.4084427],[139.1666103,35.4081691],[139.1664857,35.4079165],[139.166428,35.4077469],[139.1664054,35.4076104],[139.166484,35.4071999],[139.1664815,35.4069622],[139.1667082,35.4068412],[139.166791,35.4067698],[139.1669102,35.4065924],[139.1670365,35.4064814],[139.1673605,35.4060439],[139.1675417,35.406013],[139.1677001,35.4059745],[139.1683262,35.4060444],[139.1684633,35.406019],[139.1685329,35.4059641],[139.168605,35.4058566],[139.1687299,35.4057165],[139.1688653,35.4055603],[139.1689764,35.405339],[139.1687389,35.4051712],[139.1684705,35.4050587],[139.1684786,35.4050051],[139.1685382,35.4049196],[139.168629,35.4047917]]]}}
