{"type":"Feature","id":"attraction-large-park-W474724855","properties":{"id":"attraction-large-park-W474724855","kind":"attraction","name":"緑ケ丘公園","shortName":"緑ケ丘公園","context":"日本","subtype":"large-park","subtypeLabel":"大型都市公園・広域公園","statusLabel":"","aliases":[],"osmType":"way","osmId":474724855,"osmDate":null,"officialAreaKm2":null,"areaSourceLabel":"","areaSourceUrl":"","boundarySourceLabel":"© OpenStreetMap contributors","boundarySourceUrl":"https://www.openstreetmap.org/copyright","geometryFile":"attractions/large-park-W474724855.geojson"},"geometry":{"type":"Polygon","coordinates":[[[141.5991552,42.6498892],[141.5992226,42.6498387],[141.5993218,42.6498003],[141.5995287,42.6499394],[141.5998378,42.6501869],[141.6000118,42.650404],[141.6001579,42.6508611],[141.6015883,42.6506584],[141.6019638,42.6506353],[141.6027014,42.6505899],[141.6044726,42.6511874],[141.6044749,42.651375],[141.6042329,42.6512982],[141.6024139,42.6507211],[141.6022816,42.6506791],[141.6022253,42.650687],[141.6022567,42.6507759],[141.6023847,42.6511388],[141.6025472,42.6515994],[141.6024882,42.6516537],[141.6024962,42.6523806],[141.602519,42.6524423],[141.60246,42.6524807],[141.6025331,42.6525483],[141.6024142,42.6526218],[141.6023381,42.6526689],[141.6023182,42.6527327],[141.6028529,42.6532173],[141.6035913,42.653602],[141.6043328,42.6538593],[141.6044582,42.6539193],[141.6044887,42.6539777],[141.6043228,42.6556239],[141.603945,42.6558826],[141.6035998,42.655746],[141.6026148,42.6562895],[141.6030266,42.6565915],[141.6025577,42.6569412],[141.6013006,42.6586321],[141.599527,42.660692],[141.599316,42.660635],[141.597614,42.6604379],[141.5974976,42.6596399],[141.5960922,42.6592785],[141.5956892,42.6592785],[141.5950752,42.6594195],[141.5943652,42.6596445],[141.5938472,42.6599535],[141.5933862,42.6602075],[141.5915128,42.6609112],[141.5905794,42.6601362],[141.5861047,42.6616929],[141.5856422,42.6610031],[141.5880522,42.6595518],[141.5881043,42.6590536],[141.5897,42.658101],[141.5897,42.65789],[141.589623,42.657806],[141.589067,42.657229],[141.5900193,42.6566586],[141.5907662,42.6555107],[141.5935405,42.6509525],[141.5939971,42.6502],[141.5957316,42.650776],[141.5958553,42.653818],[141.5991398,42.653716],[141.5995751,42.6525626],[141.5995745,42.6522026],[141.5992659,42.6514023],[141.5991059,42.6509652],[141.5990678,42.6506876],[141.5990606,42.6502124],[141.5991552,42.6498892]]]}}
