{"type":"Feature","id":"attraction-large-park-W399307933","properties":{"id":"attraction-large-park-W399307933","kind":"attraction","name":"美作市総合運動公園","shortName":"美作市総合運動公園","context":"日本","subtype":"large-park","subtypeLabel":"大型都市公園・広域公園","statusLabel":"著名な公園","aliases":[],"osmType":"way","osmId":399307933,"osmDate":null,"officialAreaKm2":null,"areaSourceLabel":"","areaSourceUrl":"","boundarySourceLabel":"© OpenStreetMap contributors","boundarySourceUrl":"https://www.openstreetmap.org/copyright","geometryFile":"attractions/large-park-W399307933.geojson"},"geometry":{"type":"Polygon","coordinates":[[[134.1325155,35.004769],[134.1321978,35.0046673],[134.131537,35.0046968],[134.1309227,35.0045869],[134.1307214,35.0044903],[134.1305991,35.004234],[134.1306176,35.0040381],[134.131113,35.0037758],[134.1310158,35.0036117],[134.1314298,35.0032775],[134.1315028,35.0031338],[134.1318184,35.0029539],[134.1317142,35.0025334],[134.1313304,35.0020945],[134.131032,35.0021506],[134.1304526,35.002047],[134.1306124,35.0015975],[134.1313644,35.0016405],[134.1315172,35.001807],[134.1316972,35.0017911],[134.1320895,35.0015387],[134.1325945,35.001138],[134.1331868,35.0012027],[134.1343753,35.0008258],[134.1344297,35.001049],[134.1354127,35.0015007],[134.1355767,35.0013524],[134.1357941,35.0014645],[134.1357112,35.001597],[134.1358308,35.0016945],[134.1358516,35.0019157],[134.137507,35.0018733],[134.13755,35.0023937],[134.1377664,35.0024535],[134.1381132,35.0024157],[134.1384141,35.00227],[134.1384293,35.0019134],[134.1393238,35.0019013],[134.139353,35.0025759],[134.1394159,35.0025772],[134.139424,35.0026859],[134.1396461,35.0027101],[134.1396466,35.0030108],[134.1393568,35.0031345],[134.1394038,35.0043268],[134.1385053,35.0043406],[134.1384567,35.0033191],[134.1383335,35.0033202],[134.1383097,35.0029364],[134.1375809,35.0029297],[134.1375894,35.0030351],[134.1373453,35.0030473],[134.1370757,35.0031242],[134.13671,35.0031479],[134.1367305,35.0033894],[134.1368169,35.0034226],[134.1368225,35.0035348],[134.1364895,35.0035362],[134.1364906,35.0033895],[134.1365909,35.0033835],[134.1365813,35.0031861],[134.136134,35.0033941],[134.1360183,35.0035755],[134.1360618,35.0036296],[134.1362858,35.0037614],[134.1364279,35.0038317],[134.1366267,35.0038568],[134.1366537,35.004548],[134.1362335,35.0047489],[134.1359598,35.0047923],[134.1355656,35.0040367],[134.1346906,35.0042037],[134.1345417,35.0036506],[134.1339677,35.0036422],[134.1335339,35.0036582],[134.1334666,35.0037725],[134.1332385,35.0041697],[134.1331276,35.0043826],[134.133066,35.0044778],[134.1329549,35.0045614],[134.1328171,35.0046754],[134.1327292,35.0047441],[134.1325155,35.004769]]]}}
