{"type":"Feature","id":"attraction-large-park-W498576517","properties":{"id":"attraction-large-park-W498576517","kind":"attraction","name":"浅中公園","shortName":"浅中公園","context":"日本","subtype":"large-park","subtypeLabel":"大型都市公園・広域公園","statusLabel":"著名な公園","aliases":[],"osmType":"way","osmId":498576517,"osmDate":null,"officialAreaKm2":null,"areaSourceLabel":"","areaSourceUrl":"","boundarySourceLabel":"© OpenStreetMap contributors","boundarySourceUrl":"https://www.openstreetmap.org/copyright","geometryFile":"attractions/large-park-W498576517.geojson"},"geometry":{"type":"Polygon","coordinates":[[[136.6025312,35.3167587],[136.6036753,35.3167053],[136.6041984,35.3167358],[136.6046003,35.316727],[136.6051251,35.3166518],[136.6059356,35.3166139],[136.6064306,35.3165948],[136.6063092,35.3157298],[136.6057628,35.3125822],[136.6032483,35.3128736],[136.6037719,35.314495],[136.6019007,35.3148915],[136.60184,35.3150134],[136.6022697,35.3162252],[136.6024378,35.3164958],[136.6025312,35.3167587]]]}}
