{"type":"Feature","id":"attraction-large-park-W358619576","properties":{"id":"attraction-large-park-W358619576","kind":"attraction","name":"涸沼自然公園","shortName":"涸沼自然公園","context":"日本","subtype":"large-park","subtypeLabel":"大型都市公園・広域公園","statusLabel":"著名な公園","aliases":["Lake Hinuma Nature Park"],"osmType":"way","osmId":358619576,"osmDate":null,"officialAreaKm2":null,"areaSourceLabel":"","areaSourceUrl":"","boundarySourceLabel":"© OpenStreetMap contributors","boundarySourceUrl":"https://www.openstreetmap.org/copyright","geometryFile":"attractions/large-park-W358619576.geojson"},"geometry":{"type":"Polygon","coordinates":[[[140.5069305,36.2873719],[140.5067622,36.287212],[140.5081598,36.2862078],[140.5076736,36.2862249],[140.5057894,36.2857108],[140.5051588,36.285518],[140.5041801,36.285759],[140.5041039,36.285602],[140.5046559,36.2853932],[140.5046579,36.2852379],[140.5045937,36.2848932],[140.5035578,36.2841262],[140.5028825,36.2838061],[140.5027385,36.2839801],[140.5023696,36.2838858],[140.5022707,36.2837299],[140.5019828,36.2836066],[140.5016634,36.2835015],[140.5014475,36.283516],[140.5011416,36.2835123],[140.5007907,36.2834144],[140.5004353,36.2832331],[140.5000934,36.282972],[140.4994681,36.2830264],[140.4994457,36.283487],[140.5000799,36.2834543],[140.5001298,36.2839652],[140.4993058,36.2840053],[140.4993002,36.2853159],[140.4991356,36.2856387],[140.4991038,36.2861812],[140.4986112,36.2860971],[140.4984706,36.2864052],[140.4983959,36.2864548],[140.4982904,36.2864583],[140.4980576,36.2864052],[140.4976006,36.2872552],[140.4972207,36.2871482],[140.4971726,36.2872401],[140.4971121,36.2872641],[140.4969447,36.287299],[140.4967421,36.2874184],[140.4967421,36.2874487],[140.4974771,36.2882584],[140.4980323,36.288881],[140.4982173,36.289054],[140.49833,36.289134],[140.4984373,36.2891772],[140.4985768,36.2892053],[140.498963,36.2892096],[140.4993868,36.2891577],[140.5003175,36.2891296],[140.5005401,36.2891015],[140.5007279,36.2890432],[140.5012348,36.2888507],[140.5015728,36.2887708],[140.5017176,36.2887556],[140.5021012,36.2887643],[140.5023801,36.2887945],[140.50282,36.2889199],[140.5030319,36.2889697],[140.5031767,36.2889956],[140.5033189,36.2890042],[140.5034852,36.2889999],[140.5037105,36.2889437],[140.5039385,36.2888356],[140.5048585,36.2883081],[140.5058643,36.2879016],[140.5063981,36.2876746],[140.5067146,36.287493],[140.5069305,36.2873719]]]}}
