{"type":"Feature","id":"attraction-large-park-W168881981","properties":{"id":"attraction-large-park-W168881981","kind":"attraction","name":"農試公園","shortName":"農試公園","context":"日本","subtype":"large-park","subtypeLabel":"大型都市公園・広域公園","statusLabel":"著名な公園","aliases":["Noushi Park"],"osmType":"way","osmId":168881981,"osmDate":null,"officialAreaKm2":null,"areaSourceLabel":"","areaSourceUrl":"","boundarySourceLabel":"© OpenStreetMap contributors","boundarySourceUrl":"https://www.openstreetmap.org/copyright","geometryFile":"attractions/large-park-W168881981.geojson"},"geometry":{"type":"Polygon","coordinates":[[[141.3066404,43.0918286],[141.3050284,43.0903203],[141.3050002,43.0902953],[141.3047455,43.0900696],[141.3046395,43.0899756],[141.3045148,43.0898238],[141.3042693,43.0893958],[141.3041844,43.0891173],[141.3041486,43.088626],[141.3041969,43.0882852],[141.3044088,43.0877426],[141.3044437,43.0875251],[141.3043686,43.0870942],[141.3042747,43.0867651],[141.3039367,43.0862871],[141.3035308,43.0857323],[141.3031186,43.0852313],[141.3027458,43.0847298],[141.3024276,43.0848724],[141.3027897,43.0852055],[141.3029551,43.0855427],[141.3030525,43.0857911],[141.30309,43.0860634],[141.3031159,43.0863518],[141.3030382,43.0867945],[141.3029587,43.0871839],[141.3028299,43.0879087],[141.3026743,43.0885864],[141.3025367,43.0889257],[141.3024276,43.0892544],[141.3023221,43.0895035],[141.302145,43.0898326],[141.3018187,43.0904022],[141.3016872,43.090602],[141.3014968,43.0908802],[141.3012598,43.091286],[141.3010543,43.0916244],[141.3009443,43.0918086],[141.3016461,43.0923535],[141.3023954,43.091936],[141.3025965,43.0917949],[141.3026814,43.0917777],[141.3034414,43.0918654],[141.3037972,43.0918972],[141.3041969,43.0919167],[141.3043847,43.0920578],[141.304508,43.0921439],[141.3046153,43.0922243],[141.3047279,43.0923085],[141.304854,43.0924005],[141.3050105,43.0925176],[141.3052537,43.0927276],[141.3054262,43.0926112],[141.3066055,43.091905],[141.3066404,43.0918286]]]}}
