{"type":"Feature","id":"attraction-large-industrial-complex-R17831881","properties":{"id":"attraction-large-industrial-complex-R17831881","kind":"attraction","name":"山陽特殊製鋼株式会社","shortName":"山陽特殊製鋼株式会社","context":"日本","subtype":"industrial-complex","subtypeLabel":"工業地帯・大規模工場","statusLabel":"","aliases":["Sanyo Special Steel Co., Ltd."],"osmType":"relation","osmId":17831881,"osmDate":null,"officialAreaKm2":null,"areaSourceLabel":"","areaSourceUrl":"","boundarySourceLabel":"© OpenStreetMap contributors","boundarySourceUrl":"https://www.openstreetmap.org/copyright","geometryFile":"attractions/large-industrial-complex-R17831881.geojson"},"geometry":{"type":"MultiPolygon","coordinates":[[[[134.6711463,34.7936272],[134.6705118,34.7932289],[134.6699126,34.7928329],[134.6694766,34.792679],[134.6690265,34.792538],[134.6687364,34.7924456],[134.6683396,34.7924456],[134.6681798,34.7924408],[134.6666587,34.7916323],[134.6662554,34.7906849],[134.6659182,34.7898236],[134.6658084,34.7897759],[134.6656157,34.7892604],[134.6655406,34.7890975],[134.6654736,34.788599],[134.6656261,34.7884986],[134.6688203,34.7863683],[134.6697326,34.7875002],[134.674604,34.784252],[134.6758249,34.7858105],[134.6764137,34.7858985],[134.6768426,34.7856062],[134.6769727,34.7856099],[134.6774473,34.7859941],[134.6777417,34.7862958],[134.6777348,34.7864101],[134.6772031,34.7870679],[134.6772397,34.787156],[134.674695,34.7887162],[134.6743753,34.7895331],[134.6747913,34.7906115],[134.6747647,34.7906899],[134.6714918,34.7931225],[134.6711463,34.7936272]]],[[[134.669614,34.779394],[134.6694,34.779541],[134.668739,34.778893],[134.668634,34.77879],[134.668673,34.778708],[134.6690905,34.7786874],[134.6723824,34.7762151],[134.674013,34.7777217],[134.6759074,34.7804972],[134.6759283,34.7806453],[134.67612,34.7809763],[134.6735039,34.7828802],[134.669695,34.7793357],[134.669614,34.779394]]]]}}
