{"type":"Feature","id":"attraction-large-park-W628945764","properties":{"id":"attraction-large-park-W628945764","kind":"attraction","name":"春日公園","shortName":"春日公園","context":"日本","subtype":"large-park","subtypeLabel":"大型都市公園・広域公園","statusLabel":"著名な公園","aliases":[],"osmType":"way","osmId":628945764,"osmDate":null,"officialAreaKm2":null,"areaSourceLabel":"","areaSourceUrl":"","boundarySourceLabel":"© OpenStreetMap contributors","boundarySourceUrl":"https://www.openstreetmap.org/copyright","geometryFile":"attractions/large-park-W628945764.geojson"},"geometry":{"type":"Polygon","coordinates":[[[130.4718022,33.5323278],[130.4723128,33.5318935],[130.4724066,33.5318152],[130.4724788,33.5317548],[130.4746748,33.5299008],[130.4746856,33.5298158],[130.4743892,33.5294223],[130.4739413,33.5288119],[130.4736784,33.5285503],[130.4728228,33.5279242],[130.472509,33.5276827],[130.4717365,33.5270857],[130.4713476,33.5267794],[130.4710123,33.5265267],[130.4707736,33.5263277],[130.4706663,33.5261958],[130.4704785,33.5259119],[130.4703605,33.5255675],[130.4703364,33.5253372],[130.4702841,33.5245501],[130.4701768,33.5245211],[130.4685071,33.5260718],[130.4684173,33.5261601],[130.4674772,33.5270253],[130.4674087,33.5270885],[130.4673524,33.527145],[130.4672909,33.527204],[130.4671459,33.5273619],[130.4670574,33.5274401],[130.4668991,33.5275732],[130.466769,33.5276699],[130.4666496,33.5277487],[130.4664311,33.5278649],[130.4664243,33.5279365],[130.4668133,33.5282652],[130.4673283,33.5286945],[130.4679706,33.5292412],[130.4702821,33.5311663],[130.4703328,33.5312084],[130.4704175,33.5312786],[130.4716748,33.5323334],[130.4718022,33.5323278]]]}}
