{"type":"Feature","id":"attraction-large-park-W565426787","properties":{"id":"attraction-large-park-W565426787","kind":"attraction","name":"富士山樹空の森","shortName":"富士山樹空の森","context":"日本","subtype":"large-park","subtypeLabel":"大型都市公園・広域公園","statusLabel":"著名な公園","aliases":[],"osmType":"way","osmId":565426787,"osmDate":null,"officialAreaKm2":null,"areaSourceLabel":"","areaSourceUrl":"","boundarySourceLabel":"© OpenStreetMap contributors","boundarySourceUrl":"https://www.openstreetmap.org/copyright","geometryFile":"attractions/large-park-W565426787.geojson"},"geometry":{"type":"Polygon","coordinates":[[[138.8674683,35.2947689],[138.8678046,35.2945643],[138.8681516,35.2943683],[138.8684742,35.2941696],[138.8686946,35.2940337],[138.8687842,35.2940592],[138.8690712,35.2944082],[138.8692648,35.2946132],[138.8694522,35.2948837],[138.8695373,35.2950551],[138.8696083,35.2952163],[138.8696727,35.2954109],[138.8697363,35.2957063],[138.8698344,35.2960853],[138.870117,35.2972897],[138.8701538,35.2975067],[138.870207,35.2976657],[138.8702946,35.2978415],[138.8700019,35.2979985],[138.869751,35.2978455],[138.8697363,35.2978365],[138.8694664,35.2980753],[138.8696128,35.2981584],[138.8697253,35.2980926],[138.8698171,35.2981226],[138.8698429,35.2982032],[138.8697983,35.2982728],[138.8697006,35.2982836],[138.8697147,35.2984088],[138.8696284,35.2984187],[138.8693296,35.2985285],[138.869131,35.2983215],[138.8691006,35.2983335],[138.8690175,35.2983991],[138.8689017,35.2985393],[138.8693322,35.2988778],[138.8694647,35.2989928],[138.8700958,35.2986911],[138.8703899,35.2992438],[138.8702186,35.2993392],[138.8700349,35.2994021],[138.8695906,35.2995532],[138.8691526,35.2995696],[138.8684518,35.2993774],[138.8683095,35.299222],[138.8682235,35.2991281],[138.8681536,35.2990878],[138.8676903,35.2987691],[138.8675379,35.2986643],[138.8674576,35.2986242],[138.8676791,35.2984407],[138.8674752,35.2981759],[138.8671668,35.2977731],[138.8668234,35.2975454],[138.8665096,35.2973155],[138.8662065,35.2971098],[138.8660689,35.2970207],[138.865949,35.2969521],[138.865831,35.2968799],[138.8657164,35.2967887],[138.8656111,35.2967048],[138.8655226,35.2965778],[138.8654636,35.2964815],[138.8653616,35.2964202],[138.8652678,35.2963764],[138.8653153,35.2963262],[138.8653858,35.2962516],[138.865772,35.2959648],[138.8661341,35.2956802],[138.8662119,35.2956649],[138.8669227,35.2962757],[138.8667242,35.2964552],[138.866751,35.2965165],[138.8669602,35.2967113],[138.8671909,35.2969281],[138.867274,35.2970091],[138.8673331,35.2970397],[138.8678722,35.2967332],[138.8679687,35.2966019],[138.868929,35.2958247],[138.8684998,35.2956058],[138.8685266,35.2955511],[138.8680814,35.295203],[138.8674683,35.2947689]]]}}
