{"type":"Feature","id":"attraction-large-park-R14699698","properties":{"id":"attraction-large-park-R14699698","kind":"attraction","name":"あけぼの山公園/あけぼの山農業公園","shortName":"あけぼの山公園/あけぼの山農業公園","context":"日本","subtype":"large-park","subtypeLabel":"大型都市公園・広域公園","statusLabel":"著名な公園","aliases":[],"osmType":"relation","osmId":14699698,"osmDate":null,"officialAreaKm2":null,"areaSourceLabel":"","areaSourceUrl":"","boundarySourceLabel":"© OpenStreetMap contributors","boundarySourceUrl":"https://www.openstreetmap.org/copyright","geometryFile":"attractions/large-park-R14699698.geojson"},"geometry":{"type":"MultiPolygon","coordinates":[[[[140.0066863,35.8959494],[140.006779,35.8957492],[140.0070794,35.8951875],[140.0072993,35.895131],[140.0074401,35.8951125],[140.0076251,35.8950397],[140.0080921,35.8948207],[140.0082814,35.8946017],[140.0083489,35.8945743],[140.0102177,35.896685],[140.0092749,35.8972024],[140.0107246,35.8988668],[140.0056928,35.9008815],[140.0058228,35.8995352],[140.006146,35.8993429],[140.0061138,35.8990518],[140.0060669,35.8986824],[140.0057638,35.8985314],[140.0055519,35.8985042],[140.005448,35.8984636],[140.0053512,35.8970643],[140.0054258,35.8969204],[140.005463,35.8968246],[140.0063247,35.8963017],[140.0065657,35.896087],[140.0066863,35.8959494]]],[[[140.0066382,35.8957883],[140.0065047,35.8957502],[140.0063841,35.8957483],[140.0062888,35.8957475],[140.0062763,35.8957686],[140.006272,35.8958187],[140.0061118,35.8959623],[140.0058448,35.8960718],[140.0055667,35.8960764],[140.0053481,35.89608],[140.0053177,35.8959623],[140.0051791,35.8959897],[140.0050777,35.8958856],[140.0049425,35.8959486],[140.0047263,35.8957405],[140.0045911,35.8958172],[140.0042295,35.8954148],[140.0046587,35.8951492],[140.0040132,35.8948344],[140.0039524,35.8948755],[140.003459,35.8944539],[140.0036313,35.8943252],[140.0032292,35.8939638],[140.0038578,35.8935258],[140.0039997,35.8936298],[140.0045235,35.8932137],[140.0048074,35.8930686],[140.0051962,35.8934083],[140.004924,35.8935922],[140.0049477,35.8936059],[140.0054123,35.8938735],[140.0063517,35.8949439],[140.0066255,35.894818],[140.0071864,35.8949603],[140.007396,35.8948508],[140.0075676,35.8950191],[140.007349,35.895081],[140.0070834,35.8950951],[140.0070231,35.8951223],[140.006997,35.8951645],[140.0069506,35.895295],[140.0067052,35.8957644],[140.0066382,35.8957883]]],[[[140.0042671,35.8989393],[140.0044965,35.8986451],[140.004074,35.8983248],[140.0038814,35.8980839],[140.0035773,35.8982591],[140.0027797,35.8977362],[140.002844,35.8972955],[140.0027764,35.8970546],[140.0026851,35.8969451],[140.0030298,35.89657],[140.0029386,35.8965016],[140.0033813,35.8960389],[140.0037733,35.8959294],[140.004047,35.8961265],[140.0039591,35.8962196],[140.004243,35.896414],[140.00442,35.8962489],[140.0045769,35.8961848],[140.0052461,35.8961327],[140.0059341,35.8961012],[140.006205,35.8959567],[140.006361,35.8958219],[140.0065053,35.8957924],[140.0066519,35.8958956],[140.0064906,35.8960938],[140.006203,35.896338],[140.0054218,35.8967883],[140.0052595,35.8970501],[140.0053816,35.8985238],[140.0053199,35.8985738],[140.0051201,35.8985961],[140.0050215,35.898636],[140.0049363,35.898683],[140.0048729,35.8987403],[140.0048212,35.8987929],[140.0046359,35.8989979],[140.0045782,35.8990159],[140.0045192,35.8990105],[140.0042671,35.8989393]]]]}}
