{"type":"Feature","id":"attraction-large-park-W447001724","properties":{"id":"attraction-large-park-W447001724","kind":"attraction","name":"柏の葉公園","shortName":"柏の葉公園","context":"日本","subtype":"large-park","subtypeLabel":"大型都市公園・広域公園","statusLabel":"著名な公園","aliases":[],"osmType":"way","osmId":447001724,"osmDate":null,"officialAreaKm2":null,"areaSourceLabel":"","areaSourceUrl":"","boundarySourceLabel":"© OpenStreetMap contributors","boundarySourceUrl":"https://www.openstreetmap.org/copyright","geometryFile":"attractions/large-park-W447001724.geojson"},"geometry":{"type":"Polygon","coordinates":[[[139.943211,35.8927991],[139.9419071,35.8923666],[139.9417189,35.8923168],[139.9415664,35.8922845],[139.9413552,35.8922525],[139.9411985,35.8922389],[139.9410917,35.8922367],[139.940924,35.8922356],[139.9406598,35.8922487],[139.9404993,35.8922672],[139.9400566,35.8923472],[139.93675,35.8929408],[139.9367096,35.8929481],[139.9354004,35.8959349],[139.9352044,35.8963508],[139.9346154,35.8976584],[139.9341667,35.8986247],[139.9366551,35.8996035],[139.9367756,35.8996536],[139.9374654,35.8999316],[139.9377622,35.9000437],[139.938165,35.9002143],[139.9385919,35.900423],[139.9388595,35.9005633],[139.9389582,35.9005488],[139.9398828,35.8993824],[139.9401257,35.8990136],[139.9402039,35.8988948],[139.9404788,35.8984054],[139.9407965,35.8977863],[139.9416365,35.8961296],[139.9418081,35.8957871],[139.9420427,35.895319],[139.9422893,35.8948268],[139.9422625,35.894817],[139.9423104,35.894722],[139.9423464,35.8946507],[139.9423946,35.8945552],[139.9424224,35.8945017],[139.942861,35.8936361],[139.9429189,35.893516],[139.9431541,35.893058],[139.9431462,35.8930304],[139.9431619,35.8929983],[139.943214,35.8928901],[139.943187,35.8928413],[139.943211,35.8927991]]]}}
