{"type":"Feature","id":"attraction-large-park-R2120266","properties":{"id":"attraction-large-park-R2120266","kind":"attraction","name":"ふなばしアンデルセン公園","shortName":"ふなばしアンデルセン公園","context":"日本","subtype":"large-park","subtypeLabel":"大型都市公園・広域公園","statusLabel":"著名な公園","aliases":["H.C. Andersen Park"],"osmType":"relation","osmId":2120266,"osmDate":null,"officialAreaKm2":null,"areaSourceLabel":"","areaSourceUrl":"","boundarySourceLabel":"© OpenStreetMap contributors","boundarySourceUrl":"https://www.openstreetmap.org/copyright","geometryFile":"attractions/large-park-R2120266.geojson"},"geometry":{"type":"MultiPolygon","coordinates":[[[[140.0624551,35.76286],[140.0625783,35.7627619],[140.0627507,35.7628901],[140.0628517,35.7632173],[140.0631061,35.7634257],[140.0630608,35.7634652],[140.063134,35.7635252],[140.0632867,35.7636507],[140.0633124,35.7636323],[140.0633832,35.7636826],[140.0634052,35.7636892],[140.0634264,35.7636898],[140.0634535,35.7636817],[140.0636187,35.7635532],[140.0636564,35.7635336],[140.0637892,35.7634569],[140.0638479,35.7634188],[140.0623833,35.7622277],[140.0629501,35.7618032],[140.0631613,35.7615462],[140.0631205,35.7615096],[140.0631554,35.7614847],[140.063291,35.7614279],[140.063215,35.7613484],[140.0634312,35.7612431],[140.0634089,35.7612181],[140.0633245,35.7611236],[140.0633529,35.7610495],[140.0633599,35.7610312],[140.0634258,35.7609774],[140.0632837,35.7608274],[140.0631731,35.760911],[140.0631012,35.7608492],[140.0632082,35.7607616],[140.0631492,35.760723],[140.0633007,35.7606013],[140.0633456,35.7606511],[140.0637486,35.7604231],[140.0638238,35.7604423],[140.064214,35.7602847],[140.0643799,35.7604571],[140.0644862,35.7604658],[140.0645732,35.7604824],[140.0646333,35.7605189],[140.064682,35.7605436],[140.0647563,35.7605328],[140.0648294,35.7606575],[140.0648702,35.7606966],[140.0649241,35.7607084],[140.0649911,35.7606977],[140.0651514,35.7606552],[140.0652856,35.7606048],[140.0658508,35.7604731],[140.0659717,35.7603868],[140.066081,35.7602425],[140.0660985,35.7602183],[140.0660315,35.7602224],[140.0658741,35.7602342],[140.065743,35.7602437],[140.065622,35.7602319],[140.0655098,35.7602035],[140.065096,35.7600379],[140.0651059,35.7600169],[140.0651162,35.7599952],[140.065272,35.7597417],[140.0652397,35.7595565],[140.0652658,35.7594565],[140.0644751,35.7593518],[140.064561,35.7587517],[140.0636675,35.7586734],[140.0635028,35.7585033],[140.0633299,35.7584261],[140.0630708,35.7583066],[140.0619879,35.7582718],[140.0617735,35.7584953],[140.0604956,35.7578675],[140.0604566,35.7578201],[140.0603351,35.7577704],[140.0602307,35.7577646],[140.0601695,35.7577262],[140.0601669,35.7576455],[140.0600526,35.7575914],[140.0599667,35.7575781],[140.0599565,35.7575765],[140.0599459,35.7576251],[140.0599276,35.7576984],[140.0599012,35.7577819],[140.0598967,35.7577889],[140.0598614,35.7578433],[140.0598677,35.7578474],[140.0598758,35.7578527],[140.0598347,35.7579054],[140.0596565,35.758136],[140.0590849,35.7588758],[140.0590533,35.7589321],[140.0590263,35.7589921],[140.0589931,35.7590949],[140.0589825,35.7591387],[140.058976,35.7591839],[140.0589757,35.7593116],[140.0589825,35.7593748],[140.0589969,35.7594351],[140.0590637,35.7595982],[140.0593234,35.7602301],[140.0593358,35.7602755],[140.0593417,35.7603217],[140.0593378,35.7603997],[140.0593095,35.760501],[140.0592553,35.7605946],[140.0592074,35.7606496],[140.0591531,35.7607027],[140.0588117,35.7610302],[140.0587647,35.7610845],[140.0587268,35.7611445],[140.0587076,35.7611953],[140.0586895,35.7612556],[140.0586762,35.7613303],[140.0586809,35.7614407],[140.0595829,35.7620072],[140.0590509,35.7625303],[140.0584331,35.7632612],[140.0581472,35.7637017],[140.0586212,35.7638869],[140.0595664,35.7642561],[140.060412,35.7645818],[140.0610985,35.7639107],[140.0617241,35.7634135],[140.0617719,35.7633755],[140.0624551,35.76286]]],[[[140.0586097,35.7587376],[140.0586461,35.7586824],[140.0588232,35.7584937],[140.0591317,35.7586675],[140.0589975,35.7588435],[140.0589503,35.7589132],[140.0589202,35.7589724],[140.0588944,35.7590822],[140.0588862,35.7591232],[140.0588831,35.7591865],[140.0588803,35.7593202],[140.0588859,35.7593915],[140.0588974,35.7594511],[140.0589684,35.7596278],[140.0592424,35.7602445],[140.0592492,35.7602841],[140.0592484,35.760325],[140.0592363,35.7603929],[140.0592103,35.7604731],[140.0591647,35.760549],[140.059134,35.7605896],[140.0591001,35.7606269],[140.058728,35.7609703],[140.0586809,35.7610266],[140.0586336,35.7611092],[140.0586091,35.761167],[140.0585857,35.7612426],[140.0585752,35.7613207],[140.0585756,35.7613846],[140.058422,35.7613754],[140.0582743,35.7612537],[140.0579352,35.761602],[140.0575313,35.7620559],[140.0573258,35.7622448],[140.0572033,35.762221],[140.0570234,35.762529],[140.0567156,35.7630562],[140.056572,35.7630996],[140.0558515,35.7628193],[140.0561835,35.7622102],[140.0564133,35.7617884],[140.0570511,35.7611474],[140.0576216,35.760442],[140.0582248,35.7598863],[140.0579318,35.7597026],[140.0578036,35.7596137],[140.0577681,35.7595693],[140.0577456,35.7595292],[140.0577585,35.7594908],[140.0578057,35.7594577],[140.0578583,35.7594482],[140.0579324,35.7593671],[140.0579593,35.759307],[140.0579625,35.7592486],[140.0579485,35.7592112],[140.0578828,35.7591507],[140.0578838,35.7589409],[140.0580355,35.7588644],[140.0582145,35.7587633],[140.0586097,35.7587376]]]]}}
