{"type":"Feature","id":"attraction-large-park-W482958171","properties":{"id":"attraction-large-park-W482958171","kind":"attraction","name":"東広島運動公園","shortName":"東広島運動公園","context":"日本","subtype":"large-park","subtypeLabel":"大型都市公園・広域公園","statusLabel":"著名な公園","aliases":[],"osmType":"way","osmId":482958171,"osmDate":null,"officialAreaKm2":null,"areaSourceLabel":"","areaSourceUrl":"","boundarySourceLabel":"© OpenStreetMap contributors","boundarySourceUrl":"https://www.openstreetmap.org/copyright","geometryFile":"attractions/large-park-W482958171.geojson"},"geometry":{"type":"Polygon","coordinates":[[[132.723711,34.3803286],[132.7236615,34.3803722],[132.7235516,34.3804726],[132.7235586,34.3805014],[132.7235302,34.3805276],[132.7235105,34.3805458],[132.7234619,34.3805861],[132.7234861,34.380604],[132.7238711,34.3808891],[132.7233691,34.380857],[132.7232,34.3808828],[132.72317,34.3809801],[132.723122,34.381088],[132.723098,34.3813515],[132.7230904,34.381358],[132.723025,34.3814138],[132.7230178,34.381419],[132.7228805,34.3815182],[132.7228204,34.3815936],[132.722752,34.3817022],[132.7227274,34.3818133],[132.7226863,34.3820668],[132.7227178,34.3821716],[132.7227131,34.3822299],[132.7227634,34.3823931],[132.72284,34.38248],[132.7229319,34.3825589],[132.7231003,34.3826763],[132.7230733,34.3827277],[132.7230637,34.3827712],[132.7230769,34.3828032],[132.7231012,34.3828261],[132.7231707,34.3828612],[132.7232535,34.3829112],[132.723329,34.3832271],[132.7234914,34.3832629],[132.723463,34.3834602],[132.7236695,34.3834691],[132.7237688,34.3833938],[132.7238334,34.3831518],[132.7238197,34.3830286],[132.7238707,34.3829422],[132.7239297,34.382867],[132.7239994,34.3827917],[132.7240799,34.3827165],[132.7241389,34.3826501],[132.7242221,34.3825726],[132.724324,34.382411],[132.7244259,34.3822295],[132.7244415,34.3822029],[132.7244519,34.3822065],[132.724469,34.3821805],[132.7245856,34.381992],[132.7246144,34.3819453],[132.7246646,34.3818642],[132.724704,34.3817957],[132.7247131,34.3817466],[132.7247073,34.3816562],[132.7247175,34.3815598],[132.7247397,34.3814614],[132.7247429,34.381447],[132.7247612,34.3813861],[132.7247853,34.3813507],[132.7248852,34.3813872],[132.7249805,34.3814182],[132.7250408,34.3814304],[132.725124,34.3814337],[132.7252138,34.3814138],[132.7253211,34.3813905],[132.7254364,34.3813507],[132.7255357,34.3813175],[132.7256537,34.3812809],[132.7257248,34.3812643],[132.7258736,34.3812588],[132.7259662,34.381261],[132.7260668,34.3812566],[132.7261405,34.3812577],[132.7261459,34.3813872],[132.7261445,34.3817071],[132.7261499,34.3819052],[132.7261821,34.3819793],[132.7262076,34.3820136],[132.7262411,34.3820457],[132.7262693,34.3820944],[132.7262652,34.3821797],[132.7262693,34.3822405],[132.7262693,34.3823058],[132.7262786,34.3823512],[132.7262988,34.3824021],[132.7263256,34.3824475],[132.7263658,34.3825106],[132.7263294,34.3835108],[132.7263532,34.3836793],[132.7264285,34.3843401],[132.726692,34.3841083],[132.7270896,34.3838043],[132.7271114,34.3836638],[132.7270952,34.3835064],[132.726951,34.3834408],[132.7269121,34.3830289],[132.7269539,34.3828803],[132.7271054,34.3828736],[132.727265,34.3828692],[132.727329,34.3828673],[132.7274166,34.3828648],[132.7275641,34.3828592],[132.7276338,34.3828559],[132.7276365,34.3829212],[132.7280603,34.3829179],[132.7280603,34.3827729],[132.7280603,34.3827231],[132.7281354,34.3827242],[132.7282105,34.3827286],[132.728295,34.382732],[132.7283996,34.3827331],[132.7284747,34.3827353],[132.7285605,34.3827375],[132.7286316,34.3827364],[132.7287054,34.3827386],[132.72881,34.3827331],[132.7289267,34.3827397],[132.7290272,34.3827286],[132.7291144,34.3827176],[132.7291976,34.382691],[132.7292673,34.3826445],[132.7293196,34.3825925],[132.7293786,34.3825327],[132.7294497,34.3824708],[132.7295127,34.3824154],[132.7295623,34.3823756],[132.7296133,34.3823501],[132.7296602,34.3823402],[132.7297085,34.3823413],[132.7297729,34.3823413],[132.7298748,34.3823379],[132.7299754,34.3823413],[132.7301243,34.3823413],[132.7303013,34.3823457],[132.7304488,34.3823468],[132.7305923,34.3823501],[132.7307331,34.3823634],[132.7308042,34.3823778],[132.7308552,34.3824121],[132.7308914,34.3824597],[132.7309303,34.3825139],[132.7309561,34.3825492],[132.7309853,34.3825892],[132.7310376,34.3827154],[132.7310537,34.3827729],[132.7310576,34.3828027],[132.7315371,34.3827962],[132.7315063,34.382691],[132.7314915,34.3826312],[132.7314827,34.3825583],[132.7314808,34.3825427],[132.7314647,34.3824276],[132.7314647,34.3823512],[132.7315063,34.3822782],[132.7315519,34.3821907],[132.7315854,34.3821288],[132.7316377,34.382038],[132.7317356,34.3819716],[132.7317933,34.3819461],[132.7318563,34.3818963],[132.7318724,34.3818255],[132.7319059,34.3817679],[132.731981,34.381717],[132.7320333,34.381686],[132.732091,34.3816595],[132.7321768,34.3816384],[132.732264,34.3816263],[132.7323096,34.3816241],[132.7323606,34.3815975],[132.7324035,34.3815687],[132.732429,34.3815322],[132.732429,34.381478],[132.7324638,34.3814459],[132.7325188,34.3814127],[132.7325497,34.3813673],[132.7325201,34.381313],[132.7324813,34.3812654],[132.7324692,34.3811968],[132.7324142,34.3810961],[132.7323874,34.3810297],[132.7323685,34.3809584],[132.7323029,34.3808438],[132.7322761,34.3808017],[132.7321312,34.3808404],[132.7320977,34.3808338],[132.7320508,34.3808471],[132.7320162,34.3808527],[132.7319649,34.3807156],[132.7319452,34.3806906],[132.7319161,34.3806868],[132.7316582,34.3808635],[132.7316088,34.3808818],[132.7315656,34.3808887],[132.7315363,34.3808863],[132.7315069,34.3808739],[132.731328,34.3807109],[132.7312877,34.3806742],[132.7313211,34.3806457],[132.7312838,34.3806113],[132.7314038,34.3805254],[132.7317845,34.3802527],[132.7317992,34.3801932],[132.7319113,34.3800834],[132.7319609,34.3800413],[132.7319341,34.3800081],[132.7318523,34.3799339],[132.7317718,34.3798686],[132.7317115,34.3798199],[132.7316525,34.3797856],[132.7316136,34.3797801],[132.731537,34.3797093],[132.731525,34.3796982],[132.7314701,34.3796727],[132.7313842,34.3796594],[132.7313145,34.3796583],[132.7312246,34.3796517],[132.7311723,34.3796517],[132.7311348,34.3796373],[132.731049,34.3796218],[132.7309832,34.3796107],[132.7309041,34.3796008],[132.7308384,34.3795941],[132.730774,34.3795842],[132.7306895,34.3795764],[132.7306359,34.3795886],[132.7305434,34.3796074],[132.7304468,34.3796384],[132.7303811,34.3796506],[132.7303455,34.3796716],[132.7302946,34.3797115],[132.7302911,34.3797169],[132.7302664,34.3797557],[132.7302436,34.37981],[132.7302369,34.379872],[132.7302356,34.3799262],[132.7302329,34.3799749],[132.7302248,34.3800037],[132.7301967,34.3800258],[132.7301471,34.380038],[132.7301055,34.3800435],[132.730059,34.3800317],[132.7300009,34.3800114],[132.7299298,34.3799815],[132.7298068,34.3799278],[132.7297675,34.3799107],[132.7296549,34.3798609],[132.7296103,34.3798416],[132.7294832,34.3797867],[132.729266,34.3797093],[132.7290954,34.3796484],[132.7290863,34.3796451],[132.7287872,34.3795344],[132.728747,34.3795233],[132.7286477,34.3795056],[132.7286075,34.3795266],[132.7285297,34.3795078],[132.7284948,34.379551],[132.7284546,34.379613],[132.7284332,34.3796562],[132.7284251,34.3796727],[132.7284211,34.3797292],[132.7284184,34.3798],[132.7284184,34.3798753],[132.7284197,34.3799428],[132.7284264,34.3800192],[132.7284281,34.3800243],[132.7284425,34.3800679],[132.7284653,34.3800845],[132.7284895,34.3800955],[132.728519,34.3800966],[132.7285967,34.3800966],[132.7286745,34.3800966],[132.7287443,34.3800966],[132.7287818,34.3800955],[132.7288355,34.3800944],[132.7288556,34.3801044],[132.7288533,34.3803773],[132.7288555,34.3806645],[132.7288417,34.380689],[132.7287525,34.380691],[132.7286694,34.3806879],[132.7285221,34.3806927],[132.7284436,34.3806932],[132.7283342,34.3806987],[132.7282548,34.3807066],[132.7281701,34.380717],[132.7280892,34.3807191],[132.727959,34.3807406],[132.7279379,34.3807499],[132.727824,34.3805737],[132.7277505,34.3804888],[132.7276613,34.3804862],[132.7276211,34.3804907],[132.7275799,34.3805144],[132.7275379,34.3805493],[132.7275017,34.3805914],[132.7274682,34.3806224],[132.7274387,34.3806512],[132.7274092,34.3806722],[132.7273515,34.3806999],[132.727314,34.3806866],[132.7272389,34.3806467],[132.7271463,34.3805991],[132.7270869,34.3805944],[132.7270766,34.3805936],[132.7269532,34.3805925],[132.7268151,34.3805947],[132.7267024,34.3805936],[132.7266662,34.3806235],[132.7266542,34.38066],[132.7266381,34.3807021],[132.7266166,34.3807231],[132.7265898,34.3807475],[132.7265643,34.3807906],[132.7265348,34.3808338],[132.7263323,34.3808294],[132.7262263,34.3808194],[132.7260654,34.3808105],[132.7259072,34.3808061],[132.7257972,34.3807973],[132.7256684,34.3807884],[132.7255826,34.3807884],[132.7255263,34.3807773],[132.7254887,34.3808128],[132.725427,34.3808548],[132.7253654,34.380888],[132.7253157,34.3808969],[132.7252701,34.3809002],[132.7252447,34.3808902],[132.7252299,34.3808482],[132.7252138,34.3808117],[132.7251414,34.38066],[132.7251012,34.3806191],[132.7249211,34.3804958],[132.7247111,34.3800763],[132.724665,34.3800236],[132.7245752,34.379971],[132.7244798,34.3799276],[132.7244321,34.3799151],[132.7243705,34.3799232],[132.7243139,34.3799555],[132.7242785,34.380004],[132.7242578,34.3800643],[132.7242003,34.3801756],[132.7241331,34.380199],[132.7239963,34.3802168],[132.7238766,34.3802292],[132.7238164,34.3802463],[132.7237618,34.3802795],[132.723711,34.3803286]]]}}
