{"type":"Feature","id":"attraction-large-park-W315118517","properties":{"id":"attraction-large-park-W315118517","kind":"attraction","name":"海の公園","shortName":"海の公園","context":"日本","subtype":"large-park","subtypeLabel":"大型都市公園・広域公園","statusLabel":"著名な公園","aliases":["Marine park"],"osmType":"way","osmId":315118517,"osmDate":null,"officialAreaKm2":null,"areaSourceLabel":"","areaSourceUrl":"","boundarySourceLabel":"© OpenStreetMap contributors","boundarySourceUrl":"https://www.openstreetmap.org/copyright","geometryFile":"attractions/large-park-W315118517.geojson"},"geometry":{"type":"Polygon","coordinates":[[[139.6375565,35.3435156],[139.6376456,35.3435285],[139.6378894,35.3433589],[139.6389375,35.343],[139.639676,35.3425688],[139.6399482,35.3422878],[139.6402819,35.3417031],[139.6421725,35.3391446],[139.6417718,35.3389517],[139.6392022,35.3406933],[139.6380006,35.3403301],[139.6366541,35.3394724],[139.6355061,35.3384178],[139.6337627,35.3360941],[139.6353881,35.3348994],[139.6352701,35.3342736],[139.6348249,35.3343392],[139.6339698,35.3341167],[139.6336999,35.3348712],[139.6328963,35.3346507],[139.6334599,35.3331656],[139.6332526,35.333112],[139.6332994,35.3329801],[139.6331753,35.3329483],[139.633053,35.3332912],[139.6332249,35.3333356],[139.6329883,35.3338976],[139.6328375,35.3338733],[139.6325713,35.334562],[139.6319229,35.3363858],[139.6318615,35.3367168],[139.6318666,35.336953],[139.631926,35.3372791],[139.6320465,35.3376575],[139.6323086,35.3381036],[139.6330378,35.3391103],[139.6342198,35.3406661],[139.6355594,35.3418253],[139.6357117,35.3418637],[139.636214,35.3422861],[139.6362406,35.3424211],[139.6375565,35.3435156]]]}}
