{"type":"Feature","id":"attraction-large-industrial-complex-W496050886","properties":{"id":"attraction-large-industrial-complex-W496050886","kind":"attraction","name":"トヨタ自動車株 本社工場","shortName":"トヨタ自動車株 本社工場","context":"日本","subtype":"industrial-complex","subtypeLabel":"工業地帯・大規模工場","statusLabel":"","aliases":[],"osmType":"way","osmId":496050886,"osmDate":null,"officialAreaKm2":null,"areaSourceLabel":"","areaSourceUrl":"","boundarySourceLabel":"© OpenStreetMap contributors","boundarySourceUrl":"https://www.openstreetmap.org/copyright","geometryFile":"attractions/large-industrial-complex-W496050886.geojson"},"geometry":{"type":"Polygon","coordinates":[[[137.1516759,35.0619364],[137.1524484,35.0621647],[137.1530044,35.061976],[137.1531426,35.0616173],[137.1532853,35.061247],[137.1538508,35.0613312],[137.1541713,35.0614286],[137.1543374,35.0614292],[137.1549502,35.0612193],[137.1552939,35.0611831],[137.1559801,35.0613343],[137.156072,35.0613409],[137.1571797,35.0614137],[137.1572774,35.0614276],[137.1579094,35.0614731],[137.1578745,35.0610867],[137.1585337,35.0609969],[137.1586196,35.0609599],[137.1586635,35.0609251],[137.1586475,35.0607876],[137.1590868,35.0607245],[137.1584909,35.0571506],[137.1584501,35.0571548],[137.1584325,35.0570582],[137.1584592,35.0570074],[137.1581815,35.055658],[137.157971,35.0550344],[137.1578968,35.0550139],[137.1578442,35.0548762],[137.1578068,35.0548895],[137.1576851,35.0546288],[137.1574207,35.0546258],[137.1574087,35.0543991],[137.1572686,35.0543954],[137.1572568,35.053833],[137.1567348,35.0532814],[137.1561132,35.0527103],[137.1559919,35.0526829],[137.1557919,35.0527521],[137.1555948,35.0527737],[137.155144,35.0529004],[137.1543727,35.052934],[137.1531958,35.0529876],[137.1530112,35.0530578],[137.1525397,35.0530734],[137.1523751,35.0529998],[137.152023,35.0530149],[137.151574,35.0544698],[137.1513403,35.0553763],[137.1514351,35.0567014],[137.1514853,35.0574575],[137.1514922,35.0576133],[137.1511914,35.057664],[137.1515865,35.0611479],[137.1516759,35.0619364]]]}}
