{"type":"Feature","id":"attraction-large-industrial-complex-W467880785","properties":{"id":"attraction-large-industrial-complex-W467880785","kind":"attraction","name":"三菱ガス化学","shortName":"三菱ガス化学","context":"日本","subtype":"industrial-complex","subtypeLabel":"工業地帯・大規模工場","statusLabel":"","aliases":[],"osmType":"way","osmId":467880785,"osmDate":null,"officialAreaKm2":null,"areaSourceLabel":"","areaSourceUrl":"","boundarySourceLabel":"© OpenStreetMap contributors","boundarySourceUrl":"https://www.openstreetmap.org/copyright","geometryFile":"attractions/large-industrial-complex-W467880785.geojson"},"geometry":{"type":"Polygon","coordinates":[[[139.1447941,37.9656248],[139.1461943,37.9603705],[139.1485132,37.9529136],[139.1492535,37.9530332],[139.1492535,37.9533503],[139.1494692,37.953525],[139.149784,37.9535572],[139.1502854,37.9539755],[139.1506352,37.954141],[139.1517086,37.9546858],[139.1519185,37.95498],[139.1520467,37.955311],[139.1520292,37.9554719],[139.1519243,37.9556879],[139.1517377,37.9563268],[139.1517144,37.9568876],[139.1523557,37.9569933],[139.1522566,37.9575863],[139.15611,37.9583401],[139.1546409,37.9620815],[139.1556903,37.9623297],[139.1555212,37.9627848],[139.1531427,37.962054],[139.1527404,37.9629181],[139.1560809,37.963943],[139.1573984,37.9641406],[139.1566055,37.9657309],[139.1534228,37.9653803],[139.1498722,37.9642923],[139.1496973,37.9646646],[139.1494059,37.9645956],[139.1490852,37.9656941],[139.1490328,37.9665949],[139.1447941,37.9656248]]]}}
