{"type":"Feature","id":"attraction-large-large-port-W1537093025","properties":{"id":"attraction-large-large-port-W1537093025","kind":"attraction","name":"旭浜（大樹）漁港","shortName":"旭浜（大樹）漁港","context":"日本","subtype":"large-port","subtypeLabel":"港湾・埠頭","statusLabel":"","aliases":["Asahihama (Taiki) Fishing Port"],"osmType":"way","osmId":1537093025,"osmDate":null,"officialAreaKm2":null,"areaSourceLabel":"","areaSourceUrl":"","boundarySourceLabel":"© OpenStreetMap contributors","boundarySourceUrl":"https://www.openstreetmap.org/copyright","geometryFile":"attractions/large-large-port-W1537093025.geojson"},"geometry":{"type":"Polygon","coordinates":[[[143.3925798,42.4215033],[143.392334,42.4214978],[143.3912139,42.419901],[143.3911077,42.4195446],[143.3906485,42.4189183],[143.3932484,42.4178739],[143.3935202,42.4181819],[143.3968908,42.4206629],[143.3967459,42.4207568],[143.3966342,42.4206748],[143.3963743,42.4208696],[143.3962694,42.4207983],[143.3955497,42.4203552],[143.395407,42.4204105],[143.3926732,42.421488],[143.3925915,42.4215202],[143.3925798,42.4215033]]]}}
