{"type":"Feature","id":"attraction-large-industrial-complex-W728273382","properties":{"id":"attraction-large-industrial-complex-W728273382","kind":"attraction","name":"武田薬品 光工場","shortName":"武田薬品 光工場","context":"日本","subtype":"industrial-complex","subtypeLabel":"工業地帯・大規模工場","statusLabel":"","aliases":[],"osmType":"way","osmId":728273382,"osmDate":null,"officialAreaKm2":null,"areaSourceLabel":"","areaSourceUrl":"","boundarySourceLabel":"© OpenStreetMap contributors","boundarySourceUrl":"https://www.openstreetmap.org/copyright","geometryFile":"attractions/large-industrial-complex-W728273382.geojson"},"geometry":{"type":"Polygon","coordinates":[[[131.9403668,33.9589219],[131.9409177,33.9589555],[131.9506266,33.9528224],[131.9498494,33.9507704],[131.9499102,33.9505378],[131.9497919,33.9501089],[131.9477035,33.9499771],[131.9477406,33.9491053],[131.9466694,33.9492006],[131.9466221,33.9489034],[131.945838,33.9488586],[131.9459563,33.9471598],[131.9445742,33.9470841],[131.9397585,33.947555],[131.939228,33.9545687],[131.9377918,33.9544959],[131.9374471,33.9583753],[131.939593,33.9584902],[131.9403668,33.9589219]]]}}
