{"type":"Feature","id":"attraction-large-park-W197874632","properties":{"id":"attraction-large-park-W197874632","kind":"attraction","name":"鹿児島ふれあいスポーツランド","shortName":"鹿児島ふれあいスポーツランド","context":"日本","subtype":"large-park","subtypeLabel":"大型都市公園・広域公園","statusLabel":"著名な公園","aliases":["Kagoshima fureai sports land"],"osmType":"way","osmId":197874632,"osmDate":null,"officialAreaKm2":null,"areaSourceLabel":"","areaSourceUrl":"","boundarySourceLabel":"© OpenStreetMap contributors","boundarySourceUrl":"https://www.openstreetmap.org/copyright","geometryFile":"attractions/large-park-W197874632.geojson"},"geometry":{"type":"Polygon","coordinates":[[[130.4916383,31.5516961],[130.4918033,31.551533],[130.4921208,31.5512905],[130.4923952,31.5512679],[130.4924086,31.5511425],[130.4924354,31.5510912],[130.4922916,31.5510058],[130.492325,31.5509317],[130.4922876,31.5508645],[130.4923324,31.5508084],[130.4925302,31.5505334],[130.4926303,31.5504193],[130.4927037,31.5501069],[130.4931752,31.5502333],[130.493334,31.5502303],[130.4935807,31.5503217],[130.4937438,31.5504116],[130.4939262,31.550439],[130.4940582,31.550404],[130.4941622,31.550343],[130.4943178,31.5502881],[130.4944766,31.5502212],[130.4946,31.5501434],[130.4946075,31.5499544],[130.4945967,31.5498264],[130.4945699,31.5497167],[130.4945538,31.5496298],[130.4946397,31.549479],[130.4944056,31.5495584],[130.4942304,31.5495669],[130.4939158,31.5494516],[130.4937393,31.5492471],[130.4936639,31.5492855],[130.493584,31.5491546],[130.4936226,31.5490605],[130.4935317,31.5488579],[130.4937606,31.5488171],[130.4939869,31.5488016],[130.4939853,31.5487182],[130.4939369,31.5486241],[130.4937814,31.5484732],[130.4936526,31.5483178],[130.49354,31.5482675],[130.4934705,31.5484407],[130.4932457,31.5485454],[130.4929336,31.5485252],[130.4925131,31.5484102],[130.4924248,31.5482336],[130.4924061,31.5479936],[130.4924717,31.5478707],[130.4923368,31.5477448],[130.4923825,31.547617],[130.4925255,31.5475291],[130.4925717,31.5474269],[130.4925958,31.5473578],[130.4925207,31.5472389],[130.492333,31.5469966],[130.4921345,31.5467406],[130.492054,31.5466857],[130.4919092,31.54664],[130.4917429,31.546576],[130.4915659,31.5464617],[130.4913996,31.5462834],[130.4912386,31.5460777],[130.4910884,31.5459314],[130.4908953,31.5458171],[130.4906968,31.5457211],[130.490611,31.5457074],[130.4904983,31.5457074],[130.4904125,31.545776],[130.4902945,31.5459177],[130.490155,31.5460366],[130.4898978,31.5461371],[130.4897798,31.5462194],[130.4896618,31.5463154],[130.4895813,31.5464023],[130.4894472,31.5464663],[130.4892702,31.5464892],[130.4890609,31.5464892],[130.4888946,31.5465075],[130.4887605,31.5465852],[130.4885728,31.5466446],[130.4883636,31.5466446],[130.4881812,31.5466309],[130.4880953,31.5466903],[130.4879183,31.5468366],[130.4877896,31.5470469],[130.4875263,31.5473635],[130.4874228,31.5474803],[130.4872638,31.5475615],[130.487089,31.5476483],[130.4869651,31.5476849],[130.4869243,31.5478169],[130.4869578,31.5479517],[130.4869195,31.5481139],[130.4867615,31.548301],[130.4866094,31.5484279],[130.4867947,31.5485332],[130.4874446,31.5501608],[130.4875255,31.5505596],[130.4876741,31.5507406],[130.4887005,31.5509215],[130.4887925,31.5510663],[130.4904488,31.5513136],[130.4903508,31.551783],[130.4904414,31.5518344],[130.4905976,31.5518744],[130.4908604,31.5519658],[130.4910678,31.5519559],[130.4912467,31.5519247],[130.4916383,31.5516961]]]}}
