{"type":"Feature","id":"attraction-large-industrial-complex-W396644122","properties":{"id":"attraction-large-industrial-complex-W396644122","kind":"attraction","name":"ホンダ埼玉製作所寄居工場","shortName":"ホンダ埼玉製作所寄居工場","context":"日本","subtype":"industrial-complex","subtypeLabel":"工業地帯・大規模工場","statusLabel":"","aliases":["本田技研工業株式会社"],"osmType":"way","osmId":396644122,"osmDate":null,"officialAreaKm2":null,"areaSourceLabel":"","areaSourceUrl":"","boundarySourceLabel":"© OpenStreetMap contributors","boundarySourceUrl":"https://www.openstreetmap.org/copyright","geometryFile":"attractions/large-industrial-complex-W396644122.geojson"},"geometry":{"type":"Polygon","coordinates":[[[139.2278376,36.0889751],[139.2274112,36.0891466],[139.2271939,36.0894043],[139.2270274,36.0896113],[139.2268781,36.0898911],[139.2269843,36.0900343],[139.2268175,36.0909663],[139.2268071,36.091218],[139.2264082,36.0934603],[139.227388,36.0949904],[139.2279242,36.0953239],[139.2284043,36.0949816],[139.229194,36.0950332],[139.230049,36.0954913],[139.2302717,36.0955729],[139.2306523,36.0955776],[139.2326183,36.0955349],[139.2335973,36.0949937],[139.2353973,36.093163],[139.2356197,36.0929116],[139.2354422,36.0912561],[139.2353541,36.0904346],[139.235276,36.0897062],[139.2350244,36.0879866],[139.2349262,36.0879877],[139.2347403,36.0878829],[139.2346995,36.0877453],[139.2346439,36.0875854],[139.234524,36.087483],[139.2343707,36.0874416],[139.2341646,36.0874737],[139.234015,36.0875586],[139.2327706,36.0875594],[139.2318154,36.0876084],[139.2316269,36.0877234],[139.2295382,36.0880504],[139.2294785,36.0880537],[139.2295109,36.0888391],[139.2293868,36.0888847],[139.2292197,36.0888941],[139.2279635,36.0889015],[139.2278857,36.0889167],[139.2278376,36.0889751]]]}}
