{"type":"Feature","id":"attraction-large-park-W684773995","properties":{"id":"attraction-large-park-W684773995","kind":"attraction","name":"かなぎウエスタンライディングパーク","shortName":"かなぎウエスタンライディングパーク","context":"日本","subtype":"large-park","subtypeLabel":"大型都市公園・広域公園","statusLabel":"","aliases":[],"osmType":"way","osmId":684773995,"osmDate":null,"officialAreaKm2":null,"areaSourceLabel":"","areaSourceUrl":"","boundarySourceLabel":"© OpenStreetMap contributors","boundarySourceUrl":"https://www.openstreetmap.org/copyright","geometryFile":"attractions/large-park-W684773995.geojson"},"geometry":{"type":"Polygon","coordinates":[[[132.1974485,34.8626932],[132.1974701,34.8626047],[132.1975379,34.8625314],[132.1977813,34.8624783],[132.1983266,34.8624505],[132.1988289,34.8624657],[132.1992972,34.8624404],[132.1996854,34.8624278],[132.2000859,34.8625238],[132.2006991,34.8627438],[132.2011489,34.8630724],[132.201611,34.8634643],[132.2017127,34.8638814],[132.2017867,34.8640735],[132.2022457,34.8643946],[132.2024861,34.8645842],[132.2028219,34.8647131],[132.203207,34.8646802],[132.2035459,34.8646145],[132.2037308,34.8645564],[132.2039927,34.8646777],[132.2040974,34.8649229],[132.2040882,34.8650873],[132.2042238,34.8651201],[132.2044826,34.8650873],[132.2048893,34.865067],[132.205031,34.8650822],[132.2051573,34.8651783],[132.2087867,34.8692166],[132.2090656,34.8694102],[132.2091729,34.8695995],[132.2091354,34.8697227],[132.2086901,34.8703213],[132.2084702,34.8708538],[132.2082556,34.8716681],[132.2082176,34.871889],[132.2075236,34.8722418],[132.2073905,34.8723935],[132.2071477,34.872283],[132.2070871,34.8720477],[132.2068769,34.872029],[132.2068662,34.8719101],[132.2060025,34.8718133],[132.2058953,34.8717429],[132.2054715,34.870867],[132.2050101,34.8702025],[132.2047365,34.8699472],[132.2046185,34.869846],[132.2043396,34.8699384],[132.2033794,34.8703618],[132.2030782,34.8704039],[132.202791,34.8702698],[132.2024688,34.8700974],[132.2020555,34.869833],[132.2016258,34.8694652],[132.2011285,34.868992],[132.2009837,34.8687142],[132.2009394,34.8684939],[132.2008833,34.868195],[132.200498,34.8676241],[132.200435,34.867241],[132.2005097,34.8666681],[132.2003673,34.8662332],[132.2002272,34.8658194],[132.1998256,34.8656604],[132.1994683,34.8655857],[132.1989289,34.8655148],[132.1985039,34.8654669],[132.1984059,34.8654343],[132.1973178,34.8648806],[132.1973621,34.8643595],[132.1974252,34.8639323],[132.1975653,34.8637273],[132.197647,34.8634801],[132.1975629,34.8631468],[132.1974369,34.8627961],[132.1974485,34.8626932]]]}}
