{"type":"Feature","id":"attraction-large-park-W341164658","properties":{"id":"attraction-large-park-W341164658","kind":"attraction","name":"スノークルーズオーンズ","shortName":"スノークルーズオーンズ","context":"日本","subtype":"large-park","subtypeLabel":"大型都市公園・広域公園","statusLabel":"著名な公園","aliases":["Snowcruse ONZE","オーンズ春香山ゆり園"],"osmType":"way","osmId":341164658,"osmDate":null,"officialAreaKm2":null,"areaSourceLabel":"","areaSourceUrl":"","boundarySourceLabel":"© OpenStreetMap contributors","boundarySourceUrl":"https://www.openstreetmap.org/copyright","geometryFile":"attractions/large-park-W341164658.geojson"},"geometry":{"type":"Polygon","coordinates":[[[141.1323084,43.146339],[141.1321551,43.1463514],[141.1319426,43.1464408],[141.1318344,43.1464654],[141.1317736,43.1465098],[141.1317263,43.1465838],[141.1316925,43.1466109],[141.1316654,43.1466553],[141.1316283,43.1466873],[141.131581,43.1467169],[141.1315472,43.1467662],[141.1314964,43.1467883],[141.1313769,43.1467597],[141.1313376,43.146786],[141.1312836,43.1467884],[141.1311585,43.1467588],[141.1310876,43.1467367],[141.1309963,43.1467243],[141.1309017,43.1466923],[141.1307632,43.1466627],[141.1305435,43.1466504],[141.1302799,43.146643],[141.1300467,43.1466282],[141.1299386,43.1466306],[141.129871,43.1465986],[141.1297933,43.1465912],[141.1297189,43.1466035],[141.129675,43.146606],[141.1296378,43.1465715],[141.1296108,43.1465715],[141.1295601,43.1465789],[141.1295297,43.1465394],[141.1294891,43.1465246],[141.1294553,43.1465221],[141.1294317,43.1465024],[141.129381,43.1464852],[141.1293472,43.1464802],[141.1293168,43.1464457],[141.129283,43.1464309],[141.1292458,43.1464013],[141.129212,43.1463643],[141.1291985,43.1463249],[141.1291343,43.1463101],[141.1290735,43.1462978],[141.1290295,43.1463076],[141.1288166,43.1462731],[141.1287795,43.1462608],[141.1287051,43.1462633],[141.1286713,43.1462756],[141.1285666,43.1462879],[141.1284348,43.146246],[141.1283638,43.1462213],[141.1282962,43.1462189],[141.1282286,43.1462411],[141.1281408,43.1462411],[141.1280799,43.1462534],[141.1279921,43.1462682],[141.1279414,43.1462731],[141.1279177,43.1462287],[141.1279008,43.1461696],[141.1278738,43.1460981],[141.127867,43.1460561],[141.1278265,43.1460438],[141.1277454,43.1460635],[141.1277488,43.1460241],[141.127715,43.1460019],[141.1276677,43.1459896],[141.1276102,43.1459501],[141.1275392,43.1459033],[141.1274852,43.145849],[141.1274514,43.1458145],[141.1273466,43.1457825],[141.127225,43.1457208],[141.127056,43.1456296],[141.1268634,43.1455556],[141.1267721,43.1455408],[141.1267012,43.1455507],[141.1266369,43.1455211],[141.1265964,43.1454669],[141.1266234,43.1454422],[141.1267147,43.1454348],[141.1267654,43.1454052],[141.1267721,43.145388],[141.1267417,43.1453312],[141.1267079,43.1452573],[141.1267113,43.1452277],[141.1267451,43.1452252],[141.1268228,43.1452277],[141.1269039,43.145203],[141.1269174,43.1451463],[141.1268566,43.1450452],[141.1268262,43.1449367],[141.1267789,43.1448332],[141.12662,43.1446162],[141.1265558,43.1445644],[141.1265153,43.1445052],[141.1264545,43.1444263],[141.1263767,43.1443696],[141.1263463,43.1443105],[141.1263362,43.1442439],[141.1263328,43.1441946],[141.1262483,43.1441255],[141.1261976,43.1440836],[141.1261233,43.1439948],[141.1260793,43.1439307],[141.1259448,43.1438083],[141.1258812,43.1437494],[141.1258291,43.1436879],[141.1257265,43.1435381],[141.1256567,43.1434403],[141.1255498,43.1433171],[141.1253778,43.143131],[141.1252514,43.1430061],[141.1251331,43.1429592],[141.1250554,43.1429173],[141.1249325,43.1428688],[141.1245785,43.1424813],[141.1245141,43.1424304],[141.1244122,43.1424226],[141.1243525,43.142439],[141.1243086,43.1424587],[141.1242376,43.1425302],[141.12417,43.1425474],[141.1240923,43.1425721],[141.1240112,43.1425746],[141.1237712,43.1425228],[141.1236259,43.1424587],[141.1234941,43.1423847],[141.1233387,43.142328],[141.1229467,43.142037],[141.1228588,43.1419384],[141.1228014,43.141862],[141.1227642,43.1418225],[141.1227067,43.1418102],[141.122602,43.1417436],[141.122531,43.1416499],[141.1224533,43.1415809],[141.1224803,43.1415044],[141.1224499,43.1414798],[141.122504,43.141423],[141.1226391,43.1413836],[141.1226898,43.1413762],[141.1228081,43.141354],[141.1230649,43.1413219],[141.1231427,43.1413293],[141.1232238,43.1413293],[141.1233319,43.1412948],[141.1234468,43.1412208],[141.1235178,43.1411789],[141.1235448,43.1411444],[141.1238152,43.1410828],[141.1240348,43.1410532],[141.1242883,43.1410334],[141.1244167,43.1410482],[141.1244978,43.1410704],[141.1245789,43.1410951],[141.1247175,43.141137],[141.1248898,43.1411937],[141.1250115,43.1412233],[141.1251635,43.1412628],[141.1253122,43.1412726],[141.1254846,43.1413022],[141.1256367,43.1413072],[141.1257414,43.1413096],[141.1258327,43.1412948],[141.1258597,43.1412973],[141.1258766,43.1413367],[141.125907,43.1413811],[141.1259813,43.1414206],[141.1260388,43.1414255],[141.1260692,43.1414378],[141.1260827,43.1414872],[141.1261605,43.1414921],[141.1262247,43.1415093],[141.1262618,43.141534],[141.1263362,43.1415537],[141.1263869,43.1416154],[141.126424,43.1416474],[141.1264883,43.1416499],[141.1266403,43.1417362],[141.1267349,43.1418003],[141.1268194,43.1418324],[141.1269377,43.1419285],[141.1270661,43.1420025],[141.1272216,43.1421357],[141.1273905,43.1423009],[141.1275359,43.1424266],[141.1276271,43.1425277],[141.1277994,43.142651],[141.1282259,43.142999],[141.1282634,43.1430734],[141.1284243,43.14323],[141.1287301,43.1434531],[141.128934,43.1435822],[141.129052,43.1436253],[141.1292183,43.1437662],[141.1293577,43.1437779],[141.1294758,43.1437975],[141.129567,43.1438719],[141.1296367,43.143958],[141.1296635,43.1440441],[141.1298781,43.1441654],[141.1299639,43.1442241],[141.1302268,43.1444042],[141.1303072,43.1444551],[141.1304789,43.1444551],[141.1305594,43.1444551],[141.1306667,43.1444512],[141.130833,43.1445412],[141.1309027,43.144596],[141.1309939,43.1446312],[141.1311387,43.1447291],[141.1312407,43.1448347],[141.1313265,43.1448543],[141.1314499,43.1449169],[141.1316345,43.1449997],[141.1316987,43.145044],[141.1318093,43.145097],[141.1318576,43.1451165],[141.1319649,43.1451479],[141.1324021,43.1454133],[141.1326746,43.145522],[141.1328193,43.1455779],[141.1328875,43.1457302],[141.1327133,43.1459247],[141.1325089,43.146167],[141.1323429,43.1463658],[141.1323084,43.146339]]]}}
