{"type":"Feature","id":"attraction-large-industrial-complex-R10175737","properties":{"id":"attraction-large-industrial-complex-R10175737","kind":"attraction","name":"ユーラス六ヶ所ソーラーパーク 千歳平北","shortName":"ユーラス六ヶ所ソーラーパーク 千歳平北","context":"日本","subtype":"industrial-complex","subtypeLabel":"工業地帯・大規模工場","statusLabel":"","aliases":["ユーラスエナジー"],"osmType":"relation","osmId":10175737,"osmDate":null,"officialAreaKm2":null,"areaSourceLabel":"","areaSourceUrl":"","boundarySourceLabel":"© OpenStreetMap contributors","boundarySourceUrl":"https://www.openstreetmap.org/copyright","geometryFile":"attractions/large-industrial-complex-R10175737.geojson"},"geometry":{"type":"MultiPolygon","coordinates":[[[[141.2730617,40.8975662],[141.2731132,40.8960475],[141.2771419,40.8949413],[141.2777233,40.8960767],[141.2802027,40.8955499],[141.2804974,40.8959173],[141.2821941,40.8954859],[141.2823129,40.8957055],[141.2834072,40.8954663],[141.28299,40.8945714],[141.2851728,40.8939974],[141.2848587,40.8929913],[141.2864558,40.8927036],[141.2874353,40.8934764],[141.2882781,40.8941241],[141.2899411,40.8935928],[141.2908047,40.892648],[141.2924061,40.8922592],[141.2933978,40.892967],[141.2936669,40.8933874],[141.2938824,40.8938057],[141.2950962,40.8935868],[141.2965693,40.8964089],[141.2955201,40.8968085],[141.2938924,40.8968709],[141.2925589,40.8971045],[141.2917113,40.8975708],[141.2908422,40.8975309],[141.290115,40.8984446],[141.2887101,40.8986925],[141.2887191,40.8991874],[141.2873246,40.8997064],[141.2850312,40.8997545],[141.2823061,40.8997278],[141.2817622,40.8992433],[141.2808866,40.8989723],[141.2786182,40.8987433],[141.2755666,40.8985879],[141.2749658,40.8974913],[141.2730617,40.8975662]]],[[[141.2722963,40.8994248],[141.2720898,40.8995224],[141.2722383,40.8998053],[141.2711992,40.9007321],[141.2699989,40.9019954],[141.2699602,40.9032393],[141.268876,40.9033417],[141.2682435,40.9025369],[141.2679195,40.9020769],[141.2654814,40.9018491],[141.2653588,40.899937],[141.2654491,40.8995955],[141.2658173,40.8993103],[141.2674497,40.8989809],[141.2668444,40.8978014],[141.2714439,40.8965529],[141.2722963,40.8994248]]]]}}
