{"type":"Feature","id":"attraction-large-park-W120060828","properties":{"id":"attraction-large-park-W120060828","kind":"attraction","name":"稲城中央公園","shortName":"稲城中央公園","context":"日本","subtype":"large-park","subtypeLabel":"大型都市公園・広域公園","statusLabel":"著名な公園","aliases":[],"osmType":"way","osmId":120060828,"osmDate":null,"officialAreaKm2":null,"areaSourceLabel":"","areaSourceUrl":"","boundarySourceLabel":"© OpenStreetMap contributors","boundarySourceUrl":"https://www.openstreetmap.org/copyright","geometryFile":"attractions/large-park-W120060828.geojson"},"geometry":{"type":"Polygon","coordinates":[[[139.4877394,35.6338893],[139.4882232,35.633866],[139.4883071,35.6338565],[139.488552,35.6338172],[139.4887328,35.6337732],[139.489003,35.6336666],[139.489445,35.6334711],[139.4896835,35.6333883],[139.489809,35.6333789],[139.4899561,35.6333873],[139.4901269,35.633428],[139.4903293,35.6335384],[139.4903745,35.6335475],[139.4904648,35.633492],[139.4905215,35.6334828],[139.4908571,35.6324564],[139.4908298,35.6323917],[139.4906187,35.6321996],[139.4907389,35.6321247],[139.4907012,35.6320999],[139.4906159,35.6321179],[139.490556,35.6319935],[139.4905248,35.631826],[139.4905651,35.6317869],[139.4905744,35.6317481],[139.4904893,35.6316522],[139.4904132,35.6315814],[139.4901397,35.6315688],[139.4900662,35.6315543],[139.4900394,35.6315316],[139.4899453,35.6313755],[139.4898959,35.6313379],[139.4899037,35.6312358],[139.4900123,35.6311212],[139.4900321,35.6310754],[139.4899901,35.6309664],[139.4898446,35.6309387],[139.4895955,35.6308167],[139.4893927,35.630624],[139.4893285,35.630487],[139.489164,35.6304383],[139.4889836,35.6307166],[139.4889265,35.6307514],[139.4888472,35.6307449],[139.4888086,35.6307498],[139.4887249,35.6307096],[139.4887444,35.6304032],[139.4887212,35.6303711],[139.4886574,35.6303513],[139.4886246,35.6301921],[139.4886349,35.6300536],[139.4883075,35.6298845],[139.4879505,35.6300678],[139.4879339,35.6302287],[139.4877879,35.6302747],[139.4876773,35.6302806],[139.4876182,35.6304264],[139.4875048,35.6305892],[139.4870534,35.6312552],[139.4853878,35.631329],[139.4854642,35.6320237],[139.4854733,35.632439],[139.4854624,35.6328339],[139.4853777,35.6331266],[139.4852703,35.6333684],[139.484933,35.6338487],[139.4849572,35.6339296],[139.4856613,35.6343061],[139.485284,35.6347501],[139.4845602,35.6343673],[139.4845319,35.6344296],[139.484694,35.6345806],[139.4847847,35.634663],[139.4848433,35.6348017],[139.4847921,35.63513],[139.484813,35.6352231],[139.4848536,35.635404],[139.485269,35.636308],[139.4854101,35.6364756],[139.4855538,35.6365902],[139.4858538,35.6367595],[139.4859591,35.6368672],[139.4860192,35.6369572],[139.4861555,35.6373204],[139.4863113,35.637257],[139.4863362,35.6371921],[139.4863566,35.6371593],[139.4863809,35.63712],[139.4873202,35.6359851],[139.4872728,35.6358189],[139.4854512,35.6348383],[139.4857134,35.6344727],[139.4857942,35.6343772],[139.4860522,35.6345163],[139.4860909,35.6345107],[139.4862764,35.6342883],[139.4864118,35.6341839],[139.4866221,35.6340798],[139.4873532,35.6339336],[139.4877394,35.6338893]]]}}
