{"type":"Feature","id":"attraction-large-industrial-complex-R9663734","properties":{"id":"attraction-large-industrial-complex-R9663734","kind":"attraction","name":"日本製紙株式会社","shortName":"日本製紙株式会社","context":"日本","subtype":"industrial-complex","subtypeLabel":"工業地帯・大規模工場","statusLabel":"","aliases":["Nippon Paper Industries Co., Ltd."],"osmType":"relation","osmId":9663734,"osmDate":null,"officialAreaKm2":null,"areaSourceLabel":"","areaSourceUrl":"","boundarySourceLabel":"© OpenStreetMap contributors","boundarySourceUrl":"https://www.openstreetmap.org/copyright","geometryFile":"attractions/large-industrial-complex-R9663734.geojson"},"geometry":{"type":"MultiPolygon","coordinates":[[[[138.7095326,35.1587579],[138.7103534,35.1597359],[138.7105948,35.161034],[138.7108228,35.1611459],[138.7109005,35.1613169],[138.7113297,35.1614309],[138.7115389,35.1616919],[138.7116837,35.1619397],[138.7120539,35.1618081],[138.7126628,35.1617116],[138.7145725,35.1615099],[138.7148944,35.1619309],[138.7154523,35.1624374],[138.7151679,35.1628365],[138.7146208,35.1629571],[138.7143157,35.1630388],[138.7142198,35.1630503],[138.7135318,35.1629966],[138.7131911,35.1630448],[138.7128451,35.1631895],[138.7126011,35.1632268],[138.7128183,35.1639241],[138.7124804,35.1639899],[138.712585,35.1643495],[138.7119091,35.1646302],[138.7119386,35.1648757],[138.711834,35.1650643],[138.7115765,35.1651433],[138.7114209,35.1654419],[138.7114007,35.1656833],[138.7082908,35.1660313],[138.7081164,35.1658142],[138.7078723,35.1653056],[138.7054141,35.1658811],[138.704761,35.1660565],[138.704199,35.1660916],[138.7038437,35.163832],[138.7051848,35.1636237],[138.7048924,35.1625756],[138.7042701,35.1627247],[138.7033206,35.1632816],[138.7031007,35.1633277],[138.7029719,35.1631939],[138.7027252,35.1630733],[138.702516,35.1627576],[138.7029585,35.1624133],[138.7031235,35.1622181],[138.7032938,35.1621414],[138.7038772,35.1621173],[138.704313,35.1619726],[138.7046027,35.1617796],[138.7050614,35.1616261],[138.7069604,35.1612533],[138.7074054,35.1612207],[138.7076447,35.1612032],[138.7076792,35.1612007],[138.7082586,35.1606744],[138.7086529,35.1602951],[138.7086706,35.1602594],[138.7090184,35.1595566],[138.709023,35.1595473],[138.7095326,35.1587579]]],[[[138.7101442,35.1589465],[138.7130141,35.1586307],[138.7143016,35.1584684],[138.714323,35.1577974],[138.7145162,35.1574378],[138.7144142,35.1572382],[138.7143901,35.1566681],[138.7145725,35.1566637],[138.7145752,35.1560584],[138.7144035,35.1556111],[138.7144545,35.1551571],[138.714956,35.1551593],[138.7148836,35.1542843],[138.7146798,35.1541812],[138.7145027,35.1536769],[138.7144545,35.1534203],[138.715243,35.1531461],[138.7149963,35.1527229],[138.7147441,35.1523545],[138.7145054,35.1523501],[138.7141594,35.1524729],[138.7137732,35.1527668],[138.7131697,35.1529948],[138.7128371,35.153429],[138.7127298,35.1538084],[138.7127818,35.1537931],[138.7119922,35.1540562],[138.7117481,35.1545826],[138.7116086,35.1547777],[138.7112546,35.155054],[138.711091,35.1553128],[138.711091,35.1557295],[138.7110091,35.156172],[138.7108523,35.1570189],[138.7104633,35.1571856],[138.7100235,35.1579926],[138.7101737,35.1584575],[138.710053,35.1587491],[138.7101442,35.1589465]]],[[[138.7066358,35.1452202],[138.7063411,35.1439735],[138.7063113,35.1438582],[138.7068064,35.1437501],[138.7067994,35.143584],[138.7068094,35.1435814],[138.7070476,35.1435193],[138.7069698,35.1432468],[138.7073921,35.1431576],[138.7074583,35.1431799],[138.707544,35.143163],[138.7076075,35.1431505],[138.7076559,35.1430939],[138.7087917,35.1428931],[138.7087782,35.1428471],[138.7115701,35.1423602],[138.711842,35.1432967],[138.7121505,35.1441992],[138.7113002,35.1442826],[138.7107182,35.1443747],[138.7096143,35.1446146],[138.709004,35.1447441],[138.7077248,35.1450053],[138.7066358,35.1452202]]],[[[138.7116733,35.1423422],[138.71645,35.1415092],[138.7167156,35.1415289],[138.7167504,35.1417526],[138.717075,35.1417044],[138.7173781,35.142619],[138.7174693,35.1432726],[138.7175015,35.1437463],[138.7176919,35.1444109],[138.7176651,35.1445206],[138.7165895,35.1444021],[138.7143284,35.1441696],[138.7134781,35.1441411],[138.7125233,35.1441718],[138.7122148,35.1440271],[138.7120137,35.1435862],[138.7118635,35.1430664],[138.7116733,35.1423422]]]]}}
