{"type":"Feature","id":"attraction-large-park-W541648366","properties":{"id":"attraction-large-park-W541648366","kind":"attraction","name":"有明テニスの森公園","shortName":"有明テニスの森公園","context":"日本","subtype":"large-park","subtypeLabel":"大型都市公園・広域公園","statusLabel":"著名な公園","aliases":["Ariake Tennis Park"],"osmType":"way","osmId":541648366,"osmDate":null,"officialAreaKm2":null,"areaSourceLabel":"","areaSourceUrl":"","boundarySourceLabel":"© OpenStreetMap contributors","boundarySourceUrl":"https://www.openstreetmap.org/copyright","geometryFile":"attractions/large-park-W541648366.geojson"},"geometry":{"type":"Polygon","coordinates":[[[139.7902295,35.6378187],[139.7903287,35.6377996],[139.7918053,35.6359903],[139.7917792,35.6358736],[139.7904913,35.6351667],[139.7896859,35.6347214],[139.7862446,35.6328259],[139.7860792,35.632856],[139.7849343,35.6342601],[139.784838,35.6343569],[139.7847031,35.6344569],[139.7845451,35.6345675],[139.7845513,35.6346692],[139.7845819,35.6346885],[139.7856484,35.63535],[139.786287,35.6356941],[139.7902295,35.6378187]]]}}
