{"type":"Feature","id":"attraction-large-park-W265907031","properties":{"id":"attraction-large-park-W265907031","kind":"attraction","name":"於大公園","shortName":"於大公園","context":"愛知県・東浦町","subtype":"large-park","subtypeLabel":"大型都市公園・広域公園","statusLabel":"著名な公園","aliases":[],"osmType":"way","osmId":265907031,"osmDate":null,"officialAreaKm2":null,"areaSourceLabel":"","areaSourceUrl":"","boundarySourceLabel":"© OpenStreetMap contributors","boundarySourceUrl":"https://www.openstreetmap.org/copyright","geometryFile":"attractions/large-park-W265907031.geojson"},"geometry":{"type":"Polygon","coordinates":[[[136.9602061,34.9792482],[136.9602923,34.9793904],[136.9603163,34.9794818],[136.9603306,34.9795637],[136.9604907,34.9798224],[136.9607023,34.9800173],[136.960987,34.9799244],[136.9610698,34.9800393],[136.961279,34.979991],[136.9613411,34.9800562],[136.9614859,34.9800914],[136.9616522,34.9800782],[136.9618266,34.9800101],[136.9620599,34.9800145],[136.962304,34.9798409],[136.9626366,34.9795881],[136.9627508,34.9796018],[136.9629698,34.9796232],[136.9631176,34.9795686],[136.9629702,34.9794499],[136.9632048,34.9793602],[136.9633738,34.9791954],[136.9635941,34.9792915],[136.9636397,34.9792585],[136.9636263,34.9790255],[136.963924,34.9787948],[136.9641118,34.9787816],[136.9643474,34.9784284],[136.9645088,34.9781092],[136.9645758,34.978107],[136.9645593,34.9779163],[136.9647475,34.9778652],[136.9644762,34.9775317],[136.9642777,34.977268],[136.9641681,34.9770653],[136.9638919,34.9768521],[136.963747,34.9767927],[136.9635535,34.9767845],[136.9633956,34.9766719],[136.9632853,34.9765515],[136.9630952,34.9765114],[136.9630385,34.9764548],[136.9628588,34.9764834],[136.9626688,34.976184],[136.962545,34.9762043],[136.9619199,34.9760861],[136.9619435,34.9758592],[136.9620059,34.9754899],[136.9616128,34.9754927],[136.9609645,34.9755074],[136.9606267,34.975594],[136.9602592,34.9757023],[136.9606729,34.976074],[136.9608378,34.9761114],[136.9613658,34.976554],[136.9613863,34.9766592],[136.9615654,34.9770314],[136.9615656,34.9770911],[136.9618114,34.9770983],[136.9618656,34.9771418],[136.9619039,34.9772357],[136.9618909,34.977276],[136.9618243,34.9773182],[136.9617816,34.9774144],[136.9609843,34.9782937],[136.9608364,34.9783735],[136.9607372,34.9783867],[136.9602038,34.9782959],[136.96008,34.9783867],[136.9599919,34.9785442],[136.95978,34.9786827],[136.9595815,34.9788299],[136.9593135,34.9791201],[136.9595087,34.9794174],[136.9595869,34.9795706],[136.9599249,34.9794013],[136.9597076,34.979131],[136.9600161,34.978975],[136.9602061,34.9792482]]]}}
