{"type":"Feature","id":"attraction-large-park-W660843666","properties":{"id":"attraction-large-park-W660843666","kind":"attraction","name":"新屋海浜公園","shortName":"新屋海浜公園","context":"日本","subtype":"large-park","subtypeLabel":"大型都市公園・広域公園","statusLabel":"","aliases":[],"osmType":"way","osmId":660843666,"osmDate":null,"officialAreaKm2":null,"areaSourceLabel":"","areaSourceUrl":"","boundarySourceLabel":"© OpenStreetMap contributors","boundarySourceUrl":"https://www.openstreetmap.org/copyright","geometryFile":"attractions/large-park-W660843666.geojson"},"geometry":{"type":"Polygon","coordinates":[[[140.0618704,39.677292],[140.0640044,39.6773549],[140.064495,39.6772507],[140.0644492,39.6793381],[140.0668738,39.6790564],[140.0680436,39.6787496],[140.0687821,39.6798612],[140.0676123,39.6803189],[140.0685403,39.6815964],[140.0711772,39.682294],[140.0708803,39.6837049],[140.0709153,39.6842759],[140.0711772,39.6847794],[140.0716627,39.6851606],[140.0716578,39.6852661],[140.0717703,39.6853451],[140.0722057,39.6854543],[140.07232,39.6855191],[140.0719993,39.6861011],[140.0717308,39.6865741],[140.0714741,39.6870805],[140.0712455,39.6875224],[140.0711011,39.6878315],[140.0709751,39.6881252],[140.0704348,39.6896606],[140.0702781,39.6908267],[140.0699406,39.6906874],[140.0683261,39.6903975],[140.0661609,39.6901685],[140.0662444,39.6895982],[140.0662296,39.6894958],[140.0659895,39.6894389],[140.0659437,39.689325],[140.0656806,39.6892623],[140.0652616,39.6893928],[140.0651817,39.6900476],[140.064584,39.6899467],[140.0639843,39.6899394],[140.0636773,39.6898677],[140.0635749,39.6898693],[140.0635457,39.6898698],[140.0629397,39.6903592],[140.0625641,39.6905301],[140.062279,39.6906694],[140.0621474,39.6910365],[140.0622872,39.6911377],[140.0623096,39.6911808],[140.0622664,39.6912307],[140.0622165,39.6912479],[140.0620772,39.6912249],[140.0620027,39.6911774],[140.0619014,39.6910421],[140.0618365,39.6909543],[140.0616913,39.6908449],[140.0614565,39.6907714],[140.0612609,39.6907298],[140.0612046,39.6907413],[140.0612046,39.6909095],[140.0610159,39.69106],[140.0608974,39.6911042],[140.0607249,39.6910414],[140.0605995,39.6909546],[140.060465,39.6907104],[140.0604052,39.6904758],[140.0603436,39.690313],[140.0604672,39.6895376],[140.0606098,39.6890011],[140.060952,39.6879818],[140.0610977,39.6867162],[140.0610819,39.6861773],[140.0610407,39.6857408],[140.0614167,39.682941],[140.0614205,39.6829228],[140.0616416,39.681856],[140.0616782,39.6814757],[140.0617176,39.6809754],[140.0617636,39.6789149],[140.061664,39.6780496],[140.0618704,39.677292]]]}}
