{"type":"Feature","id":"attraction-large-park-W308702637","properties":{"id":"attraction-large-park-W308702637","kind":"attraction","name":"春光台公園","shortName":"春光台公園","context":"日本","subtype":"large-park","subtypeLabel":"大型都市公園・広域公園","statusLabel":"著名な公園","aliases":["Shunkodai Park"],"osmType":"way","osmId":308702637,"osmDate":null,"officialAreaKm2":null,"areaSourceLabel":"","areaSourceUrl":"","boundarySourceLabel":"© OpenStreetMap contributors","boundarySourceUrl":"https://www.openstreetmap.org/copyright","geometryFile":"attractions/large-park-W308702637.geojson"},"geometry":{"type":"Polygon","coordinates":[[[142.3510628,43.809842],[142.3532942,43.8071101],[142.3540228,43.8060967],[142.3540328,43.8060286],[142.354002,43.8059748],[142.3539566,43.8059585],[142.3537458,43.8058995],[142.3534638,43.805889],[142.35297,43.8057556],[142.3526233,43.8056773],[142.3517094,43.8054982],[142.3512151,43.8053907],[142.3508004,43.8052745],[142.3505865,43.8052453],[142.3498639,43.8051466],[142.3499004,43.8050306],[142.3499569,43.805038],[142.3500295,43.8047077],[142.3512966,43.8050039],[142.3516535,43.8050211],[142.3534916,43.8054676],[142.3542228,43.8056932],[142.3542708,43.805708],[142.3543539,43.8056184],[142.354408,43.8055601],[142.3536275,43.8051476],[142.3521009,43.8037137],[142.351096,43.804511],[142.3499263,43.8036553],[142.349303,43.8041247],[142.3488202,43.8039665],[142.3458481,43.8061355],[142.3505751,43.8096222],[142.3510628,43.809842]]]}}
