{"type":"Feature","id":"attraction-large-industrial-complex-W621168623","properties":{"id":"attraction-large-industrial-complex-W621168623","kind":"attraction","name":"クラレ","shortName":"クラレ","context":"日本","subtype":"industrial-complex","subtypeLabel":"工業地帯・大規模工場","statusLabel":"","aliases":[],"osmType":"way","osmId":621168623,"osmDate":null,"officialAreaKm2":null,"areaSourceLabel":"","areaSourceUrl":"","boundarySourceLabel":"© OpenStreetMap contributors","boundarySourceUrl":"https://www.openstreetmap.org/copyright","geometryFile":"attractions/large-industrial-complex-W621168623.geojson"},"geometry":{"type":"Polygon","coordinates":[[[133.9595828,34.6110076],[133.9594061,34.6109203],[133.9589866,34.6107135],[133.9585591,34.610522],[133.9574805,34.6100788],[133.9568385,34.6098176],[133.9551938,34.609151],[133.9551589,34.6090207],[133.9558388,34.6082028],[133.9569479,34.6068771],[133.9619576,34.6009249],[133.9620374,34.6009174],[133.9630479,34.6015068],[133.9631679,34.6013645],[133.9659365,34.6029558],[133.9666236,34.6033507],[133.9654238,34.6047817],[133.9641985,34.6062336],[133.9641595,34.6062093],[133.9623482,34.6083165],[133.9623097,34.608296],[133.9597896,34.6112499],[133.9595265,34.6110911],[133.9595828,34.6110076]]]}}
