{"type":"Feature","id":"attraction-large-park-W474512071","properties":{"id":"attraction-large-park-W474512071","kind":"attraction","name":"釧路大規模運動公園","shortName":"釧路大規模運動公園","context":"日本","subtype":"large-park","subtypeLabel":"大型都市公園・広域公園","statusLabel":"","aliases":[],"osmType":"way","osmId":474512071,"osmDate":null,"officialAreaKm2":null,"areaSourceLabel":"","areaSourceUrl":"","boundarySourceLabel":"© OpenStreetMap contributors","boundarySourceUrl":"https://www.openstreetmap.org/copyright","geometryFile":"attractions/large-park-W474512071.geojson"},"geometry":{"type":"Polygon","coordinates":[[[144.4031159,43.0297572],[144.4038291,43.0306894],[144.4041163,43.0308773],[144.404711,43.0305603],[144.4050643,43.0300625],[144.4057853,43.0299954],[144.4060924,43.0295601],[144.4084651,43.0300784],[144.4114539,43.0285592],[144.417654,43.0286913],[144.4184449,43.0291425],[144.4197949,43.0289433],[144.4215544,43.0289546],[144.4216778,43.0284112],[144.4228801,43.0280182],[144.4233106,43.0257488],[144.420231,43.0237865],[144.4201499,43.023793],[144.4199451,43.0238503],[144.4175846,43.0221879],[144.4031159,43.0297572]]]}}
