{"type":"Feature","id":"attraction-large-park-W1113121596","properties":{"id":"attraction-large-park-W1113121596","kind":"attraction","name":"米子水鳥公園","shortName":"米子水鳥公園","context":"日本","subtype":"large-park","subtypeLabel":"大型都市公園・広域公園","statusLabel":"著名な公園","aliases":[],"osmType":"way","osmId":1113121596,"osmDate":null,"officialAreaKm2":null,"areaSourceLabel":"","areaSourceUrl":"","boundarySourceLabel":"© OpenStreetMap contributors","boundarySourceUrl":"https://www.openstreetmap.org/copyright","geometryFile":"attractions/large-park-W1113121596.geojson"},"geometry":{"type":"Polygon","coordinates":[[[133.2924836,35.4391943],[133.2923267,35.4392271],[133.2918057,35.4394101],[133.2910889,35.4396549],[133.2905685,35.4398341],[133.2899811,35.4400389],[133.289564,35.4401799],[133.2892737,35.4402831],[133.2886648,35.4404918],[133.2881928,35.4406541],[133.2875088,35.4408906],[133.286916,35.4410955],[133.2864534,35.4412556],[133.2858686,35.4414572],[133.2853141,35.44165],[133.2847455,35.441845],[133.2840508,35.4420849],[133.2835941,35.4422406],[133.2832615,35.4423553],[133.2830275,35.4424405],[133.2831167,35.4426003],[133.2833353,35.4430245],[133.2845731,35.4453855],[133.284774,35.4452883],[133.2850335,35.4451654],[133.2854851,35.4449529],[133.2858774,35.4447606],[133.2863756,35.4445262],[133.2869623,35.4442471],[133.2875081,35.4439871],[133.2878749,35.4438461],[133.2879655,35.4438166],[133.2880204,35.443815],[133.288115,35.4438281],[133.28817,35.443833],[133.2882786,35.443798],[133.2883517,35.4437795],[133.2890276,35.4435134],[133.2897746,35.4432212],[133.2905464,35.4429163],[133.2914879,35.4425427],[133.2919666,35.442352],[133.2921812,35.4422438],[133.2923582,35.4421242],[133.2924575,35.4420357],[133.2927893,35.441634],[133.2930909,35.4412434],[133.2935242,35.4406915],[133.2936974,35.4404638],[133.2937502,35.4403722],[133.2937883,35.4402715],[133.2938117,35.4401777],[133.2938171,35.4400383],[133.293795,35.4399086],[133.2937515,35.4397757],[133.2936786,35.4396569],[133.2936298,35.4395828],[133.2935335,35.4394858],[133.2934379,35.439409],[133.2933383,35.439342],[133.2932186,35.4392821],[133.2930822,35.439238],[133.2929698,35.4392064],[133.2928361,35.4391857],[133.2927451,35.439178],[133.2926047,35.4391824],[133.2924836,35.4391943]]]}}
