{"type":"Feature","id":"attraction-large-park-R3748884","properties":{"id":"attraction-large-park-R3748884","kind":"attraction","name":"太陽公園","shortName":"太陽公園","context":"日本","subtype":"large-park","subtypeLabel":"大型都市公園・広域公園","statusLabel":"著名な公園","aliases":["Taiyo Park"],"osmType":"relation","osmId":3748884,"osmDate":null,"officialAreaKm2":null,"areaSourceLabel":"","areaSourceUrl":"","boundarySourceLabel":"© OpenStreetMap contributors","boundarySourceUrl":"https://www.openstreetmap.org/copyright","geometryFile":"attractions/large-park-R3748884.geojson"},"geometry":{"type":"MultiPolygon","coordinates":[[[[134.6221921,34.8942231],[134.6223155,34.8939987],[134.6228009,34.8938865],[134.623155,34.8935829],[134.6231496,34.8932595],[134.623214,34.8929713],[134.622353,34.8925423],[134.6222323,34.8924389],[134.6222404,34.8921969],[134.6226883,34.8919769],[134.6230799,34.8915104],[134.6248555,34.891539],[134.6252766,34.8916667],[134.6258104,34.8914576],[134.6269178,34.8913387],[134.6277534,34.8910353],[134.6279857,34.8907756],[134.6280892,34.8902115],[134.6283265,34.8901003],[134.6285735,34.8901916],[134.6286607,34.8905333],[134.629596,34.8900905],[134.629836,34.8899769],[134.6298619,34.8900727],[134.6298659,34.8901794],[134.6298203,34.8902836],[134.6295534,34.8908944],[134.6294957,34.8910198],[134.6292074,34.8909318],[134.6289258,34.8909901],[134.628907,34.8911969],[134.628785,34.8915753],[134.6287179,34.8916469],[134.6284758,34.8923058],[134.6282814,34.892259],[134.6282485,34.8923008],[134.6284168,34.8923729],[134.6285945,34.8924785],[134.6283854,34.8928166],[134.6279991,34.8930329],[134.6276463,34.8931878],[134.6265953,34.8939426],[134.6248613,34.8952615],[134.6227592,34.8961196],[134.6220177,34.8960776],[134.6218595,34.8958598],[134.622184,34.8956684],[134.6223745,34.8951668],[134.6222913,34.895048],[134.6219587,34.8948149],[134.6219319,34.8946389],[134.6221921,34.8942231]]],[[[134.6293871,34.8891652],[134.6293021,34.8890262],[134.6291657,34.8888031],[134.6289944,34.8886121],[134.6287547,34.8885082],[134.6286436,34.8884513],[134.6285047,34.8884295],[134.6279298,34.8883291],[134.6279396,34.8882244],[134.6282753,34.8877549],[134.6284175,34.8873149],[134.628793,34.8871168],[134.6292582,34.8870024],[134.629654,34.8864062],[134.6301636,34.8859815],[134.6305016,34.8859441],[134.6306813,34.886096],[134.6306652,34.8869188],[134.6301126,34.8878033],[134.6299061,34.8883885],[134.6297948,34.8886503],[134.6296419,34.888932],[134.6295424,34.8890251],[134.6294676,34.8891476],[134.6293871,34.8891652]]]]}}
