{"type":"Feature","id":"attraction-large-large-port-W628692834","properties":{"id":"attraction-large-large-port-W628692834","kind":"attraction","name":"夢洲コンテナ埠頭C-11","shortName":"夢洲コンテナ埠頭C-11","context":"日本","subtype":"large-port","subtypeLabel":"港湾・埠頭","statusLabel":"","aliases":[],"osmType":"way","osmId":628692834,"osmDate":null,"officialAreaKm2":null,"areaSourceLabel":"","areaSourceUrl":"","boundarySourceLabel":"© OpenStreetMap contributors","boundarySourceUrl":"https://www.openstreetmap.org/copyright","geometryFile":"attractions/large-large-port-W628692834.geojson"},"geometry":{"type":"Polygon","coordinates":[[[135.3954656,34.6516731],[135.3956032,34.6518136],[135.3958625,34.6520783],[135.3978726,34.6541304],[135.4020683,34.651299],[135.399662,34.6488487],[135.3954656,34.6516731]]]}}
