{"type":"Feature","id":"attraction-large-park-W483968487","properties":{"id":"attraction-large-park-W483968487","kind":"attraction","name":"摂津峡公園","shortName":"摂津峡公園","context":"日本","subtype":"large-park","subtypeLabel":"大型都市公園・広域公園","statusLabel":"著名な公園","aliases":[],"osmType":"way","osmId":483968487,"osmDate":null,"officialAreaKm2":null,"areaSourceLabel":"","areaSourceUrl":"","boundarySourceLabel":"© OpenStreetMap contributors","boundarySourceUrl":"https://www.openstreetmap.org/copyright","geometryFile":"attractions/large-park-W483968487.geojson"},"geometry":{"type":"Polygon","coordinates":[[[135.5820853,34.8818],[135.5820638,34.8818429],[135.5820236,34.8819551],[135.5820008,34.8820618],[135.5820008,34.8821751],[135.5820102,34.8822862],[135.5820169,34.8823985],[135.5820196,34.8824601],[135.5820464,34.8825591],[135.5820665,34.8826251],[135.5821215,34.8827032],[135.5821658,34.8827648],[135.5822838,34.8828561],[135.5823173,34.8828792],[135.5824219,34.8829166],[135.5825332,34.882954],[135.5826687,34.8829936],[135.5828122,34.8830299],[135.5829517,34.8830497],[135.583067,34.8830695],[135.5831542,34.8830827],[135.5832588,34.8830838],[135.5833728,34.8830816],[135.5835283,34.8830838],[135.5836691,34.8830794],[135.5838059,34.8830772],[135.5839226,34.8830739],[135.5840835,34.8830739],[135.5841814,34.8830882],[135.58427,34.8831268],[135.5843303,34.8831488],[135.5843679,34.883195],[135.5844027,34.8832269],[135.5844054,34.8832577],[135.5843719,34.8833281],[135.5843477,34.8833699],[135.5843303,34.8834084],[135.584329,34.88347],[135.5843357,34.8835437],[135.5843357,34.8835866],[135.5843652,34.8836262],[135.5844255,34.8837021],[135.5845157,34.8837472],[135.5845747,34.8837494],[135.5846552,34.8837494],[135.5847303,34.8837483],[135.5847792,34.8837626],[135.5848228,34.8837973],[135.5848611,34.8838539],[135.584916,34.8839309],[135.5849529,34.8839799],[135.5850139,34.8840184],[135.585083,34.8840443],[135.5851816,34.8840646],[135.5852573,34.884074],[135.5853324,34.8840712],[135.5854035,34.8840421],[135.5854592,34.8840096],[135.5854887,34.8839716],[135.5854947,34.8839221],[135.5855148,34.8838924],[135.585543,34.8838616],[135.5855826,34.8838369],[135.5856295,34.8838176],[135.5856838,34.883805],[135.5857616,34.8837973],[135.5858454,34.8837973],[135.5859326,34.8837841],[135.5860211,34.8837665],[135.5860935,34.8837472],[135.586174,34.883723],[135.5862397,34.8837005],[135.5863001,34.8836763],[135.5863725,34.8836499],[135.5864717,34.8836185],[135.5865361,34.8835927],[135.5865777,34.8835685],[135.5866367,34.883531],[135.5866756,34.8835024],[135.5867091,34.8834524],[135.5867285,34.8834144],[135.5867359,34.8833743],[135.5867567,34.8833275],[135.5867869,34.8832956],[135.5868184,34.8832797],[135.5868439,34.8832736],[135.5868942,34.883272],[135.586917,34.8832588],[135.5869378,34.8832252],[135.5869612,34.8831763],[135.586982,34.8831334],[135.5869914,34.8830981],[135.5870102,34.8830486],[135.587045,34.8829876],[135.5870558,34.8829617],[135.5870665,34.8829381],[135.587035,34.8829298],[135.586974,34.8829128],[135.5868995,34.882882],[135.5868278,34.8828556],[135.5867446,34.8828226],[135.5866474,34.8827846],[135.5865374,34.8827456],[135.5864322,34.8827103],[135.5863363,34.8826773],[135.5862417,34.8826394],[135.5861975,34.8826163],[135.5861163,34.8825761],[135.5860178,34.8825156],[135.5859812,34.8824914],[135.5859423,34.8824722],[135.5858914,34.8824447],[135.5858417,34.8824095],[135.5858169,34.8823869],[135.5857941,34.8823424],[135.5857686,34.8822862],[135.5857438,34.8822224],[135.5857224,34.8821548],[135.5856942,34.8820805],[135.5856875,34.8820415],[135.5856774,34.881976],[135.5856714,34.8819067],[135.5856573,34.8818313],[135.5856453,34.8817714],[135.5856479,34.8817059],[135.5856607,34.8816427],[135.5856694,34.8815612],[135.5856707,34.8815062],[135.5856728,34.8814446],[135.5856795,34.8813918],[135.5856828,34.8813214],[135.5856882,34.8812648],[135.5856962,34.8811916],[135.5857009,34.8811663],[135.5857163,34.8811118],[135.5857378,34.8810563],[135.5857479,34.8810117],[135.5857633,34.8809413],[135.585774,34.8808775],[135.5857914,34.880823],[135.5858122,34.8807713],[135.585832,34.8807268],[135.5858582,34.8806811],[135.5858828,34.8806459],[135.5858996,34.880622],[135.5859237,34.8805983],[135.5859592,34.8805725],[135.5859958,34.8805516],[135.5860397,34.8805298],[135.5861021,34.8805043],[135.5861376,34.880488],[135.5861561,34.880468],[135.5861752,34.880433],[135.5861758,34.8803868],[135.5861752,34.8802856],[135.5861802,34.8802273],[135.5861822,34.8801657],[135.5861839,34.8800573],[135.5861698,34.8800117],[135.5861436,34.8799619],[135.5861215,34.8799203],[135.5861027,34.879892],[135.5860689,34.8798546],[135.5860447,34.879826],[135.5860162,34.8797875],[135.5859743,34.8797325],[135.5859287,34.8796756],[135.5859036,34.8796387],[135.5858888,34.8796065],[135.5858798,34.87959],[135.5858815,34.8795287],[135.5858882,34.879497],[135.5859046,34.8794646],[135.5859234,34.8794264],[135.5859472,34.8793942],[135.585968,34.8793645],[135.5859948,34.8793056],[135.5860062,34.8792506],[135.5860162,34.8791774],[135.586027,34.8791224],[135.586037,34.8790515],[135.5860484,34.8789943],[135.5860585,34.8789195],[135.5860759,34.8788804],[135.5860977,34.8788446],[135.5861145,34.8787858],[135.5861292,34.8787352],[135.586142,34.8787033],[135.5861701,34.8786626],[135.5861929,34.8786185],[135.5862245,34.8785927],[135.5862754,34.8785888],[135.5863384,34.8785855],[135.5863928,34.8785811],[135.5864223,34.8785751],[135.5864531,34.8785465],[135.5864665,34.8785063],[135.5864786,34.878464],[135.586492,34.8784365],[135.5865114,34.8784068],[135.5865329,34.8783699],[135.5865738,34.8783171],[135.5866147,34.8782632],[135.5866583,34.8782203],[135.5866952,34.8781823],[135.5867294,34.8781427],[135.5867582,34.8780976],[135.586775,34.8780497],[135.5867958,34.8779848],[135.5868293,34.8779018],[135.5868561,34.8778319],[135.5868742,34.8777637],[135.5868963,34.8776927],[135.5869258,34.8776443],[135.5869788,34.877542],[135.5870117,34.8774738],[135.5870392,34.8774171],[135.5870714,34.8773533],[135.5871109,34.8772774],[135.5871351,34.8772345],[135.5871968,34.8771454],[135.5872236,34.8770948],[135.5872685,34.8770133],[135.5873396,34.8768863],[135.5873899,34.8767955],[135.5874516,34.8766948],[135.5874978,34.8766057],[135.5875542,34.8765204],[135.5876071,34.8764148],[135.5876407,34.8763642],[135.5876943,34.8763208],[135.5877332,34.87629],[135.5877848,34.8762784],[135.5878351,34.8762701],[135.5878894,34.8762619],[135.587933,34.8762426],[135.5879645,34.8762014],[135.5879726,34.8761684],[135.5879867,34.8761194],[135.5880095,34.8760462],[135.5880289,34.8760138],[135.5880504,34.8759769],[135.5881007,34.8759384],[135.5881281,34.8759137],[135.5881818,34.875901],[135.5882388,34.875901],[135.588336,34.8759065],[135.5884064,34.8759197],[135.5884621,34.8759307],[135.5884923,34.8759241],[135.5885767,34.8758862],[135.5886311,34.8758614],[135.5886726,34.8758466],[135.5887323,34.8758416],[135.5888436,34.8758444],[135.5888839,34.8759186],[135.5889643,34.8759912],[135.5890475,34.8760209],[135.5891494,34.8760529],[135.5892044,34.8761101],[135.5893036,34.8761354],[135.5894069,34.8761398],[135.5895169,34.876142],[135.5896014,34.8762047],[135.5897422,34.8761519],[135.5897314,34.8759956],[135.5896952,34.8759043],[135.5896765,34.8758042],[135.5896657,34.8757602],[135.5896912,34.8757085],[135.5897043,34.8756914],[135.5897063,34.8756661],[135.5897056,34.8755979],[135.5897063,34.8755291],[135.5897016,34.8754664],[135.5896969,34.8753977],[135.5897009,34.8753476],[135.589707,34.8753008],[135.5897184,34.8752535],[135.5897425,34.8752002],[135.5897807,34.875143],[135.5898049,34.8751077],[135.5897713,34.8750571],[135.5897043,34.8749691],[135.5896265,34.8748646],[135.5895822,34.8748096],[135.5895045,34.8747425],[135.589429,34.8746737],[135.5893801,34.8746214],[135.5893459,34.8745901],[135.5893009,34.8745571],[135.5892433,34.8745103],[135.5891769,34.8744592],[135.5891414,34.8744344],[135.5891246,34.8744272],[135.5890465,34.8743433],[135.5890451,34.8742652],[135.5890488,34.8742286],[135.588689,34.8742333],[135.5886596,34.8743615],[135.5881866,34.8744818],[135.5878244,34.8744063],[135.587478,34.8742176],[135.5873395,34.8743766],[135.5872537,34.8743436],[135.5871773,34.8743084],[135.5871089,34.8742875],[135.5870512,34.8742853],[135.5869855,34.874315],[135.5869372,34.8742809],[135.5868689,34.8742226],[135.5867951,34.8741995],[135.5866932,34.8741467],[135.5866355,34.8741258],[135.5865564,34.8741082],[135.5864223,34.8740818],[135.5863525,34.8740708],[135.5862573,34.874062],[135.5861447,34.8740554],[135.5860669,34.8740499],[135.5859757,34.8740499],[135.5858738,34.8740521],[135.5857718,34.8740576],[135.5856605,34.8740576],[135.5855398,34.8740642],[135.5854781,34.8740686],[135.5853829,34.874073],[135.585285,34.8740818],[135.5851898,34.8741005],[135.5851066,34.8741313],[135.5850141,34.8741555],[135.5849216,34.874183],[135.5848183,34.8741863],[135.584715,34.8741929],[135.5846305,34.8741995],[135.5845259,34.8741973],[135.5844401,34.8742094],[135.5843436,34.8742116],[135.5842001,34.8742083],[135.5841022,34.8742171],[135.5840458,34.8742226],[135.5839198,34.8742259],[135.5838044,34.8742457],[135.5837441,34.8742589],[135.5836837,34.874271],[135.5835992,34.874304],[135.5835523,34.8743183],[135.5834785,34.874326],[135.5834122,34.8743381],[135.5833786,34.8743601],[135.583325,34.8743986],[135.5832633,34.8744404],[135.5832204,34.8744724],[135.5831573,34.874512],[135.5830594,34.8745582],[135.5830098,34.8745648],[135.5829347,34.8745637],[135.5828489,34.8745472],[135.582755,34.874512],[135.5827537,34.8745879],[135.5827564,34.8746506],[135.5827724,34.8747221],[135.5828127,34.8747903],[135.5828355,34.874809],[135.5828489,34.8748695],[135.5828596,34.8749609],[135.5828918,34.8750181],[135.5829347,34.8750764],[135.5829763,34.8751457],[135.5829924,34.8751963],[135.582987,34.8752161],[135.5829428,34.8752315],[135.5828878,34.8752414],[135.5828378,34.8752458],[135.5827882,34.8752519],[135.5827406,34.8752579],[135.5826796,34.8752772],[135.5826031,34.8753047],[135.5825736,34.8753245],[135.5825495,34.8753581],[135.5825119,34.8754197],[135.5824918,34.8754565],[135.5824744,34.8754967],[135.5824496,34.8755748],[135.5824261,34.8756414],[135.5824047,34.8756887],[135.5823865,34.8757745],[135.5823694,34.8758471],[135.5823607,34.8758851],[135.58235,34.8759186],[135.5823373,34.8759351],[135.5823265,34.8759494],[135.5823091,34.8759544],[135.5822883,34.8759538],[135.5822642,34.8759335],[135.5822508,34.8759098],[135.5822186,34.8758719],[135.5822025,34.875851],[135.582175,34.8758273],[135.5821388,34.8757987],[135.582116,34.875775],[135.5821006,34.875769],[135.5820751,34.8757706],[135.5820637,34.8758163],[135.5820529,34.8758548],[135.5820301,34.8759098],[135.5820073,34.8759582],[135.5819913,34.8759995],[135.5819731,34.8760435],[135.5819443,34.8761117],[135.5819259,34.8761601],[135.5819037,34.8762047],[135.5818786,34.8762701],[135.5818598,34.8763153],[135.5818464,34.8763879],[135.5818411,34.8764374],[135.581833,34.8765232],[135.5818196,34.8766156],[135.5818156,34.8766728],[135.5817995,34.8767829],[135.581778,34.8769061],[135.5817623,34.8770051],[135.5817535,34.8770887],[135.5817455,34.8771432],[135.5817348,34.877235],[135.5817247,34.8773165],[135.5817126,34.8773858],[135.5817006,34.8774732],[135.5816858,34.8775684],[135.5816778,34.8776212],[135.5816516,34.8776707],[135.5816288,34.8777296],[135.581598,34.8777961],[135.5815792,34.8778325],[135.581551,34.8778919],[135.5815329,34.8779392],[135.5815088,34.8779947],[135.5815068,34.8780409],[135.5815061,34.8780706],[135.5815101,34.8781317],[135.5815168,34.8781829],[135.5815202,34.8782588],[135.5815242,34.8783105],[135.5815249,34.8783837],[135.5815336,34.8784392],[135.5815356,34.8785008],[135.5815403,34.8785465],[135.5815416,34.8786207],[135.5815631,34.878733],[135.5815738,34.8787858],[135.5815983,34.878816],[135.5816452,34.8788617],[135.5816908,34.8789106],[135.5817204,34.8789398],[135.5817733,34.8789954],[135.5818089,34.8790311],[135.5818659,34.8790905],[135.5819101,34.8791307],[135.5819249,34.8791494],[135.5818846,34.8791835],[135.5818424,34.8792105],[135.5817814,34.8792561],[135.5817177,34.8792952],[135.5816486,34.8793337],[135.581599,34.8793678],[135.5815507,34.8794019],[135.5815091,34.879431],[135.5815075,34.8794519],[135.5815068,34.8795147],[135.5815101,34.8795642],[135.5815128,34.8796313],[135.5815175,34.8796731],[135.5815168,34.8797193],[135.5815219,34.8797721],[135.5815675,34.8798222],[135.5816117,34.87987],[135.5816432,34.8799041],[135.5816902,34.8799586],[135.5817351,34.8800075],[135.5817794,34.8800543],[135.5818162,34.8800928],[135.5818779,34.8801566],[135.5819309,34.8802105],[135.5819812,34.880265],[135.5820335,34.8803244],[135.5820999,34.8803777],[135.5821529,34.8804223],[135.5822065,34.8804586],[135.5822548,34.8804872],[135.5822937,34.8805076],[135.5823165,34.8805153],[135.5823929,34.8805142],[135.5824251,34.8805059],[135.5825049,34.8804724],[135.5825203,34.8804597],[135.5825733,34.8804586],[135.5826511,34.8804608],[135.5826725,34.8804905],[135.5826826,34.8805098],[135.5826953,34.8805752],[135.5827087,34.8806319],[135.5827262,34.8806968],[135.5827362,34.880738],[135.5827396,34.8808041],[135.582745,34.8808706],[135.5827496,34.8809476],[135.5827483,34.8809779],[135.5827517,34.8810736],[135.5827456,34.8811413],[135.5827436,34.8812117],[135.5827382,34.8813129],[135.5827315,34.881386],[135.5827282,34.8814581],[135.5827275,34.881545],[135.5827215,34.881611],[135.5827155,34.8816809],[135.5827061,34.8817639],[135.5826987,34.8817926],[135.5826538,34.8818014],[135.5825901,34.8818146],[135.5825445,34.881825],[135.5824881,34.8818305],[135.5824459,34.8818327],[135.5823406,34.8818311],[135.5822863,34.881825],[135.5822353,34.8818206],[135.5821777,34.8818157],[135.5821354,34.8818107],[135.5820853,34.8818]]]}}
