{"type":"Feature","id":"attraction-large-park-W1072634982","properties":{"id":"attraction-large-park-W1072634982","kind":"attraction","name":"ルルマップ自然公園 ふれらんど","shortName":"ルルマップ自然公園 ふれらんど","context":"日本","subtype":"large-park","subtypeLabel":"大型都市公園・広域公園","statusLabel":"著名な公園","aliases":[],"osmType":"way","osmId":1072634982,"osmDate":null,"officialAreaKm2":null,"areaSourceLabel":"","areaSourceUrl":"","boundarySourceLabel":"© OpenStreetMap contributors","boundarySourceUrl":"https://www.openstreetmap.org/copyright","geometryFile":"attractions/large-park-W1072634982.geojson"},"geometry":{"type":"Polygon","coordinates":[[[141.5483539,42.917694],[141.5503406,42.9206319],[141.5541177,42.9192823],[141.5541735,42.9191764],[141.5523335,42.9163498],[141.5511641,42.9167226],[141.5483539,42.917694]]]}}
