{"type":"Feature","id":"attraction-large-military-base-W647087836","properties":{"id":"attraction-large-military-base-W647087836","kind":"attraction","name":"海上自衛隊 阪神基地隊","shortName":"海上自衛隊 阪神基地隊","context":"日本","subtype":"military-base","subtypeLabel":"基地・駐屯地・演習場","statusLabel":"","aliases":[],"osmType":"way","osmId":647087836,"osmDate":null,"officialAreaKm2":null,"areaSourceLabel":"","areaSourceUrl":"","boundarySourceLabel":"© OpenStreetMap contributors","boundarySourceUrl":"https://www.openstreetmap.org/copyright","geometryFile":"attractions/large-military-base-W647087836.geojson"},"geometry":{"type":"Polygon","coordinates":[[[135.2862149,34.7057241],[135.2865265,34.7037789],[135.2880982,34.7039479],[135.2877597,34.7060591],[135.2869797,34.7059711],[135.287003,34.7058038],[135.2862149,34.7057241]]]}}
