{"type":"Feature","id":"attraction-large-industrial-complex-W564459009","properties":{"id":"attraction-large-industrial-complex-W564459009","kind":"attraction","name":"玉島E地区","shortName":"玉島E地区","context":"日本","subtype":"industrial-complex","subtypeLabel":"工業地帯・大規模工場","statusLabel":"","aliases":[],"osmType":"way","osmId":564459009,"osmDate":null,"officialAreaKm2":null,"areaSourceLabel":"","areaSourceUrl":"","boundarySourceLabel":"© OpenStreetMap contributors","boundarySourceUrl":"https://www.openstreetmap.org/copyright","geometryFile":"attractions/large-industrial-complex-W564459009.geojson"},"geometry":{"type":"Polygon","coordinates":[[[133.6701988,34.5259934],[133.6704299,34.5260425],[133.6706315,34.5261182],[133.6708368,34.5262289],[133.6710309,34.5263143],[133.6712351,34.5263495],[133.6714611,34.5263588],[133.6717983,34.5262973],[133.6727816,34.5261136],[133.6730142,34.5260563],[133.6733271,34.5259704],[133.6733479,34.5259581],[133.6745529,34.5255264],[133.6748486,34.5254199],[133.6750707,34.5253457],[133.6753673,34.525245],[133.6757597,34.5251132],[133.6759601,34.525083],[133.6762062,34.5250774],[133.676404,34.5250845],[133.6765607,34.5251451],[133.6774186,34.5255506],[133.6777148,34.5256917],[133.6778801,34.5257654],[133.6779848,34.5256973],[133.6783371,34.5225319],[133.6844232,34.5230645],[133.6846974,34.5230979],[133.6857342,34.5224993],[133.6873344,34.5215718],[133.6906706,34.5196398],[133.6906494,34.5187398],[133.6906032,34.5171163],[133.6904684,34.5123776],[133.6841108,34.5125083],[133.6841152,34.5117519],[133.6840423,34.511751],[133.6840264,34.510941],[133.6839596,34.5109435],[133.6839407,34.5104075],[133.6838915,34.5086619],[133.6838573,34.5074472],[133.683847,34.507081],[133.6838465,34.5070602],[133.6837782,34.5070615],[133.6827162,34.5070814],[133.6806307,34.5071205],[133.6791534,34.5071568],[133.6785725,34.5071653],[133.6782156,34.5071706],[133.6772709,34.5071849],[133.6772703,34.5072054],[133.6771943,34.5072083],[133.6702117,34.5073473],[133.6703652,34.5127395],[133.672533,34.5135925],[133.6757825,34.5148504],[133.6759428,34.5148238],[133.6759033,34.513759],[133.6771211,34.5137297],[133.6771451,34.5148834],[133.6768356,34.5148888],[133.6768937,34.5162206],[133.6769392,34.5173324],[133.676972,34.518311],[133.6768765,34.5183997],[133.6698159,34.5177768],[133.6691058,34.5248813],[133.6690063,34.5258836],[133.6701988,34.5259934]]]}}
