{"type":"Feature","id":"attraction-large-park-W480803596","properties":{"id":"attraction-large-park-W480803596","kind":"attraction","name":"入江運動公園","shortName":"入江運動公園","context":"日本","subtype":"large-park","subtypeLabel":"大型都市公園・広域公園","statusLabel":"著名な公園","aliases":[],"osmType":"way","osmId":480803596,"osmDate":null,"officialAreaKm2":null,"areaSourceLabel":"","areaSourceUrl":"","boundarySourceLabel":"© OpenStreetMap contributors","boundarySourceUrl":"https://www.openstreetmap.org/copyright","geometryFile":"attractions/large-park-W480803596.geojson"},"geometry":{"type":"Polygon","coordinates":[[[140.9761937,42.3225693],[140.976331,42.3226588],[140.9784536,42.3226465],[140.9785812,42.322476],[140.9789513,42.3225884],[140.9793142,42.3226712],[140.979029,42.32257],[140.978843,42.322372],[140.978798,42.322122],[140.978939,42.320571],[140.9785381,42.3201541],[140.9785256,42.3194308],[140.978643,42.3193209],[140.9789126,42.3192484],[140.97908,42.319197],[140.979405,42.318867],[140.9797842,42.3187835],[140.9799467,42.3186861],[140.9802206,42.3184851],[140.9800705,42.3180362],[140.9802517,42.3178057],[140.9801548,42.3176299],[140.9803531,42.3176408],[140.9803595,42.3175617],[140.9800321,42.3175309],[140.9795049,42.3175309],[140.9794917,42.3175576],[140.9794669,42.3175812],[140.979341,42.3176523],[140.97923,42.3177753],[140.9791016,42.3178863],[140.9787499,42.3180596],[140.9784853,42.3181406],[140.9773487,42.3184103],[140.9756944,42.3188297],[140.9761937,42.3225693]]]}}
