{"type":"Feature","id":"attraction-large-industrial-complex-W672664216","properties":{"id":"attraction-large-industrial-complex-W672664216","kind":"attraction","name":"三菱重工 神戸造船所","shortName":"三菱重工 神戸造船所","context":"日本","subtype":"industrial-complex","subtypeLabel":"工業地帯・大規模工場","statusLabel":"","aliases":["Mitsubishi Heavy Industries"],"osmType":"way","osmId":672664216,"osmDate":null,"officialAreaKm2":null,"areaSourceLabel":"","areaSourceUrl":"","boundarySourceLabel":"© OpenStreetMap contributors","boundarySourceUrl":"https://www.openstreetmap.org/copyright","geometryFile":"attractions/large-industrial-complex-W672664216.geojson"},"geometry":{"type":"Polygon","coordinates":[[[135.1777829,34.6490499],[135.1833183,34.6496171],[135.1866762,34.6523757],[135.186954,34.6526102],[135.1870047,34.652616],[135.1870017,34.6526331],[135.1869381,34.6530364],[135.1868742,34.653036],[135.1868279,34.6530161],[135.1866858,34.6530647],[135.1864863,34.6530806],[135.1865029,34.6531758],[135.186182,34.653295],[135.1860548,34.65342],[135.1858959,34.6535159],[135.1848035,34.6536601],[135.1843187,34.6541896],[135.1843818,34.6543245],[135.1844287,34.6545583],[135.1841739,34.654639],[135.1842825,34.6548055],[135.1845749,34.6546941],[135.185147,34.655546],[135.1847315,34.6557681],[135.184794,34.65589],[135.1837024,34.6564171],[135.1837461,34.6564945],[135.1834324,34.6566816],[135.1832407,34.6567335],[135.1831003,34.656746],[135.182619,34.655569],[135.1807282,34.6554096],[135.1806615,34.6554343],[135.1805502,34.6555778],[135.1806125,34.6578662],[135.180281,34.6583251],[135.1805763,34.65855],[135.1801137,34.6590246],[135.17979,34.6587993],[135.1794162,34.6593481],[135.1786757,34.6606766],[135.178612,34.6607777],[135.177954,34.662468],[135.1775547,34.6624224],[135.1770866,34.6624925],[135.1763968,34.6623973],[135.1766302,34.6616814],[135.1776427,34.661891],[135.177872,34.6612148],[135.1780685,34.6607982],[135.1770861,34.6605011],[135.1777124,34.6592865],[135.1776856,34.6592027],[135.1774871,34.6591277],[135.1770674,34.6586909],[135.1773812,34.6579782],[135.1771626,34.6578955],[135.1773342,34.6575524],[135.1755585,34.6569037],[135.175596,34.6568355],[135.175653,34.6568567],[135.1756881,34.656793],[135.1755244,34.656732],[135.1754836,34.6568062],[135.1754174,34.6567883],[135.1754782,34.6566694],[135.1754565,34.6566492],[135.1761982,34.654977],[135.1762399,34.6550273],[135.1778385,34.6549876],[135.1793747,34.6535484],[135.179421,34.6531452],[135.1793915,34.65294],[135.1793808,34.6510248],[135.1775193,34.6508417],[135.1777829,34.6490499]]]}}
