{"type":"Feature","id":"attraction-large-large-farm-W1076255347","properties":{"id":"attraction-large-large-farm-W1076255347","kind":"attraction","name":"惣辺牧野","shortName":"惣辺牧野","context":"日本","subtype":"large-farm","subtypeLabel":"大規模農場・牧場","statusLabel":"","aliases":[],"osmType":"way","osmId":1076255347,"osmDate":null,"officialAreaKm2":null,"areaSourceLabel":"","areaSourceUrl":"","boundarySourceLabel":"© OpenStreetMap contributors","boundarySourceUrl":"https://www.openstreetmap.org/copyright","geometryFile":"attractions/large-large-farm-W1076255347.geojson"},"geometry":{"type":"Polygon","coordinates":[[[141.0136092,40.5155324],[141.0136092,40.5160809],[141.0136896,40.516293],[141.014784,40.5161156],[141.0151863,40.5160096],[141.0153633,40.5158954],[141.0156369,40.5156344],[141.0159588,40.5156099],[141.0161546,40.5154855],[141.0167339,40.5149166],[141.0172999,40.5143253],[141.0175252,40.5141377],[141.0175681,40.5139786],[141.0174823,40.5137828],[141.0178041,40.5137706],[141.01789,40.5137176],[141.0180402,40.5134036],[141.0181582,40.5132567],[141.0182494,40.5132078],[141.0192794,40.513114],[141.0198319,40.5130161],[141.0199231,40.5122535],[141.0205185,40.5116213],[141.0205293,40.5114582],[141.0204327,40.5112339],[141.0201269,40.5109565],[141.0192043,40.509476],[141.0183835,40.508489],[141.0175949,40.5080281],[141.0174689,40.5079037],[141.0174715,40.5077385],[141.0167044,40.5076529],[141.0162753,40.5075509],[141.0153365,40.5075183],[141.0149985,40.5074612],[141.0148537,40.5073307],[141.0147303,40.5070941],[141.0146069,40.5066618],[141.0126007,40.5056502],[141.0127562,40.5060214],[141.0137165,40.5070819],[141.0138184,40.5071063],[141.0143441,40.5069962],[141.0145587,40.5070248],[141.014564,40.5071063],[141.0144943,40.5071716],[141.0139418,40.5072858],[141.0138184,40.5074286],[141.0138184,40.507608],[141.01399,40.5081015],[141.0141402,40.5082157],[141.0143709,40.5082321],[141.0144782,40.5082728],[141.0145587,40.5084278],[141.0148859,40.5083993],[141.0150897,40.508436],[141.0147732,40.5085706],[141.014682,40.5087215],[141.0144567,40.5087093],[141.014269,40.508799],[141.014269,40.5090641],[141.0153097,40.5089662],[141.0160446,40.5089907],[141.0163397,40.5090886],[141.0164684,40.5090804],[141.0166669,40.5090029],[141.0168064,40.5088765],[141.0171282,40.5088031],[141.0173321,40.5088031],[141.0174823,40.5085747],[141.0175306,40.5084115],[141.017611,40.5083585],[141.0177183,40.5083626],[141.0178095,40.5084074],[141.017831,40.5084931],[141.017788,40.5087378],[141.0178471,40.5089009],[141.0176057,40.5090845],[141.0173964,40.5091742],[141.0168385,40.5091661],[141.0167742,40.5093251],[141.0169673,40.5094026],[141.0174125,40.5094271],[141.017729,40.5095209],[141.0183996,40.5096351],[141.0184908,40.50968],[141.0183996,40.509733],[141.018067,40.509786],[141.0173643,40.5097982],[141.0166776,40.5097126],[141.0164577,40.5097534],[141.0163933,40.5099084],[141.0164523,40.5099777],[141.0167742,40.5099491],[141.0170263,40.5099818],[141.0169351,40.5101449],[141.0162914,40.5103366],[141.0162485,40.5104141],[141.016286,40.5104916],[141.0163987,40.5104793],[141.0167956,40.5103366],[141.0172141,40.5102877],[141.0173964,40.5103815],[141.017729,40.5103611],[141.017831,40.5103937],[141.0174715,40.5106058],[141.0168761,40.5106343],[141.0168117,40.5107118],[141.0168976,40.510875],[141.0169297,40.5112624],[141.0163611,40.5113725],[141.0158086,40.511397],[141.0154921,40.5115479],[141.0152668,40.5115765],[141.0144514,40.511813],[141.0138559,40.5117681],[141.0136253,40.5118334],[141.0131478,40.5118334],[141.0129225,40.511866],[141.0128206,40.5118986],[141.0124558,40.512229],[141.0118067,40.5123473],[141.0115009,40.5124452],[141.0104495,40.5125308],[141.0102296,40.5127347],[141.0098702,40.5128448],[141.0097897,40.512906],[141.0097039,40.5130691],[141.0093713,40.5133179],[141.0088348,40.5132853],[141.0086042,40.5133179],[141.0083198,40.5135912],[141.007998,40.5136809],[141.0078049,40.5137788],[141.0076976,40.5139378],[141.00766,40.5141132],[141.0075581,40.5142682],[141.0082072,40.5143824],[141.0086632,40.5143783],[141.0086846,40.5144598],[141.0085827,40.5145169],[141.0083413,40.5145781],[141.0076439,40.5145903],[141.0073113,40.5146638],[141.0052514,40.5159769],[141.0046077,40.5162624],[141.0040605,40.5164174],[141.0032987,40.516972],[141.0026979,40.5176571],[141.0024512,40.518069],[141.0023493,40.5183137],[141.0020488,40.518436],[141.0020167,40.5185176],[141.0020864,40.5185951],[141.0022098,40.5185951],[141.0024244,40.5185298],[141.0027248,40.518277],[141.002832,40.5182525],[141.0029662,40.5183871],[141.0030842,40.5183789],[141.0036582,40.5181342],[141.0038406,40.518016],[141.0041892,40.517914],[141.0044521,40.5177631],[141.004656,40.517702],[141.0046935,40.5177795],[141.0042,40.5180935],[141.0034651,40.5184768],[141.0032558,40.5185543],[141.0032451,40.5187256],[141.0030842,40.5188561],[141.0028589,40.5188928],[141.0027409,40.51875],[141.0025316,40.5188194],[141.0024458,40.5190518],[141.0025102,40.5191252],[141.0028642,40.5193495],[141.0030788,40.5194025],[141.0032827,40.5193984],[141.0037494,40.5191619],[141.0038406,40.5189335],[141.004023,40.5187174],[141.0043663,40.5185013],[141.0046935,40.5180731],[141.0048491,40.5179467],[141.0055089,40.5176938],[141.005922,40.5176367],[141.0061258,40.5175592],[141.0062116,40.5174899],[141.0065067,40.5173635],[141.0069841,40.5169353],[141.0077405,40.5165397],[141.0083628,40.5163154],[141.0089797,40.5162053],[141.009044,40.5163032],[141.0088724,40.5164133],[141.008395,40.5164704],[141.0079282,40.5166172],[141.0072845,40.5170169],[141.0073811,40.5170576],[141.007601,40.5170332],[141.0076868,40.517078],[141.0076922,40.5171718],[141.0075313,40.5172942],[141.0071611,40.5173717],[141.0070699,40.5174247],[141.0070378,40.5175103],[141.006614,40.5177428],[141.0063404,40.5180282],[141.0061526,40.5181587],[141.0062545,40.5181832],[141.0075635,40.517755],[141.0078317,40.5175959],[141.008057,40.5173186],[141.009205,40.5170617],[141.0101277,40.5167599],[141.0098004,40.5162053],[141.0102618,40.5160503],[141.0102349,40.5157975],[141.0101974,40.5157119],[141.0098433,40.5154794],[141.0096502,40.5152102],[141.009661,40.5151287],[141.0099024,40.5149655],[141.0102296,40.5150267],[141.0105246,40.5154957],[141.0106802,40.5156099],[141.0107982,40.5156058],[141.010884,40.5155569],[141.0111362,40.5152836],[141.0118121,40.5152633],[141.0122681,40.5151613],[141.0124075,40.514937],[141.0124665,40.5147698],[141.0125095,40.5147494],[141.0129279,40.5147576],[141.013813,40.5146556],[141.0151273,40.5147535],[141.015771,40.5148391],[141.0159856,40.5150267],[141.0159749,40.5152184],[141.0159373,40.5152959],[141.015594,40.515353],[141.0154974,40.5154101],[141.0151541,40.5154753],[141.0145694,40.5154345],[141.0136092,40.5155324]]]}}
