{"type":"Feature","id":"attraction-large-industrial-complex-W545476549","properties":{"id":"attraction-large-industrial-complex-W545476549","kind":"attraction","name":"日産化学","shortName":"日産化学","context":"日本","subtype":"industrial-complex","subtypeLabel":"工業地帯・大規模工場","statusLabel":"","aliases":[],"osmType":"way","osmId":545476549,"osmDate":null,"officialAreaKm2":null,"areaSourceLabel":"","areaSourceUrl":"","boundarySourceLabel":"© OpenStreetMap contributors","boundarySourceUrl":"https://www.openstreetmap.org/copyright","geometryFile":"attractions/large-industrial-complex-W545476549.geojson"},"geometry":{"type":"Polygon","coordinates":[[[137.1636396,36.6760074],[137.1628586,36.6749491],[137.161084,36.6730646],[137.1600932,36.6721673],[137.1584311,36.6703407],[137.1572245,36.6686806],[137.1561777,36.6677961],[137.1559472,36.6675237],[137.1555109,36.6666876],[137.1547479,36.6651876],[137.1553229,36.6650087],[137.1552292,36.6648111],[137.1565772,36.664399],[137.1580635,36.6638862],[137.1594779,36.6634119],[137.1597208,36.6633207],[137.1620061,36.6667947],[137.1626299,36.6681155],[137.1642324,36.6711482],[137.164616,36.6719302],[137.165487,36.6733658],[137.1660543,36.6740964],[137.1666296,36.6750129],[137.1653133,36.6754452],[137.1646,36.6756794],[137.1636396,36.6760074]]]}}
