{"type":"Feature","id":"attraction-large-military-base-W1031637341","properties":{"id":"attraction-large-military-base-W1031637341","kind":"attraction","name":"米海軍庵崎貯油所","shortName":"米海軍庵崎貯油所","context":"日本","subtype":"military-base","subtypeLabel":"基地・駐屯地・演習場","statusLabel":"","aliases":["US Navy Iosaki Filling Station"],"osmType":"way","osmId":1031637341,"osmDate":null,"officialAreaKm2":null,"areaSourceLabel":"","areaSourceUrl":"","boundarySourceLabel":"© OpenStreetMap contributors","boundarySourceUrl":"https://www.openstreetmap.org/copyright","geometryFile":"attractions/large-military-base-W1031637341.geojson"},"geometry":{"type":"Polygon","coordinates":[[[129.7062079,33.1179883],[129.7059524,33.1177799],[129.7055983,33.1175463],[129.7052282,33.1175283],[129.7050029,33.117407],[129.7047669,33.1171688],[129.7047025,33.1170071],[129.7046548,33.1166648],[129.7047535,33.116636],[129.7048022,33.1165827],[129.7052953,33.1162141],[129.7058688,33.1160427],[129.7063928,33.1157863],[129.7068895,33.1158042],[129.707227,33.115721],[129.7074927,33.1155814],[129.7080016,33.1154624],[129.7083052,33.1153923],[129.7087808,33.1152326],[129.709055,33.115252],[129.709289,33.115297],[129.709899,33.115461],[129.7105008,33.1155134],[129.711225,33.115664],[129.7114063,33.1156695],[129.711446,33.115715],[129.711519,33.115737],[129.711647,33.115833],[129.71168,33.115895],[129.711734,33.115935],[129.711787,33.116014],[129.711814,33.116104],[129.711848,33.116149],[129.711848,33.116324],[129.711894,33.116414],[129.711901,33.116786],[129.711881,33.116893],[129.711914,33.117057],[129.711901,33.117062],[129.7118067,33.117414],[129.7117225,33.1177152],[129.7116942,33.1177226],[129.7115234,33.1178927],[129.7113862,33.1180308],[129.7107066,33.1183742],[129.7100517,33.1189083],[129.7104528,33.1194809],[129.7105386,33.1194454],[129.7106137,33.1195289],[129.7106405,33.1195155],[129.7106734,33.1195765],[129.709923,33.1199488],[129.7098397,33.1198303],[129.7099607,33.1197695],[129.709249,33.1187725],[129.7091321,33.1187288],[129.7091306,33.1187602],[129.7090495,33.1187507],[129.7090592,33.1187137],[129.7089753,33.1187148],[129.7087876,33.1187855],[129.7084911,33.1189793],[129.7083253,33.1191031],[129.7080723,33.1191782],[129.7081184,33.1192383],[129.7080459,33.1192739],[129.7080214,33.119251],[129.7079623,33.119269],[129.7078691,33.1194113],[129.7075933,33.1197177],[129.707608,33.119936],[129.707582,33.119992],[129.707501,33.12006],[129.707468,33.120156],[129.707421,33.120195],[129.707294,33.120223],[129.707193,33.120274],[129.707106,33.120274],[129.706919,33.120449],[129.706805,33.120466],[129.70667,33.120522],[129.706449,33.120579],[129.706289,33.120566],[129.706004,33.120606],[129.705728,33.120631],[129.705562,33.120608],[129.705478,33.120555],[129.705459,33.120439],[129.705449,33.120291],[129.705549,33.120221],[129.705954,33.120118],[129.706238,33.119946],[129.7067249,33.1196265],[129.7069985,33.1190694],[129.7071433,33.1187728],[129.7067571,33.1187144],[129.7062079,33.1179883]]]}}
