{"type":"Feature","id":"attraction-large-large-port-W931796255","properties":{"id":"attraction-large-large-port-W931796255","kind":"attraction","name":"石狩湾新港発電所","shortName":"石狩湾新港発電所","context":"北海道・小樽市","subtype":"large-port","subtypeLabel":"港湾・埠頭","statusLabel":"","aliases":["Ishikariwan Shinko power station","北海道電力"],"osmType":"way","osmId":931796255,"osmDate":null,"officialAreaKm2":null,"areaSourceLabel":"","areaSourceUrl":"","boundarySourceLabel":"© OpenStreetMap contributors","boundarySourceUrl":"https://www.openstreetmap.org/copyright","geometryFile":"attractions/large-large-port-W931796255.geojson"},"geometry":{"type":"Polygon","coordinates":[[[141.2705362,43.1945231],[141.2715396,43.1951915],[141.27165,43.1951034],[141.2719386,43.1952956],[141.2718282,43.1953837],[141.2737559,43.1966677],[141.2751691,43.1955646],[141.2766181,43.1964746],[141.2800776,43.1936553],[141.2754736,43.190496],[141.2705362,43.1945231]]]}}
