{"type":"Feature","id":"attraction-large-park-R9503807","properties":{"id":"attraction-large-park-R9503807","kind":"attraction","name":"大津湖岸なぎさ公園","shortName":"大津湖岸なぎさ公園","context":"日本","subtype":"large-park","subtypeLabel":"大型都市公園・広域公園","statusLabel":"著名な公園","aliases":[],"osmType":"relation","osmId":9503807,"osmDate":null,"officialAreaKm2":null,"areaSourceLabel":"","areaSourceUrl":"","boundarySourceLabel":"© OpenStreetMap contributors","boundarySourceUrl":"https://www.openstreetmap.org/copyright","geometryFile":"attractions/large-park-R9503807.geojson"},"geometry":{"type":"MultiPolygon","coordinates":[[[[135.8697341,35.0099979],[135.8716931,35.0089717],[135.8717417,35.0090522],[135.8718372,35.0092851],[135.871844,35.0093378],[135.8718428,35.0093853],[135.8718265,35.0094413],[135.8717885,35.0094836],[135.8717426,35.0095123],[135.8701488,35.0103498],[135.8701314,35.0103297],[135.8700019,35.0101513],[135.8695202,35.0104067],[135.8693443,35.0101664],[135.8693675,35.0101552],[135.8694171,35.0101303],[135.8694427,35.0101056],[135.8694621,35.0100809],[135.8694777,35.0100733],[135.8695143,35.0100698],[135.8695574,35.0100644],[135.8696165,35.0100465],[135.869664,35.0100293],[135.8697341,35.0099979]]],[[[135.8717527,35.008941],[135.8731572,35.0081868],[135.87318,35.0082233],[135.8733775,35.0084775],[135.873395,35.0085008],[135.8734044,35.0085409],[135.873399,35.0085793],[135.8733889,35.0086161],[135.8733682,35.0086458],[135.8733325,35.0086722],[135.8722515,35.0092412],[135.8722041,35.0092549],[135.8721565,35.0092582],[135.8721109,35.0092543],[135.8720673,35.0092395],[135.8720383,35.0092234],[135.8718106,35.0090114],[135.8717527,35.008941]]],[[[135.8803809,35.0067929],[135.8803855,35.0068072],[135.8803868,35.0068245],[135.8803795,35.0068454],[135.8803804,35.0068842],[135.8803741,35.0069212],[135.8803626,35.0069536],[135.8803432,35.0069926],[135.8803205,35.0070223],[135.8802614,35.0070525],[135.8801026,35.0070944],[135.8798332,35.0071419],[135.8795178,35.0071843],[135.8791342,35.0072326],[135.8787018,35.0072986],[135.878438,35.0073435],[135.8782005,35.0074082],[135.8779074,35.0075192],[135.8776219,35.0076372],[135.8769879,35.0079284],[135.8767816,35.0080104],[135.8765655,35.0080906],[135.8763641,35.0081287],[135.8761503,35.0081509],[135.8759251,35.0081506],[135.8756309,35.0081056],[135.8754435,35.0080587],[135.8752678,35.007997],[135.8750408,35.0078804],[135.8749772,35.007902],[135.8748913,35.0078949],[135.8748137,35.007869],[135.8744493,35.0075918],[135.8744286,35.0075737],[135.8744139,35.0075553],[135.8744451,35.0075383],[135.87443,35.0075182],[135.8744206,35.0075044],[135.8745668,35.0074322],[135.8746183,35.0074067],[135.8755551,35.0069319],[135.8756621,35.0069119],[135.8759317,35.0067647],[135.8760082,35.0066971],[135.8760414,35.0066795],[135.8770111,35.006167],[135.8770585,35.0061423],[135.8770964,35.0061325],[135.8771367,35.0061308],[135.877173,35.0061438],[135.8772169,35.0061681],[135.8774368,35.0063406],[135.8776023,35.0065106],[135.8777972,35.0067523],[135.8779764,35.0069668],[135.878003,35.006997],[135.8780406,35.007019],[135.8780854,35.007023],[135.8781281,35.0070208],[135.8790814,35.0069001],[135.8803721,35.0067368],[135.8803809,35.0067929]]],[[[135.8830003,35.0064742],[135.8829986,35.0065214],[135.8829959,35.0065928],[135.8829886,35.0066444],[135.8829724,35.0066874],[135.8829459,35.0067323],[135.8829041,35.0067685],[135.8828504,35.0067961],[135.8827748,35.0068071],[135.882609,35.0068212],[135.8824276,35.0068252],[135.8821289,35.0068141],[135.8818468,35.0068056],[135.8816589,35.006817],[135.8814806,35.0068369],[135.8806578,35.0069785],[135.8806255,35.0069783],[135.8805766,35.0069679],[135.8805414,35.0069502],[135.8805062,35.0069157],[135.8804748,35.0068749],[135.8804492,35.006835],[135.8804381,35.0068149],[135.8804284,35.0067893],[135.88042,35.0067331],[135.8816783,35.0065779],[135.8829912,35.006415],[135.8830003,35.0064742]]],[[[135.8855616,35.006126],[135.8855652,35.0061449],[135.8855668,35.0061773],[135.8855609,35.0062452],[135.8855427,35.0062902],[135.8855058,35.0063269],[135.8854622,35.00635],[135.8854139,35.006363],[135.8852644,35.0063797],[135.8851555,35.0063968],[135.8849459,35.0064478],[135.8847109,35.006521],[135.8842786,35.0066768],[135.8841336,35.0067094],[135.8839052,35.0067383],[135.883676,35.0067613],[135.8833441,35.006765],[135.883297,35.0067592],[135.8832381,35.0067372],[135.8831871,35.0066982],[135.8831383,35.0066361],[135.8831066,35.0065823],[135.8830778,35.006517],[135.8830546,35.0064697],[135.8830431,35.0064083],[135.883999,35.0062889],[135.8840876,35.0062777],[135.884186,35.0062669],[135.8855559,35.0060954],[135.8855616,35.006126]]],[[[135.8856095,35.00609],[135.8856154,35.006122],[135.8856188,35.0061402],[135.8856262,35.006172],[135.8856562,35.0062384],[135.8857126,35.0062814],[135.885762,35.0062989],[135.8858238,35.0063026],[135.8871044,35.0061477],[135.8884258,35.0059869],[135.8891237,35.0058997],[135.8894862,35.0058775],[135.8899895,35.0058841],[135.8900931,35.0058599],[135.8901617,35.005815],[135.8902014,35.005739],[135.890199,35.0055923],[135.8900419,35.0047256],[135.8899947,35.0044651],[135.8899445,35.0044719],[135.8899244,35.0044759],[135.8899043,35.0045004],[135.8898901,35.0045271],[135.8898906,35.0045506],[135.8898914,35.0045875],[135.8900371,35.0053956],[135.8900255,35.0054763],[135.8899911,35.0055107],[135.8899501,35.0055377],[135.8898778,35.0055601],[135.8869223,35.0059271],[135.886624,35.0059641],[135.8856095,35.00609]]],[[[135.8901755,35.0046941],[135.8901494,35.0046385],[135.8901246,35.0045589],[135.8901031,35.0044468],[135.8901862,35.0044364],[135.8904074,35.0044086],[135.8910196,35.0043316],[135.8913804,35.0042863],[135.8914424,35.0042785],[135.8915495,35.004265],[135.8915878,35.0042602],[135.8924628,35.0041503],[135.8923736,35.0036741],[135.8924913,35.0036617],[135.8924203,35.0032118],[135.8922895,35.0032256],[135.8922415,35.0029693],[135.8914672,35.003075],[135.8909413,35.0031468],[135.8908535,35.0030834],[135.8906328,35.0018821],[135.8906221,35.001823],[135.8906456,35.0017544],[135.8906731,35.0017148],[135.8907093,35.0016983],[135.8908367,35.0016346],[135.8910003,35.0014737],[135.8910955,35.0013062],[135.891163,35.0012329],[135.8911928,35.0012007],[135.8912169,35.0011546],[135.8913576,35.001007],[135.8922952,35.0000227],[135.8923434,34.9999846],[135.8924681,34.9998956],[135.892605,34.999755],[135.8927169,34.9995803],[135.8927605,34.9995298],[135.8937199,34.9985337],[135.8937751,34.9984768],[135.8939414,34.9983241],[135.8940862,34.9982587],[135.8942599,34.998195],[135.8943752,34.9981574],[135.8944939,34.9981258],[135.8945362,34.9981177],[135.8947789,34.9980714],[135.8959296,34.9978506],[135.8959333,34.99787],[135.8959454,34.997933],[135.8955341,34.998009],[135.89535,34.9980457],[135.8951774,34.9980972],[135.8949165,34.9982073],[135.8946671,34.9983454],[135.8943834,34.9985544],[135.8941641,34.998783],[135.8939387,34.9990563],[135.8937818,34.9992585],[135.8934929,34.9995844],[135.8931742,34.9999914],[135.8929496,35.0002861],[135.8927896,35.0005752],[135.8926398,35.0009485],[135.8925659,35.0013084],[135.8925672,35.0016745],[135.8926067,35.0018872],[135.8926713,35.0021268],[135.8928167,35.0024229],[135.8928731,35.0025689],[135.8928953,35.0026924],[135.8928927,35.0028824],[135.8928957,35.0031029],[135.8929032,35.0033274],[135.8929114,35.0035922],[135.8928868,35.0037486],[135.8928537,35.0039168],[135.8928008,35.0040763],[135.8927241,35.0043407],[135.8925846,35.0046481],[135.8923987,35.0049351],[135.8922476,35.0051169],[135.8920836,35.0052589],[135.8918008,35.0054498],[135.8917017,35.0054968],[135.8915984,35.0055295],[135.8914898,35.0055437],[135.891344,35.0055401],[135.8912136,35.005519],[135.8910998,35.005479],[135.8910131,35.0054256],[135.8909397,35.0053639],[135.8904666,35.0048954],[135.8904324,35.0049126],[135.8903861,35.004916],[135.8903365,35.0049072],[135.8902887,35.0048644],[135.8902419,35.0048116],[135.8902011,35.0047512],[135.8901755,35.0046941]]],[[[135.8952677,34.9940076],[135.8951109,34.9939838],[135.895143,34.9935187],[135.8951738,34.9930814],[135.8951987,34.9930831],[135.8952288,34.9928529],[135.895194,34.9920926],[135.8952291,34.9920359],[135.8953596,34.9918251],[135.8956935,34.9912598],[135.8961173,34.9905613],[135.8961976,34.9904289],[135.8963017,34.9902573],[135.8963329,34.990205],[135.8963504,34.9901756],[135.8963694,34.9901438],[135.8964418,34.9900224],[135.896502,34.9899215],[135.8965298,34.989875],[135.8965766,34.9897964],[135.8966019,34.9898069],[135.8969904,34.9899639],[135.8970402,34.9899902],[135.8970793,34.9900094],[135.8971063,34.9900512],[135.8971171,34.9900974],[135.8971057,34.9901505],[135.8970715,34.9901973],[135.8970324,34.9902484],[135.8969868,34.9902882],[135.8969238,34.9903271],[135.8968494,34.9903536],[135.8967546,34.9903831],[135.8966328,34.99043],[135.8965201,34.9904891],[135.8964054,34.9905709],[135.8963293,34.9906471],[135.8962443,34.9907602],[135.8959359,34.9912557],[135.8956741,34.9917086],[135.8955049,34.9920701],[135.8953951,34.9924151],[135.8953401,34.9927546],[135.8952852,34.9931854],[135.8952786,34.9937417],[135.8952778,34.9938609],[135.8952706,34.9939738],[135.8952677,34.9940076]]],[[[135.8985474,34.987333],[135.898473,34.987461],[135.898455,34.9874886],[135.898426,34.987533],[135.898399,34.9875801],[135.897704,34.9887432],[135.8976542,34.9888284],[135.8976395,34.9888537],[135.8976267,34.9888757],[135.8975912,34.9889339],[135.8975803,34.9889543],[135.8975657,34.9889817],[135.8973786,34.9892871],[135.8970625,34.9898236],[135.8970024,34.9899271],[135.8970326,34.9899343],[135.8970701,34.9899358],[135.8971338,34.9899372],[135.8971615,34.989938],[135.8971989,34.9899266],[135.8972285,34.9899073],[135.897254,34.9898837],[135.897289,34.9898421],[135.8975356,34.9894516],[135.8977246,34.9891223],[135.8977166,34.989085],[135.8978306,34.9889114],[135.897858,34.9888986],[135.8985691,34.9877247],[135.8986491,34.9875843],[135.8987433,34.9874741],[135.8988368,34.9873746],[135.8989654,34.9872682],[135.8990924,34.9871745],[135.8991089,34.987156],[135.8991185,34.9871287],[135.8991234,34.9870583],[135.8990925,34.9870219],[135.8990639,34.9869926],[135.8989095,34.9870831],[135.8985474,34.987333]]],[[[135.9038414,34.982032],[135.9040001,34.9821078],[135.9040816,34.982145],[135.9041686,34.9821831],[135.9042012,34.9822075],[135.9042283,34.982232],[135.9042441,34.9822639],[135.9042518,34.9822946],[135.9042497,34.9823441],[135.9041398,34.9828594],[135.9040872,34.9830476],[135.9040151,34.9832324],[135.903933,34.9834071],[135.9038337,34.9835725],[135.9037197,34.9837273],[135.9036094,34.9838747],[135.903501,34.9840086],[135.9033734,34.9841527],[135.9032419,34.9842842],[135.9031212,34.9843966],[135.9029967,34.9845024],[135.9027377,34.9846944],[135.9025057,34.9848559],[135.901705,34.9853992],[135.9004972,34.9862167],[135.9003651,34.986307],[135.8999676,34.9865815],[135.8994003,34.9869666],[135.8993789,34.9869688],[135.8993527,34.9869853],[135.8993091,34.9869968],[135.8992709,34.986999],[135.899232,34.9869946],[135.8991656,34.9869655],[135.8991361,34.9869386],[135.8992334,34.9868562],[135.8993112,34.9868117],[135.9001145,34.9862568],[135.9007219,34.9858366],[135.9012397,34.9854833],[135.9020061,34.9849537],[135.9024956,34.9846123],[135.9026739,34.9844873],[135.9028242,34.984368],[135.9029442,34.9842603],[135.9030455,34.9841593],[135.9031481,34.9840455],[135.903244,34.9839164],[135.9033458,34.9837753],[135.9034082,34.9836802],[135.9034653,34.9835763],[135.9035196,34.9834697],[135.9035678,34.9833522],[135.9036094,34.9832396],[135.9036597,34.9830846],[135.9036946,34.9829501],[135.9037194,34.9828083],[135.9037475,34.9826309],[135.9037958,34.982299],[135.9038016,34.9822651],[135.9038079,34.9822276],[135.9038414,34.982032]]]]}}
