{"type":"Feature","id":"attraction-large-park-W184748279","properties":{"id":"attraction-large-park-W184748279","kind":"attraction","name":"広島広域公園","shortName":"広島広域公園","context":"日本","subtype":"large-park","subtypeLabel":"大型都市公園・広域公園","statusLabel":"著名な公園","aliases":[],"osmType":"way","osmId":184748279,"osmDate":null,"officialAreaKm2":null,"areaSourceLabel":"","areaSourceUrl":"","boundarySourceLabel":"© OpenStreetMap contributors","boundarySourceUrl":"https://www.openstreetmap.org/copyright","geometryFile":"attractions/large-park-W184748279.geojson"},"geometry":{"type":"Polygon","coordinates":[[[132.3883626,34.4461481],[132.3884885,34.4460087],[132.3887736,34.4457295],[132.3890825,34.4455384],[132.3892667,34.4453376],[132.3894538,34.4450804],[132.3898098,34.4449036],[132.3900538,34.4447987],[132.39033,34.4447963],[132.3906419,34.4448453],[132.3909508,34.4448624],[132.3912656,34.4448036],[132.3916874,34.4447081],[132.3918418,34.4446297],[132.3920028,34.4445722],[132.39262,34.4442794],[132.3928517,34.4441643],[132.3930596,34.4441545],[132.3932052,34.4440492],[132.3935262,34.443632],[132.3935319,34.443503],[132.3934487,34.4433168],[132.3935259,34.4430988],[132.3937487,34.4428049],[132.3937012,34.4424448],[132.3934576,34.4420749],[132.3933804,34.4418422],[132.3932913,34.4418251],[132.3930151,34.4418912],[132.3929111,34.44183],[132.3929052,34.4416144],[132.3928453,34.4414742],[132.3927388,34.4413107],[132.3927359,34.4412151],[132.3926765,34.4411588],[132.3925695,34.4411392],[132.3923141,34.441149],[132.3919755,34.4412249],[132.3916547,34.4410486],[132.3916624,34.4409045],[132.391827,34.4408354],[132.3918804,34.4407154],[132.3918567,34.4405905],[132.3917676,34.4404043],[132.3914916,34.4401808],[132.3914914,34.4400638],[132.3915448,34.4399316],[132.3912332,34.439327],[132.3912975,34.4391211],[132.3915184,34.4389441],[132.3916785,34.4388047],[132.3917438,34.4386504],[132.3917913,34.4383491],[132.3918983,34.4382438],[132.3920527,34.4381654],[132.392124,34.4380576],[132.3921596,34.4379106],[132.3920795,34.4376461],[132.3919257,34.4374809],[132.3919597,34.4373899],[132.3920676,34.4373399],[132.3922042,34.4370067],[132.3922042,34.4367568],[132.3921559,34.4365744],[132.3921627,34.4363933],[132.392222,34.436164],[132.3922467,34.4359664],[132.3923765,34.435798],[132.3925636,34.4357466],[132.3928369,34.4357686],[132.3930062,34.4357637],[132.3932802,34.435729],[132.3934875,34.435688],[132.3938634,34.4355717],[132.3945046,34.4354737],[132.3946649,34.4354919],[132.3951154,34.4355626],[132.3960993,34.4359592],[132.3963315,34.4361074],[132.3964254,34.4362875],[132.3966604,34.4363832],[132.3966868,34.4364213],[132.3966946,34.4365696],[132.396679,34.4366889],[132.396677,34.4368726],[132.3968099,34.4371064],[132.3970796,34.4373078],[132.3975828,34.43758],[132.3979413,34.4377843],[132.3981143,34.4378875],[132.3975866,34.438674],[132.3970413,34.4392498],[132.3967091,34.439672],[132.3964668,34.4399428],[132.3962928,34.4401201],[132.3961639,34.4402474],[132.3960134,34.4403554],[132.3959137,34.4404489],[132.3958473,34.4405778],[132.3958375,34.4407519],[132.3959333,34.4413531],[132.3959374,34.4414898],[132.3959636,34.4415898],[132.3959668,34.4417615],[132.3959531,34.4418566],[132.3959414,34.4419476],[132.3958476,34.4421136],[132.3957645,34.4422345],[132.3956883,34.4423135],[132.3956668,34.4424013],[132.395701,34.4427398],[132.3957675,34.4432724],[132.3958261,34.4436778],[132.3958642,34.444046],[132.3952838,34.444096],[132.3948597,34.4441395],[132.3946467,34.4441718],[132.3944806,34.4441975],[132.3942929,34.4442427],[132.3940389,34.4443716],[132.3939138,34.4444699],[132.3936343,34.4447084],[132.3934799,34.4448213],[132.3933619,34.4448876],[132.3932376,34.4449475],[132.39315,34.4449805],[132.3930592,34.4450086],[132.3929562,34.4450328],[132.3928527,34.4450503],[132.392314,34.4451243],[132.3920684,34.4451552],[132.3919443,34.4451826],[132.391825,34.4452215],[132.39171,34.4452903],[132.3916141,34.4453772],[132.3915507,34.4454594],[132.3915021,34.4455463],[132.3914907,34.4455786],[132.3914693,34.4456825],[132.3914616,34.4457836],[132.3914449,34.4460469],[132.3914281,34.4463428],[132.3914485,34.4466429],[132.3913244,34.4466922],[132.3909779,34.4467011],[132.3907368,34.4467042],[132.3905591,34.4467065],[132.3903257,34.4467003],[132.3901509,34.4466986],[132.3896125,34.4466727],[132.3888574,34.4466008],[132.3883729,34.4465593],[132.3883626,34.4461481]]]}}
