{"type":"Feature","id":"attraction-large-park-W440255790","properties":{"id":"attraction-large-park-W440255790","kind":"attraction","name":"わんぱくらんど 小田原こどもの森公園","shortName":"わんぱくらんど 小田原こどもの森公園","context":"神奈川県・小田原市","subtype":"large-park","subtypeLabel":"大型都市公園・広域公園","statusLabel":"著名な公園","aliases":[],"osmType":"way","osmId":440255790,"osmDate":null,"officialAreaKm2":null,"areaSourceLabel":"","areaSourceUrl":"","boundarySourceLabel":"© OpenStreetMap contributors","boundarySourceUrl":"https://www.openstreetmap.org/copyright","geometryFile":"attractions/large-park-W440255790.geojson"},"geometry":{"type":"Polygon","coordinates":[[[139.1208381,35.2592686],[139.1210594,35.2589521],[139.1211573,35.2589795],[139.1212605,35.2591153],[139.1213249,35.2592215],[139.1215918,35.2591471],[139.1216562,35.2592248],[139.1217474,35.2591974],[139.1217675,35.2590693],[139.1219914,35.258927],[139.1220679,35.2587649],[139.1221939,35.2585311],[139.1222288,35.2583493],[139.1223576,35.2582584],[139.1226043,35.2582672],[139.12313,35.2579978],[139.1232657,35.2579007],[139.1234975,35.257735],[139.1239508,35.257805],[139.1242619,35.2576517],[139.1246616,35.2576824],[139.1249057,35.2576495],[139.1250559,35.2577065],[139.1257532,35.2581029],[139.1260436,35.2583854],[139.1261522,35.2585032],[139.12681,35.2587791],[139.1270581,35.2589062],[139.1272217,35.2590288],[139.127447,35.2591296],[139.1275812,35.2591624],[139.1278038,35.2591755],[139.1280371,35.2591843],[139.128135,35.2591974],[139.1282571,35.2592533],[139.1283684,35.2593573],[139.128528,35.2595249],[139.1287741,35.2595917],[139.1291335,35.2596793],[139.1290215,35.2600062],[139.1290436,35.2601058],[139.1285917,35.2602049],[139.1283147,35.2598485],[139.1281847,35.2598983],[139.128072,35.2599235],[139.1279057,35.2599027],[139.1277984,35.2598611],[139.1274993,35.2597318],[139.126869,35.2597099],[139.1264131,35.2597209],[139.1261515,35.2598041],[139.1259799,35.2599114],[139.1257894,35.2600604],[139.1256392,35.2601403],[139.1252838,35.2602224],[139.1248413,35.2603024],[139.1247099,35.260298],[139.1245114,35.2602838],[139.1239588,35.2601304],[139.1235766,35.260045],[139.123358,35.2600549],[139.1231314,35.2600823],[139.1228457,35.2600308],[139.122265,35.259964],[139.1220424,35.2599487],[139.1218573,35.2599673],[139.1217044,35.2599651],[139.1215958,35.259941],[139.1214456,35.2598862],[139.1213397,35.2598008],[139.1211157,35.2595791],[139.1208917,35.2593354],[139.1208381,35.2592686]]]}}
