{"type":"Feature","id":"attraction-large-park-W458491018","properties":{"id":"attraction-large-park-W458491018","kind":"attraction","name":"かみね公園","shortName":"かみね公園","context":"日本","subtype":"large-park","subtypeLabel":"大型都市公園・広域公園","statusLabel":"著名な公園","aliases":[],"osmType":"way","osmId":458491018,"osmDate":null,"officialAreaKm2":null,"areaSourceLabel":"","areaSourceUrl":"","boundarySourceLabel":"© OpenStreetMap contributors","boundarySourceUrl":"https://www.openstreetmap.org/copyright","geometryFile":"attractions/large-park-W458491018.geojson"},"geometry":{"type":"Polygon","coordinates":[[[140.6551057,36.6118783],[140.6550386,36.611893],[140.6549553,36.6118584],[140.6548556,36.6119407],[140.6548024,36.6120654],[140.654208,36.6123461],[140.6543792,36.6121388],[140.6542964,36.6120694],[140.6542812,36.6119811],[140.6542729,36.6119381],[140.6542664,36.6118859],[140.6542855,36.6116404],[140.6542804,36.6116015],[140.6542666,36.6114401],[140.6542381,36.611278],[140.6542446,36.6112367],[140.654249,36.6110378],[140.6542736,36.610829],[140.6544037,36.6105607],[140.6545968,36.6103572],[140.6549793,36.6100752],[140.6560803,36.609486],[140.6560306,36.6091288],[140.6559803,36.6086704],[140.6559877,36.6083372],[140.6556245,36.6081348],[140.6560225,36.6077591],[140.655813,36.6075846],[140.6566803,36.6069851],[140.6568402,36.6068138],[140.6568319,36.6061229],[140.6568981,36.605995],[140.6569753,36.6058956],[140.6571248,36.6057982],[140.6573987,36.6055737],[140.6573902,36.6054955],[140.6573944,36.6054466],[140.6574,36.6054223],[140.6574806,36.6053317],[140.6575556,36.6053149],[140.6576247,36.605315],[140.6578896,36.6053719],[140.6580761,36.6054256],[140.658226,36.6054747],[140.6584272,36.6055544],[140.6585607,36.6056235],[140.6588072,36.6057524],[140.6589742,36.6058541],[140.6592025,36.6060112],[140.6593255,36.6061165],[140.6594394,36.6062366],[140.6595581,36.6063854],[140.6600793,36.6072295],[140.6600806,36.6072945],[140.6600185,36.6073291],[140.659976,36.6073753],[140.6599633,36.6074296],[140.6599695,36.6074697],[140.6600263,36.6075368],[140.6601222,36.6076466],[140.6601617,36.6077219],[140.6601774,36.6078164],[140.6601691,36.6079329],[140.6601201,36.6080456],[140.6598392,36.6084303],[140.6597815,36.6085261],[140.6597199,36.608679],[140.6596709,36.6087979],[140.6596099,36.6088609],[140.6595012,36.6089269],[140.6591626,36.6091064],[140.6588964,36.609305],[140.6588622,36.6093685],[140.6588501,36.6094369],[140.6589742,36.6097679],[140.6589817,36.6098398],[140.658956,36.6098971],[140.6588923,36.6099601],[140.6587932,36.6099891],[140.6586115,36.6099875],[140.6584648,36.6099548],[140.6580066,36.6097986],[140.6577793,36.6097168],[140.6576726,36.6097092],[140.6574891,36.6097236],[140.6574393,36.6098045],[140.6570498,36.6106122],[140.6569995,36.6106813],[140.6569025,36.6107365],[140.6562786,36.6108816],[140.6559272,36.610958],[140.6558261,36.6109865],[140.6557435,36.6110237],[140.6556838,36.6110774],[140.655629,36.6111583],[140.6553296,36.6117011],[140.6552091,36.6118087],[140.6551057,36.6118783]]]}}
