{"type":"Feature","id":"attraction-large-park-W85932862","properties":{"id":"attraction-large-park-W85932862","kind":"attraction","name":"弘前公園","shortName":"弘前公園","context":"日本","subtype":"large-park","subtypeLabel":"大型都市公園・広域公園","statusLabel":"","aliases":["Hirosaki Park","鷹揚公園"],"osmType":"way","osmId":85932862,"osmDate":null,"officialAreaKm2":null,"areaSourceLabel":"","areaSourceUrl":"","boundarySourceLabel":"© OpenStreetMap contributors","boundarySourceUrl":"https://www.openstreetmap.org/copyright","geometryFile":"attractions/large-park-W85932862.geojson"},"geometry":{"type":"Polygon","coordinates":[[[140.4607582,40.608904],[140.4615954,40.609215],[140.4616887,40.6092712],[140.4618002,40.6093658],[140.4622292,40.6098131],[140.4627266,40.610181],[140.4629605,40.6105339],[140.4632828,40.6110343],[140.463494,40.6112413],[140.4636769,40.6112496],[140.4642334,40.6111682],[140.4647326,40.612387],[140.4667617,40.6120817],[140.468922,40.6117492],[140.4689846,40.6116647],[140.4686831,40.6105563],[140.4685935,40.6101676],[140.4684513,40.6095337],[140.4682782,40.6090223],[140.4680755,40.6083144],[140.4678182,40.6074084],[140.4682722,40.6073418],[140.4682863,40.6073255],[140.4682908,40.6072712],[140.4678595,40.6054607],[140.467434,40.6035423],[140.4674133,40.6035401],[140.467385,40.6034109],[140.4673773,40.6033849],[140.4673643,40.6033563],[140.4673341,40.6033312],[140.4673105,40.6033183],[140.467262,40.6033109],[140.4671825,40.6033112],[140.4647006,40.6037124],[140.4646591,40.6036079],[140.4645682,40.6033587],[140.4644516,40.6033592],[140.4635438,40.6035275],[140.4624612,40.6037141],[140.4622618,40.6037505],[140.4619405,40.6038066],[140.4618345,40.6038277],[140.4617423,40.6038502],[140.4616854,40.6038789],[140.4615544,40.6039598],[140.461454,40.6040362],[140.4613523,40.6041041],[140.4612876,40.6042345],[140.4611662,40.6046602],[140.4613778,40.6049872],[140.4618296,40.6053583],[140.4626204,40.6067134],[140.4608021,40.6074087],[140.4605253,40.607531],[140.4600375,40.6077612],[140.4599854,40.6078141],[140.4599265,40.6077927],[140.459398,40.6074523],[140.4592715,40.6073725],[140.4592002,40.6073394],[140.4591377,40.6073385],[140.459059,40.6073602],[140.4592619,40.6077007],[140.4593629,40.6078273],[140.4595586,40.6080759],[140.4597728,40.6083084],[140.4600702,40.6085456],[140.4604419,40.608754],[140.4607582,40.608904]]]}}
