{"type":"Feature","id":"attraction-large-park-W472718461","properties":{"id":"attraction-large-park-W472718461","kind":"attraction","name":"つくばウェルネスパーク","shortName":"つくばウェルネスパーク","context":"日本","subtype":"large-park","subtypeLabel":"大型都市公園・広域公園","statusLabel":"著名な公園","aliases":[],"osmType":"way","osmId":472718461,"osmDate":null,"officialAreaKm2":null,"areaSourceLabel":"","areaSourceUrl":"","boundarySourceLabel":"© OpenStreetMap contributors","boundarySourceUrl":"https://www.openstreetmap.org/copyright","geometryFile":"attractions/large-park-W472718461.geojson"},"geometry":{"type":"Polygon","coordinates":[[[140.0735822,36.1594312],[140.073196,36.159945],[140.073126,36.159985],[140.072918,36.160069],[140.072647,36.160137],[140.072501,36.160204],[140.072397,36.160283],[140.072113,36.160813],[140.072078,36.161117],[140.071863,36.161506],[140.0718,36.161821],[140.071578,36.162272],[140.071536,36.162678],[140.0714625,36.1631513],[140.0712989,36.1631057],[140.0710701,36.1630822],[140.0708301,36.1630696],[140.0704157,36.1629656],[140.0701081,36.1628357],[140.0699206,36.1626206],[140.0697318,36.1625519],[140.0688288,36.1623216],[140.0685711,36.1621513],[140.0683859,36.1620289],[140.0682196,36.1617928],[140.0680909,36.1616407],[140.0679834,36.1615738],[140.0676574,36.1614284],[140.0675864,36.1614037],[140.0675153,36.1613561],[140.06742,36.161178],[140.0669459,36.1604912],[140.0674696,36.1604303],[140.068055,36.1604434],[140.068551,36.1604565],[140.0690795,36.1605878],[140.0697056,36.160601],[140.0700227,36.1606601],[140.0705268,36.1600036],[140.0706487,36.159846],[140.0712553,36.1600538],[140.0713107,36.1599345],[140.0717172,36.1597107],[140.0717911,36.1595864],[140.0717625,36.1593977],[140.0721976,36.1593886],[140.0726997,36.1593787],[140.0729772,36.1593817],[140.073284,36.1593962],[140.0735822,36.1594312]]]}}
