{"type":"Feature","id":"attraction-large-park-W133352801","properties":{"id":"attraction-large-park-W133352801","kind":"attraction","name":"昆陽池公園","shortName":"昆陽池公園","context":"日本","subtype":"large-park","subtypeLabel":"大型都市公園・広域公園","statusLabel":"著名な公園","aliases":[],"osmType":"way","osmId":133352801,"osmDate":null,"officialAreaKm2":null,"areaSourceLabel":"","areaSourceUrl":"","boundarySourceLabel":"© OpenStreetMap contributors","boundarySourceUrl":"https://www.openstreetmap.org/copyright","geometryFile":"attractions/large-park-W133352801.geojson"},"geometry":{"type":"Polygon","coordinates":[[[135.3946374,34.7919476],[135.3946763,34.7919564],[135.3953978,34.7917339],[135.3964747,34.7899949],[135.3970487,34.7890774],[135.3975464,34.7883165],[135.3982557,34.7871114],[135.3983456,34.7871378],[135.3984645,34.786942],[135.3984703,34.7868482],[135.3983965,34.7867358],[135.397785,34.7862457],[135.3975597,34.7860694],[135.3973652,34.7860926],[135.397134,34.7861299],[135.3968279,34.7862836],[135.3966459,34.786486],[135.3966263,34.7865078],[135.3959504,34.7867061],[135.3952719,34.7865454],[135.3948895,34.7864682],[135.3947742,34.78639],[135.3946723,34.7863679],[135.3939937,34.7867358],[135.3928323,34.7874011],[135.3926995,34.7874561],[135.3920129,34.7876896],[135.3918157,34.7877822],[135.3915274,34.7879661],[135.3913598,34.788139],[135.3908998,34.7888186],[135.3906785,34.7891699],[135.3904103,34.7896215],[135.3904129,34.7896865],[135.3904545,34.7897063],[135.3911516,34.7899646],[135.3918022,34.790262],[135.3921348,34.790447],[135.3929503,34.7910676],[135.3933151,34.7913077],[135.3937107,34.7914993],[135.3939508,34.791583],[135.3942351,34.7917273],[135.3944604,34.7918099],[135.3945502,34.7918617],[135.3946374,34.7919476]]]}}
