{"type":"Feature","id":"attraction-large-industrial-complex-W28698624","properties":{"id":"attraction-large-industrial-complex-W28698624","kind":"attraction","name":"三菱重工 広島製作所 江波工場","shortName":"三菱重工 広島製作所 江波工場","context":"日本","subtype":"industrial-complex","subtypeLabel":"工業地帯・大規模工場","statusLabel":"","aliases":["Mitsubishi Heavy Indutries"],"osmType":"way","osmId":28698624,"osmDate":null,"officialAreaKm2":null,"areaSourceLabel":"","areaSourceUrl":"","boundarySourceLabel":"© OpenStreetMap contributors","boundarySourceUrl":"https://www.openstreetmap.org/copyright","geometryFile":"attractions/large-industrial-complex-W28698624.geojson"},"geometry":{"type":"Polygon","coordinates":[[[132.4255551,34.3637441],[132.4220989,34.3585099],[132.4226609,34.3582624],[132.4235084,34.3595461],[132.4248612,34.3589422],[132.4239928,34.3576527],[132.4243676,34.3574815],[132.4245617,34.3575328],[132.4247148,34.3574674],[132.424666,34.3573845],[132.4249155,34.3572733],[132.4249644,34.3573507],[132.4251268,34.3572832],[132.4251796,34.3571196],[132.4282408,34.3557172],[132.4283064,34.3557269],[132.4284702,34.3559762],[132.4285586,34.3559892],[132.4286933,34.3561909],[132.4288769,34.356102],[132.4291687,34.3564209],[132.4292679,34.3564381],[132.429615,34.356277],[132.4296369,34.3561902],[132.4294108,34.3556125],[132.4296438,34.3555071],[132.4296628,34.355436],[132.4294865,34.3551639],[132.4304244,34.35474],[132.4303742,34.3546626],[132.4304653,34.3546201],[132.4305182,34.3546986],[132.4309371,34.3545162],[132.4308717,34.3544336],[132.4310289,34.3543624],[132.4309451,34.3542424],[132.4313388,34.3540651],[132.431413,34.3541696],[132.4315658,34.3540993],[132.4316302,34.3541885],[132.432166,34.3539525],[132.4321049,34.3538552],[132.4322413,34.3537948],[132.4323029,34.3538837],[132.4331948,34.3534954],[132.4332935,34.353737],[132.4334385,34.3537721],[132.4335004,34.3536731],[132.4333089,34.3532228],[132.4334234,34.3531865],[132.4355216,34.3584836],[132.4354217,34.3585104],[132.4352706,34.3586526],[132.4355199,34.3592769],[132.4310034,34.3613134],[132.4314006,34.3620606],[132.4306378,34.3623479],[132.4302459,34.3616616],[132.4255551,34.3637441]]]}}
