{"type":"Feature","id":"attraction-large-industrial-complex-W104151307","properties":{"id":"attraction-large-industrial-complex-W104151307","kind":"attraction","name":"日立製作所","shortName":"日立製作所","context":"日本","subtype":"industrial-complex","subtypeLabel":"工業地帯・大規模工場","statusLabel":"","aliases":[],"osmType":"way","osmId":104151307,"osmDate":null,"officialAreaKm2":null,"areaSourceLabel":"","areaSourceUrl":"","boundarySourceLabel":"© OpenStreetMap contributors","boundarySourceUrl":"https://www.openstreetmap.org/copyright","geometryFile":"attractions/large-industrial-complex-W104151307.geojson"},"geometry":{"type":"Polygon","coordinates":[[[140.5267013,36.4158215],[140.5278341,36.4170335],[140.5264199,36.4179514],[140.5273823,36.4189795],[140.5277205,36.4193539],[140.529103,36.4208076],[140.5294419,36.4211504],[140.5294446,36.4211928],[140.5283895,36.4221868],[140.5294879,36.4237299],[140.5295281,36.4237709],[140.5295026,36.4238195],[140.5297132,36.4239436],[140.5297185,36.4240709],[140.5299854,36.424427],[140.5297172,36.4247939],[140.5273546,36.4260074],[140.5256054,36.4269597],[140.5225871,36.4284959],[140.5224527,36.4284697],[140.5197407,36.4240558],[140.518166,36.4216073],[140.5181823,36.4215155],[140.5267013,36.4158215]]]}}
