{"type":"Feature","id":"attraction-large-industrial-complex-W625680275","properties":{"id":"attraction-large-industrial-complex-W625680275","kind":"attraction","name":"北海道石油備蓄共同基地","shortName":"北海道石油備蓄共同基地","context":"日本","subtype":"industrial-complex","subtypeLabel":"工業地帯・大規模工場","statusLabel":"","aliases":[],"osmType":"way","osmId":625680275,"osmDate":null,"officialAreaKm2":null,"areaSourceLabel":"","areaSourceUrl":"","boundarySourceLabel":"© OpenStreetMap contributors","boundarySourceUrl":"https://www.openstreetmap.org/copyright","geometryFile":"attractions/large-industrial-complex-W625680275.geojson"},"geometry":{"type":"Polygon","coordinates":[[[141.8100107,42.6603715],[141.818819,42.6569157],[141.8151069,42.6514949],[141.8186796,42.6501297],[141.8169951,42.6477387],[141.8143344,42.6487724],[141.8136692,42.6479123],[141.8122637,42.6484568],[141.8127465,42.6491749],[141.8080366,42.6509425],[141.8074357,42.6501139],[141.8037987,42.6515343],[141.8066096,42.6575864],[141.807071,42.6585726],[141.8077898,42.6594879],[141.8090343,42.659046],[141.8100107,42.6603715]]]}}
