{"type":"Feature","id":"attraction-large-park-W506233642","properties":{"id":"attraction-large-park-W506233642","kind":"attraction","name":"武生中央公園","shortName":"武生中央公園","context":"日本","subtype":"large-park","subtypeLabel":"大型都市公園・広域公園","statusLabel":"著名な公園","aliases":[],"osmType":"way","osmId":506233642,"osmDate":null,"officialAreaKm2":null,"areaSourceLabel":"","areaSourceUrl":"","boundarySourceLabel":"© OpenStreetMap contributors","boundarySourceUrl":"https://www.openstreetmap.org/copyright","geometryFile":"attractions/large-park-W506233642.geojson"},"geometry":{"type":"Polygon","coordinates":[[[136.1559568,35.9005166],[136.1561062,35.8996276],[136.1552189,35.8995595],[136.1553123,35.8981712],[136.1556112,35.8976454],[136.1563164,35.8976529],[136.1584272,35.8977702],[136.1584555,35.8979509],[136.1590232,35.8979618],[136.1593095,35.8981708],[136.1598401,35.8981808],[136.1598537,35.8978199],[136.1601017,35.8977949],[136.1601573,35.8983667],[136.1603695,35.8983617],[136.160402,35.898716],[136.1604975,35.8995904],[136.1605179,35.8997946],[136.159721,35.8998654],[136.1598979,35.9006969],[136.1593734,35.9006953],[136.1575419,35.9006063],[136.1559568,35.9005166]]]}}
