{"type":"Feature","id":"attraction-large-park-W464651395","properties":{"id":"attraction-large-park-W464651395","kind":"attraction","name":"福島潟","shortName":"福島潟","context":"日本","subtype":"large-park","subtypeLabel":"大型都市公園・広域公園","statusLabel":"","aliases":["The Fukushimagata Lagoon Water Park"],"osmType":"way","osmId":464651395,"osmDate":null,"officialAreaKm2":null,"areaSourceLabel":"","areaSourceUrl":"","boundarySourceLabel":"© OpenStreetMap contributors","boundarySourceUrl":"https://www.openstreetmap.org/copyright","geometryFile":"attractions/large-park-W464651395.geojson"},"geometry":{"type":"Polygon","coordinates":[[[139.2387081,37.9113064],[139.2389095,37.9110679],[139.2395774,37.9099632],[139.2398107,37.9096394],[139.2407144,37.9085786],[139.2408594,37.9084755],[139.2410043,37.9084099],[139.244526,37.9075592],[139.2446599,37.9075015],[139.2455582,37.9056463],[139.245994,37.9055625],[139.2520282,37.9039401],[139.2613343,37.9015358],[139.2631402,37.9010692],[139.2633092,37.9013574],[139.265228,37.9008632],[139.2663273,37.9036776],[139.2638872,37.9088602],[139.2632249,37.9111733],[139.2599333,37.9136605],[139.2590476,37.9140723],[139.2587558,37.9148249],[139.256354,37.9187445],[139.2555604,37.9187406],[139.2423429,37.9135646],[139.2420728,37.9139294],[139.2412386,37.9136529],[139.2394744,37.9163949],[139.2383787,37.9159388],[139.2388888,37.9153288],[139.2398551,37.9135669],[139.2398627,37.9132995],[139.2399099,37.9131724],[139.2399666,37.9130701],[139.2386775,37.9125746],[139.238373,37.9131118],[139.2361651,37.9121735],[139.2364769,37.9116632],[139.2363091,37.9113937],[139.2365798,37.9110698],[139.2373846,37.911398],[139.2376514,37.9114648],[139.2384817,37.9114033],[139.2387081,37.9113064]]]}}
