{"type":"Feature","id":"attraction-large-park-R16202585","properties":{"id":"attraction-large-park-R16202585","kind":"attraction","name":"西公園","shortName":"西公園","context":"日本","subtype":"large-park","subtypeLabel":"大型都市公園・広域公園","statusLabel":"著名な公園","aliases":["Nishi Park"],"osmType":"relation","osmId":16202585,"osmDate":null,"officialAreaKm2":null,"areaSourceLabel":"","areaSourceUrl":"","boundarySourceLabel":"© OpenStreetMap contributors","boundarySourceUrl":"https://www.openstreetmap.org/copyright","geometryFile":"attractions/large-park-R16202585.geojson"},"geometry":{"type":"MultiPolygon","coordinates":[[[[140.8632051,38.2606649],[140.8631382,38.2607031],[140.8623471,38.2605826],[140.8620763,38.2605447],[140.8619305,38.2605356],[140.861712,38.2605352],[140.8612922,38.2605664],[140.8607585,38.2607089],[140.8604528,38.260838],[140.8601096,38.2610035],[140.8598327,38.2607944],[140.8596503,38.2601794],[140.8598542,38.2594634],[140.8604577,38.2583572],[140.8606333,38.25842],[140.8606637,38.2585001],[140.861165,38.2586518],[140.8627235,38.2589399],[140.8636186,38.2590727],[140.8636552,38.2591447],[140.8635928,38.259369],[140.8634266,38.2593432],[140.8633967,38.2594426],[140.8635696,38.2594726],[140.8634515,38.2599003],[140.8632051,38.2606649]]],[[[140.863035,38.2611282],[140.862599,38.2625889],[140.8625825,38.2627475],[140.8628758,38.2635283],[140.863181,38.264348],[140.8626322,38.2644775],[140.8624977,38.2641912],[140.8620983,38.2636425],[140.8614602,38.2625961],[140.860809,38.2617883],[140.8604835,38.261277],[140.860575,38.261217],[140.8609756,38.2610483],[140.8613768,38.2609574],[140.8617276,38.2609157],[140.8619916,38.2609145],[140.8622417,38.2609434],[140.8629363,38.2610423],[140.8629965,38.2610759],[140.863035,38.2611282]]]]}}
