{"type":"Feature","id":"attraction-large-industrial-complex-W635471135","properties":{"id":"attraction-large-industrial-complex-W635471135","kind":"attraction","name":"いすゞ 栃木","shortName":"いすゞ 栃木","context":"日本","subtype":"industrial-complex","subtypeLabel":"工業地帯・大規模工場","statusLabel":"","aliases":["Isuzu Tochigi"],"osmType":"way","osmId":635471135,"osmDate":null,"officialAreaKm2":null,"areaSourceLabel":"","areaSourceUrl":"","boundarySourceLabel":"© OpenStreetMap contributors","boundarySourceUrl":"https://www.openstreetmap.org/copyright","geometryFile":"attractions/large-industrial-complex-W635471135.geojson"},"geometry":{"type":"Polygon","coordinates":[[[139.7121741,36.3113563],[139.7120793,36.3113857],[139.7076539,36.3113058],[139.7026639,36.3112154],[139.702781,36.3089902],[139.7028176,36.3088493],[139.7028553,36.3083502],[139.7028921,36.307228],[139.7029104,36.3069645],[139.7029913,36.3068994],[139.7033072,36.3067454],[139.7033734,36.3066418],[139.7034829,36.3028666],[139.7034748,36.3027877],[139.703336,36.3026265],[139.7024868,36.3018697],[139.7020623,36.3015111],[139.7006416,36.3007215],[139.7013683,36.3001359],[139.7015031,36.3000614],[139.7019199,36.2998934],[139.7022065,36.2998179],[139.7056871,36.2988772],[139.7057653,36.2988898],[139.7080524,36.2982187],[139.7081172,36.2981975],[139.7081987,36.2981709],[139.7082225,36.2982187],[139.7084202,36.2991811],[139.7084487,36.2992694],[139.708527,36.2993086],[139.7086139,36.2993118],[139.7101256,36.2988902],[139.7101917,36.2989156],[139.7103483,36.2993893],[139.7104387,36.2994687],[139.7106969,36.2995389],[139.7109415,36.3004666],[139.7117167,36.3004818],[139.7117498,36.300518],[139.7117067,36.3020984],[139.7109984,36.3020321],[139.7109521,36.3023748],[139.7110957,36.3023878],[139.7118699,36.3024838],[139.7116854,36.3027113],[139.7116506,36.3028795],[139.7116564,36.3030758],[139.7117897,36.3039915],[139.7117376,36.3040989],[139.712126,36.3047857],[139.7124275,36.3048558],[139.7121741,36.3113563]]]}}
