{"type":"Feature","id":"attraction-large-industrial-complex-W455327764","properties":{"id":"attraction-large-industrial-complex-W455327764","kind":"attraction","name":"王子製紙株式会社 米子工場","shortName":"王子製紙","context":"米子市","subtype":"industrial-complex","subtypeLabel":"工業地帯・大規模工場","statusLabel":"","aliases":["王子製紙米子工場","王子製紙"],"osmType":"way","osmId":455327764,"osmDate":null,"officialAreaKm2":null,"areaSourceLabel":"","areaSourceUrl":"","boundarySourceLabel":"© OpenStreetMap contributors","boundarySourceUrl":"https://www.openstreetmap.org/copyright","geometryFile":"attractions/large-industrial-complex-W455327764.geojson"},"geometry":{"type":"Polygon","coordinates":[[[133.3701205,35.4355031],[133.3705271,35.4354954],[133.3708061,35.4356226],[133.3723146,35.4360656],[133.3733423,35.4363545],[133.3733177,35.4370547],[133.3737937,35.4371948],[133.3738216,35.4370655],[133.3738021,35.4367561],[133.3739131,35.4367582],[133.3740353,35.4367591],[133.3741704,35.4367562],[133.3741661,35.4368434],[133.374399,35.4368599],[133.3744093,35.4368131],[133.3749106,35.4368593],[133.3750572,35.4365588],[133.3773222,35.4366744],[133.377795,35.4366936],[133.3779085,35.4366435],[133.3779653,35.4365703],[133.3780752,35.4364393],[133.3784523,35.4354378],[133.3786698,35.4348905],[133.3787218,35.4346941],[133.3784287,35.4309067],[133.3784378,35.4306997],[133.3784194,35.430373],[133.3784572,35.4301904],[133.3784343,35.4299191],[133.3784242,35.4298899],[133.3784078,35.429865],[133.3783771,35.4298312],[133.3783494,35.4298144],[133.3783094,35.429798],[133.3782203,35.4297944],[133.3777316,35.4298506],[133.3762695,35.4300273],[133.3756637,35.430109],[133.3750709,35.4301879],[133.3749859,35.430194],[133.3749553,35.4301925],[133.3748718,35.4301782],[133.3747673,35.4301528],[133.3745267,35.4300716],[133.374345,35.4300158],[133.3742726,35.4299877],[133.3742242,35.4296248],[133.3742068,35.4294446],[133.3741954,35.4293857],[133.3741625,35.4293034],[133.3738151,35.429435],[133.3734784,35.4295784],[133.3735608,35.4299401],[133.3736149,35.4304019],[133.3729104,35.4305175],[133.3716904,35.4306794],[133.3711229,35.4307872],[133.369728,35.4309606],[133.3694774,35.4309953],[133.3692693,35.4309028],[133.3690897,35.4309521],[133.3690292,35.4310287],[133.3690507,35.4312342],[133.3690965,35.4314301],[133.369137,35.4315541],[133.3691056,35.4316122],[133.3694674,35.4330521],[133.3701205,35.4355031]]]}}
