{"type":"Feature","id":"attraction-large-airport-W866690235","properties":{"id":"attraction-large-airport-W866690235","kind":"attraction","name":"大分空港","shortName":"大分空港","context":"日本","subtype":"airport","subtypeLabel":"空港・飛行場","statusLabel":"","aliases":["Oita Airport"],"osmType":"way","osmId":866690235,"osmDate":null,"officialAreaKm2":null,"areaSourceLabel":"","areaSourceUrl":"","boundarySourceLabel":"© OpenStreetMap contributors","boundarySourceUrl":"https://www.openstreetmap.org/copyright","geometryFile":"attractions/large-airport-W866690235.geojson"},"geometry":{"type":"Polygon","coordinates":[[[131.7344192,33.4649726],[131.734341,33.4649737],[131.7343832,33.4701713],[131.7343791,33.4706461],[131.7343447,33.4715208],[131.7339978,33.4715621],[131.7339412,33.4723592],[131.7339129,33.4727607],[131.7337501,33.4729261],[131.7334386,33.4730501],[131.7325892,33.4731977],[131.7321291,33.4734338],[131.7320725,33.4735815],[131.7312726,33.4759845],[131.7308904,33.4771063],[131.7308125,33.4779388],[131.7309541,33.4790074],[131.7311098,33.4792495],[131.731577,33.4791727],[131.7317469,33.4798753],[131.7319239,33.4799698],[131.7329785,33.4800583],[131.7331909,33.480448],[131.7334174,33.4805424],[131.7336581,33.4811564],[131.7337855,33.4816701],[131.733899,33.4851892],[131.7342201,33.48544],[131.7344016,33.4854384],[131.7345274,33.4854367],[131.7345672,33.4886054],[131.7345512,33.4896781],[131.7345522,33.4897206],[131.7346252,33.4940206],[131.7356403,33.4940203],[131.7362954,33.4953639],[131.7382277,33.495346],[131.7389516,33.4940006],[131.7387795,33.4737376],[131.7396238,33.4708407],[131.7387583,33.4694923],[131.7395928,33.4663286],[131.7387192,33.464973],[131.7370058,33.4648759],[131.7344709,33.4648887],[131.7344192,33.4649726]]]}}
