{"type":"Feature","id":"attraction-large-park-R6946709","properties":{"id":"attraction-large-park-R6946709","kind":"attraction","name":"三ツ沢公園","shortName":"三ツ沢公園","context":"日本","subtype":"large-park","subtypeLabel":"大型都市公園・広域公園","statusLabel":"著名な公園","aliases":[],"osmType":"relation","osmId":6946709,"osmDate":null,"officialAreaKm2":null,"areaSourceLabel":"","areaSourceUrl":"","boundarySourceLabel":"© OpenStreetMap contributors","boundarySourceUrl":"https://www.openstreetmap.org/copyright","geometryFile":"attractions/large-park-R6946709.geojson"},"geometry":{"type":"MultiPolygon","coordinates":[[[[139.6023353,35.4726018],[139.6021396,35.4726577],[139.6018257,35.4726455],[139.6016755,35.4726171],[139.6011901,35.4723868],[139.6008923,35.4722459],[139.6007018,35.4722022],[139.6008066,35.471904],[139.6008145,35.4708807],[139.6007153,35.4707059],[139.6004794,35.4705814],[139.6003238,35.4704984],[139.600187,35.4703236],[139.6001494,35.4699938],[139.6000958,35.4696486],[139.5999966,35.4694018],[139.5999697,35.4692576],[139.6000287,35.4691003],[139.6008549,35.4689288],[139.601359,35.4688731],[139.6022121,35.4690555],[139.602483,35.4690403],[139.6027591,35.4689452],[139.6031427,35.4685411],[139.603483,35.4681281],[139.6035768,35.468057],[139.6036708,35.4680404],[139.6048584,35.4694357],[139.6045867,35.469703],[139.6047458,35.469876],[139.6056354,35.4699305],[139.605843,35.4699849],[139.6061451,35.4701054],[139.6061485,35.4701555],[139.6061575,35.4702182],[139.6060444,35.4706154],[139.6057431,35.4706335],[139.6055421,35.4706608],[139.6053539,35.4707095],[139.6051702,35.4707861],[139.6049993,35.4708798],[139.6041302,35.471738],[139.6039259,35.4718979],[139.6034265,35.4721509],[139.6028691,35.4724708],[139.602676,35.4725625],[139.6023353,35.4726018]]],[[[139.6046782,35.4734749],[139.6061508,35.4737261],[139.6062232,35.4736933],[139.6066014,35.4721162],[139.6066523,35.4717798],[139.6067328,35.4716029],[139.6069098,35.470917],[139.606647,35.470941],[139.6062849,35.4709104],[139.6057887,35.4709301],[139.6054614,35.4710131],[139.6051476,35.4712446],[139.6053461,35.4714565],[139.6046165,35.4721424],[139.6042517,35.4724198],[139.6038119,35.4726405],[139.6034659,35.4727606],[139.603195,35.472813],[139.6031815,35.4729637],[139.6033237,35.4729375],[139.6035275,35.4730009],[139.6037046,35.4730358],[139.6039138,35.4729965],[139.6041445,35.4729026],[139.6045119,35.4732848],[139.6046782,35.4734749]]],[[[139.6060511,35.4750787],[139.6062459,35.4750399],[139.6064593,35.4750246],[139.6065934,35.4748531],[139.6065665,35.474721],[139.606478,35.474472],[139.6065491,35.4743169],[139.6065397,35.4741454],[139.6064686,35.4739488],[139.6064861,35.4738342],[139.6055849,35.4737118],[139.6060511,35.4750787]]]]}}
