{"type":"Feature","id":"attraction-large-park-W550975011","properties":{"id":"attraction-large-park-W550975011","kind":"attraction","name":"前橋総合運動公園","shortName":"前橋総合運動公園","context":"日本","subtype":"large-park","subtypeLabel":"大型都市公園・広域公園","statusLabel":"著名な公園","aliases":[],"osmType":"way","osmId":550975011,"osmDate":null,"officialAreaKm2":null,"areaSourceLabel":"","areaSourceUrl":"","boundarySourceLabel":"© OpenStreetMap contributors","boundarySourceUrl":"https://www.openstreetmap.org/copyright","geometryFile":"attractions/large-park-W550975011.geojson"},"geometry":{"type":"Polygon","coordinates":[[[139.1607644,36.373078],[139.1607385,36.3687187],[139.16066,36.3687197],[139.1605993,36.3687236],[139.1605726,36.3687246],[139.1603863,36.3687312],[139.1603841,36.3704375],[139.1603792,36.3730765],[139.1583526,36.3730461],[139.1583448,36.3734956],[139.1581177,36.3735238],[139.1580659,36.3734989],[139.1580297,36.373569],[139.1578671,36.3738125],[139.1577391,36.3738777],[139.1576677,36.3739085],[139.1576164,36.3740475],[139.1575591,36.3742159],[139.1575564,36.3743743],[139.157569,36.3744969],[139.1575726,36.3746656],[139.1575284,36.3747585],[139.1574509,36.3749273],[139.1575415,36.3749141],[139.1575417,36.3754201],[139.1578437,36.3755107],[139.1579156,36.37576],[139.1584025,36.3757756],[139.158339,36.3765776],[139.1583877,36.3766423],[139.1583941,36.3767581],[139.1587161,36.376793],[139.158749,36.376808],[139.1587796,36.376849],[139.1588515,36.3795386],[139.1590006,36.3795374],[139.1626463,36.3794632],[139.1626182,36.3774149],[139.1626216,36.3748844],[139.1607511,36.3740527],[139.1607644,36.373078]]]}}
