{"type":"Feature","id":"attraction-large-park-W41175084","properties":{"id":"attraction-large-park-W41175084","kind":"attraction","name":"大仙公園","shortName":"大仙公園","context":"大阪府・堺市","subtype":"large-park","subtypeLabel":"大型都市公園・広域公園","statusLabel":"著名な公園","aliases":["Daisen Park"],"osmType":"way","osmId":41175084,"osmDate":null,"officialAreaKm2":null,"areaSourceLabel":"","areaSourceUrl":"","boundarySourceLabel":"© OpenStreetMap contributors","boundarySourceUrl":"https://www.openstreetmap.org/copyright","geometryFile":"attractions/large-park-W41175084.geojson"},"geometry":{"type":"Polygon","coordinates":[[[135.4855392,34.5585732],[135.4856864,34.5589429],[135.4857041,34.558964],[135.4857387,34.5589795],[135.4865404,34.5590543],[135.4865639,34.559059],[135.4867526,34.5592087],[135.4863425,34.5595329],[135.4859436,34.5599176],[135.4857196,34.5601481],[135.4854972,34.5603158],[135.485434,34.5603613],[135.4853199,34.5604311],[135.4851967,34.560492],[135.4849665,34.5605928],[135.4846892,34.560723],[135.4845877,34.5607784],[135.484345,34.5609267],[135.4840288,34.5611514],[135.4838736,34.5612381],[135.483544,34.5613898],[135.4831408,34.561574],[135.4828113,34.5617208],[135.4820511,34.5620327],[135.4818094,34.5621243],[135.4815077,34.5616825],[135.4815092,34.5610745],[135.4804765,34.5610744],[135.4804917,34.5610142],[135.4804929,34.5609459],[135.4804842,34.5609105],[135.4804622,34.5608585],[135.4804116,34.560808],[135.4803787,34.5607785],[135.4803407,34.5607444],[135.4794201,34.5596892],[135.4790408,34.5593513],[135.4787677,34.5591445],[135.4785775,34.5589925],[135.47847,34.5589087],[135.4784057,34.558819],[135.4783082,34.5586899],[135.4782564,34.5585589],[135.4782536,34.5585031],[135.4782677,34.5584466],[135.4782855,34.5583992],[135.4783197,34.5583507],[135.4784093,34.5582541],[135.4784927,34.558226],[135.4785675,34.5581845],[135.4787098,34.5580861],[135.478809,34.5579778],[135.4788656,34.5579134],[135.4790135,34.5576762],[135.4790811,34.5575179],[135.4791392,34.557387],[135.4793453,34.5567787],[135.4794301,34.556516],[135.4798729,34.5565802],[135.4801893,34.5566169],[135.4804799,34.5566208],[135.480931,34.5566009],[135.4814154,34.5565753],[135.4817722,34.5565536],[135.4821702,34.5565326],[135.4827559,34.5564987],[135.4832332,34.5564682],[135.4834534,34.5564553],[135.4836394,34.5564365],[135.4838763,34.5563882],[135.4841552,34.5563017],[135.4843458,34.5562207],[135.484538,34.5561276],[135.4845863,34.5560967],[135.4846509,34.5560588],[135.4847898,34.5559555],[135.4849791,34.5557859],[135.4851311,34.5556214],[135.4852592,34.5554488],[135.485447,34.5552345],[135.4855096,34.5552305],[135.4857243,34.5553732],[135.4859612,34.5555462],[135.4860463,34.55561],[135.4863628,34.5558522],[135.4865942,34.5560315],[135.4867291,34.5561405],[135.4868725,34.556259],[135.4872066,34.5565621],[135.4872569,34.5566173],[135.4871437,34.556693],[135.4870661,34.5566867],[135.4870639,34.5567077],[135.4870422,34.5567127],[135.4869114,34.5567006],[135.4868826,34.5566975],[135.4868467,34.5566937],[135.4867455,34.5566898],[135.4865382,34.556731],[135.4865465,34.556972],[135.4865311,34.5571084],[135.4864123,34.5572648],[135.4864332,34.5573098],[135.4862224,34.5573464],[135.4862709,34.5575188],[135.4862565,34.5576514],[135.4862235,34.5576474],[135.4860305,34.5576329],[135.4856734,34.5576045],[135.4856647,34.5576482],[135.4856503,34.5577366],[135.4856139,34.5579752],[135.4856029,34.558061],[135.485551,34.5582467],[135.4855392,34.5585732]]]}}
