{"type":"Feature","id":"attraction-large-park-W1524219115","properties":{"id":"attraction-large-park-W1524219115","kind":"attraction","name":"南足柄市運動公園","shortName":"南足柄市運動公園","context":"神奈川県・南足柄市","subtype":"large-park","subtypeLabel":"大型都市公園・広域公園","statusLabel":"著名な公園","aliases":[],"osmType":"way","osmId":1524219115,"osmDate":null,"officialAreaKm2":null,"areaSourceLabel":"","areaSourceUrl":"","boundarySourceLabel":"© OpenStreetMap contributors","boundarySourceUrl":"https://www.openstreetmap.org/copyright","geometryFile":"attractions/large-park-W1524219115.geojson"},"geometry":{"type":"Polygon","coordinates":[[[139.0950673,35.3434407],[139.0949801,35.3433176],[139.0949164,35.3432602],[139.09485,35.3432203],[139.0943203,35.3430518],[139.0941379,35.3430206],[139.0939096,35.3430077],[139.093786,35.3430064],[139.0935022,35.343083],[139.0935227,35.3431103],[139.0933762,35.3431888],[139.0933071,35.3432427],[139.0932206,35.3433349],[139.0931847,35.3433417],[139.0931509,35.3433368],[139.0930121,35.3432799],[139.0929289,35.3432777],[139.092837,35.3433111],[139.0928002,35.3433105],[139.0927666,35.3432892],[139.0927787,35.3431218],[139.0927438,35.3430688],[139.0927438,35.3430474],[139.0928059,35.3429602],[139.0928015,35.3429025],[139.0926982,35.3428188],[139.0926392,35.34274],[139.0926164,35.3426689],[139.0926111,35.3425749],[139.0926433,35.3424162],[139.0927539,35.3421816],[139.0927827,35.3421499],[139.0925588,35.3419973],[139.0928283,35.3419207],[139.0929745,35.3418386],[139.0930858,35.3417577],[139.0933835,35.3416319],[139.0935311,35.3415903],[139.0940823,35.3415892],[139.0942432,35.3415334],[139.0947501,35.3413234],[139.0951632,35.3411823],[139.0955977,35.34111],[139.0956943,35.3411068],[139.0961449,35.3411593],[139.0963608,35.341156],[139.0965566,35.3411418],[139.0969402,35.3410915],[139.0970086,35.3410761],[139.0972231,35.340993],[139.097549,35.3408858],[139.0978897,35.3407184],[139.0983151,35.3405962],[139.0984952,35.3405983],[139.098517,35.3405967],[139.0991342,35.3402502],[139.099149,35.3402693],[139.0991879,35.3402737],[139.0994091,35.3405291],[139.0995969,35.340877],[139.0998195,35.3411341],[139.099908,35.3414918],[139.0999456,35.3415854],[139.099849,35.3415662],[139.0996009,35.3415991],[139.0995473,35.3416264],[139.0991744,35.3420005],[139.099035,35.3420859],[139.098528,35.3423222],[139.0984261,35.3423758],[139.098355,35.3424611],[139.0983081,35.3425716],[139.0982826,35.3426186],[139.0982806,35.3426941],[139.0982642,35.3427269],[139.0982303,35.34276],[139.0980513,35.3428713],[139.097899,35.3429353],[139.097437,35.3430546],[139.0973217,35.3431043],[139.0970542,35.3433122],[139.0969227,35.3434052],[139.0967631,35.3434774],[139.0966599,35.3435113],[139.0960456,35.3436349],[139.0960034,35.3436661],[139.0959853,35.3436923],[139.0959598,35.3437044],[139.095875,35.3436929],[139.0958529,35.3436756],[139.0958522,35.3436464],[139.0956058,35.3436021],[139.0952564,35.3434889],[139.0950673,35.3434407]]]}}
