{"type":"Feature","id":"attraction-large-industrial-complex-W641369843","properties":{"id":"attraction-large-industrial-complex-W641369843","kind":"attraction","name":"旭化成工場","shortName":"旭化成工場","context":"日本","subtype":"industrial-complex","subtypeLabel":"工業地帯・大規模工場","statusLabel":"","aliases":[],"osmType":"way","osmId":641369843,"osmDate":null,"officialAreaKm2":null,"areaSourceLabel":"","areaSourceUrl":"","boundarySourceLabel":"© OpenStreetMap contributors","boundarySourceUrl":"https://www.openstreetmap.org/copyright","geometryFile":"attractions/large-industrial-complex-W641369843.geojson"},"geometry":{"type":"Polygon","coordinates":[[[138.6761311,35.1410135],[138.6767158,35.1415493],[138.6771744,35.141972],[138.6839014,35.1439591],[138.690344,35.1395912],[138.6792471,35.1372028],[138.6786177,35.1372645],[138.6780694,35.1374614],[138.6775079,35.1378674],[138.6761311,35.1410135]]]}}
