{"type":"Feature","id":"attraction-large-airport-R6987441","properties":{"id":"attraction-large-airport-R6987441","kind":"attraction","name":"慶良間空港","shortName":"慶良間空港","context":"日本","subtype":"airport","subtypeLabel":"空港・飛行場","statusLabel":"","aliases":["Kerama Airport"],"osmType":"relation","osmId":6987441,"osmDate":null,"officialAreaKm2":null,"areaSourceLabel":"","areaSourceUrl":"","boundarySourceLabel":"© OpenStreetMap contributors","boundarySourceUrl":"https://www.openstreetmap.org/copyright","geometryFile":"attractions/large-airport-R6987441.geojson"},"geometry":{"type":"Polygon","coordinates":[[[127.2931568,26.1713527],[127.2930983,26.1713238],[127.292965,26.171258],[127.292875,26.171233],[127.292795,26.171142],[127.292741,26.170985],[127.292613,26.17081],[127.292566,26.17071],[127.292575,26.170602],[127.292591,26.170238],[127.292533,26.170115],[127.292378,26.169924],[127.292326,26.169796],[127.292504,26.1697659],[127.292645,26.169742],[127.292694,26.169712],[127.292665,26.169599],[127.292469,26.169078],[127.2931498,26.1688672],[127.2912228,26.1626019],[127.2920119,26.1624221],[127.2925408,26.1640872],[127.292907,26.164209],[127.2931212,26.1641995],[127.293152,26.164694],[127.2930512,26.1647804],[127.2931083,26.164946],[127.2929326,26.1651196],[127.2931355,26.1659942],[127.2940439,26.1678514],[127.2940349,26.168732],[127.2946867,26.1705532],[127.2952321,26.1707955],[127.295444,26.1709616],[127.2954628,26.1711325],[127.295383,26.171251],[127.2952608,26.1727643],[127.2948891,26.1727969],[127.2946568,26.1730895],[127.294711,26.173334],[127.2945227,26.1733447],[127.2944476,26.1731497],[127.2941886,26.173199],[127.2940686,26.1728059],[127.2940353,26.1724834],[127.2937069,26.172338],[127.2936642,26.1722441],[127.29366,26.172145],[127.293528,26.171802],[127.293519,26.171722],[127.293541,26.171629],[127.293541,26.171516],[127.29343,26.171383],[127.293318,26.171344],[127.2931568,26.1713527]]]}}
