{"type":"Feature","id":"attraction-large-park-W728946713","properties":{"id":"attraction-large-park-W728946713","kind":"attraction","name":"霞城公園","shortName":"霞城公園","context":"日本","subtype":"large-park","subtypeLabel":"大型都市公園・広域公園","statusLabel":"著名な公園","aliases":[],"osmType":"way","osmId":728946713,"osmDate":null,"officialAreaKm2":null,"areaSourceLabel":"","areaSourceUrl":"","boundarySourceLabel":"© OpenStreetMap contributors","boundarySourceUrl":"https://www.openstreetmap.org/copyright","geometryFile":"attractions/large-park-W728946713.geojson"},"geometry":{"type":"Polygon","coordinates":[[[140.3262063,38.2584171],[140.3270482,38.2582987],[140.3271113,38.2582316],[140.3271136,38.2581044],[140.3278882,38.2579036],[140.3288922,38.2578332],[140.3298569,38.2577048],[140.3300281,38.2579965],[140.3300753,38.2580079],[140.3308113,38.2578353],[140.330832,38.2578081],[140.3306638,38.2572698],[140.3306829,38.2572253],[140.331215,38.2570761],[140.3318815,38.2569149],[140.3319277,38.2568489],[140.3319127,38.2567932],[140.331331,38.25584],[140.3311603,38.2557158],[140.3303473,38.2543611],[140.3293761,38.2526774],[140.3292442,38.2525724],[140.3291569,38.2525686],[140.3280545,38.2527841],[140.3280537,38.2528862],[140.326263,38.2532728],[140.3260923,38.2532186],[140.3251087,38.2534159],[140.3250692,38.2535042],[140.3253801,38.2543951],[140.3257635,38.255366],[140.3257241,38.2554598],[140.3250868,38.2556944],[140.3251666,38.2558445],[140.3248588,38.2559619],[140.3248364,38.2560162],[140.3254242,38.2571727],[140.3255166,38.2572119],[140.3256362,38.2572203],[140.326084,38.2583657],[140.3262063,38.2584171]]]}}
