{"type":"Feature","id":"attraction-large-industrial-complex-W389006257","properties":{"id":"attraction-large-industrial-complex-W389006257","kind":"attraction","name":"日産自動車上三川工場","shortName":"日産自動車上三川工場","context":"日本","subtype":"industrial-complex","subtypeLabel":"工業地帯・大規模工場","statusLabel":"","aliases":["Nissan Kaminokawa Plant"],"osmType":"way","osmId":389006257,"osmDate":null,"officialAreaKm2":null,"areaSourceLabel":"","areaSourceUrl":"","boundarySourceLabel":"© OpenStreetMap contributors","boundarySourceUrl":"https://www.openstreetmap.org/copyright","geometryFile":"attractions/large-industrial-complex-W389006257.geojson"},"geometry":{"type":"Polygon","coordinates":[[[139.9109247,36.4661037],[139.9116542,36.4702106],[139.9122979,36.471522],[139.9131992,36.4722813],[139.9145081,36.4727472],[139.915817,36.4729715],[139.9175122,36.4726436],[139.918628,36.472057],[139.9188307,36.4718846],[139.9189199,36.4718088],[139.9190203,36.4717233],[139.919246,36.4715314],[139.9193594,36.4714349],[139.9197438,36.4711079],[139.9198159,36.4709146],[139.9201944,36.4699],[139.9201514,36.4688129],[139.9197438,36.4662245],[139.9183061,36.4582861],[139.9166753,36.4492941],[139.9156,36.4476954],[139.9134328,36.4468669],[139.9110081,36.4470049],[139.9088623,36.4485239],[139.9082854,36.4501053],[139.9096801,36.4583897],[139.9109247,36.4661037]]]}}
