{"type":"Feature","id":"attraction-large-park-W495766707","properties":{"id":"attraction-large-park-W495766707","kind":"attraction","name":"大高緑地公園","shortName":"大高緑地公園","context":"日本","subtype":"large-park","subtypeLabel":"大型都市公園・広域公園","statusLabel":"","aliases":[],"osmType":"way","osmId":495766707,"osmDate":null,"officialAreaKm2":null,"areaSourceLabel":"","areaSourceUrl":"","boundarySourceLabel":"© OpenStreetMap contributors","boundarySourceUrl":"https://www.openstreetmap.org/copyright","geometryFile":"attractions/large-park-W495766707.geojson"},"geometry":{"type":"Polygon","coordinates":[[[136.9576792,35.0710752],[136.9580943,35.0709101],[136.9582416,35.0708574],[136.9583237,35.0708284],[136.9583964,35.0708028],[136.958271,35.0705154],[136.9583144,35.0703274],[136.9582882,35.0701917],[136.9581389,35.0695588],[136.9581153,35.0694766],[136.9580783,35.0693156],[136.9580635,35.069243],[136.9582229,35.0687874],[136.9585266,35.0685321],[136.95854,35.0685161],[136.9587482,35.0683325],[136.9589841,35.0682549],[136.9590197,35.0682104],[136.9590295,35.0681452],[136.959033,35.0680924],[136.9589946,35.0680862],[136.9590542,35.067935],[136.9591035,35.0677431],[136.9590828,35.0676204],[136.958978,35.0674861],[136.9591097,35.0674199],[136.9589636,35.0672837],[136.9600255,35.0665641],[136.9603139,35.0666603],[136.9605781,35.0664298],[136.9606854,35.0663815],[136.9607571,35.0663734],[136.9605754,35.0661333],[136.9605835,35.0660664],[136.9607471,35.0659951],[136.9608675,35.0659661],[136.9609314,35.0658751],[136.9606611,35.0656298],[136.9609054,35.0655095],[136.9607639,35.0653077],[136.9607187,35.0651755],[136.9606062,35.0648467],[136.9613185,35.0646407],[136.9613254,35.0641586],[136.9613875,35.0640937],[136.9615145,35.0639158],[136.9616227,35.0637376],[136.9616732,35.0635223],[136.9616685,35.0634023],[136.9616359,35.0632137],[136.9615914,35.0630918],[136.9614805,35.0628816],[136.9618716,35.0626493],[136.9619503,35.0625118],[136.9619252,35.0623968],[136.9620218,35.0619358],[136.9619131,35.0617674],[136.9617629,35.061897],[136.9616261,35.0620748],[136.9615483,35.0621363],[136.9614075,35.0622323],[136.9612667,35.0622905],[136.9611245,35.0623322],[136.9608375,35.0624058],[136.9606686,35.0624628],[136.9605264,35.0625133],[136.9603319,35.0626077],[136.960104,35.0627362],[136.9599014,35.0628591],[136.9597942,35.0629557],[136.9598331,35.0626709],[136.9598411,35.062482],[136.9598491,35.0622691],[136.959479,35.0622252],[136.9592886,35.0621374],[136.9591062,35.0620276],[136.9589774,35.0619178],[136.9589211,35.0616478],[136.9587682,35.0616083],[136.95839,35.0613492],[136.9581206,35.0606706],[136.9580703,35.0605543],[136.9597439,35.0602475],[136.9606565,35.0600802],[136.9582184,35.0575619],[136.9581667,35.0575616],[136.9573165,35.0577285],[136.9572836,35.0577466],[136.9567217,35.0577968],[136.9569416,35.0581261],[136.9561364,35.0581473],[136.9561556,35.0579688],[136.9560015,35.0579719],[136.9557561,35.0580422],[136.9556113,35.0581058],[136.9555167,35.0581542],[136.9552705,35.0583961],[136.9548035,35.058371],[136.9547972,35.0584934],[136.9548205,35.0585707],[136.9547757,35.0587316],[136.9547382,35.0588918],[136.9547208,35.0589863],[136.9545102,35.0590686],[136.9543989,35.0591301],[136.9542393,35.0592783],[136.9541186,35.0592728],[136.9540341,35.0590675],[136.9539255,35.0590137],[136.9537511,35.0589786],[136.9535929,35.0589577],[136.9535795,35.058826],[136.9535969,35.0587239],[136.9533636,35.0586383],[136.9533153,35.0587206],[136.9531316,35.0586459],[136.9531651,35.0585746],[136.9529907,35.0584736],[136.9529599,35.058501],[136.9527748,35.0586986],[136.9528365,35.0587854],[136.9526555,35.0590631],[136.9523993,35.0591575],[136.9522853,35.0589665],[136.9522545,35.058647],[136.9521525,35.0587524],[136.9519013,35.058567],[136.9515504,35.0587799],[136.9514699,35.0588172],[136.9516148,35.0591773],[136.9519313,35.059208],[136.9519259,35.0592826],[136.9516416,35.0594188],[136.9514646,35.059511],[136.9514485,35.0596295],[136.9517918,35.0600686],[136.9515397,35.0601784],[136.9514753,35.0603277],[136.9514968,35.0606746],[136.951191,35.0606966],[136.9512017,35.0603628],[136.9510462,35.0602135],[136.9508852,35.0599589],[136.9506063,35.0595593],[136.9505634,35.0598008],[136.9502361,35.0597788],[136.9502415,35.0596734],[136.9502147,35.0595066],[136.9498016,35.0594627],[136.9488038,35.0597876],[136.9486536,35.0598579],[136.9486,35.0600511],[136.9486322,35.0602399],[136.9486858,35.0605165],[136.9487961,35.0606628],[136.9488414,35.0607229],[136.9489932,35.0609468],[136.9487743,35.0611088],[136.9484685,35.0612076],[136.9481681,35.0611527],[136.9479133,35.0609924],[136.9478436,35.0609507],[136.9474627,35.0613152],[136.94735,35.0614381],[136.9473597,35.0616097],[136.9472398,35.061655],[136.9471835,35.0616861],[136.9465311,35.061678],[136.9464853,35.0616721],[136.9464381,35.0616777],[136.9463644,35.0616722],[136.9462402,35.0615666],[136.9461629,35.0615445],[136.9461146,35.0615492],[136.9460237,35.061558],[136.9459655,35.061556],[136.9458403,35.0615345],[136.9456733,35.0615174],[136.9454997,35.0613335],[136.9454549,35.0613011],[136.9452722,35.0614482],[136.945271,35.0614657],[136.945278,35.0615961],[136.9452731,35.0616642],[136.945267,35.0617259],[136.9451935,35.0620693],[136.9453247,35.0622144],[136.9454078,35.0623055],[136.9460626,35.0630378],[136.9460813,35.0630617],[136.9460964,35.0630809],[136.9464249,35.0636192],[136.9464362,35.0636378],[136.9464467,35.063655],[136.9464623,35.0636805],[136.9465126,35.0637581],[136.9466065,35.0639139],[136.9469794,35.0638324],[136.9469923,35.0638704],[136.9471643,35.0638365],[136.9472418,35.064073],[136.9472513,35.0641816],[136.9471194,35.0641939],[136.947156,35.0642853],[136.9472515,35.0644574],[136.9472789,35.064466],[136.9473044,35.0644654],[136.9473518,35.0644624],[136.9479978,35.0644544],[136.9481568,35.0644594],[136.9482621,35.0644818],[136.9483664,35.064508],[136.9484745,35.0645533],[136.9485794,35.0646068],[136.9487012,35.0646984],[136.948775,35.0647787],[136.9488416,35.0648664],[136.9488837,35.0648826],[136.9491425,35.0648601],[136.9494695,35.0648463],[136.9496943,35.0648562],[136.9498907,35.0648904],[136.9501862,35.0649854],[136.9502774,35.0650078],[136.9506513,35.0651348],[136.9510145,35.0652693],[136.9512551,35.065377],[136.9514618,35.0654969],[136.9515344,35.0655514],[136.9516703,35.0656598],[136.9517931,35.0657801],[136.9518776,35.0658729],[136.9519174,35.0659328],[136.9519667,35.0660041],[136.9521155,35.0662849],[136.9521368,35.0663002],[136.9522062,35.0663685],[136.9522572,35.0664343],[136.9522746,35.0665177],[136.9522582,35.0666286],[136.9522409,35.0667038],[136.9522129,35.0667834],[136.9521593,35.0669217],[136.9520895,35.0670018],[136.9520298,35.0671259],[136.9520345,35.067251],[136.9520647,35.0673031],[136.9521244,35.0673421],[136.9521556,35.0673607],[136.9523725,35.067402],[136.9524047,35.0674096],[136.9524892,35.0674486],[136.9525267,35.0675397],[136.9525334,35.0675704],[136.9527775,35.0677713],[136.9528083,35.0678152],[136.9528902,35.067881],[136.9529344,35.0679568],[136.952972,35.0680523],[136.9529317,35.0681335],[136.9528915,35.0681906],[136.9528566,35.0682466],[136.952858,35.0683146],[136.9528995,35.0683816],[136.9531134,35.0685567],[136.953143,35.0686407],[136.9531652,35.068641],[136.953204,35.0686632],[136.9532488,35.0687663],[136.9532911,35.068769],[136.9533926,35.0687405],[136.9536237,35.0686757],[136.9544507,35.06846],[136.9546397,35.0684149],[136.9559537,35.0681357],[136.9559875,35.0681284],[136.9560178,35.0681206],[136.9570879,35.0690961],[136.9572317,35.0696245],[136.9572619,35.0697288],[136.9574278,35.0703199],[136.9576351,35.0710957],[136.9576792,35.0710752]]]}}
