{"type":"Feature","id":"attraction-large-park-R16754960","properties":{"id":"attraction-large-park-R16754960","kind":"attraction","name":"道立ゆめの森公園","shortName":"道立ゆめの森公園","context":"日本","subtype":"large-park","subtypeLabel":"大型都市公園・広域公園","statusLabel":"","aliases":["Yumenomori Park"],"osmType":"relation","osmId":16754960,"osmDate":null,"officialAreaKm2":null,"areaSourceLabel":"","areaSourceUrl":"","boundarySourceLabel":"© OpenStreetMap contributors","boundarySourceUrl":"https://www.openstreetmap.org/copyright","geometryFile":"attractions/large-park-R16754960.geojson"},"geometry":{"type":"MultiPolygon","coordinates":[[[[144.9537635,43.5698471],[144.9531895,43.5689454],[144.9533286,43.5688298],[144.9538625,43.5683859],[144.9561721,43.5664656],[144.9579298,43.5650863],[144.9623787,43.5615951],[144.9662626,43.5641062],[144.9657261,43.5648992],[144.9654472,43.5655833],[144.9647015,43.5680787],[144.9643475,43.5692019],[144.9626684,43.5684984],[144.9603403,43.5669398],[144.9576849,43.5690232],[144.9569392,43.5690931],[144.9566388,43.5691631],[144.9550939,43.5695129],[144.9537635,43.5698471]]],[[[144.956789,43.5694002],[144.9580014,43.5705079],[144.9578512,43.5706245],[144.9592674,43.5717555],[144.9617833,43.5731352],[144.9617243,43.5732129],[144.9576902,43.5721441],[144.9560434,43.5717283],[144.9555069,43.5715845],[144.9551797,43.5714679],[144.9548793,43.5713124],[144.9546057,43.5711103],[144.9544179,43.5709238],[144.9542141,43.5706284],[144.9539941,43.5701736],[144.95408,43.5700298],[144.956789,43.5694002]]]]}}
