{"type":"Feature","id":"attraction-large-park-W285379160","properties":{"id":"attraction-large-park-W285379160","kind":"attraction","name":"清水公園","shortName":"清水公園","context":"日本","subtype":"large-park","subtypeLabel":"大型都市公園・広域公園","statusLabel":"著名な公園","aliases":["shimizu kouen"],"osmType":"way","osmId":285379160,"osmDate":null,"officialAreaKm2":null,"areaSourceLabel":"","areaSourceUrl":"","boundarySourceLabel":"© OpenStreetMap contributors","boundarySourceUrl":"https://www.openstreetmap.org/copyright","geometryFile":"attractions/large-park-W285379160.geojson"},"geometry":{"type":"Polygon","coordinates":[[[139.8542991,35.9564517],[139.8540048,35.9568717],[139.8535373,35.9564537],[139.8533209,35.9565624],[139.8528659,35.957297],[139.8526267,35.9576808],[139.8526112,35.9576763],[139.85243,35.9576243],[139.8502123,35.9569875],[139.8499175,35.9568674],[139.848508,35.9565314],[139.8483737,35.9569098],[139.8484121,35.9570708],[139.8484138,35.9573264],[139.8483911,35.9574775],[139.8483039,35.9577429],[139.8471665,35.9608931],[139.8470985,35.9610767],[139.8470758,35.9612249],[139.8470758,35.9613562],[139.847102,35.9615186],[139.8475085,35.9614607],[139.8477073,35.9614494],[139.8478856,35.9614665],[139.8480744,35.9615264],[139.8484074,35.9616552],[139.8485776,35.9616942],[139.8487108,35.9617032],[139.8488404,35.9616962],[139.8491123,35.9616616],[139.8494374,35.9616203],[139.8499431,35.9615694],[139.8512765,35.9614615],[139.8514369,35.9614276],[139.8516343,35.9613337],[139.8527198,35.96069],[139.8528752,35.9605979],[139.853095,35.9604706],[139.8532563,35.9603773],[139.8533735,35.9602824],[139.853602,35.9600835],[139.8538035,35.9598809],[139.8540155,35.9596366],[139.8542736,35.959254],[139.8543452,35.9591396],[139.8543843,35.9590392],[139.8544289,35.9588819],[139.8544595,35.9583622],[139.8544422,35.9582723],[139.854425,35.9578709],[139.8544595,35.9577491],[139.8545187,35.9576213],[139.8546939,35.9572738],[139.8547556,35.9570741],[139.8547926,35.9569403],[139.8548197,35.9566987],[139.8548197,35.9566128],[139.8542991,35.9564517]]]}}
