{"type":"Feature","id":"attraction-large-industrial-complex-W99690097","properties":{"id":"attraction-large-industrial-complex-W99690097","kind":"attraction","name":"東京ガス根岸工場","shortName":"東京ガス根岸工場","context":"日本","subtype":"industrial-complex","subtypeLabel":"工業地帯・大規模工場","statusLabel":"","aliases":[],"osmType":"way","osmId":99690097,"osmDate":null,"officialAreaKm2":null,"areaSourceLabel":"","areaSourceUrl":"","boundarySourceLabel":"© OpenStreetMap contributors","boundarySourceUrl":"https://www.openstreetmap.org/copyright","geometryFile":"attractions/large-industrial-complex-W99690097.geojson"},"geometry":{"type":"Polygon","coordinates":[[[139.626271,35.4075053],[139.6280531,35.4063365],[139.6295292,35.4053918],[139.6305395,35.4047902],[139.630865,35.4046919],[139.6311834,35.4046036],[139.6313716,35.4046345],[139.6349613,35.4053021],[139.6350745,35.4052887],[139.6358259,35.4025964],[139.6374598,35.4029146],[139.6393906,35.4032851],[139.6394944,35.4032828],[139.6395814,35.4030244],[139.6398957,35.4019081],[139.6399165,35.4018257],[139.6374726,35.4013882],[139.6375282,35.4011833],[139.6372709,35.4011311],[139.637206,35.4013042],[139.6343111,35.4007689],[139.6343588,35.4005768],[139.6348528,35.4006637],[139.6349061,35.4005059],[139.6330315,35.4001788],[139.633009,35.4002771],[139.6333991,35.4003503],[139.6333654,35.4004716],[139.633531,35.4005082],[139.6335029,35.4006225],[139.6322232,35.4003801],[139.6321134,35.4003975],[139.6317152,35.4005656],[139.6315329,35.4003229],[139.6315132,35.4002977],[139.6315497,35.4002909],[139.6315132,35.4002405],[139.6314347,35.4002748],[139.6314655,35.4003252],[139.6314964,35.4003183],[139.6316395,35.4005562],[139.629675,35.4013755],[139.6271756,35.4016144],[139.6261869,35.4017114],[139.6245575,35.4024748],[139.6246701,35.4026272],[139.6251429,35.403125],[139.6247586,35.4033805],[139.6249822,35.4036695],[139.6245401,35.4039538],[139.6248405,35.4043987],[139.6246854,35.4044523],[139.6249467,35.4048503],[139.6241379,35.4053647],[139.6234363,35.4058372],[139.625112,35.4082256],[139.6251831,35.4082316],[139.626271,35.4075053]]]}}
