{"type":"Feature","id":"attraction-large-industrial-complex-W869737215","properties":{"id":"attraction-large-industrial-complex-W869737215","kind":"attraction","name":"JXTGエネルギー 水島製油所","shortName":"JXTGエネルギー 水島製油所","context":"日本","subtype":"industrial-complex","subtypeLabel":"工業地帯・大規模工場","statusLabel":"同名の分割区域2区画","aliases":["JXTG Nippon Oil & Energy","ENEOS"],"osmType":"way","osmId":869737215,"osmDate":null,"officialAreaKm2":null,"areaSourceLabel":"","areaSourceUrl":"","boundarySourceLabel":"© OpenStreetMap contributors","boundarySourceUrl":"https://www.openstreetmap.org/copyright","geometryFile":"attractions/large-industrial-complex-W869737215.geojson"},"geometry":{"type":"MultiPolygon","coordinates":[[[[133.7350408,34.4986029],[133.7295529,34.498604],[133.7275584,34.4992293],[133.7274833,34.4990757],[133.724417,34.5000138],[133.724509,34.5001895],[133.723579,34.5004641],[133.7235894,34.5017776],[133.7235741,34.5018229],[133.723444,34.5019381],[133.7234194,34.5019789],[133.7234016,34.5020226],[133.7234119,34.5050107],[133.7234418,34.5051038],[133.7234448,34.5055035],[133.7234395,34.5068546],[133.7234773,34.5115577],[133.7244551,34.5115591],[133.7244805,34.5115864],[133.7288873,34.5116173],[133.736165,34.5116293],[133.7364264,34.5116312],[133.7364293,34.5115222],[133.7364717,34.5114851],[133.7366398,34.5114858],[133.737077,34.5114809],[133.737071,34.5086277],[133.7366976,34.5086297],[133.7366827,34.5081595],[133.7366569,34.5079153],[133.7366604,34.5078329],[133.7366346,34.5078298],[133.7355695,34.5069495],[133.7354114,34.5069584],[133.7351464,34.5067364],[133.7349974,34.5066045],[133.7350064,34.5059797],[133.7350104,34.5022321],[133.7350504,34.5017016],[133.7350408,34.4986029]]],[[[133.7481165,34.5050702],[133.7478458,34.5014627],[133.7478392,34.5011963],[133.7481151,34.5010066],[133.7502934,34.4972003],[133.750988,34.4970776],[133.7598535,34.4956814],[133.7598193,34.4953763],[133.7599132,34.4953712],[133.7596598,34.4931792],[133.7598759,34.492976],[133.7600296,34.4929238],[133.7595121,34.4906649],[133.7592417,34.489521],[133.7592139,34.4894686],[133.7589612,34.4883967],[133.7587729,34.4875569],[133.7587491,34.487337],[133.7582989,34.4864649],[133.756116,34.487133],[133.753994,34.48777],[133.753649,34.4869857],[133.7511764,34.4877205],[133.7505788,34.4888524],[133.7484223,34.4894913],[133.7477596,34.4909249],[133.747732,34.4909272],[133.7477165,34.4909599],[133.7477324,34.4909767],[133.7469999,34.4925596],[133.7462864,34.4940761],[133.7462687,34.494081],[133.7462471,34.4940785],[133.7462269,34.4940707],[133.7462081,34.4941159],[133.7462417,34.4941297],[133.746247,34.4941523],[133.745544,34.4956627],[133.7453973,34.4959769],[133.745382,34.495988],[133.7453683,34.4959864],[133.7453608,34.4959844],[133.7453342,34.4960315],[133.7453627,34.4960555],[133.7453642,34.4960699],[133.7453485,34.4961065],[133.7428969,34.5012141],[133.7426649,34.5012816],[133.7425616,34.5013766],[133.7428937,34.5051403],[133.7430587,34.5052039],[133.7430771,34.5053715],[133.7481165,34.5050702]]]]}}
