{"type":"Feature","id":"attraction-large-park-W845220285","properties":{"id":"attraction-large-park-W845220285","kind":"attraction","name":"辰巳の森海浜公園","shortName":"辰巳の森海浜公園","context":"日本","subtype":"large-park","subtypeLabel":"大型都市公園・広域公園","statusLabel":"著名な公園","aliases":["Tatsumi Seaside Park"],"osmType":"way","osmId":845220285,"osmDate":null,"officialAreaKm2":null,"areaSourceLabel":"","areaSourceUrl":"","boundarySourceLabel":"© OpenStreetMap contributors","boundarySourceUrl":"https://www.openstreetmap.org/copyright","geometryFile":"attractions/large-park-W845220285.geojson"},"geometry":{"type":"Polygon","coordinates":[[[139.8156727,35.6524434],[139.815493,35.652427],[139.8143049,35.6523115],[139.8141123,35.6522929],[139.812062,35.6520897],[139.8126753,35.6478904],[139.8163031,35.6482332],[139.816364,35.6483032],[139.8158177,35.652358],[139.8156727,35.6524434]]]}}
