{"type":"Feature","id":"attraction-large-park-W485450794","properties":{"id":"attraction-large-park-W485450794","kind":"attraction","name":"くじゅう花公園","shortName":"くじゅう花公園","context":"日本","subtype":"large-park","subtypeLabel":"大型都市公園・広域公園","statusLabel":"著名な公園","aliases":[],"osmType":"way","osmId":485450794,"osmDate":null,"officialAreaKm2":null,"areaSourceLabel":"","areaSourceUrl":"","boundarySourceLabel":"© OpenStreetMap contributors","boundarySourceUrl":"https://www.openstreetmap.org/copyright","geometryFile":"attractions/large-park-W485450794.geojson"},"geometry":{"type":"Polygon","coordinates":[[[131.2457715,33.0442488],[131.2464808,33.0453983],[131.2470404,33.0465039],[131.2459284,33.0478298],[131.2454512,33.04866],[131.2450787,33.0490371],[131.2446397,33.0494358],[131.2444263,33.0498092],[131.2441653,33.0499685],[131.2432937,33.0498693],[131.2423554,33.0503502],[131.2412648,33.0506038],[131.2404916,33.0506415],[131.2404812,33.0499845],[131.2409561,33.0492717],[131.2417303,33.0489571],[131.2422281,33.0488673],[131.2427168,33.0481649],[131.2431802,33.0474753],[131.2435207,33.0469283],[131.2438138,33.0464923],[131.2442394,33.0467063],[131.2446272,33.0460959],[131.2447217,33.0457867],[131.2451,33.0452635],[131.2454689,33.0445263],[131.2457715,33.0442488]]]}}
