{"type":"Feature","id":"attraction-large-park-R14867718","properties":{"id":"attraction-large-park-R14867718","kind":"attraction","name":"平岡公園","shortName":"平岡公園","context":"日本","subtype":"large-park","subtypeLabel":"大型都市公園・広域公園","statusLabel":"","aliases":["Hiraoka Park"],"osmType":"relation","osmId":14867718,"osmDate":null,"officialAreaKm2":null,"areaSourceLabel":"","areaSourceUrl":"","boundarySourceLabel":"© OpenStreetMap contributors","boundarySourceUrl":"https://www.openstreetmap.org/copyright","geometryFile":"attractions/large-park-R14867718.geojson"},"geometry":{"type":"MultiPolygon","coordinates":[[[[141.4657678,43.0089456],[141.4659315,43.0083935],[141.4660948,43.0076768],[141.4662561,43.0069401],[141.4663982,43.0061575],[141.4666503,43.0047138],[141.4669102,43.003185],[141.4671599,43.0016303],[141.4672028,43.0013046],[141.4674953,43.0001551],[141.4676508,42.9991939],[141.4678546,42.9981915],[141.4681521,42.9966527],[141.4683026,42.9956334],[141.4684286,42.9946682],[141.4684417,42.9945203],[141.4684445,42.9943958],[141.4684337,42.9943104],[141.4674708,42.9946193],[141.4674537,42.9946084],[141.4670728,42.994112],[141.4670309,42.9940956],[141.4659285,42.9944869],[141.4657652,42.9941071],[141.4657813,42.9939188],[141.4656791,42.9936865],[141.465556,42.9936892],[141.4653924,42.993652],[141.4652315,42.9936205],[141.4651054,42.9935088],[141.4649766,42.9932773],[141.4635092,42.9936355],[141.4639306,42.9943877],[141.4647162,42.9953962],[141.464809,42.9955137],[141.4649029,42.9956314],[141.4651,42.9958845],[141.4651778,42.9959855],[141.4652408,42.9960837],[141.4653172,42.9963593],[141.4654085,42.996681],[141.4656298,42.9973185],[141.4656995,42.9975128],[141.4657612,42.9976962],[141.4658779,42.9980758],[141.4659758,42.998423],[141.4660227,42.9985907],[141.4660348,42.9986319],[141.4660683,42.9987447],[141.4658162,42.9988349],[141.4657143,42.9988595],[141.4656432,42.9988585],[141.4655748,42.9988281],[141.4655279,42.9987859],[141.4654782,42.9987467],[141.465378,42.9986831],[141.4653468,42.9987987],[141.4653146,42.9988859],[141.4651711,42.9988771],[141.4651453,42.9989578],[141.4648318,42.998935],[141.4647903,42.9989997],[141.4647487,42.9990331],[141.4647094,42.9990656],[141.4644952,42.9991959],[141.4643571,42.9992744],[141.4643771,42.9993342],[141.4648265,43.0000119],[141.4648774,42.9999963],[141.4651564,43.0004072],[141.4654044,43.0007828],[141.4634528,43.0014893],[141.4633871,43.0013833],[141.4631645,43.0014628],[141.4631192,43.0014076],[141.4630897,43.0013802],[141.4630505,43.0013823],[141.4612544,43.002029],[141.4610878,43.0017344],[141.461013,43.0016636],[141.4609125,43.0015925],[141.4608102,43.001552],[141.4606633,43.0015172],[141.4604907,43.0015587],[141.4603807,43.0016401],[141.4602734,43.0018745],[141.4601524,43.0022189],[141.4600776,43.002612],[141.4600616,43.0029987],[141.4600562,43.0030946],[141.4600628,43.0031603],[141.4600924,43.0033957],[141.4601469,43.003645],[141.4603471,43.0041058],[141.4608849,43.0051483],[141.4611867,43.0057318],[141.4613168,43.0059907],[141.4614429,43.0061996],[141.4617284,43.006591],[141.4618653,43.0067488],[141.4620262,43.0069116],[141.462222,43.007094],[141.4624219,43.0072617],[141.4625798,43.0073865],[141.4630401,43.0076904],[141.4632922,43.0078384],[141.4636349,43.008012],[141.4638641,43.008116],[141.4643739,43.0083477],[141.4651671,43.00872],[141.4651497,43.0087416],[141.4656834,43.0089878],[141.4657678,43.0089456]]],[[[141.4666889,43.0094278],[141.4669655,43.0095556],[141.4674103,43.0097632],[141.4678144,43.0099508],[141.4681899,43.0101391],[141.4682436,43.010141],[141.4684922,43.0099265],[141.4686942,43.0097801],[141.4687331,43.0097559],[141.4687438,43.0097311],[141.4687331,43.0097027],[141.4684688,43.0093193],[141.4705018,43.0085845],[141.4704135,43.008366],[141.470333,43.0081287],[141.4702177,43.0076482],[141.4701882,43.0073981],[141.4701821,43.0071019],[141.4701936,43.0068518],[141.4702164,43.0066272],[141.4702794,43.0062879],[141.4704877,43.0053752],[141.4707099,43.0043034],[141.4702393,43.0042235],[141.4701158,43.0040263],[141.4699829,43.0038243],[141.4698824,43.0036595],[141.4697751,43.0035016],[141.4696138,43.0032305],[141.4695472,43.0030897],[141.4695096,43.0029661],[141.4694592,43.0027769],[141.4694531,43.0019359],[141.4693701,43.0019049],[141.4682275,43.0019245],[141.4681525,43.0019493],[141.4673678,43.0063066],[141.467223,43.0070901],[141.4670634,43.0078727],[141.4668623,43.0086583],[141.466759,43.0090505],[141.4666651,43.0093889],[141.4666889,43.0094278]]]]}}
