{"type":"Feature","id":"attraction-large-park-W101918170","properties":{"id":"attraction-large-park-W101918170","kind":"attraction","name":"新海池公園","shortName":"新海池公園","context":"愛知県","subtype":"large-park","subtypeLabel":"大型都市公園・広域公園","statusLabel":"著名な公園","aliases":[],"osmType":"way","osmId":101918170,"osmDate":null,"officialAreaKm2":null,"areaSourceLabel":"","areaSourceUrl":"","boundarySourceLabel":"© OpenStreetMap contributors","boundarySourceUrl":"https://www.openstreetmap.org/copyright","geometryFile":"attractions/large-park-W101918170.geojson"},"geometry":{"type":"Polygon","coordinates":[[[136.9603051,35.0916729],[136.9607428,35.0917619],[136.9608304,35.0917727],[136.960861,35.0917764],[136.960924,35.0917786],[136.9609276,35.0916771],[136.960959,35.0916328],[136.9609951,35.0916197],[136.9611262,35.0915985],[136.9611925,35.0915717],[136.9612857,35.0915645],[136.9614278,35.0915216],[136.9615078,35.0915171],[136.9618255,35.0916549],[136.9618318,35.0917325],[136.9619344,35.0917233],[136.9619828,35.0917189],[136.9620627,35.0912765],[136.9622599,35.0911546],[136.9623666,35.0911634],[136.9625813,35.0912667],[136.9626033,35.0911327],[136.9626481,35.0908751],[136.9625775,35.0907749],[136.9626668,35.0902981],[136.962832,35.0903625],[136.9628867,35.0904043],[136.9631927,35.0905279],[136.9632745,35.0901148],[136.9632878,35.0900468],[136.9633896,35.0895342],[136.9634019,35.089472],[136.9633883,35.0894537],[136.963105,35.0894177],[136.9630861,35.089394],[136.9627761,35.0890062],[136.9628469,35.0886757],[136.9628354,35.0886489],[136.9608343,35.0880894],[136.9607895,35.0880785],[136.9606558,35.0880686],[136.9595814,35.0879984],[136.9595306,35.0879951],[136.9592835,35.0879793],[136.9591735,35.0879816],[136.9590507,35.0879978],[136.9589364,35.0880298],[136.9588065,35.0880821],[136.9587421,35.088116],[136.9585888,35.0882135],[136.958347,35.0884456],[136.9584602,35.0886121],[136.9586051,35.0887361],[136.9586048,35.088875],[136.9585112,35.0891005],[136.9585093,35.0891914],[136.9583575,35.0892282],[136.9581208,35.0891637],[136.9580432,35.0892921],[136.9579146,35.0894838],[136.9579667,35.0895133],[136.9581464,35.0895663],[136.9582832,35.0896563],[136.9582998,35.0896877],[136.9584323,35.089938],[136.9584548,35.0899831],[136.9587272,35.0898897],[136.9588304,35.0899822],[136.9589004,35.0901412],[136.9589034,35.0902407],[136.9588727,35.0903716],[136.9589656,35.0905535],[136.9590281,35.0906945],[136.958718,35.0908125],[136.9589834,35.0912922],[136.9589382,35.0913561],[136.9590812,35.0914455],[136.9591306,35.0914734],[136.9591919,35.0914742],[136.9591562,35.091337],[136.9592339,35.0912957],[136.9595389,35.0910798],[136.9597068,35.0910946],[136.9601868,35.0912235],[136.9603232,35.0912966],[136.960399,35.0913976],[136.9603051,35.0916729]]]}}
