{"type":"Feature","id":"attraction-large-park-W134301294","properties":{"id":"attraction-large-park-W134301294","kind":"attraction","name":"都立秋留台公園","shortName":"都立秋留台公園","context":"日本","subtype":"large-park","subtypeLabel":"大型都市公園・広域公園","statusLabel":"著名な公園","aliases":["秋留台公園","Akirudai Park"],"osmType":"way","osmId":134301294,"osmDate":null,"officialAreaKm2":null,"areaSourceLabel":"","areaSourceUrl":"","boundarySourceLabel":"© OpenStreetMap contributors","boundarySourceUrl":"https://www.openstreetmap.org/copyright","geometryFile":"attractions/large-park-W134301294.geojson"},"geometry":{"type":"Polygon","coordinates":[[[139.2980995,35.7319465],[139.298664,35.7319564],[139.2995478,35.7319228],[139.3012333,35.7318588],[139.3015697,35.731821],[139.3016446,35.7314442],[139.3016252,35.7312976],[139.3016625,35.7310153],[139.3017527,35.7308648],[139.3020239,35.7293863],[139.3019937,35.7291952],[139.3020128,35.7290555],[139.3018273,35.7290539],[139.3018175,35.728759],[139.3017381,35.7287522],[139.3015953,35.7287399],[139.3014898,35.7287308],[139.3015131,35.7289278],[139.3010716,35.7288937],[139.3010606,35.7288416],[139.3007657,35.7288395],[139.3003353,35.7288225],[139.2997967,35.7293178],[139.2997884,35.7293129],[139.2997755,35.729306],[139.299329,35.729253],[139.2992862,35.7293416],[139.2992085,35.7293305],[139.29924,35.7292433],[139.2992893,35.7288741],[139.2996221,35.7289031],[139.2996103,35.7289856],[139.3000401,35.7290543],[139.3002942,35.7288191],[139.2993128,35.7288031],[139.2993547,35.7285985],[139.299068,35.7286021],[139.2989614,35.7286051],[139.2989444,35.7288052],[139.2986897,35.7288118],[139.2987007,35.7292313],[139.2989343,35.7292122],[139.298923,35.7294037],[139.2990415,35.7294081],[139.2990556,35.7296927],[139.2990564,35.7297358],[139.2986883,35.7298998],[139.2986865,35.729865],[139.2986987,35.7297679],[139.2986994,35.7295827],[139.2986663,35.7289647],[139.2986638,35.7288088],[139.2978978,35.7288213],[139.2978949,35.7288879],[139.2978637,35.7301566],[139.2978328,35.7310688],[139.2978932,35.7314124],[139.2979238,35.7316104],[139.2980531,35.731926],[139.2980995,35.7319465]]]}}
