{"type":"Feature","id":"attraction-large-park-W126784686","properties":{"id":"attraction-large-park-W126784686","kind":"attraction","name":"八幡屋公園","shortName":"八幡屋公園","context":"日本","subtype":"large-park","subtypeLabel":"大型都市公園・広域公園","statusLabel":"著名な公園","aliases":["Yahataya Park","八幡屋交通公園"],"osmType":"way","osmId":126784686,"osmDate":null,"officialAreaKm2":null,"areaSourceLabel":"","areaSourceUrl":"","boundarySourceLabel":"© OpenStreetMap contributors","boundarySourceUrl":"https://www.openstreetmap.org/copyright","geometryFile":"attractions/large-park-W126784686.geojson"},"geometry":{"type":"Polygon","coordinates":[[[135.4463908,34.6620209],[135.446516,34.6622074],[135.4457602,34.6625413],[135.4461438,34.6631077],[135.4461803,34.6631138],[135.4490407,34.6618777],[135.4490554,34.6618314],[135.4479467,34.6600773],[135.4475873,34.6596356],[135.4472215,34.6593491],[135.4471118,34.6592625],[135.4466799,34.6590419],[135.4465838,34.6589894],[135.4461214,34.6588252],[135.4459292,34.6587483],[135.4457148,34.6586695],[135.445625,34.6588264],[135.4443712,34.6583517],[135.4437197,34.6595488],[135.443538,34.6599746],[135.4435838,34.6600627],[135.4459346,34.6609782],[135.4459729,34.6609931],[135.4458743,34.6611729],[135.4458786,34.6612097],[135.4460677,34.6614262],[135.4460916,34.6614536],[135.4453246,34.6618612],[135.4453208,34.661904],[135.445609,34.6623194],[135.4458293,34.6622543],[135.4460561,34.662163],[135.4463908,34.6620209]]]}}
