{"type":"Feature","id":"attraction-large-park-W391585347","properties":{"id":"attraction-large-park-W391585347","kind":"attraction","name":"都立小山田緑地 梅木窪分園","shortName":"都立小山田緑地 梅木窪分園","context":"日本","subtype":"large-park","subtypeLabel":"大型都市公園・広域公園","statusLabel":"著名な公園","aliases":[],"osmType":"way","osmId":391585347,"osmDate":null,"officialAreaKm2":null,"areaSourceLabel":"","areaSourceUrl":"","boundarySourceLabel":"© OpenStreetMap contributors","boundarySourceUrl":"https://www.openstreetmap.org/copyright","geometryFile":"attractions/large-park-W391585347.geojson"},"geometry":{"type":"Polygon","coordinates":[[[139.4162508,35.604461],[139.4162395,35.6041288],[139.4162833,35.6038356],[139.4163871,35.6035576],[139.4164815,35.60331],[139.4165055,35.6030998],[139.4165159,35.6029883],[139.4165378,35.6024399],[139.4163535,35.6017552],[139.4164408,35.6016421],[139.4165716,35.6015488],[139.4167474,35.6014677],[139.4169338,35.6015009],[139.4171907,35.6015716],[139.417461,35.6017651],[139.4181179,35.6020627],[139.4175546,35.600586],[139.4170986,35.6003003],[139.4167714,35.5999666],[139.4165246,35.6000211],[139.4161894,35.6002371],[139.4160513,35.5999998],[139.4160928,35.5995523],[139.4160445,35.5994607],[139.4162135,35.5989176],[139.4161384,35.598802],[139.4158836,35.5987039],[139.4159218,35.5985785],[139.415498,35.5984651],[139.415315,35.5988391],[139.4148241,35.5987366],[139.4146605,35.5993058],[139.4146283,35.5999535],[139.4142938,35.6001727],[139.4141705,35.6002294],[139.4142938,35.6003516],[139.4142563,35.6005151],[139.414098,35.600646],[139.4141302,35.6007005],[139.4143609,35.6007725],[139.4144414,35.600936],[139.4145136,35.6009709],[139.4145264,35.6013231],[139.4142879,35.601478],[139.4143466,35.6017135],[139.4144862,35.6017899],[139.4146773,35.6020438],[139.4148187,35.6021933],[139.4149073,35.602418],[139.4149611,35.6025234],[139.415146,35.6028351],[139.4152294,35.6030723],[139.415411,35.6031727],[139.4158257,35.6035719],[139.415948,35.6038834],[139.416021,35.6040458],[139.4160144,35.6042499],[139.4161712,35.6044694],[139.4162027,35.6045284],[139.4162508,35.604461]]]}}
