{"type":"Feature","id":"attraction-large-park-W481773243","properties":{"id":"attraction-large-park-W481773243","kind":"attraction","name":"広島市植物公園","shortName":"広島市植物公園","context":"日本","subtype":"botanical-garden","subtypeLabel":"植物園・植物公園","statusLabel":"","aliases":["Hiroshima Botanical Garden"],"osmType":"way","osmId":481773243,"osmDate":null,"officialAreaKm2":null,"areaSourceLabel":"","areaSourceUrl":"","boundarySourceLabel":"© OpenStreetMap contributors","boundarySourceUrl":"https://www.openstreetmap.org/copyright","geometryFile":"attractions/large-park-W481773243.geojson"},"geometry":{"type":"Polygon","coordinates":[[[132.348507,34.3888288],[132.3482387,34.3887424],[132.3480403,34.3886783],[132.3479437,34.3886849],[132.347815,34.3886096],[132.347764,34.3886915],[132.3477613,34.3887956],[132.3477506,34.3889217],[132.3477425,34.3890745],[132.3477345,34.3892604],[132.3477318,34.3893777],[132.3477332,34.3894258],[132.3476916,34.3895321],[132.3476487,34.3896505],[132.3476071,34.3897457],[132.3475253,34.3898353],[132.3474019,34.3899017],[132.347241,34.3899582],[132.3470626,34.3900401],[132.346954,34.3901441],[132.3468829,34.3902625],[132.34684,34.3903488],[132.3467863,34.3904529],[132.3467381,34.3905436],[132.3466522,34.3906321],[132.3465235,34.3907362],[132.3463934,34.3908147],[132.3462794,34.390911],[132.3461493,34.3910416],[132.3460568,34.3911301],[132.3459522,34.3912253],[132.345869,34.391295],[132.3457778,34.3913382],[132.345692,34.3913537],[132.3456062,34.3913714],[132.3455699,34.3914267],[132.3455083,34.3915197],[132.3454318,34.391585],[132.345346,34.3916591],[132.3452602,34.3917399],[132.3451649,34.3918163],[132.3449986,34.3919126],[132.3448739,34.3919723],[132.3447559,34.3920288],[132.3446674,34.3920764],[132.3445802,34.3921295],[132.3445225,34.3921793],[132.3445802,34.3922092],[132.3446017,34.3922235],[132.3445386,34.3922756],[132.3444622,34.3923298],[132.344544,34.3923906],[132.3445655,34.3924194],[132.3444702,34.3924759],[132.3443348,34.3925412],[132.344257,34.3926031],[132.3441725,34.3926529],[132.344088,34.3927769],[132.3440478,34.3928776],[132.3440263,34.3929584],[132.3440129,34.3930447],[132.3440169,34.3931233],[132.344076,34.3932151],[132.3440961,34.3932605],[132.3440666,34.3933169],[132.344029,34.3933402],[132.344029,34.393401],[132.3440223,34.3934685],[132.3439968,34.3935239],[132.3439432,34.3935748],[132.3438815,34.3936046],[132.3438399,34.393629],[132.3438279,34.3936688],[132.3438346,34.3937297],[132.3438574,34.3937972],[132.3438654,34.3938459],[132.3438882,34.3938968],[132.3439016,34.3939245],[132.3439633,34.3939333],[132.3440183,34.3939278],[132.3440599,34.3939012],[132.3441014,34.3938736],[132.344143,34.3938946],[132.3441685,34.393909],[132.3441752,34.3939721],[132.3441591,34.3940097],[132.3441631,34.3941071],[132.3441658,34.3941336],[132.3442369,34.3941425],[132.3444354,34.3941447],[132.3447465,34.3940849],[132.3449718,34.3941071],[132.3451515,34.3941447],[132.3453125,34.3942044],[132.3455887,34.3942354],[132.3458891,34.3942753],[132.3463102,34.3943085],[132.346608,34.3943129],[132.3468172,34.3942753],[132.3469781,34.3942044],[132.3470827,34.3940938],[132.347198,34.3938769],[132.3473161,34.3937618],[132.3473643,34.3936511],[132.3473912,34.3935449],[132.3474394,34.3933678],[132.3474368,34.3932594],[132.3474958,34.3931399],[132.3475333,34.3930004],[132.3475923,34.3928986],[132.3476728,34.3928101],[132.3479088,34.3927282],[132.3480912,34.3926551],[132.3482441,34.3925821],[132.3484024,34.3924825],[132.3484667,34.3922966],[132.3484909,34.3920863],[132.3484694,34.3919137],[132.348397,34.3918074],[132.3483031,34.3916746],[132.3482763,34.3915684],[132.3483246,34.3913913],[132.3484024,34.3911855],[132.3484962,34.3910261],[132.3486384,34.3907362],[132.3487242,34.390579],[132.3489147,34.3903555],[132.34903,34.390185],[132.3491078,34.390039],[132.3491748,34.3899194],[132.3492929,34.3897667],[132.3494243,34.3896516],[132.349494,34.3895498],[132.3495047,34.389417],[132.3494779,34.3892311],[132.3494538,34.3890208],[132.3494431,34.3889123],[132.3494082,34.3888238],[132.3493224,34.3887286],[132.3492446,34.3886888],[132.3491695,34.3886711],[132.349038,34.3886888],[132.3489173,34.3887441],[132.3487993,34.3887906],[132.3487028,34.3888238],[132.3486223,34.3888393],[132.348507,34.3888288]]]}}
