{"type":"Feature","id":"attraction-large-park-W162931821","properties":{"id":"attraction-large-park-W162931821","kind":"attraction","name":"しながわ区民公園","shortName":"しながわ区民公園","context":"日本","subtype":"large-park","subtypeLabel":"大型都市公園・広域公園","statusLabel":"著名な公園","aliases":["Shinagawa community park"],"osmType":"way","osmId":162931821,"osmDate":null,"officialAreaKm2":null,"areaSourceLabel":"","areaSourceUrl":"","boundarySourceLabel":"© OpenStreetMap contributors","boundarySourceUrl":"https://www.openstreetmap.org/copyright","geometryFile":"attractions/large-park-W162931821.geojson"},"geometry":{"type":"Polygon","coordinates":[[[139.7375376,35.5912828],[139.7374832,35.591108],[139.7373042,35.5904976],[139.7372287,35.5904674],[139.7371352,35.5904256],[139.7370541,35.5900225],[139.7369806,35.5896384],[139.7369555,35.5894768],[139.73689,35.589128],[139.7369073,35.5880459],[139.7370253,35.5880568],[139.7392166,35.5885825],[139.738983,35.5887907],[139.738888,35.5888927],[139.7387709,35.5890272],[139.7386463,35.589183],[139.7385482,35.5893746],[139.7384495,35.5896666],[139.7383851,35.590033],[139.7383685,35.5901974],[139.7383868,35.5903834],[139.7384185,35.5905352],[139.7384844,35.5907222],[139.7385932,35.590933],[139.7387338,35.5911716],[139.73864,35.5913068],[139.7383838,35.5913262],[139.7384151,35.591473],[139.7385005,35.5914762],[139.738704,35.5915311],[139.7390136,35.5916822],[139.7392944,35.5919987],[139.739677,35.592513],[139.7401524,35.593182],[139.7412008,35.5947268],[139.7416362,35.5954152],[139.7418657,35.5959506],[139.7409232,35.5961248],[139.7409139,35.5961264],[139.7397431,35.595076],[139.7395195,35.5948423],[139.739493,35.5947949],[139.7386959,35.5933675],[139.7379169,35.5936221],[139.7378472,35.5935123],[139.7378306,35.593486],[139.7386192,35.5931716],[139.7386521,35.593113],[139.7386341,35.5930788],[139.7384271,35.5926861],[139.7380537,35.5919776],[139.7379305,35.5920004],[139.7376491,35.5914754],[139.7375376,35.5912828]]]}}
