{"type":"Feature","id":"attraction-large-park-W150742019","properties":{"id":"attraction-large-park-W150742019","kind":"attraction","name":"戸田公園","shortName":"戸田公園","context":"日本","subtype":"large-park","subtypeLabel":"大型都市公園・広域公園","statusLabel":"","aliases":[],"osmType":"way","osmId":150742019,"osmDate":null,"officialAreaKm2":null,"areaSourceLabel":"","areaSourceUrl":"","boundarySourceLabel":"© OpenStreetMap contributors","boundarySourceUrl":"https://www.openstreetmap.org/copyright","geometryFile":"attractions/large-park-W150742019.geojson"},"geometry":{"type":"Polygon","coordinates":[[[139.6539836,35.8041736],[139.6538568,35.8041925],[139.6539205,35.8049617],[139.6541261,35.8049367],[139.6542605,35.80498],[139.6543483,35.8047352],[139.6553844,35.8046552],[139.6562951,35.8045219],[139.65844,35.8042818],[139.6634898,35.8039631],[139.6706173,35.8034642],[139.6768487,35.8030045],[139.6772299,35.803248],[139.6775102,35.8032991],[139.6784784,35.8032371],[139.6810265,35.8030373],[139.6815233,35.8031808],[139.6824972,35.8010972],[139.6832219,35.7994775],[139.680936,35.7990875],[139.6799447,35.7989289],[139.6771766,35.7988941],[139.6743657,35.7991203],[139.6688296,35.8004256],[139.6643687,35.8005537],[139.654447,35.800307],[139.6539836,35.8041736]]]}}
