{"type":"Feature","id":"attraction-large-industrial-complex-W938346808","properties":{"id":"attraction-large-industrial-complex-W938346808","kind":"attraction","name":"アイシン精機豊頃試験場","shortName":"アイシン精機豊頃試験場","context":"北海道・豊頃町","subtype":"industrial-complex","subtypeLabel":"工業地帯・大規模工場","statusLabel":"","aliases":["Aisin Toyokoro Proving Ground","エフティテクノ株式会社"],"osmType":"way","osmId":938346808,"osmDate":null,"officialAreaKm2":null,"areaSourceLabel":"","areaSourceUrl":"","boundarySourceLabel":"© OpenStreetMap contributors","boundarySourceUrl":"https://www.openstreetmap.org/copyright","geometryFile":"attractions/large-industrial-complex-W938346808.geojson"},"geometry":{"type":"Polygon","coordinates":[[[143.4753513,42.6800062],[143.4793103,42.684557],[143.4813166,42.6854876],[143.4844386,42.6860397],[143.4852326,42.6861974],[143.4857154,42.6863709],[143.4863269,42.6866233],[143.4872389,42.6871911],[143.4875071,42.687475],[143.4878397,42.6878535],[143.4883547,42.6878141],[143.4883547,42.6889813],[143.4896636,42.6898014],[143.4915841,42.6893046],[143.4928179,42.6880192],[143.4934831,42.6869387],[143.4956717,42.6870018],[143.4961653,42.6867495],[143.4973669,42.6858898],[143.498708,42.6857794],[143.4988689,42.6857005],[143.4999418,42.6815678],[143.4999633,42.6796039],[143.5013151,42.6791307],[143.502152,42.6775847],[143.5038471,42.6766934],[143.5038364,42.6760072],[143.5048985,42.6753525],[143.5050595,42.6746189],[143.5045445,42.6742324],[143.5047698,42.6732069],[143.5066259,42.672781],[143.506819,42.6713847],[143.507334,42.671085],[143.5077631,42.6711086],[143.5100162,42.669807],[143.5114646,42.6672747],[143.5090399,42.6664109],[143.5083586,42.6655746],[143.5086107,42.665334],[143.5095763,42.665902],[143.5102308,42.6657206],[143.5107565,42.6648922],[143.5111427,42.6647897],[143.5113895,42.6649396],[143.512119,42.6648212],[143.5120654,42.6643163],[143.5133099,42.6642532],[143.5150587,42.6631171],[143.5155201,42.6635747],[143.5176229,42.6618627],[143.5167968,42.6613183],[143.5164857,42.6613262],[143.5161853,42.6615865],[143.51596,42.6615629],[143.5158849,42.6613656],[143.5152733,42.6614524],[143.5152411,42.6610264],[143.5161102,42.6603715],[143.5162711,42.6601348],[143.516475,42.6600007],[143.5169577,42.6598824],[143.5171616,42.6593853],[143.5166037,42.6592748],[143.5166144,42.6591644],[143.5172474,42.6588567],[143.5173011,42.6586042],[143.5170329,42.6582255],[143.5167324,42.6578941],[143.5163677,42.6576416],[143.515799,42.6584306],[143.5155523,42.6584227],[143.5154343,42.6585726],[143.5155308,42.6588409],[143.5154021,42.6590539],[143.515048,42.6593301],[143.5149085,42.6595983],[143.5143936,42.6601348],[143.5144257,42.6603873],[143.5143614,42.6604899],[143.5140717,42.6605057],[143.5139215,42.6606082],[143.5138571,42.6609238],[143.5137176,42.6609001],[143.5136425,42.6607502],[143.513664,42.6604741],[143.5135674,42.6601664],[143.5135889,42.6599928],[143.5138035,42.6597798],[143.5139751,42.659693],[143.5140502,42.6592906],[143.5143828,42.6590381],[143.5143936,42.6588172],[143.5140824,42.6583123],[143.5140931,42.6581466],[143.5142326,42.6580519],[143.5145438,42.6579256],[143.5147798,42.6577481],[143.5148442,42.6575824],[143.5147744,42.6574798],[143.5150427,42.6571485],[143.5150212,42.6570262],[143.5152948,42.6568644],[143.5154343,42.6566987],[143.5154718,42.656462],[143.5153538,42.6562963],[143.5152894,42.6559925],[143.5150588,42.6558781],[143.5147422,42.6554836],[143.5142434,42.6556256],[143.5139805,42.6557795],[143.513723,42.6558623],[143.5135567,42.6560241],[143.5134494,42.6562845],[143.5133851,42.6565291],[143.513208,42.6567855],[143.5129774,42.6568605],[143.512736,42.6565922],[143.5126984,42.6564225],[143.5127574,42.6563042],[143.5127628,42.6559807],[143.5129505,42.6557795],[143.5129934,42.6556572],[143.5129452,42.6555033],[143.5129613,42.6552706],[143.5128915,42.6548445],[143.5133851,42.6546985],[143.5135835,42.6544776],[143.5136694,42.654304],[143.5136533,42.6541698],[143.5133582,42.6537161],[143.5132992,42.6535267],[143.5132778,42.6534044],[143.5131919,42.6533019],[143.5129023,42.6531795],[143.5127252,42.6531559],[143.5125643,42.6531835],[143.5124302,42.6532979],[143.5122853,42.6536017],[143.511883,42.6540515],[143.5118455,42.6542211],[143.5114914,42.6542645],[143.5114592,42.6541343],[143.5116041,42.6538937],[143.5116523,42.6537043],[143.5116792,42.6534597],[143.5119259,42.6533531],[143.5119688,42.6532466],[143.5118723,42.6529428],[143.5120064,42.6527574],[143.512119,42.6527022],[143.5122102,42.6525996],[143.5123175,42.6523116],[143.5118079,42.6524891],[143.5116416,42.6522287],[143.5118991,42.6520433],[143.5119528,42.6518776],[143.511942,42.6515777],[143.5118133,42.6514515],[143.5115772,42.6514278],[143.5115343,42.6513725],[143.5115504,42.6513094],[143.5116309,42.6511989],[143.5116202,42.6511555],[143.511529,42.6511043],[143.5111964,42.6511121],[143.5111052,42.651053],[143.511073,42.6509583],[143.5111213,42.650832],[143.5110676,42.6506466],[143.5109228,42.6504493],[143.510617,42.6500942],[143.5102254,42.6497233],[143.5093456,42.6495537],[143.5090613,42.6496839],[143.5085463,42.6490092],[143.5080743,42.6484094],[143.5077792,42.6483976],[143.5056281,42.6499522],[143.505376,42.6500745],[143.5049736,42.6500232],[143.504346,42.6505874],[143.5050487,42.6510648],[143.5054564,42.6510766],[143.5056764,42.6509543],[143.5062128,42.6509385],[143.5063147,42.6509543],[143.5063523,42.6510332],[143.5063147,42.6511911],[143.5061377,42.6513607],[143.5060948,42.651483],[143.5062987,42.6517829],[143.5065669,42.6519091],[143.506819,42.6520827],[143.5069692,42.652572],[143.5071945,42.6527574],[143.5074466,42.6528836],[143.5075003,42.6529704],[143.5075325,42.653144],[143.5075325,42.6533729],[143.507747,42.6538226],[143.5076666,42.6539292],[143.5069156,42.6539805],[143.5062611,42.654304],[143.5060841,42.6537279],[143.505376,42.6529507],[143.5050756,42.6528324],[143.5047162,42.6526785],[143.5043567,42.6526509],[143.5042655,42.6527022],[143.5041851,42.652789],[143.5036808,42.6530178],[143.5027796,42.6531717],[143.5026455,42.6531361],[143.5023129,42.6526903],[143.5021466,42.6525641],[143.501932,42.6525641],[143.501755,42.6526232],[143.5016853,42.6526824],[143.5016102,42.6529626],[143.5012668,42.6531361],[143.5013044,42.6532269],[143.5017174,42.6534163],[143.5021681,42.6535228],[143.5029083,42.6540909],[143.5031766,42.6544894],[143.5035306,42.6546196],[143.5036325,42.6549944],[143.5037291,42.6551956],[143.50411,42.655523],[143.5036808,42.6558505],[143.5029405,42.6553534],[143.50308,42.6557361],[143.5035253,42.6562726],[143.5028976,42.6565488],[143.5023719,42.6565606],[143.5020822,42.6563318],[143.5021788,42.6558544],[143.5015029,42.6552311],[143.5012078,42.6554954],[143.5006499,42.6552548],[143.5000491,42.6549076],[143.4993249,42.6550654],[143.5000116,42.6552114],[143.5005695,42.6555822],[143.5003334,42.6559649],[143.4998238,42.6558229],[143.4996092,42.6561267],[143.4992176,42.6562411],[143.4988689,42.6561779],[143.498472,42.6560438],[143.4979087,42.6561148],[143.4967714,42.6563673],[143.4963638,42.6563279],[143.4963691,42.6565527],[143.4969646,42.6565646],[143.4969377,42.6566553],[143.4968036,42.6567816],[143.4965676,42.6568052],[143.4957683,42.6568052],[143.4957576,42.6570459],[143.4952694,42.6574483],[143.4948295,42.6586989],[143.4947169,42.6587738],[143.4951514,42.6609435],[143.4953016,42.6609633],[143.4955376,42.6628094],[143.4951675,42.6627305],[143.4948939,42.6626832],[143.4943628,42.6627029],[143.4940839,42.662486],[143.493644,42.6623834],[143.4935206,42.6627463],[143.4938103,42.663271],[143.4937996,42.6636457],[143.4939015,42.6637009],[143.4927374,42.6649553],[143.4923136,42.6647305],[143.4921956,42.6647147],[143.4899479,42.6651683],[143.4885156,42.6666042],[143.4869009,42.6681346],[143.4852487,42.6692469],[143.484503,42.6698938],[143.484149,42.6700831],[143.4826791,42.6706511],[143.4825236,42.6707852],[143.481161,42.6718462],[143.4810001,42.6720671],[143.4803081,42.6733726],[143.481102,42.6742008],[143.4807908,42.6745637],[143.4797287,42.6742521],[143.4794229,42.6745716],[143.4789455,42.6754313],[143.4770304,42.6778608],[143.4775025,42.6783064],[143.4768641,42.6787994],[143.4762204,42.6785509],[143.4758717,42.6787797],[143.4753513,42.6800062]]]}}
