{"type":"Feature","id":"attraction-large-park-W432534848","properties":{"id":"attraction-large-park-W432534848","kind":"attraction","name":"三木山総合公園","shortName":"三木山総合公園","context":"日本","subtype":"large-park","subtypeLabel":"大型都市公園・広域公園","statusLabel":"著名な公園","aliases":[],"osmType":"way","osmId":432534848,"osmDate":null,"officialAreaKm2":null,"areaSourceLabel":"","areaSourceUrl":"","boundarySourceLabel":"© OpenStreetMap contributors","boundarySourceUrl":"https://www.openstreetmap.org/copyright","geometryFile":"attractions/large-park-W432534848.geojson"},"geometry":{"type":"Polygon","coordinates":[[[134.9929886,34.794676],[134.9930985,34.7946111],[134.9932528,34.7944888],[134.9936511,34.7939139],[134.993761,34.7936419],[134.9940386,34.7932014],[134.9945053,34.7926],[134.9946944,34.7926088],[134.9948634,34.7925031],[134.9956064,34.7914051],[134.9962126,34.790666],[134.9965961,34.7899832],[134.996863,34.7893818],[134.9968416,34.7887133],[134.9950284,34.7875888],[134.9946931,34.7877297],[134.9943444,34.7878883],[134.9939635,34.7881571],[134.9936658,34.7884236],[134.9934003,34.7886307],[134.9930328,34.7887717],[134.992778,34.7887761],[134.9926439,34.7888598],[134.9923824,34.7893158],[134.9922456,34.7896131],[134.9921705,34.7899149],[134.992031,34.7901506],[134.9919304,34.7903863],[134.9919264,34.7905086],[134.9916461,34.7910647],[134.9913001,34.7915273],[134.9909112,34.7918401],[134.9906845,34.7920571],[134.9905531,34.792295],[134.990541,34.7926243],[134.9905826,34.7927939],[134.9907878,34.793197],[134.9908629,34.7932873],[134.9913645,34.7933754],[134.9917427,34.7934976],[134.9919948,34.7936177],[134.992428,34.7939349],[134.9928223,34.7943655],[134.9929,34.7946221],[134.9929886,34.794676]]]}}
