{"type":"Feature","id":"attraction-large-park-W160359891","properties":{"id":"attraction-large-park-W160359891","kind":"attraction","name":"山形県総合運動公園","shortName":"山形県総合運動公園","context":"日本","subtype":"large-park","subtypeLabel":"大型都市公園・広域公園","statusLabel":"","aliases":[],"osmType":"way","osmId":160359891,"osmDate":null,"officialAreaKm2":null,"areaSourceLabel":"","areaSourceUrl":"","boundarySourceLabel":"© OpenStreetMap contributors","boundarySourceUrl":"https://www.openstreetmap.org/copyright","geometryFile":"attractions/large-park-W160359891.geojson"},"geometry":{"type":"Polygon","coordinates":[[[140.3733506,38.3410128],[140.3752002,38.3399184],[140.3757939,38.3405601],[140.3763729,38.3411384],[140.3829854,38.3375505],[140.3830266,38.3375162],[140.3830234,38.3374624],[140.3810377,38.3337335],[140.3809948,38.3336957],[140.3809336,38.3336797],[140.3806502,38.3337348],[140.380242,38.3338362],[140.3798325,38.3339261],[140.3793132,38.3340336],[140.3789365,38.3340972],[140.3786036,38.3341454],[140.3782656,38.3341866],[140.3779219,38.3342247],[140.3774706,38.3342543],[140.3768324,38.3342667],[140.376436,38.3342632],[140.3759808,38.3342526],[140.375435,38.3342415],[140.375105,38.3342386],[140.3747759,38.334236],[140.374283,38.3342483],[140.3739611,38.3342655],[140.3736363,38.3342922],[140.3733545,38.3343211],[140.3730495,38.334357],[140.3726657,38.3344108],[140.3723639,38.3344602],[140.3735872,38.3380827],[140.3735282,38.3381169],[140.3742104,38.3389032],[140.3726258,38.3398115],[140.3730391,38.3405269],[140.3733506,38.3410128]]]}}
