{"type":"Feature","id":"attraction-large-park-W390008424","properties":{"id":"attraction-large-park-W390008424","kind":"attraction","name":"紀三井寺公園","shortName":"紀三井寺公園","context":"日本","subtype":"large-park","subtypeLabel":"大型都市公園・広域公園","statusLabel":"著名な公園","aliases":[],"osmType":"way","osmId":390008424,"osmDate":null,"officialAreaKm2":null,"areaSourceLabel":"","areaSourceUrl":"","boundarySourceLabel":"© OpenStreetMap contributors","boundarySourceUrl":"https://www.openstreetmap.org/copyright","geometryFile":"attractions/large-park-W390008424.geojson"},"geometry":{"type":"Polygon","coordinates":[[[135.1889031,34.1641748],[135.1912337,34.1650333],[135.1913922,34.1651136],[135.1931531,34.1662432],[135.1930056,34.1664562],[135.192948,34.1665831],[135.192904,34.1667322],[135.192796,34.1675504],[135.1926957,34.1684578],[135.1914273,34.1684046],[135.1914267,34.1683918],[135.1912605,34.1683832],[135.1908722,34.1683619],[135.1896902,34.16826],[135.1885516,34.1682288],[135.1886867,34.166395],[135.1887872,34.1648768],[135.1889031,34.1641748]]]}}
