{"type":"Feature","id":"attraction-national-park-W979504733","properties":{"id":"attraction-national-park-W979504733","kind":"attraction","name":"吉野熊野国立公園","shortName":"吉野熊野国立公園","context":"三重県・奈良県・和歌山県","subtype":"national-park","subtypeLabel":"国立公園・大規模自然","statusLabel":"環境省指定国立公園／陸域・海域を含む区域","aliases":[],"osmType":"composite","osmId":null,"osmDate":null,"officialAreaKm2":960.52,"areaSourceLabel":"環境省「吉野熊野国立公園」陸域・海域面積","areaSourceUrl":"https://www.env.go.jp/park/yoshino/intro/index.html","eventSourceLabel":"環境省「国立公園一覧」","eventSourceUrl":"https://www.env.go.jp/park/parks/","boundarySourceLabel":"Protected Planet / WDPA（環境省提供データ）","boundarySourceUrl":"https://www.protectedplanet.net/en/thematic-areas/wdpa","geometryFile":"attractions/national-park-W979504733.geojson"},"geometry":{"type":"MultiPolygon","coordinates":[[[[135.926582,34.278384],[135.933241,34.277473],[135.935325,34.277947],[135.938649,34.274997],[135.943107,34.274391],[135.953198,34.276984],[135.959651,34.274425],[135.962182,34.274078],[135.965803,34.274884],[135.958056,34.268189],[135.960165,34.265871],[135.964272,34.267642],[135.965719,34.259324],[135.973218,34.256635],[135.970261,34.249108],[135.970787,34.245451],[135.969644,34.243246],[135.976676,34.244125],[135.986248,34.243696],[135.994424,34.245774],[135.998305,34.248688],[135.999736,34.248516],[136.000528,34.245913],[136.014076,34.243455],[136.01858,34.237356],[136.022615,34.234961],[136.024707,34.234611],[136.03085,34.236536],[136.035723,34.232454],[136.039746,34.231341],[136.041024,34.22984],[136.041423,34.228058],[136.040829,34.226771],[136.042025,34.221837],[136.044904,34.219479],[136.047938,34.218266],[136.048059,34.216894],[136.052749,34.215008],[136.057786,34.211064],[136.058385,34.211847],[136.061024,34.211822],[136.063546,34.212803],[136.065286,34.215105],[136.069897,34.216103],[136.07323,34.218692],[136.072754,34.222991],[136.075931,34.224573],[136.076458,34.227323],[136.07853,34.229399],[136.0789,34.231279],[136.084684,34.23668],[136.095494,34.23269],[136.09744,34.230187],[136.1026,34.231235],[136.108897,34.227896],[136.110536,34.229099],[136.113453,34.228801],[136.11581,34.229735],[136.117588,34.234189],[136.120919,34.237007],[136.12271,34.239859],[136.130052,34.243029],[136.130349,34.247014],[136.129288,34.249019],[136.131298,34.251965],[136.127982,34.253953],[136.127302,34.25642],[136.125034,34.258096],[136.11792,34.260558],[136.118652,34.265095],[136.125601,34.269223],[136.131101,34.269129],[136.133678,34.270019],[136.135607,34.269485],[136.140326,34.270757],[136.141788,34.273424],[136.144912,34.274638],[136.144949,34.276836],[136.147731,34.279558],[136.150091,34.280126],[136.155381,34.278793],[136.161621,34.282229],[136.169375,34.282197],[136.171706,34.27956],[136.174246,34.278344],[136.175692,34.276341],[136.180225,34.273401],[136.185229,34.273303],[136.190192,34.271648],[136.192865,34.267503],[136.200181,34.267194],[136.205337,34.262198],[136.214994,34.257971],[136.212166,34.254149],[136.212301,34.251175],[136.214751,34.247395],[136.216794,34.246495],[136.217307,34.244256],[136.217677,34.239361],[136.21339,34.232462],[136.205391,34.228966],[136.205134,34.226767],[136.205757,34.224575],[136.20742,34.22294],[136.207271,34.221016],[136.204763,34.218387],[136.200353,34.219772],[136.198156,34.219526],[136.197266,34.220664],[136.196498,34.220475],[136.194798,34.219912],[136.191142,34.216543],[136.188178,34.209242],[136.189529,34.205453],[136.188938,34.2038],[136.189718,34.202616],[136.189521,34.199777],[136.190746,34.197955],[136.190651,34.196124],[136.191982,34.194852],[136.191497,34.193658],[136.187542,34.193033],[136.186077,34.190687],[136.181456,34.190925],[136.176793,34.189653],[136.174921,34.189959],[136.170871,34.187593],[136.16071,34.186186],[136.158359,34.184611],[136.155004,34.184676],[136.152791,34.186261],[136.149787,34.183766],[136.14818,34.178718],[136.145664,34.177005],[136.145917,34.17307],[136.145318,34.172333],[136.146268,34.170509],[136.144562,34.170634],[136.144189,34.169257],[136.141887,34.168324],[136.141568,34.166994],[136.138864,34.168163],[136.136233,34.167135],[136.13493,34.165157],[136.131965,34.164584],[136.128545,34.165931],[136.127139,34.169582],[136.121265,34.168392],[136.119915,34.165497],[136.116657,34.167074],[136.113359,34.166911],[136.111263,34.167764],[136.111818,34.167128],[136.110684,34.164601],[136.113113,34.163521],[136.114298,34.159777],[136.111189,34.156823],[136.110164,34.154389],[136.106707,34.153492],[136.105234,34.152107],[136.105865,34.148908],[136.103222,34.149391],[136.099956,34.152066],[136.09803,34.152189],[136.094243,34.151289],[136.092001,34.149807],[136.09141,34.1482],[136.086859,34.146609],[136.083564,34.146034],[136.078547,34.147642],[136.079636,34.148887],[136.074187,34.149576],[136.07232,34.149242],[136.068058,34.146049],[136.063337,34.145005],[136.061512,34.146273],[136.063074,34.150222],[136.062451,34.152369],[136.065718,34.163015],[136.067358,34.164126],[136.065022,34.167312],[136.065167,34.169694],[136.064327,34.17161],[136.063179,34.170731],[136.058728,34.17033],[136.056681,34.171871],[136.054102,34.171164],[136.052658,34.172847],[136.044587,34.171411],[136.042726,34.169984],[136.037187,34.168469],[136.032328,34.170903],[136.02541,34.176251],[136.020242,34.182711],[136.014042,34.187653],[136.012513,34.18645],[136.006456,34.187319],[136.001861,34.184353],[135.998446,34.185013],[135.997391,34.186241],[135.989149,34.185444],[135.987836,34.184564],[135.987355,34.182912],[135.984231,34.18156],[135.979562,34.180929],[135.977495,34.178166],[135.972945,34.176482],[135.967939,34.176672],[135.966403,34.176157],[135.964878,34.174359],[135.957999,34.174947],[135.954051,34.173634],[135.954778,34.172083],[135.953698,34.163149],[135.955308,34.161239],[135.958561,34.160257],[135.96489,34.153028],[135.964631,34.151103],[135.961855,34.147694],[135.961564,34.142977],[135.971139,34.142182],[135.976437,34.13998],[135.977268,34.139208],[135.977509,34.136646],[135.981993,34.133202],[135.98392,34.132805],[135.985917,34.130761],[135.98616,34.128016],[135.988695,34.127258],[135.989371,34.125432],[135.988286,34.123547],[135.990104,34.123149],[135.991278,34.12087],[135.990741,34.119355],[135.987348,34.11736],[135.987962,34.116312],[135.986834,34.113145],[135.985302,34.112172],[135.984982,34.110979],[135.981151,34.108844],[135.980631,34.105315],[135.977201,34.101215],[135.973471,34.100087],[135.97027,34.101435],[135.96697,34.101456],[135.96705,34.098526],[135.969061,34.094651],[135.96652,34.089459],[135.967205,34.086397],[135.969424,34.084125],[135.968414,34.07986],[135.968352,34.074138],[135.970467,34.071041],[135.968014,34.068504],[135.968191,34.067132],[135.970918,34.063125],[135.980396,34.060727],[135.982842,34.057542],[135.985962,34.052623],[135.984605,34.050506],[135.984085,34.046932],[135.986304,34.044568],[135.984455,34.042082],[135.987835,34.038996],[135.990985,34.037052],[135.992081,34.037518],[135.993409,34.036567],[135.998236,34.03807],[135.999459,34.036477],[136.009045,34.040901],[136.01207,34.040879],[136.013356,34.038371],[136.017506,34.035245],[136.016585,34.028387],[136.01562,34.027628],[136.01467,34.024249],[136.010985,34.02128],[136.00726,34.019488],[136.007616,34.018435],[136.006362,34.015107],[136.008244,34.014241],[136.009801,34.012065],[136.010357,34.008039],[136.009145,34.005133],[136.007134,34.003158],[136.005743,33.99819],[136.004008,33.997462],[136.005265,33.995014],[136.00504,33.991796],[136.013132,33.989412],[136.014651,33.988371],[136.016124,33.985136],[136.018528,33.983636],[136.016397,33.976834],[136.021061,33.97399],[136.02185,33.970841],[136.02114,33.970044],[136.019119,33.970551],[136.015054,33.968339],[136.015176,33.964691],[136.008234,33.963052],[136.004449,33.960961],[136.003276,33.957101],[136.008486,33.955298],[136.009235,33.953949],[136.007974,33.952525],[136.006223,33.952934],[136.004124,33.951996],[136.003319,33.952962],[136.001923,33.952482],[135.999501,33.953952],[135.992247,33.952659],[135.989734,33.953589],[135.988279,33.955335],[135.987283,33.958923],[135.983935,33.960847],[135.981259,33.957462],[135.980161,33.954093],[135.981421,33.950859],[135.983723,33.950592],[135.980963,33.948622],[135.980879,33.946822],[135.98203,33.945319],[135.982156,33.940897],[135.982774,33.94042],[135.981069,33.939551],[135.979821,33.937652],[135.974836,33.935406],[135.971078,33.92837],[135.967422,33.925135],[135.962298,33.927123],[135.958155,33.924822],[135.956781,33.927007],[135.949447,33.928552],[135.945902,33.934329],[135.942322,33.936903],[135.933707,33.936827],[135.934527,33.934127],[135.933022,33.933567],[135.938378,33.934441],[135.939173,33.933851],[135.937076,33.931752],[135.935469,33.931227],[135.937318,33.93042],[135.936648,33.928797],[135.934601,33.927145],[135.938699,33.92413],[135.938777,33.923003],[135.942952,33.918457],[135.941276,33.916203],[135.935728,33.915245],[135.931792,33.915443],[135.9281,33.914036],[135.928156,33.90934],[135.925896,33.907176],[135.925976,33.904417],[135.919786,33.906481],[135.919543,33.90846],[135.918135,33.909376],[135.917159,33.915229],[135.915003,33.916784],[135.911117,33.916278],[135.911774,33.916916],[135.910658,33.916962],[135.909162,33.916259],[135.9062,33.912068],[135.906684,33.906587],[135.905567,33.902216],[135.906356,33.899735],[135.909469,33.898142],[135.910594,33.895742],[135.916435,33.891375],[135.917281,33.88851],[135.91641,33.887394],[135.911542,33.885634],[135.908874,33.885859],[135.905625,33.88198],[135.905459,33.878077],[135.903255,33.877927],[135.902461,33.877],[135.902768,33.874807],[135.907306,33.867965],[135.904455,33.862854],[135.902917,33.86192],[135.901681,33.864077],[135.89067,33.865952],[135.886277,33.868608],[135.882762,33.868843],[135.881008,33.866602],[135.88168,33.860684],[135.885201,33.857407],[135.887968,33.857105],[135.890728,33.853845],[135.886641,33.85278],[135.881141,33.854898],[135.876858,33.858275],[135.86709,33.860037],[135.862471,33.862727],[135.861757,33.862303],[135.8622,33.859864],[135.861039,33.857704],[135.86117,33.856213],[135.862889,33.85374],[135.862843,33.85148],[135.858918,33.842494],[135.863475,33.839864],[135.869191,33.833138],[135.870615,33.832853],[135.871741,33.831458],[135.870689,33.829575],[135.870166,33.823355],[135.867814,33.815989],[135.871242,33.81431],[135.871954,33.812307],[135.871187,33.810842],[135.872364,33.810522],[135.87221,33.809685],[135.875316,33.809793],[135.877471,33.813627],[135.881925,33.816589],[135.883274,33.816745],[135.886537,33.813342],[135.890378,33.813459],[135.89134,33.811986],[135.895328,33.812114],[135.897057,33.811168],[135.899654,33.811478],[135.90311,33.809433],[135.915674,33.813238],[135.924218,33.811216],[135.922962,33.809472],[135.923751,33.808417],[135.923938,33.804229],[135.924906,33.80312],[135.92673,33.80283],[135.926971,33.801059],[135.932145,33.79132],[135.928561,33.78797],[135.923888,33.789131],[135.921459,33.790857],[135.915805,33.787522],[135.913468,33.787774],[135.912624,33.781059],[135.914402,33.77721],[135.912618,33.774893],[135.912109,33.772836],[135.913615,33.769309],[135.915187,33.76817],[135.921514,33.770921],[135.923205,33.768281],[135.922616,33.765493],[135.923387,33.763579],[135.927373,33.761474],[135.930452,33.768927],[135.932527,33.768544],[135.934685,33.771206],[135.936015,33.769877],[135.938323,33.771151],[135.937318,33.769341],[135.93822,33.766962],[135.936911,33.763544],[135.938083,33.757943],[135.93888,33.758833],[135.94016,33.757666],[135.941601,33.759774],[135.941932,33.76251],[135.94418,33.764671],[135.948841,33.765498],[135.951073,33.768324],[135.955989,33.769021],[135.957112,33.762537],[135.952884,33.757419],[135.954616,33.751327],[135.95408,33.749238],[135.952774,33.748602],[135.952187,33.746798],[135.954025,33.745711],[135.953879,33.743945],[135.955763,33.742329],[135.958489,33.742263],[135.96259,33.740761],[135.964103,33.742036],[135.966696,33.741817],[135.969342,33.738049],[135.971923,33.736107],[135.973609,33.736607],[135.97559,33.732645],[135.976732,33.734275],[135.978068,33.734138],[135.977187,33.73314],[135.978125,33.732938],[135.978746,33.733848],[135.981318,33.733593],[135.981998,33.732898],[135.981324,33.731409],[135.983139,33.731285],[135.984549,33.72955],[135.983162,33.727447],[135.984098,33.724258],[135.98315,33.721694],[135.975833,33.719876],[135.974819,33.715759],[135.972964,33.716285],[135.970638,33.718427],[135.968906,33.718363],[135.968649,33.721771],[135.96698,33.722886],[135.965005,33.722114],[135.960718,33.717895],[135.959849,33.715678],[135.959324,33.715844],[135.957309,33.719462],[135.955393,33.720115],[135.953301,33.722372],[135.952675,33.724526],[135.947989,33.728068],[135.949253,33.728566],[135.94774,33.72946],[135.944448,33.728843],[135.943718,33.727672],[135.940814,33.726423],[135.936736,33.732193],[135.936607,33.733694],[135.938141,33.735294],[135.936505,33.740116],[135.938065,33.742242],[135.937504,33.744081],[135.931728,33.74754],[135.928273,33.744863],[135.923391,33.745495],[135.923092,33.746758],[135.919018,33.748892],[135.919266,33.751099],[135.917761,33.752485],[135.917037,33.757072],[135.914145,33.761955],[135.91273,33.762355],[135.908526,33.761013],[135.907123,33.759466],[135.90582,33.759415],[135.902558,33.757083],[135.901395,33.754992],[135.896606,33.752132],[135.891173,33.753354],[135.887238,33.757385],[135.882327,33.758147],[135.882235,33.760067],[135.883555,33.762709],[135.883334,33.765624],[135.882154,33.767388],[135.884899,33.769682],[135.885042,33.773365],[135.883916,33.775218],[135.883586,33.778345],[135.881868,33.779242],[135.885482,33.785582],[135.888122,33.783375],[135.888093,33.78962],[135.886212,33.791575],[135.882679,33.789459],[135.879697,33.793814],[135.875662,33.7966],[135.875176,33.799729],[135.871161,33.801045],[135.86665,33.804123],[135.865416,33.804107],[135.861685,33.80146],[135.859773,33.80112],[135.858363,33.802136],[135.856908,33.805306],[135.857705,33.807211],[135.857269,33.808169],[135.859061,33.810464],[135.85878,33.812002],[135.856372,33.8143],[135.855905,33.816105],[135.852268,33.818259],[135.845965,33.817201],[135.849262,33.822716],[135.853043,33.824394],[135.855449,33.824357],[135.85575,33.825157],[135.854766,33.825863],[135.846319,33.82708],[135.843539,33.824451],[135.839424,33.823091],[135.838283,33.81905],[135.836661,33.817175],[135.835726,33.817931],[135.83643,33.820649],[135.834897,33.824151],[135.835934,33.826967],[135.83297,33.829495],[135.831327,33.829463],[135.829675,33.831015],[135.826261,33.832378],[135.822191,33.832508],[135.815083,33.828878],[135.819217,33.820269],[135.813552,33.823919],[135.812154,33.825858],[135.808646,33.824661],[135.803819,33.824305],[135.801286,33.820091],[135.797147,33.820455],[135.794025,33.819147],[135.788586,33.819806],[135.787414,33.817506],[135.787263,33.814118],[135.782256,33.810794],[135.780138,33.810537],[135.774465,33.805206],[135.7695,33.811894],[135.768049,33.811026],[135.763478,33.812857],[135.759572,33.812504],[135.759245,33.815022],[135.757155,33.818301],[135.757238,33.821088],[135.756123,33.824373],[135.755024,33.824509],[135.75447,33.82987],[135.753675,33.831027],[135.754719,33.832024],[135.754626,33.835209],[135.755606,33.836604],[135.753841,33.840837],[135.754901,33.843092],[135.754499,33.843892],[135.756172,33.843661],[135.759586,33.846092],[135.768709,33.849052],[135.772226,33.845425],[135.776357,33.845614],[135.781126,33.84732],[135.782794,33.844657],[135.784111,33.843913],[135.784866,33.844257],[135.787337,33.851807],[135.789608,33.853633],[135.791238,33.853703],[135.792891,33.851091],[135.796273,33.849923],[135.79848,33.850118],[135.802636,33.845783],[135.804548,33.844717],[135.806614,33.844665],[135.811317,33.849148],[135.810456,33.850743],[135.811215,33.856534],[135.819616,33.859259],[135.821705,33.86133],[135.825917,33.863383],[135.828697,33.861304],[135.831271,33.86095],[135.832137,33.859112],[135.834457,33.85719],[135.83732,33.856156],[135.838743,33.854462],[135.842125,33.85277],[135.843004,33.850832],[135.852619,33.846156],[135.855092,33.849308],[135.856747,33.850025],[135.85678,33.850863],[135.84772,33.856792],[135.841743,33.862617],[135.851004,33.86401],[135.853418,33.865453],[135.85238,33.866692],[135.853759,33.871072],[135.851335,33.872838],[135.853542,33.875727],[135.85239,33.882142],[135.853224,33.882531],[135.855331,33.887664],[135.852742,33.889623],[135.851866,33.8916],[135.853431,33.894919],[135.856579,33.897134],[135.857972,33.897061],[135.860152,33.891646],[135.859734,33.889128],[135.861342,33.887094],[135.86452,33.889087],[135.871441,33.888731],[135.872497,33.886748],[135.876748,33.887858],[135.877732,33.890828],[135.880783,33.89191],[135.881209,33.892876],[135.879483,33.893202],[135.877858,33.894703],[135.877197,33.89718],[135.87425,33.899356],[135.874815,33.900349],[135.873848,33.902796],[135.872389,33.902748],[135.871442,33.905069],[135.870206,33.905788],[135.873617,33.909323],[135.873351,33.911155],[135.879502,33.911743],[135.88037,33.912002],[135.880007,33.913006],[135.887105,33.9122],[135.889253,33.913727],[135.888714,33.920284],[135.890869,33.926689],[135.892846,33.926407],[135.895589,33.924497],[135.898712,33.924192],[135.899816,33.924772],[135.902791,33.924067],[135.905457,33.925625],[135.908373,33.931288],[135.90733,33.936116],[135.907669,33.944495],[135.908979,33.942639],[135.912014,33.940991],[135.918534,33.941105],[135.921503,33.93953],[135.923804,33.939963],[135.925592,33.941365],[135.927592,33.946201],[135.930246,33.945038],[135.93221,33.942095],[135.934568,33.942517],[135.934983,33.94142],[135.937102,33.940243],[135.942803,33.943799],[135.947032,33.945141],[135.950247,33.945078],[135.952539,33.941669],[135.953131,33.938113],[135.95375,33.938015],[135.959753,33.939655],[135.961837,33.941632],[135.964661,33.94073],[135.967187,33.941133],[135.968498,33.942532],[135.971204,33.943288],[135.974872,33.942521],[135.976372,33.948212],[135.975515,33.954965],[135.97328,33.95921],[135.966477,33.964094],[135.96459,33.966582],[135.965671,33.97039],[135.969296,33.968573],[135.977071,33.968093],[135.978388,33.969167],[135.979268,33.971654],[135.981601,33.973384],[135.988244,33.971595],[135.993383,33.975657],[135.992746,33.976945],[135.994464,33.979056],[135.992552,33.984036],[135.993783,33.986971],[135.99195,33.989845],[135.988585,33.989958],[135.98489,33.991622],[135.984801,33.994486],[135.98874,33.998308],[135.989341,34.002237],[135.989994,34.002674],[135.989654,34.005363],[135.992429,34.00891],[135.993614,34.011895],[135.993599,34.013726],[135.991817,34.016367],[135.990784,34.021531],[135.98692,34.023378],[135.98516,34.023319],[135.982368,34.021832],[135.980307,34.018382],[135.972531,34.014613],[135.963769,34.016834],[135.962657,34.018382],[135.962799,34.021175],[135.961226,34.025146],[135.961419,34.028397],[135.955582,34.029313],[135.94921,34.028531],[135.945952,34.030107],[135.953174,34.034559],[135.954135,34.038045],[135.951035,34.040493],[135.950306,34.042227],[135.946979,34.045542],[135.937281,34.047847],[135.934696,34.047964],[135.929979,34.046416],[135.925576,34.046885],[135.91987,34.045238],[135.91112,34.039402],[135.906595,34.034743],[135.904065,34.034769],[135.897031,34.040757],[135.894398,34.046596],[135.892575,34.047497],[135.89128,34.051149],[135.896174,34.057779],[135.894487,34.062298],[135.891886,34.064246],[135.890156,34.067254],[135.892226,34.069696],[135.89243,34.071575],[135.895263,34.074756],[135.899918,34.077081],[135.899995,34.08111],[135.898649,34.084167],[135.897647,34.085669],[135.89182,34.085349],[135.882411,34.079416],[135.880674,34.076702],[135.876478,34.078683],[135.872968,34.084195],[135.875994,34.090581],[135.877957,34.092657],[135.878369,34.096002],[135.880996,34.097487],[135.881698,34.099049],[135.884874,34.100722],[135.886333,34.1038],[135.889881,34.106941],[135.890527,34.10864],[135.882755,34.110777],[135.874783,34.110577],[135.869113,34.111311],[135.867046,34.11514],[135.861961,34.118305],[135.869324,34.125641],[135.87121,34.130279],[135.874697,34.134106],[135.879351,34.136614],[135.880049,34.138634],[135.882346,34.140116],[135.884574,34.143384],[135.890776,34.144805],[135.890879,34.145585],[135.887391,34.148441],[135.880829,34.150587],[135.875603,34.150867],[135.872206,34.14933],[135.863631,34.148851],[135.862611,34.159143],[135.864253,34.15998],[135.867139,34.163481],[135.86967,34.163272],[135.875868,34.165289],[135.873415,34.169298],[135.870044,34.17124],[135.869782,34.16998],[135.861698,34.169756],[135.85978,34.168826],[135.862478,34.175164],[135.871361,34.178254],[135.873781,34.178273],[135.884615,34.184858],[135.888301,34.184658],[135.885203,34.186831],[135.887784,34.187263],[135.888735,34.191986],[135.888368,34.196469],[135.88648,34.198697],[135.886882,34.203278],[135.890175,34.204082],[135.892871,34.203783],[135.89736,34.199698],[135.899228,34.19985],[135.899532,34.196373],[135.898887,34.194583],[135.905869,34.188091],[135.906683,34.189425],[135.910848,34.191197],[135.915548,34.194758],[135.91769,34.194958],[135.923743,34.201094],[135.925626,34.206236],[135.921466,34.21046],[135.920401,34.213015],[135.921156,34.214761],[135.918838,34.221169],[135.917073,34.221888],[135.918163,34.222995],[135.920308,34.229051],[135.919843,34.231976],[135.922067,34.235288],[135.920693,34.241593],[135.919408,34.244008],[135.920203,34.247401],[135.917916,34.251136],[135.913221,34.253754],[135.909483,34.253817],[135.907702,34.256367],[135.904991,34.258405],[135.902909,34.257657],[135.900346,34.255304],[135.896496,34.255595],[135.894418,34.25439],[135.893583,34.255619],[135.891156,34.256562],[135.888208,34.260612],[135.884899,34.261822],[135.882615,34.265283],[135.879912,34.266452],[135.881992,34.267338],[135.886997,34.267009],[135.885043,34.270427],[135.879829,34.269564],[135.877702,34.267717],[135.876786,34.265651],[135.875617,34.267335],[135.878065,34.270145],[135.881515,34.271681],[135.901452,34.273342],[135.910273,34.282882],[135.912847,34.283999],[135.914771,34.283923],[135.919634,34.280985],[135.926031,34.278517],[135.926582,34.278384]]],[[[135.882435,33.7227],[135.884561,33.72222],[135.885438,33.719257],[135.888722,33.717793],[135.89086,33.714948],[135.895274,33.712596],[135.895687,33.711702],[135.898852,33.712028],[135.900275,33.713479],[135.90045,33.709179],[135.902589,33.709355],[135.903472,33.707934],[135.904722,33.708719],[135.905182,33.707732],[135.904943,33.706679],[135.903251,33.706505],[135.904132,33.705769],[135.900434,33.697655],[135.90077,33.694091],[135.906614,33.687176],[135.905896,33.68098],[135.90286,33.676364],[135.899385,33.674271],[135.900275,33.672572],[135.899262,33.671274],[135.894079,33.668659],[135.896004,33.668587],[135.897954,33.667256],[135.897737,33.666197],[135.896622,33.665623],[135.898717,33.665636],[135.898284,33.665235],[135.900007,33.660656],[135.897606,33.659571],[135.898994,33.658136],[135.897946,33.656728],[135.89587,33.656372],[135.895272,33.655374],[135.895576,33.653652],[135.896356,33.653316],[135.893604,33.652634],[135.89393,33.651962],[135.892887,33.65083],[135.893585,33.648998],[135.892416,33.649136],[135.890478,33.647244],[135.887163,33.647485],[135.884294,33.649193],[135.882259,33.648246],[135.877998,33.649619],[135.874907,33.652465],[135.874397,33.65443],[135.875024,33.655037],[135.873346,33.655976],[135.8745,33.65626],[135.875688,33.658258],[135.873975,33.659398],[135.87417,33.660457],[135.875487,33.661024],[135.875967,33.663898],[135.877263,33.66386],[135.877137,33.665628],[135.878119,33.666835],[135.881736,33.668713],[135.872638,33.673644],[135.872435,33.675419],[135.873747,33.679775],[135.873489,33.683783],[135.870993,33.690104],[135.872342,33.692653],[135.875012,33.693912],[135.877718,33.693775],[135.879206,33.694535],[135.879233,33.696423],[135.883382,33.699111],[135.883871,33.702263],[135.881618,33.704794],[135.881901,33.709235],[135.876333,33.712674],[135.872116,33.711321],[135.869676,33.711606],[135.864522,33.713754],[135.863757,33.714867],[135.866669,33.717956],[135.871982,33.720367],[135.876406,33.720373],[135.879636,33.722573],[135.882214,33.722754],[135.882435,33.7227]]],[[[135.983163,33.733169],[135.98483,33.731703],[135.982935,33.731643],[135.983049,33.733054],[135.983163,33.733169]]],[[[135.381971,33.765371],[135.382352,33.764264],[135.384104,33.76365],[135.387191,33.760343],[135.386704,33.759444],[135.38582,33.760075],[135.384934,33.759245],[135.386772,33.758176],[135.386253,33.757298],[135.381529,33.756473],[135.376651,33.758368],[135.37575,33.759609],[135.376484,33.760457],[135.374382,33.760847],[135.371901,33.762972],[135.371543,33.764206],[135.374165,33.76606],[135.375182,33.764235],[135.377936,33.76562],[135.381316,33.765357],[135.382278,33.766128],[135.382026,33.765475],[135.381971,33.765371]]],[[[135.279022,33.779592],[135.280522,33.778758],[135.279943,33.777197],[135.280733,33.77629],[135.282271,33.776444],[135.28754,33.773709],[135.287371,33.77315],[135.295905,33.772315],[135.294891,33.772148],[135.298635,33.767853],[135.298482,33.765736],[135.302611,33.768483],[135.305517,33.767506],[135.307945,33.770689],[135.3142,33.770825],[135.314702,33.769926],[135.313801,33.769474],[135.319155,33.766662],[135.324549,33.760764],[135.322643,33.759827],[135.323727,33.757993],[135.325675,33.757606],[135.325138,33.753718],[135.323597,33.751622],[135.325842,33.750972],[135.326955,33.749554],[135.324381,33.747694],[135.326413,33.740907],[135.33595,33.738633],[135.337262,33.744883],[135.336569,33.745614],[135.340334,33.745231],[135.342434,33.746014],[135.343742,33.745721],[135.344501,33.744414],[135.355927,33.739417],[135.357189,33.740083],[135.3577,33.739145],[135.35641,33.738048],[135.357493,33.737503],[135.351466,33.734409],[135.352649,33.732012],[135.353712,33.731706],[135.353242,33.731511],[135.355555,33.731564],[135.355642,33.730536],[135.35657,33.730959],[135.357075,33.72951],[135.356438,33.728581],[135.357245,33.727378],[135.358483,33.727423],[135.35472,33.72605],[135.353325,33.724639],[135.353136,33.718946],[135.373132,33.716106],[135.392568,33.709764],[135.392664,33.708396],[135.393818,33.70777],[135.393161,33.70543],[135.395319,33.703803],[135.396248,33.703976],[135.394371,33.702304],[135.389321,33.70223],[135.387281,33.700804],[135.38737,33.699839],[135.387969,33.700058],[135.386952,33.698407],[135.387498,33.697463],[135.386941,33.696025],[135.388183,33.695116],[135.387931,33.694539],[135.384748,33.69323],[135.38351,33.695585],[135.379455,33.693333],[135.380483,33.692451],[135.381918,33.692827],[135.383064,33.69132],[135.381643,33.691371],[135.379646,33.689972],[135.375828,33.690644],[135.374174,33.689587],[135.372625,33.689812],[135.369706,33.686033],[135.366787,33.686114],[135.366349,33.685767],[135.367385,33.683564],[135.366376,33.683037],[135.365843,33.683765],[135.364196,33.682564],[135.363056,33.682686],[135.364614,33.681446],[135.362857,33.681461],[135.363059,33.680968],[135.365138,33.680618],[135.365259,33.679753],[135.361252,33.679871],[135.361832,33.685126],[135.361225,33.686922],[135.358869,33.689061],[135.355899,33.689397],[135.355806,33.692114],[135.357523,33.693297],[135.356122,33.695082],[135.354228,33.693312],[135.35404,33.694117],[135.351054,33.693004],[135.349291,33.694129],[135.346672,33.693428],[135.344185,33.694261],[135.342386,33.693371],[135.337202,33.694078],[135.33667,33.692667],[135.338901,33.692282],[135.339608,33.690445],[135.34181,33.690075],[135.343014,33.688053],[135.343127,33.688867],[135.344983,33.688699],[135.343301,33.686237],[135.343292,33.684843],[135.342102,33.683856],[135.343314,33.683422],[135.344266,33.68084],[135.343454,33.679915],[135.342202,33.679944],[135.343108,33.679413],[135.34152,33.676626],[135.336779,33.67693],[135.336221,33.67537],[135.334912,33.674765],[135.336333,33.673145],[135.333169,33.673195],[135.333393,33.672107],[135.332303,33.672274],[135.331441,33.670443],[135.332491,33.670041],[135.331481,33.669495],[135.333084,33.667127],[135.340634,33.664129],[135.341082,33.662423],[135.343306,33.661731],[135.342233,33.660066],[135.343572,33.658968],[135.346585,33.659463],[135.351593,33.657668],[135.353896,33.655695],[135.354921,33.655718],[135.356854,33.658562],[135.361192,33.658274],[135.361636,33.657125],[135.360795,33.656095],[135.362606,33.655156],[135.364126,33.655827],[135.364357,33.654897],[135.365098,33.655257],[135.367261,33.652829],[135.374539,33.652824],[135.376091,33.652191],[135.37737,33.653812],[135.378313,33.65239],[135.377673,33.651436],[135.37862,33.650934],[135.382112,33.65308],[135.38453,33.650541],[135.384219,33.650015],[135.385381,33.64981],[135.384139,33.648796],[135.384668,33.648376],[135.385468,33.649158],[135.385415,33.647759],[135.387683,33.647797],[135.39279,33.643316],[135.392738,33.642162],[135.394359,33.641408],[135.394105,33.638866],[135.393084,33.637298],[135.394663,33.637129],[135.395378,33.635105],[135.39508,33.631576],[135.396196,33.630714],[135.396966,33.631366],[135.398673,33.631102],[135.398996,33.632174],[135.399431,33.631395],[135.396711,33.629749],[135.397736,33.627437],[135.397174,33.624749],[135.394897,33.625052],[135.394249,33.622368],[135.392512,33.620784],[135.391184,33.620632],[135.394177,33.61857],[135.393704,33.617039],[135.395938,33.6183],[135.397855,33.616973],[135.397895,33.615516],[135.394996,33.613487],[135.393386,33.613347],[135.392577,33.611158],[135.393769,33.609615],[135.392933,33.607973],[135.388517,33.60824],[135.389678,33.60661],[135.38827,33.604456],[135.389811,33.603801],[135.38792,33.60251],[135.387808,33.60022],[135.390686,33.599154],[135.391317,33.598075],[135.394047,33.598107],[135.39552,33.599179],[135.395859,33.59794],[135.394469,33.596167],[135.394591,33.594444],[135.396075,33.593569],[135.396445,33.592382],[135.394626,33.590555],[135.398351,33.590042],[135.398525,33.587774],[135.399346,33.588165],[135.400489,33.585102],[135.401445,33.585158],[135.402208,33.587188],[135.403306,33.587239],[135.403526,33.588918],[135.403592,33.586013],[135.404792,33.585718],[135.411847,33.587732],[135.414987,33.586716],[135.41737,33.588355],[135.415947,33.584799],[135.413995,33.584834],[135.412724,33.58312],[135.408454,33.581943],[135.408157,33.580095],[135.411891,33.579015],[135.416702,33.582928],[135.418184,33.580458],[135.420269,33.580366],[135.419769,33.577268],[135.422265,33.574182],[135.428676,33.572469],[135.432832,33.568435],[135.43658,33.567861],[135.442446,33.565353],[135.445281,33.562837],[135.445885,33.56079],[135.450807,33.562297],[135.449023,33.554729],[135.450716,33.552738],[135.450248,33.550694],[135.451215,33.550509],[135.451637,33.548876],[135.457969,33.553345],[135.460524,33.551799],[135.459926,33.550544],[135.461155,33.548706],[135.463173,33.549728],[135.464833,33.547928],[135.467018,33.548113],[135.468104,33.547071],[135.470525,33.547696],[135.475663,33.551472],[135.480742,33.550202],[135.48637,33.551374],[135.485234,33.548059],[135.486182,33.544537],[135.49037,33.544677],[135.490403,33.54355],[135.488924,33.542346],[135.490367,33.541868],[135.49514,33.54407],[135.496306,33.540773],[135.49978,33.541056],[135.50039,33.540187],[135.499949,33.538758],[135.501646,33.538888],[135.503189,33.5362],[135.510533,33.534741],[135.514704,33.530668],[135.514713,33.529907],[135.512979,33.530356],[135.51202,33.529676],[135.512099,33.528626],[135.514196,33.527673],[135.512281,33.527288],[135.511853,33.526208],[135.513734,33.525902],[135.518885,33.522163],[135.519078,33.523254],[135.522099,33.523177],[135.52272,33.524169],[135.525362,33.523916],[135.52618,33.524721],[135.528084,33.523133],[135.534327,33.522154],[135.539843,33.519462],[135.542035,33.521195],[135.54484,33.520862],[135.545686,33.519248],[135.54794,33.518493],[135.554584,33.520137],[135.55048,33.524869],[135.548193,33.52464],[135.550275,33.527229],[135.551177,33.52999],[135.553064,33.529914],[135.555828,33.527562],[135.559618,33.52732],[135.561537,33.52615],[135.5661,33.527548],[135.571381,33.526667],[135.575111,33.522199],[135.574351,33.516626],[135.577054,33.512082],[135.5751,33.509105],[135.578433,33.508593],[135.578255,33.509669],[135.578745,33.507688],[135.584397,33.508931],[135.587841,33.506779],[135.589309,33.503144],[135.590116,33.503388],[135.589885,33.50669],[135.590932,33.507574],[135.593217,33.505368],[135.596479,33.507243],[135.597913,33.505217],[135.599936,33.504475],[135.602391,33.506274],[135.602228,33.507824],[135.605504,33.50951],[135.605426,33.508264],[135.606976,33.507278],[135.60897,33.508291],[135.610302,33.507241],[135.61055,33.508473],[135.612632,33.508725],[135.619107,33.505658],[135.619244,33.504273],[135.620874,33.504821],[135.626465,33.501291],[135.627503,33.502534],[135.625718,33.50394],[135.628067,33.506775],[135.627859,33.509782],[135.636126,33.507409],[135.636986,33.505498],[135.639359,33.505692],[135.640955,33.503024],[135.646717,33.502125],[135.651864,33.500255],[135.653966,33.500922],[135.657423,33.499586],[135.656836,33.498317],[135.659519,33.496857],[135.660672,33.497121],[135.659629,33.496508],[135.661002,33.496357],[135.661178,33.495306],[135.66193,33.494976],[135.663117,33.495795],[135.665835,33.494101],[135.664143,33.494007],[135.665056,33.493445],[135.664166,33.491317],[135.669959,33.491826],[135.673901,33.490152],[135.67408,33.489035],[135.682511,33.490169],[135.691186,33.487979],[135.69285,33.488591],[135.694406,33.488109],[135.696577,33.488849],[135.696796,33.489823],[135.698678,33.490734],[135.699384,33.493848],[135.700207,33.49431],[135.699721,33.493943],[135.702411,33.492708],[135.70317,33.490522],[135.7075,33.488098],[135.707779,33.487198],[135.708531,33.487209],[135.70859,33.488126],[135.709844,33.488011],[135.709781,33.486096],[135.711414,33.485211],[135.7137,33.485854],[135.716544,33.484786],[135.71996,33.485569],[135.72144,33.484615],[135.723882,33.485777],[135.7278,33.484334],[135.727889,33.48538],[135.732156,33.484967],[135.733798,33.4837],[135.733636,33.484783],[135.736077,33.485915],[135.736876,33.485539],[135.736279,33.484234],[135.737211,33.485328],[135.738837,33.484379],[135.736855,33.483277],[135.74183,33.484761],[135.744174,33.481845],[135.746859,33.482685],[135.748001,33.481643],[135.749167,33.482003],[135.751432,33.481215],[135.756887,33.484093],[135.759725,33.484463],[135.761479,33.482747],[135.760355,33.482542],[135.762959,33.483141],[135.765464,33.482503],[135.764951,33.481562],[135.769647,33.481794],[135.768457,33.474774],[135.769553,33.478647],[135.771161,33.479159],[135.77458,33.478212],[135.774783,33.475301],[135.772556,33.475861],[135.77207,33.475163],[135.772628,33.472508],[135.773659,33.472242],[135.774433,33.470483],[135.773022,33.469115],[135.773503,33.466119],[135.775755,33.466209],[135.776813,33.461119],[135.777117,33.461648],[135.778935,33.46089],[135.782492,33.462176],[135.784765,33.46024],[135.786339,33.459943],[135.786222,33.466958],[135.787039,33.467578],[135.785895,33.4694],[135.78933,33.469057],[135.789292,33.471496],[135.78468,33.472745],[135.785934,33.476122],[135.789643,33.480414],[135.787884,33.481436],[135.789664,33.484082],[135.791134,33.48551],[135.794191,33.486543],[135.795113,33.489052],[135.79485,33.492113],[135.79597,33.494813],[135.796512,33.493818],[135.797023,33.49423],[135.797218,33.496958],[135.799309,33.499721],[135.801848,33.499827],[135.803751,33.500972],[135.804982,33.499648],[135.807159,33.495141],[135.806322,33.490113],[135.814034,33.490648],[135.818505,33.488839],[135.822516,33.485355],[135.826154,33.486389],[135.821019,33.490388],[135.819626,33.495715],[135.815555,33.499334],[135.813099,33.504018],[135.818001,33.506868],[135.819603,33.510741],[135.822571,33.513222],[135.826013,33.514626],[135.833216,33.513783],[135.833894,33.512912],[135.837081,33.512585],[135.836028,33.510672],[135.837467,33.511629],[135.837685,33.512735],[135.84285,33.513532],[135.841652,33.51643],[135.842633,33.51765],[135.843701,33.517414],[135.843425,33.518004],[135.846836,33.520682],[135.848275,33.521271],[135.850722,33.519721],[135.852345,33.519816],[135.852406,33.522303],[135.855324,33.523225],[135.859784,33.527268],[135.863462,33.527852],[135.866462,33.530331],[135.87072,33.531849],[135.871689,33.533489],[135.87629,33.533986],[135.874648,33.530625],[135.875971,33.529854],[135.877883,33.530537],[135.876515,33.534998],[135.877802,33.536995],[135.876642,33.539161],[135.877147,33.540453],[135.875505,33.541686],[135.875704,33.543548],[135.878547,33.545877],[135.878605,33.547093],[135.881024,33.547729],[135.887514,33.552398],[135.891616,33.551823],[135.894546,33.552398],[135.894849,33.551057],[135.898568,33.553016],[135.90148,33.553277],[135.901267,33.555323],[135.904371,33.558725],[135.904046,33.559863],[135.905542,33.562641],[135.900793,33.563095],[135.90113,33.568612],[135.903128,33.570047],[135.904847,33.569742],[135.906872,33.570978],[135.909499,33.570652],[135.914211,33.57209],[135.914669,33.571103],[135.916167,33.571823],[135.919949,33.570843],[135.919622,33.572249],[135.920914,33.572335],[135.922949,33.576122],[135.925721,33.577272],[135.928581,33.577514],[135.930392,33.575959],[135.930499,33.576726],[135.931955,33.574422],[135.934568,33.573898],[135.934598,33.573079],[135.935813,33.57472],[135.937735,33.574965],[135.939028,33.576925],[135.938998,33.578478],[135.941865,33.579961],[135.947396,33.580413],[135.952641,33.579141],[135.956674,33.581737],[135.955497,33.582995],[135.957254,33.582863],[135.956243,33.584173],[135.95778,33.585589],[135.957246,33.587401],[135.959979,33.592195],[135.959695,33.593416],[135.954415,33.58986],[135.953729,33.59035],[135.950484,33.589639],[135.950056,33.590476],[135.948095,33.589722],[135.948149,33.590492],[135.945521,33.590778],[135.945605,33.592429],[135.944366,33.593322],[135.94304,33.593258],[135.942798,33.59374],[135.944287,33.593916],[135.946692,33.592243],[135.948354,33.592259],[135.946141,33.592993],[135.946092,33.597193],[135.942122,33.59941],[135.937549,33.599214],[135.936644,33.597083],[135.936975,33.595868],[135.936049,33.594998],[135.936356,33.594017],[135.933872,33.592932],[135.933504,33.594198],[135.930799,33.595356],[135.927841,33.598777],[135.922965,33.600256],[135.922813,33.601422],[135.924829,33.602098],[135.924449,33.60496],[135.921338,33.605074],[135.925867,33.611855],[135.918976,33.614715],[135.921141,33.617279],[135.923023,33.616936],[135.923707,33.618053],[135.922793,33.618716],[135.922937,33.619928],[135.926916,33.618929],[135.927245,33.617915],[135.926497,33.617181],[135.929553,33.615223],[135.930803,33.616787],[135.930857,33.620178],[135.931912,33.620787],[135.932239,33.622206],[135.941737,33.623342],[135.943479,33.625993],[135.944654,33.625211],[135.945254,33.625856],[135.943837,33.626771],[135.945178,33.627828],[135.946793,33.627604],[135.948707,33.624772],[135.949283,33.624902],[135.94733,33.627565],[135.949024,33.629268],[135.949001,33.630302],[135.9505,33.630347],[135.949922,33.629045],[135.951442,33.62826],[135.950632,33.628811],[135.951678,33.630371],[135.950434,33.631151],[135.951739,33.631598],[135.950567,33.632163],[135.950832,33.633613],[135.948223,33.632838],[135.946675,33.633987],[135.941036,33.634122],[135.938474,33.635974],[135.93704,33.638158],[135.93427,33.639269],[135.938222,33.646195],[135.943852,33.647051],[135.948631,33.649812],[135.954838,33.650353],[135.959281,33.654353],[135.966769,33.65442],[135.968247,33.655751],[135.970341,33.655446],[135.97035,33.65465],[135.972259,33.656227],[135.975062,33.656723],[135.974861,33.657317],[135.978933,33.655314],[135.981948,33.657011],[135.983402,33.659498],[135.982504,33.660012],[135.981706,33.658932],[135.978496,33.658575],[135.974826,33.660504],[135.97462,33.662966],[135.97345,33.663686],[135.972955,33.670579],[135.97196,33.671196],[135.971742,33.672586],[135.976181,33.673298],[135.978922,33.679944],[135.983141,33.681289],[135.982534,33.682611],[135.984403,33.683218],[135.985027,33.681914],[135.985702,33.682146],[135.985241,33.683175],[135.987488,33.683373],[135.987296,33.684345],[135.98916,33.684203],[135.988961,33.685438],[135.987909,33.685394],[135.987161,33.68632],[135.986885,33.689313],[135.989784,33.691811],[135.989029,33.692723],[135.98908,33.696155],[135.99121,33.699263],[135.991407,33.699736],[135.990504,33.699543],[135.991315,33.700084],[135.992175,33.703502],[135.994696,33.706668],[135.994145,33.707318],[135.99236,33.706788],[135.991877,33.708298],[135.993456,33.707904],[135.993141,33.708716],[135.995264,33.70792],[135.996599,33.70942],[135.995458,33.710402],[135.997127,33.709946],[135.998917,33.711468],[136.002829,33.716431],[136.005298,33.71782],[136.004686,33.718245],[136.006182,33.719946],[136.008211,33.7217],[136.009653,33.721183],[136.01612,33.728281],[136.019877,33.724435],[136.020702,33.720062],[136.018391,33.715104],[136.011269,33.708566],[136.003815,33.699676],[136.003632,33.693453],[136.001164,33.689603],[136.004041,33.682192],[136.004231,33.679457],[136.003416,33.674614],[136.001253,33.671464],[136.004522,33.666732],[136.004705,33.662281],[136.001467,33.654962],[135.99911,33.652742],[135.995972,33.651269],[135.993458,33.646708],[135.990067,33.64416],[135.993414,33.638014],[135.993162,33.634693],[135.991506,33.631269],[135.989262,33.628876],[135.985458,33.626987],[135.981217,33.626519],[135.977405,33.627251],[135.974395,33.628823],[135.972022,33.631313],[135.96822,33.640732],[135.966282,33.639916],[135.968338,33.635016],[135.966724,33.629805],[135.971166,33.628888],[135.974267,33.627176],[135.976411,33.624811],[135.977658,33.621226],[135.97737,33.618187],[135.975886,33.615212],[135.970828,33.611513],[135.972684,33.607501],[135.972266,33.603419],[135.975159,33.599418],[135.975958,33.596014],[135.975216,33.592543],[135.971786,33.585818],[135.973751,33.578307],[135.973227,33.575268],[135.971615,33.572624],[135.966818,33.56955],[135.959087,33.569172],[135.955567,33.567538],[135.949123,33.566364],[135.944688,33.563709],[135.941882,33.557918],[135.93847,33.555565],[135.934738,33.554566],[135.9295,33.546628],[135.923507,33.543556],[135.921213,33.540864],[135.918256,33.539174],[135.916805,33.534282],[135.913189,33.531156],[135.90816,33.529793],[135.903627,33.530335],[135.897201,33.528029],[135.894296,33.525033],[135.88962,33.52323],[135.888282,33.519072],[135.88467,33.51584],[135.879362,33.514041],[135.875615,33.514147],[135.872283,33.515228],[135.866187,33.513953],[135.862477,33.509301],[135.858599,33.507527],[135.854485,33.507171],[135.852869,33.504289],[135.849637,33.501766],[135.845468,33.500542],[135.841108,33.500799],[135.842638,33.497453],[135.842487,33.493368],[135.840639,33.490181],[135.837498,33.4876],[135.843968,33.484259],[135.848698,33.48371],[135.853024,33.481473],[135.8577,33.481222],[135.863167,33.483898],[135.869305,33.484033],[135.874216,33.48166],[135.876891,33.477994],[135.877607,33.47387],[135.876492,33.470198],[135.873054,33.466811],[135.870142,33.462274],[135.865718,33.459454],[135.860746,33.452814],[135.852725,33.449126],[135.848681,33.448539],[135.845615,33.445907],[135.841454,33.444498],[135.837887,33.44156],[135.834639,33.440138],[135.828491,33.439867],[135.824443,33.437847],[135.816914,33.436594],[135.812594,33.437223],[135.808289,33.439469],[135.805118,33.436799],[135.800159,33.435374],[135.795806,33.431302],[135.792615,33.429524],[135.78618,33.428636],[135.778859,33.431237],[135.773707,33.427386],[135.766149,33.424603],[135.761502,33.424137],[135.755876,33.425851],[135.750049,33.425984],[135.745278,33.428524],[135.740974,33.434804],[135.74028,33.437714],[135.740636,33.440356],[135.736971,33.447628],[135.737675,33.451925],[135.741441,33.457308],[135.757568,33.465646],[135.753485,33.470052],[135.751521,33.470449],[135.747416,33.466708],[135.739392,33.463754],[135.734746,33.463853],[135.730249,33.465619],[135.726138,33.464268],[135.722033,33.464345],[135.713399,33.467081],[135.71015,33.468938],[135.703803,33.469915],[135.698522,33.474406],[135.692021,33.472551],[135.685913,33.47337],[135.681673,33.476176],[135.679736,33.479502],[135.67218,33.476265],[135.664831,33.476754],[135.661365,33.478709],[135.647734,33.491378],[135.643919,33.492682],[135.635676,33.493986],[135.630186,33.490767],[135.62391,33.490639],[135.619552,33.492039],[135.61596,33.494924],[135.611613,33.496868],[135.608069,33.497083],[135.602974,33.495016],[135.6008,33.492059],[135.598009,33.490231],[135.591344,33.489021],[135.584162,33.49165],[135.57825,33.497968],[135.574055,33.498912],[135.570721,33.500903],[135.568003,33.504695],[135.565248,33.503142],[135.555547,33.50017],[135.549046,33.500617],[135.543907,33.503681],[135.541186,33.508425],[135.539767,33.509322],[135.53248,33.508913],[135.523029,33.512671],[135.516008,33.512815],[135.504246,33.518101],[135.500319,33.521732],[135.499167,33.525845],[135.494292,33.528237],[135.491247,33.53119],[135.485166,33.532612],[135.481108,33.535577],[135.476309,33.536197],[135.472626,33.538243],[135.469169,33.537422],[135.456704,33.537063],[135.451637,33.539139],[135.441345,33.541341],[135.438215,33.543495],[135.436413,33.546051],[135.435453,33.549075],[135.435563,33.551964],[135.433149,33.557227],[135.427321,33.557806],[135.422936,33.560023],[135.415113,33.560794],[135.412129,33.562559],[135.40884,33.566421],[135.403652,33.567839],[135.396889,33.572185],[135.393494,33.576777],[135.388328,33.579747],[135.383279,33.584824],[135.380316,33.589523],[135.379237,33.593594],[135.377042,33.597656],[135.376841,33.608723],[135.379588,33.614025],[135.378425,33.616872],[135.378384,33.619628],[135.379811,33.624254],[135.382026,33.627363],[135.379831,33.631229],[135.379782,33.63687],[135.375975,33.63871],[135.371904,33.642642],[135.350128,33.646136],[135.336664,33.651165],[135.322287,33.661474],[135.320073,33.665129],[135.318799,33.670969],[135.31598,33.67449],[135.30569,33.68393],[135.29985,33.68783],[135.29979,33.69132],[135.30185,33.69216],[135.30212,33.69339],[135.30156,33.69361],[135.30472,33.69589],[135.30441,33.69751],[135.30686,33.70004],[135.30929,33.70709],[135.30448,33.71562],[135.300842,33.71748],[135.298243,33.720069],[135.296968,33.723275],[135.297194,33.726649],[135.298891,33.729716],[135.303003,33.732598],[135.308268,33.733468],[135.312813,33.732368],[135.310209,33.736248],[135.310061,33.741738],[135.305255,33.745401],[135.298704,33.745389],[135.294152,33.747766],[135.291533,33.751681],[135.291388,33.755671],[135.28693,33.759117],[135.285031,33.764159],[135.280671,33.765886],[135.277874,33.768443],[135.276497,33.77096],[135.275965,33.774126],[135.276612,33.777044],[135.278499,33.779761],[135.279022,33.779592]]],[[[135.353407,33.731261],[135.351041,33.730266],[135.351337,33.729528],[135.35294,33.730261],[135.353783,33.72954],[135.354353,33.730588],[135.355156,33.730398],[135.353486,33.731301],[135.353407,33.731261]]],[[[135.366668,33.688004],[135.365271,33.687857],[135.364822,33.686831],[135.364128,33.687649],[135.363812,33.687201],[135.366405,33.686157],[135.367619,33.687426],[135.367462,33.688645],[135.366578,33.688137],[135.366668,33.688004]]],[[[135.943032,33.646561],[135.940207,33.646187],[135.939866,33.646724],[135.937893,33.64536],[135.938618,33.64573],[135.940741,33.644038],[135.943026,33.644819],[135.943032,33.646561]]],[[[135.62747,33.502825],[135.626666,33.503739],[135.627479,33.502749],[135.62747,33.502825]]],[[[135.805306,33.464698],[135.805638,33.46587],[135.806383,33.465256],[135.806088,33.466338],[135.807615,33.466158],[135.807556,33.467399],[135.808995,33.466575],[135.81038,33.470773],[135.81156,33.471684],[135.812897,33.47001],[135.814818,33.469729],[135.815889,33.467898],[135.815123,33.465053],[135.817581,33.466077],[135.818267,33.467764],[135.820885,33.469485],[135.815153,33.474574],[135.812037,33.475266],[135.811165,33.476878],[135.810377,33.476106],[135.806022,33.477183],[135.804472,33.475471],[135.806169,33.475686],[135.805979,33.474633],[135.803902,33.473216],[135.803171,33.474002],[135.802232,33.473471],[135.800729,33.474143],[135.801278,33.472998],[135.800446,33.471961],[135.801925,33.471543],[135.802072,33.470739],[135.799804,33.469568],[135.800026,33.466317],[135.800888,33.465217],[135.803403,33.465727],[135.803876,33.464612],[135.805303,33.46442],[135.805306,33.464698]]],[[[135.826087,33.459902],[135.825581,33.45987],[135.825986,33.458806],[135.823718,33.458177],[135.824862,33.456851],[135.82251,33.455743],[135.822584,33.454322],[135.824229,33.452709],[135.824366,33.453199],[135.826637,33.452302],[135.829556,33.452634],[135.828821,33.453918],[135.829085,33.456154],[135.831579,33.455718],[135.833494,33.457021],[135.834702,33.461232],[135.833452,33.46562],[135.83397,33.466554],[135.83694,33.466059],[135.839608,33.460599],[135.843306,33.461067],[135.847657,33.463144],[135.848939,33.462826],[135.848847,33.462265],[135.852727,33.461633],[135.853153,33.465549],[135.852549,33.465807],[135.854285,33.466421],[135.853756,33.468906],[135.852606,33.469442],[135.853165,33.471393],[135.850573,33.472239],[135.851276,33.471143],[135.849524,33.471411],[135.848876,33.470253],[135.846592,33.472433],[135.84381,33.472907],[135.845574,33.473458],[135.84532,33.474346],[135.840861,33.474659],[135.838421,33.47199],[135.836595,33.473938],[135.83651,33.470171],[135.834038,33.469073],[135.83161,33.469761],[135.829831,33.4715],[135.82918,33.469117],[135.826793,33.469813],[135.824316,33.467673],[135.824448,33.466028],[135.826097,33.465199],[135.824349,33.463129],[135.824498,33.461507],[135.825879,33.460928],[135.826138,33.459998],[135.826087,33.459902]]],[[[135.792598,33.452284],[135.790702,33.455161],[135.788829,33.455498],[135.786542,33.457834],[135.779576,33.459895],[135.770655,33.456815],[135.768811,33.457051],[135.765216,33.455202],[135.762342,33.455563],[135.760522,33.453312],[135.753895,33.45021],[135.752212,33.448569],[135.754827,33.447747],[135.758,33.4447],[135.757627,33.439428],[135.758675,33.439075],[135.758591,33.437744],[135.760966,33.437755],[135.763617,33.439973],[135.76568,33.440266],[135.765544,33.441716],[135.766938,33.443081],[135.767675,33.445908],[135.770165,33.448126],[135.777891,33.447858],[135.779768,33.44704],[135.782171,33.447441],[135.782914,33.445709],[135.782053,33.444554],[135.78296,33.444481],[135.783763,33.443137],[135.787017,33.443835],[135.787266,33.443315],[135.787195,33.445362],[135.788554,33.446118],[135.78669,33.447081],[135.787968,33.448351],[135.789339,33.44765],[135.793211,33.449041],[135.794487,33.450891],[135.79268,33.452165],[135.792598,33.452284]]],[[[135.418663,33.797252],[135.420733,33.795107],[135.418741,33.793254],[135.420243,33.792978],[135.419093,33.790689],[135.42003,33.784273],[135.423859,33.782396],[135.427792,33.778956],[135.428095,33.777887],[135.427236,33.776788],[135.428106,33.773844],[135.419792,33.774265],[135.416924,33.775504],[135.412879,33.774129],[135.407696,33.774462],[135.407959,33.776288],[135.406533,33.778003],[135.406912,33.781771],[135.403313,33.779626],[135.398857,33.778418],[135.395986,33.776042],[135.390757,33.77892],[135.392332,33.779566],[135.393145,33.782128],[135.394583,33.78229],[135.393966,33.783847],[135.39042,33.78683],[135.391169,33.78821],[135.38952,33.790591],[135.390236,33.791705],[135.392993,33.791348],[135.393956,33.789957],[135.395447,33.79148],[135.402222,33.789842],[135.403949,33.790977],[135.404428,33.793294],[135.406762,33.796477],[135.412183,33.796885],[135.413071,33.797731],[135.418481,33.797463],[135.418663,33.797252]]],[[[136.09434,33.880917],[136.093697,33.879671],[136.092391,33.879298],[136.092838,33.880718],[136.09435,33.880992],[136.09434,33.880917]]],[[[136.281122,34.150647],[136.286122,34.149823],[136.286434,34.148457],[136.328756,34.142369],[136.327026,34.138655],[136.323117,34.135686],[136.319107,34.134566],[136.313266,34.134973],[136.308124,34.134093],[136.3038,34.13016],[136.304191,34.128959],[136.32706,34.124504],[136.331015,34.121194],[136.333124,34.115411],[136.331975,34.111393],[136.329361,34.108578],[136.325294,34.106501],[136.319544,34.105015],[136.31843,34.10161],[136.315307,34.097902],[136.314099,34.093165],[136.309454,34.088776],[136.307256,34.082293],[136.29954,34.074968],[136.294959,34.072933],[136.290441,34.07228],[136.28623,34.072751],[136.280019,34.075456],[136.272754,34.073024],[136.267258,34.072537],[136.2675,34.068845],[136.27102,34.066355],[136.273335,34.062487],[136.274281,34.058428],[136.273415,34.054824],[136.270536,34.051498],[136.266368,34.049555],[136.260965,34.048596],[136.255362,34.049548],[136.256613,34.045508],[136.261509,34.043632],[136.264545,34.041146],[136.270043,34.039986],[136.277605,34.036862],[136.281656,34.033326],[136.288777,34.029186],[136.291401,34.026312],[136.29309,34.021856],[136.293297,34.017448],[136.291242,34.013683],[136.28797,34.011326],[136.28213,34.009493],[136.283542,34.006389],[136.283498,34.003013],[136.278899,33.995709],[136.282462,33.992395],[136.283876,33.988473],[136.283579,33.983004],[136.282224,33.980106],[136.282972,33.972531],[136.281843,33.968546],[136.274383,33.96191],[136.267065,33.958803],[136.262232,33.958131],[136.25627,33.955607],[136.249222,33.956016],[136.243046,33.960227],[136.239241,33.959677],[136.240454,33.95363],[136.242865,33.948068],[136.241094,33.941706],[136.236252,33.937913],[136.229869,33.937092],[136.229284,33.933078],[136.227351,33.929831],[136.219083,33.923479],[136.213174,33.921963],[136.212607,33.917936],[136.210005,33.914463],[136.204227,33.910938],[136.196578,33.908406],[136.192152,33.908197],[136.181387,33.903894],[136.169716,33.903613],[136.165006,33.905014],[136.161232,33.907817],[136.159502,33.905947],[136.159802,33.905183],[136.164763,33.899546],[136.166119,33.8962],[136.165836,33.892689],[136.164374,33.890009],[136.16136,33.887501],[136.157219,33.886035],[136.153315,33.885905],[136.148211,33.887198],[136.145787,33.882501],[136.143199,33.880487],[136.139383,33.879161],[136.137462,33.875752],[136.134476,33.873268],[136.129812,33.8716],[136.124575,33.871782],[136.118865,33.874686],[136.117009,33.877182],[136.116211,33.880092],[136.110077,33.880086],[136.108111,33.878466],[136.095477,33.865171],[136.087285,33.854815],[136.066424,33.821468],[136.062371,33.811225],[136.058303,33.806246],[136.055512,33.801282],[136.048305,33.782907],[136.037897,33.760345],[136.033253,33.744876],[136.033651,33.742971],[136.02174,33.741974],[136.020866,33.738661],[136.019394,33.738725],[136.020858,33.74199],[136.020653,33.745415],[136.02266,33.752803],[136.027988,33.768123],[136.033158,33.780319],[136.036474,33.784981],[136.038172,33.786114],[136.037179,33.789099],[136.039472,33.793139],[136.040556,33.793297],[136.043792,33.800396],[136.04404,33.801038],[136.042603,33.801599],[136.045186,33.808839],[136.051329,33.815029],[136.052164,33.81908],[136.056944,33.829791],[136.064093,33.84159],[136.066564,33.843305],[136.068441,33.848613],[136.073373,33.856587],[136.085665,33.872184],[136.087845,33.873666],[136.087395,33.873985],[136.094299,33.880034],[136.098717,33.885473],[136.100359,33.886532],[136.10139,33.885679],[136.107226,33.890434],[136.109649,33.890711],[136.10866,33.889989],[136.109375,33.889987],[136.11038,33.890585],[136.110192,33.891698],[136.114902,33.895417],[136.117691,33.895133],[136.118278,33.895618],[136.117052,33.897575],[136.118622,33.899134],[136.120318,33.899173],[136.12503,33.897249],[136.126625,33.893758],[136.128089,33.892904],[136.125702,33.89339],[136.126862,33.891953],[136.132612,33.890057],[136.145045,33.895997],[136.144326,33.897591],[136.144775,33.899428],[136.143552,33.899926],[136.142503,33.902293],[136.140841,33.902084],[136.13958,33.903251],[136.139072,33.904782],[136.139685,33.906327],[136.137483,33.909823],[136.144442,33.91345],[136.148458,33.913166],[136.147579,33.916145],[136.145425,33.917218],[136.147445,33.921071],[136.149793,33.921707],[136.153082,33.920886],[136.152784,33.922284],[136.151548,33.923246],[136.148294,33.923608],[136.14571,33.927498],[136.146983,33.92957],[136.146599,33.93053],[136.147812,33.930396],[136.149172,33.932247],[136.153259,33.930719],[136.155142,33.930588],[136.159374,33.931952],[136.163808,33.930555],[136.165535,33.929613],[136.163143,33.925165],[136.164816,33.921541],[136.168736,33.920268],[136.168034,33.924658],[136.171072,33.922434],[136.17615,33.920917],[136.178489,33.918766],[136.181477,33.923346],[136.185694,33.923969],[136.186275,33.926785],[136.188167,33.928102],[136.192435,33.92874],[136.194739,33.929967],[136.194802,33.931259],[136.196401,33.932213],[136.195006,33.934271],[136.195027,33.935735],[136.197102,33.935711],[136.19876,33.932711],[136.198159,33.942081],[136.200256,33.941861],[136.207627,33.935747],[136.208419,33.936448],[136.210668,33.936161],[136.2109,33.937136],[136.213196,33.937743],[136.21271,33.939015],[136.206352,33.941269],[136.203522,33.944251],[136.204085,33.945786],[136.205769,33.945677],[136.208611,33.946992],[136.206841,33.949283],[136.206938,33.952222],[136.210005,33.955037],[136.212899,33.95595],[136.218581,33.954677],[136.220733,33.956382],[136.222033,33.961334],[136.219522,33.967093],[136.223887,33.967232],[136.224158,33.968439],[136.223191,33.970826],[136.221765,33.972006],[136.219604,33.969337],[136.218142,33.969577],[136.215386,33.971887],[136.214158,33.96989],[136.210993,33.969473],[136.209277,33.967298],[136.206789,33.966865],[136.203758,33.964711],[136.2033,33.967117],[136.20156,33.96912],[136.206168,33.969447],[136.213765,33.978415],[136.20988,33.980911],[136.215333,33.98312],[136.215298,33.984153],[136.214317,33.984654],[136.209982,33.985058],[136.209675,33.986595],[136.208645,33.987134],[136.203414,33.987665],[136.204582,33.991762],[136.208136,33.993261],[136.208955,33.996136],[136.210712,33.997455],[136.211127,33.997078],[136.213027,33.993047],[136.212994,33.989752],[136.214408,33.987225],[136.218388,33.9892],[136.221952,33.992977],[136.226926,33.988719],[136.231287,33.987482],[136.235412,33.987678],[136.236189,33.983824],[136.238997,33.981685],[136.23694,33.981685],[136.236726,33.980981],[136.24165,33.97866],[136.241484,33.977343],[136.243358,33.974956],[136.250852,33.976161],[136.251931,33.974957],[136.257889,33.973921],[136.261267,33.976022],[136.262022,33.979296],[136.261666,33.983814],[136.257472,33.98598],[136.25571,33.988603],[136.257372,33.98987],[136.257564,33.991001],[136.260257,33.992176],[136.261188,33.996748],[136.264697,33.993953],[136.265477,33.994949],[136.264044,33.995796],[136.264316,33.998439],[136.260632,34.001591],[136.250816,34.005931],[136.251375,34.00848],[136.253937,34.009135],[136.250698,34.012318],[136.250775,34.013209],[136.254911,34.009157],[136.253304,34.007642],[136.253938,34.006341],[136.255337,34.006466],[136.262467,34.010907],[136.261429,34.012049],[136.258777,34.012494],[136.258201,34.012381],[136.258007,34.010389],[136.254385,34.013261],[136.254784,34.013802],[136.25617,34.012802],[136.257563,34.013996],[136.262084,34.013902],[136.262874,34.015392],[136.261381,34.01841],[136.26231,34.020072],[136.261924,34.020678],[136.259971,34.02062],[136.257108,34.025075],[136.254317,34.027541],[136.248366,34.030578],[136.241927,34.03151],[136.238522,34.033249],[136.236717,34.031148],[136.233649,34.031412],[136.229618,34.033674],[136.229074,34.034736],[136.224126,34.033976],[136.221757,34.035267],[136.223541,34.040466],[136.225142,34.041158],[136.225692,34.043177],[136.2308,34.047846],[136.230737,34.050111],[136.232736,34.052011],[136.232501,34.054082],[136.234444,34.056383],[136.242509,34.060361],[136.243403,34.06382],[136.253946,34.070979],[136.252056,34.07246],[136.252874,34.073206],[136.249568,34.078178],[136.254331,34.088142],[136.257589,34.090073],[136.255722,34.091503],[136.255481,34.093429],[136.26654,34.099892],[136.267192,34.097193],[136.270266,34.095841],[136.27225,34.093933],[136.274193,34.093528],[136.276632,34.096044],[136.280284,34.097407],[136.284036,34.097637],[136.287503,34.101231],[136.291738,34.101865],[136.296646,34.100551],[136.299576,34.102113],[136.302317,34.098848],[136.302159,34.100547],[136.304328,34.104073],[136.307623,34.105188],[136.30549,34.107488],[136.307557,34.109506],[136.308294,34.111998],[136.307793,34.113424],[136.311492,34.115119],[136.315385,34.11416],[136.315338,34.11523],[136.313159,34.115508],[136.31258,34.117616],[136.313118,34.11789],[136.310572,34.117505],[136.309054,34.118121],[136.308164,34.117514],[136.306543,34.118104],[136.307295,34.119188],[136.305781,34.119158],[136.305974,34.117868],[136.304364,34.116931],[136.298255,34.118463],[136.298046,34.117269],[136.296134,34.116783],[136.297086,34.115053],[136.292134,34.112774],[136.289309,34.114854],[136.291347,34.117579],[136.287707,34.117525],[136.286664,34.116764],[136.284052,34.11803],[136.283003,34.120801],[136.28319,34.122482],[136.285675,34.123806],[136.285712,34.12561],[136.290114,34.126941],[136.290406,34.127649],[136.288292,34.129912],[136.287154,34.130112],[136.288426,34.131038],[136.287963,34.131901],[136.288549,34.132811],[136.280002,34.131085],[136.280619,34.132919],[136.278935,34.135046],[136.279678,34.136375],[136.277005,34.136421],[136.276461,34.139485],[136.277538,34.141656],[136.280709,34.1432],[136.279229,34.147491],[136.281915,34.148521],[136.282359,34.14957],[136.27956,34.151349],[136.280034,34.152585],[136.281,34.150707],[136.281122,34.150647]]],[[[136.320375,34.11665],[136.319928,34.116416],[136.320426,34.116648],[136.320375,34.11665]]],[[[136.319694,34.116299],[136.319173,34.116221],[136.319688,34.116278],[136.319694,34.116299]]],[[[136.320345,34.115787],[136.319152,34.114788],[136.32063,34.115308],[136.320402,34.115788],[136.320345,34.115787]]],[[[136.321775,34.115398],[136.32125,34.115325],[136.32181,34.115377],[136.321775,34.115398]]],[[[136.314313,34.113813],[136.313815,34.113743],[136.31441,34.11379],[136.314313,34.113813]]],[[[136.154588,33.92785],[136.155154,33.930248],[136.150552,33.931382],[136.148825,33.930159],[136.147462,33.927729],[136.147978,33.92511],[136.153226,33.923026],[136.154588,33.92785]]],[[[136.288849,34.156489],[136.288273,34.156404],[136.288856,34.156511],[136.288849,34.156489]]],[[[136.305582,34.158492],[136.30519,34.158019],[136.305547,34.158505],[136.305582,34.158492]]],[[[136.306454,34.163712],[136.305899,34.163521],[136.306446,34.163729],[136.306454,34.163712]]],[[[136.290562,34.163959],[136.290089,34.163783],[136.290582,34.163974],[136.290562,34.163959]]],[[[136.304074,34.163659],[136.305431,34.163885],[136.304236,34.163188],[136.304067,34.161218],[136.307403,34.160433],[136.307197,34.159946],[136.305052,34.159632],[136.305593,34.158765],[136.300265,34.156564],[136.300185,34.158287],[136.301476,34.159651],[136.300218,34.16264],[136.303979,34.163696],[136.304074,34.163659]]],[[[136.300048,34.167683],[136.299553,34.167418],[136.300046,34.167696],[136.300048,34.167683]]],[[[136.298488,34.16789],[136.299556,34.168035],[136.297852,34.167294],[136.296853,34.165424],[136.292452,34.166104],[136.290202,34.165332],[136.288567,34.162041],[136.289044,34.160422],[136.290728,34.160262],[136.288941,34.159463],[136.288671,34.158288],[136.289615,34.15786],[136.287475,34.156588],[136.288272,34.157576],[136.287917,34.163525],[136.289448,34.164023],[136.289075,34.164455],[136.290356,34.165822],[136.293546,34.166504],[136.294207,34.167465],[136.29794,34.168017],[136.298488,34.16789]]],[[[136.420392,34.213651],[136.423688,34.209469],[136.423867,34.204702],[136.420655,34.200173],[136.415018,34.197911],[136.414702,34.190608],[136.412005,34.186165],[136.407228,34.182288],[136.399776,34.178974],[136.396212,34.178289],[136.391977,34.178762],[136.388462,34.175262],[136.385358,34.173685],[136.379134,34.193374],[136.379754,34.19479],[136.378679,34.195828],[136.376504,34.195681],[136.374384,34.197378],[136.375091,34.199715],[136.377126,34.199899],[136.376062,34.200992],[136.376301,34.202092],[136.379091,34.202352],[136.379571,34.203279],[136.378481,34.203412],[136.378536,34.204751],[136.387063,34.209091],[136.396501,34.203258],[136.39848,34.202802],[136.399927,34.204832],[136.402933,34.206649],[136.409307,34.206764],[136.410549,34.207769],[136.412761,34.208069],[136.412895,34.210609],[136.414441,34.210816],[136.414748,34.211782],[136.416339,34.211747],[136.416166,34.213559],[136.418589,34.212641],[136.418196,34.211219],[136.419585,34.212146],[136.419094,34.213017],[136.419981,34.21393],[136.420392,34.213651]]],[[[136.408298,34.206049],[136.408608,34.206477],[136.408335,34.205978],[136.408298,34.206049]]],[[[136.402597,34.205053],[136.402801,34.204468],[136.402653,34.205049],[136.402597,34.205053]]],[[[136.399524,34.202875],[136.399177,34.202509],[136.399597,34.202896],[136.399524,34.202875]]],[[[136.396021,34.202944],[136.396288,34.203377],[136.395983,34.202966],[136.396021,34.202944]]],[[[136.403884,34.196537],[136.402843,34.195781],[136.403887,34.196509],[136.403884,34.196537]]],[[[136.380766,34.194349],[136.380236,34.194296],[136.380772,34.194362],[136.380766,34.194349]]],[[[136.403213,34.192875],[136.402298,34.19238],[136.40347,34.192301],[136.403277,34.192871],[136.403213,34.192875]]],[[[136.380529,34.192089],[136.381113,34.192765],[136.380473,34.192098],[136.380529,34.192089]]],[[[136.402717,34.192025],[136.403233,34.192001],[136.402629,34.192031],[136.402717,34.192025]]],[[[136.400856,34.190139],[136.400209,34.190202],[136.400927,34.190142],[136.400856,34.190139]]],[[[136.398659,34.189754],[136.399157,34.189968],[136.398171,34.190206],[136.398618,34.189761],[136.398659,34.189754]]],[[[135.852344,34.37676],[135.855359,34.377698],[135.857021,34.376246],[135.858341,34.376119],[135.861409,34.377286],[135.862075,34.376605],[135.868623,34.375693],[135.870338,34.374425],[135.869652,34.371216],[135.87137,34.369628],[135.871904,34.365101],[135.871058,34.361297],[135.87257,34.358059],[135.874371,34.359583],[135.880426,34.35853],[135.884252,34.360939],[135.88858,34.362573],[135.889245,34.361937],[135.889601,34.359011],[135.886677,34.34764],[135.88834,34.339781],[135.886869,34.33826],[135.88369,34.337184],[135.881254,34.332909],[135.878566,34.33234],[135.876957,34.334112],[135.877989,34.335539],[135.87796,34.338788],[135.876403,34.340881],[135.869236,34.343344],[135.868363,34.348875],[135.870107,34.350581],[135.868711,34.353179],[135.853022,34.355898],[135.851743,34.357581],[135.849659,34.356971],[135.846711,34.361021],[135.845555,34.361241],[135.847358,34.362491],[135.846876,34.367292],[135.849053,34.36978],[135.847445,34.371324],[135.847351,34.375762],[135.849703,34.377152],[135.848356,34.380254],[135.846867,34.380883],[135.845973,34.382524],[135.844893,34.386543],[135.847202,34.38656],[135.848886,34.382546],[135.85082,34.381371],[135.852506,34.377128],[135.852344,34.37676]]]]}}
