{"type":"Feature","id":"attraction-national-park-W761166517","properties":{"id":"attraction-national-park-W761166517","kind":"attraction","name":"三陸復興国立公園","shortName":"三陸復興国立公園","context":"青森県・岩手県・宮城県","subtype":"national-park","subtypeLabel":"国立公園・大規模自然","statusLabel":"環境省指定国立公園／陸域・海域を含む区域","aliases":["Sanriku Fukko National Park"],"osmType":"composite","osmId":null,"osmDate":null,"officialAreaKm2":1013.74,"areaSourceLabel":"環境省「三陸復興国立公園」陸域・海域面積","areaSourceUrl":"https://tohoku.env.go.jp/park.html","eventSourceLabel":"環境省「国立公園一覧」","eventSourceUrl":"https://www.env.go.jp/park/parks/","boundarySourceLabel":"Protected Planet / WDPA（環境省提供データ）","boundarySourceUrl":"https://www.protectedplanet.net/en/thematic-areas/wdpa","geometryFile":"attractions/national-park-W761166517.geojson"},"geometry":{"type":"MultiPolygon","coordinates":[[[[141.655961,38.910361],[141.666107,38.907591],[141.673374,38.902258],[141.678309,38.902538],[141.682741,38.901437],[141.685746,38.899601],[141.687906,38.896968],[141.688812,38.893747],[141.688206,38.890536],[141.685351,38.88689],[141.681426,38.884822],[141.679863,38.879486],[141.681659,38.876836],[141.682408,38.873558],[141.685283,38.870078],[141.687406,38.863044],[141.687148,38.856987],[141.685843,38.85299],[141.684063,38.850506],[141.679171,38.847509],[141.672973,38.846812],[141.665967,38.849447],[141.660734,38.848975],[141.656843,38.849616],[141.653514,38.851205],[141.651208,38.85335],[141.651786,38.850444],[141.655388,38.846035],[141.656679,38.843138],[141.656567,38.83967],[141.654547,38.83581],[141.650173,38.832588],[141.638845,38.829214],[141.639718,38.82509],[141.638486,38.821306],[141.635532,38.818383],[141.631142,38.816575],[141.625746,38.816326],[141.62107,38.817719],[141.617777,38.820115],[141.614594,38.825028],[141.613261,38.822878],[141.615324,38.819521],[141.615463,38.815747],[141.613425,38.812053],[141.612911,38.806346],[141.609085,38.802312],[141.603418,38.800532],[141.597384,38.80127],[141.592499,38.804529],[141.590195,38.809415],[141.588094,38.804154],[141.58371,38.800499],[141.579596,38.799261],[141.575078,38.799336],[141.571448,38.798171],[141.56639,38.797805],[141.563281,38.794312],[141.556639,38.790654],[141.537948,38.786083],[141.534549,38.783279],[141.53019,38.781837],[141.529645,38.780276],[141.530001,38.775043],[141.53501,38.773832],[141.538899,38.770992],[141.540803,38.766729],[141.544642,38.762106],[141.545219,38.759286],[141.544737,38.756652],[141.54749,38.754382],[141.604059,38.773099],[141.611408,38.766576],[141.616004,38.760922],[141.619305,38.755174],[141.621584,38.749005],[141.623131,38.741384],[141.623977,38.722788],[141.625646,38.715556],[141.625865,38.709074],[141.623842,38.692899],[141.620183,38.682868],[141.612476,38.67006],[141.606466,38.662796],[141.598372,38.656295],[141.587718,38.650445],[141.589112,38.640426],[141.589124,38.632149],[141.588091,38.625368],[141.585909,38.619112],[141.540276,38.628122],[141.539375,38.616006],[141.536665,38.611279],[141.535388,38.606791],[141.532938,38.603436],[141.525229,38.597252],[141.520462,38.595258],[141.518051,38.59251],[141.514519,38.590619],[141.510126,38.587097],[141.508507,38.584471],[141.505981,38.582365],[141.498221,38.579522],[141.492485,38.575078],[141.4836,38.573398],[141.486469,38.571697],[141.489144,38.568432],[141.492832,38.569218],[141.496929,38.56898],[141.500884,38.567509],[141.503742,38.565121],[141.507027,38.568797],[141.510438,38.570931],[141.514924,38.572063],[141.51941,38.571739],[141.523411,38.570232],[141.526375,38.567834],[141.528099,38.5647],[141.52831,38.561377],[141.535135,38.562266],[141.541556,38.559855],[141.544111,38.557642],[141.546795,38.552607],[141.545897,38.539452],[141.54871,38.537089],[141.550408,38.533898],[141.55505,38.533087],[141.558697,38.531019],[141.560901,38.528333],[141.561782,38.525173],[141.561273,38.52146],[141.559961,38.519048],[141.553563,38.51423],[141.552587,38.509221],[141.554182,38.505254],[141.55339,38.500472],[141.548651,38.492631],[141.548848,38.489652],[141.548008,38.486976],[141.543403,38.481259],[141.53779,38.479151],[141.526941,38.47941],[141.519423,38.481004],[141.506722,38.486709],[141.509958,38.47962],[141.509803,38.47667],[141.508444,38.473902],[141.513758,38.476711],[141.519561,38.47718],[141.53183,38.473086],[141.535661,38.470529],[141.537871,38.466641],[141.537868,38.462463],[141.542642,38.458582],[141.543694,38.456103],[141.543798,38.453258],[141.549928,38.451048],[141.555608,38.44554],[141.556651,38.441664],[141.555407,38.43765],[141.553328,38.43536],[141.549982,38.433499],[141.545787,38.432671],[141.540139,38.43321],[141.535949,38.429925],[141.527896,38.427921],[141.515349,38.42969],[141.511761,38.431787],[141.509268,38.435117],[141.507444,38.435201],[141.504541,38.431056],[141.498881,38.427624],[141.494572,38.426975],[141.489707,38.427837],[141.483552,38.427664],[141.486567,38.419582],[141.495689,38.424283],[141.503018,38.425004],[141.508888,38.423165],[141.518357,38.415897],[141.520421,38.419355],[141.523676,38.421647],[141.527751,38.422813],[141.532085,38.422707],[141.536662,38.420992],[141.539666,38.418178],[141.541117,38.414379],[141.540415,38.410435],[141.543998,38.412669],[141.552172,38.415346],[141.556623,38.415257],[141.561167,38.41357],[141.564784,38.414775],[141.568712,38.414947],[141.57401,38.413372],[141.577662,38.415723],[141.58223,38.416733],[141.580032,38.420567],[141.580489,38.425281],[141.583955,38.429962],[141.589737,38.433058],[141.594433,38.433392],[141.599879,38.432068],[141.604845,38.428851],[141.606922,38.425499],[141.606839,38.420865],[141.603386,38.41616],[141.59927,38.413958],[141.592294,38.413006],[141.593994,38.410303],[141.600456,38.41118],[141.606307,38.409503],[141.611299,38.40547],[141.612324,38.403102],[141.612336,38.39973],[141.616147,38.396679],[141.617847,38.392432],[141.616558,38.383577],[141.613027,38.379236],[141.602988,38.375161],[141.598619,38.37494],[141.594916,38.37568],[141.589907,38.378978],[141.587333,38.383907],[141.581414,38.386743],[141.578709,38.390772],[141.573764,38.392172],[141.569442,38.395406],[141.561841,38.395796],[141.55652,38.393476],[141.551817,38.393081],[141.55158,38.387346],[141.5489,38.383275],[141.536981,38.374042],[141.533012,38.372518],[141.528825,38.372132],[141.530762,38.368855],[141.537799,38.366868],[141.540207,38.365019],[141.54206,38.362283],[141.542952,38.358881],[141.542515,38.355815],[141.540926,38.353177],[141.537745,38.350352],[141.54242,38.3471],[141.54577,38.340611],[141.54562,38.337642],[141.543409,38.333752],[141.542296,38.328109],[141.546429,38.326469],[141.549183,38.324153],[141.552318,38.31648],[141.558479,38.320353],[141.562839,38.322038],[141.566288,38.322569],[141.57203,38.322058],[141.578386,38.319343],[141.582208,38.31466],[141.586489,38.313748],[141.595534,38.309552],[141.599619,38.306136],[141.600961,38.302867],[141.600272,38.297139],[141.593769,38.287312],[141.597102,38.279814],[141.597176,38.275161],[141.594423,38.270499],[141.583137,38.261826],[141.577604,38.260167],[141.570902,38.260753],[141.565564,38.263389],[141.559602,38.269755],[141.549168,38.276201],[141.542572,38.283064],[141.541218,38.285744],[141.540876,38.288738],[141.538921,38.292011],[141.538113,38.291914],[141.536512,38.283333],[141.538146,38.275603],[141.534988,38.268309],[141.531494,38.265016],[141.528064,38.263264],[141.523589,38.262367],[141.5182,38.262563],[141.5129,38.263863],[141.504044,38.268358],[141.501808,38.270761],[141.499202,38.275757],[141.498049,38.282561],[141.491433,38.283085],[141.494374,38.27811],[141.497913,38.274852],[141.500322,38.268997],[141.507605,38.262997],[141.50978,38.260203],[141.510599,38.256746],[141.509855,38.25352],[141.511965,38.250899],[141.512775,38.248512],[141.51256,38.24354],[141.508889,38.239181],[141.505794,38.237664],[141.50188,38.236938],[141.495015,38.237464],[141.489031,38.239971],[141.475806,38.241423],[141.471851,38.243124],[141.466312,38.247347],[141.461332,38.256237],[141.449568,38.261299],[141.446967,38.26387],[141.445684,38.266753],[141.444946,38.275327],[141.448275,38.280616],[141.448645,38.285023],[141.4508,38.288392],[141.45343,38.290527],[141.457883,38.292384],[141.470325,38.292752],[141.467119,38.294518],[141.46489,38.296946],[141.457021,38.299713],[141.449743,38.305099],[141.444294,38.305513],[141.440426,38.306852],[141.436177,38.311081],[141.43538,38.315751],[141.437429,38.320381],[141.453577,38.330707],[141.453037,38.331402],[141.446444,38.331662],[141.442204,38.333645],[141.435472,38.331986],[141.427845,38.332417],[141.42223,38.334991],[141.418393,38.335414],[141.409758,38.338372],[141.406806,38.340419],[141.404779,38.34344],[141.404285,38.346331],[141.405037,38.349395],[141.403519,38.353855],[141.404478,38.35833],[141.406475,38.360936],[141.409769,38.363035],[141.411651,38.369074],[141.408565,38.371106],[141.406645,38.373674],[141.405919,38.376226],[141.406327,38.379643],[141.408792,38.383693],[141.412976,38.385657],[141.420378,38.38604],[141.422909,38.385152],[141.422969,38.384221],[141.423944,38.383895],[141.42344,38.383182],[141.428575,38.381595],[141.429985,38.381958],[141.429621,38.381538],[141.430249,38.381375],[141.431736,38.382559],[141.438785,38.379932],[141.438603,38.380546],[141.441991,38.380639],[141.441364,38.3754],[141.455982,38.372455],[141.456941,38.370561],[141.458429,38.372045],[141.462158,38.37119],[141.461737,38.373597],[141.462474,38.375083],[141.461682,38.376712],[141.46665,38.381943],[141.465995,38.381824],[141.46593,38.383069],[141.465356,38.38282],[141.463076,38.386555],[141.460251,38.387121],[141.458879,38.389744],[141.458945,38.391881],[141.455451,38.39205],[141.453688,38.393121],[141.451738,38.396499],[141.45193,38.399528],[141.45028,38.401399],[141.451321,38.403138],[141.451052,38.407203],[141.449088,38.410063],[141.446901,38.410297],[141.445576,38.411803],[141.448971,38.417636],[141.447816,38.421505],[141.446424,38.422979],[141.447126,38.428343],[141.446417,38.431071],[141.456498,38.436569],[141.459803,38.432398],[141.464988,38.431274],[141.468063,38.439343],[141.46817,38.442976],[141.469889,38.44502],[141.46981,38.447218],[141.474433,38.450205],[141.474096,38.453795],[141.476581,38.456363],[141.475051,38.463346],[141.475869,38.463101],[141.485676,38.469468],[141.487221,38.472848],[141.490299,38.473379],[141.492853,38.475917],[141.493647,38.477897],[141.491878,38.479564],[141.493086,38.481993],[141.491201,38.484862],[141.491563,38.486173],[141.489074,38.486867],[141.491519,38.48951],[141.490114,38.489147],[141.486859,38.491375],[141.487889,38.49657],[141.489511,38.498626],[141.495484,38.499826],[141.513618,38.510223],[141.515164,38.510417],[141.513963,38.514832],[141.512095,38.515091],[141.513277,38.517395],[141.51232,38.51989],[141.51497,38.521734],[141.516025,38.52505],[141.515807,38.528588],[141.514713,38.528927],[141.51447,38.530698],[141.513211,38.531198],[141.512999,38.532653],[141.511763,38.53356],[141.511653,38.534766],[141.5127,38.53484],[141.512749,38.536203],[141.511533,38.53547],[141.51174,38.5365],[141.510717,38.535383],[141.501332,38.536496],[141.491114,38.534322],[141.489212,38.535464],[141.488034,38.537466],[141.486942,38.5372],[141.486717,38.538277],[141.484798,38.538314],[141.485413,38.539723],[141.481785,38.539094],[141.477146,38.540328],[141.479427,38.547374],[141.477906,38.551108],[141.473706,38.55358],[141.473196,38.555902],[141.472059,38.556857],[141.470717,38.556875],[141.468612,38.558546],[141.465266,38.557397],[141.461878,38.560315],[141.458741,38.561718],[141.458594,38.56072],[141.460272,38.559389],[141.46071,38.557969],[141.458017,38.557365],[141.457062,38.558147],[141.456082,38.561286],[141.456642,38.564617],[141.454891,38.569539],[141.447777,38.567326],[141.443554,38.565045],[141.450553,38.57447],[141.448062,38.575552],[141.44986,38.577502],[141.45351,38.579451],[141.453231,38.577437],[141.455485,38.576975],[141.465205,38.583287],[141.467325,38.581987],[141.470132,38.582203],[141.475691,38.585924],[141.477471,38.585862],[141.478483,38.583879],[141.480452,38.583002],[141.482089,38.583193],[141.482112,38.584871],[141.483176,38.584047],[141.483376,38.585725],[141.486049,38.584687],[141.485893,38.585932],[141.487511,38.587013],[141.486806,38.588793],[141.489167,38.590097],[141.491254,38.589813],[141.491854,38.591114],[141.494753,38.592167],[141.49681,38.594049],[141.495246,38.596809],[141.49532,38.598766],[141.497743,38.600679],[141.502283,38.600747],[141.505947,38.603121],[141.507941,38.608523],[141.507338,38.611195],[141.508273,38.613861],[141.506635,38.615128],[141.498404,38.61726],[141.497243,38.619524],[141.493448,38.622941],[141.490305,38.620703],[141.488436,38.620573],[141.48541,38.618675],[141.484652,38.619569],[141.478903,38.619617],[141.478103,38.620357],[141.474301,38.620884],[141.47466,38.626389],[141.472576,38.62973],[141.47272,38.627999],[141.470593,38.630429],[141.470276,38.633556],[141.471312,38.633101],[141.471656,38.635411],[141.474701,38.637988],[141.475091,38.64323],[141.468143,38.644948],[141.465014,38.64297],[141.463174,38.642774],[141.45023,38.657625],[141.46195,38.668744],[141.467511,38.672586],[141.467852,38.673501],[141.466817,38.67433],[141.47079,38.677209],[141.471051,38.679021],[141.475799,38.680224],[141.481256,38.677541],[141.48514,38.676833],[141.489161,38.677072],[141.490915,38.678273],[141.491341,38.680463],[141.489851,38.681535],[141.489587,38.682852],[141.487881,38.684326],[141.485676,38.684843],[141.489143,38.690695],[141.489775,38.689721],[141.495002,38.689026],[141.506445,38.690091],[141.507484,38.691696],[141.506428,38.692512],[141.506801,38.69363],[141.509649,38.6962],[141.510023,38.700102],[141.512137,38.699628],[141.515365,38.700422],[141.519744,38.705065],[141.519743,38.706231],[141.518087,38.706918],[141.518201,38.70797],[141.520501,38.708375],[141.521857,38.710264],[141.519635,38.714744],[141.522633,38.714645],[141.523882,38.713439],[141.541452,38.708926],[141.54533,38.712313],[141.551082,38.711578],[141.555999,38.714786],[141.555582,38.71798],[141.556718,38.720231],[141.556255,38.722227],[141.557272,38.722872],[141.557867,38.725054],[141.556843,38.726519],[141.554755,38.727031],[141.552261,38.730282],[141.546167,38.733112],[141.546069,38.73579],[141.545047,38.737999],[141.539407,38.738116],[141.53755,38.739246],[141.538108,38.740702],[141.536064,38.742665],[141.534308,38.743093],[141.53367,38.745739],[141.530242,38.747187],[141.528859,38.749211],[141.528237,38.752694],[141.526394,38.754389],[141.526006,38.757173],[141.523844,38.758328],[141.521595,38.758203],[141.519967,38.759269],[141.511552,38.761054],[141.508619,38.766558],[141.507164,38.767611],[141.508128,38.77012],[141.513686,38.769747],[141.51463,38.772147],[141.516985,38.774624],[141.517376,38.778064],[141.516214,38.780063],[141.516989,38.78328],[141.515901,38.785173],[141.515883,38.787305],[141.517591,38.789172],[141.526038,38.791575],[141.529771,38.794511],[141.534931,38.795587],[141.53853,38.798192],[141.543638,38.798666],[141.547248,38.801602],[141.54915,38.801326],[141.554558,38.803339],[141.553981,38.808174],[141.558787,38.812808],[141.564161,38.813973],[141.573186,38.812873],[141.574797,38.815065],[141.576209,38.815265],[141.573823,38.818951],[141.573392,38.821042],[141.577497,38.827366],[141.588102,38.824022],[141.59025,38.822228],[141.591256,38.822797],[141.591556,38.825088],[141.595308,38.828659],[141.597157,38.829449],[141.600807,38.828931],[141.602178,38.829535],[141.602751,38.829915],[141.601514,38.832432],[141.602214,38.832746],[141.5993,38.835301],[141.597203,38.836106],[141.597851,38.835143],[141.596214,38.83405],[141.594485,38.834613],[141.592329,38.833573],[141.597483,38.839728],[141.601366,38.84149],[141.606094,38.84194],[141.60799,38.845085],[141.611267,38.847434],[141.613999,38.848382],[141.613673,38.847168],[141.611172,38.847022],[141.611439,38.846031],[141.613948,38.845056],[141.617445,38.841537],[141.616964,38.839312],[141.617521,38.83698],[141.61928,38.837667],[141.620283,38.836351],[141.624641,38.837826],[141.622902,38.839422],[141.624794,38.843034],[141.629619,38.84557],[141.625278,38.846984],[141.62075,38.850721],[141.620025,38.855806],[141.618919,38.857338],[141.620519,38.860277],[141.620612,38.862304],[141.617771,38.864219],[141.620626,38.866774],[141.622851,38.867156],[141.622278,38.871375],[141.617538,38.871491],[141.615031,38.873194],[141.6128,38.872847],[141.607609,38.874923],[141.605892,38.873293],[141.602339,38.872591],[141.602766,38.870979],[141.604717,38.870119],[141.606417,38.867214],[141.610524,38.866247],[141.605962,38.864036],[141.600208,38.863735],[141.595239,38.865491],[141.591795,38.868806],[141.590167,38.872595],[141.590691,38.876324],[141.596545,38.883407],[141.600784,38.885913],[141.601798,38.884201],[141.603523,38.885776],[141.603383,38.882602],[141.604458,38.879998],[141.608359,38.880084],[141.609424,38.881608],[141.609176,38.882556],[141.611142,38.883597],[141.610208,38.886199],[141.611619,38.886564],[141.613051,38.882812],[141.612761,38.881554],[141.61516,38.881939],[141.61538,38.886527],[141.614641,38.888004],[141.621033,38.890312],[141.620676,38.892719],[141.622516,38.892746],[141.623239,38.891996],[141.625601,38.893199],[141.628904,38.89277],[141.630345,38.890913],[141.636192,38.888802],[141.639034,38.889103],[141.640773,38.890739],[141.641511,38.889921],[141.641113,38.888206],[141.638652,38.887332],[141.63827,38.885584],[141.637262,38.88547],[141.638946,38.884197],[141.641743,38.883833],[141.641184,38.882906],[141.642201,38.882445],[141.644607,38.884344],[141.645843,38.883246],[141.642549,38.879934],[141.643004,38.878992],[141.647696,38.879881],[141.648527,38.879122],[141.646673,38.875542],[141.649222,38.875501],[141.649709,38.873329],[141.650838,38.873301],[141.651121,38.872281],[141.655054,38.872206],[141.656113,38.871253],[141.656149,38.869466],[141.657997,38.87006],[141.659718,38.87216],[141.657522,38.87511],[141.659293,38.877811],[141.65848,38.880022],[141.659158,38.880368],[141.656837,38.882907],[141.656871,38.884953],[141.655951,38.886328],[141.653089,38.887894],[141.65291,38.890195],[141.651238,38.891713],[141.651857,38.893143],[141.649222,38.894362],[141.646719,38.898891],[141.645161,38.899759],[141.644655,38.90235],[141.647886,38.901248],[141.649091,38.902335],[141.651677,38.901987],[141.651241,38.903093],[141.651874,38.905078],[141.654779,38.906987],[141.652105,38.907087],[141.652118,38.909146],[141.650852,38.909919],[141.650816,38.908964],[141.649373,38.908757],[141.648133,38.910396],[141.654936,38.91063],[141.655961,38.910361]]],[[[141.559011,38.701777],[141.555349,38.697719],[141.558046,38.697246],[141.559329,38.69885],[141.561748,38.698939],[141.562161,38.701119],[141.559351,38.702114],[141.559011,38.701777]]],[[[141.486102,38.641614],[141.482532,38.641471],[141.482464,38.639211],[141.484626,38.639706],[141.48643,38.638874],[141.487283,38.639855],[141.490463,38.639796],[141.490657,38.63833],[141.491414,38.638121],[141.493203,38.639349],[141.494539,38.63852],[141.496734,38.639334],[141.489847,38.642618],[141.48788,38.641843],[141.486102,38.641614]]],[[[141.504638,38.638091],[141.49855,38.637718],[141.498979,38.63521],[141.50017,38.636722],[141.50493,38.636382],[141.50663,38.635002],[141.50757,38.632667],[141.508748,38.632327],[141.50998,38.636191],[141.508189,38.636815],[141.507698,38.638076],[141.505614,38.636771],[141.50482,38.638033],[141.504638,38.638091]]],[[[141.522213,38.63759],[141.519076,38.637449],[141.518756,38.636347],[141.519711,38.633902],[141.521735,38.634771],[141.522985,38.636647],[141.522322,38.637597],[141.522213,38.63759]]],[[[141.519815,38.611375],[141.518898,38.610777],[141.519654,38.608474],[141.522479,38.608951],[141.5227,38.610806],[141.519994,38.611566],[141.519815,38.611375]]],[[[141.529938,38.533925],[141.526719,38.531332],[141.526957,38.528586],[141.525749,38.525125],[141.528024,38.528223],[141.529051,38.528023],[141.529373,38.529566],[141.532977,38.530258],[141.533528,38.532349],[141.529795,38.532148],[141.530124,38.533878],[141.529938,38.533925]]],[[[141.545109,38.523747],[141.545273,38.523235],[141.541024,38.523202],[141.541544,38.522896],[141.540882,38.520885],[141.537775,38.516961],[141.534427,38.515811],[141.534591,38.514671],[141.536514,38.513893],[141.538317,38.517234],[141.545388,38.522318],[141.545168,38.523823],[141.545109,38.523747]]],[[[141.532908,38.509426],[141.531104,38.50802],[141.530486,38.506113],[141.533758,38.506729],[141.534704,38.50803],[141.535478,38.50975],[141.53336,38.511972],[141.533061,38.509545],[141.532908,38.509426]]],[[[141.517549,38.506671],[141.51701,38.506537],[141.517014,38.508228],[141.514264,38.509282],[141.516278,38.505068],[141.517861,38.505413],[141.517561,38.506505],[141.517549,38.506671]]],[[[141.533334,38.498947],[141.53201,38.497888],[141.528803,38.498056],[141.529363,38.495977],[141.531121,38.495026],[141.534295,38.494899],[141.535059,38.496437],[141.533392,38.497676],[141.534352,38.49844],[141.53352,38.499076],[141.533334,38.498947]]],[[[141.526104,38.496915],[141.523832,38.496213],[141.523669,38.494327],[141.525531,38.494501],[141.525075,38.49565],[141.525829,38.496694],[141.526104,38.496915]]],[[[141.519001,38.461081],[141.516367,38.460661],[141.516336,38.457566],[141.52005,38.455557],[141.522629,38.455858],[141.521869,38.460854],[141.519572,38.461582],[141.519001,38.461081]]],[[[141.494685,38.452699],[141.494686,38.456648],[141.493551,38.458466],[141.492499,38.458677],[141.491166,38.456354],[141.489183,38.45512],[141.489201,38.454034],[141.49138,38.452211],[141.490629,38.450516],[141.493962,38.452462],[141.494685,38.452699]]],[[[141.487823,38.445605],[141.485686,38.444408],[141.484183,38.444484],[141.483579,38.443258],[141.484423,38.44254],[141.484588,38.440787],[141.486656,38.441794],[141.487056,38.439822],[141.48975,38.440179],[141.491852,38.443111],[141.49122,38.445195],[141.489592,38.445662],[141.489224,38.446982],[141.487988,38.445815],[141.487823,38.445605]]],[[[141.523848,38.440464],[141.526653,38.43862],[141.528564,38.43857],[141.53025,38.442332],[141.529415,38.44302],[141.528443,38.442128],[141.526689,38.442506],[141.524058,38.444782],[141.522557,38.441625],[141.523686,38.440801],[141.523848,38.440464]]],[[[141.480364,38.440593],[141.479995,38.441939],[141.478347,38.442752],[141.477314,38.440629],[141.480465,38.440389],[141.480364,38.440593]]],[[[141.461787,38.422253],[141.463488,38.423497],[141.464251,38.426063],[141.460659,38.424929],[141.460431,38.423301],[141.461627,38.42241],[141.461787,38.422253]]],[[[141.471231,38.408553],[141.469975,38.407347],[141.468417,38.408335],[141.467482,38.407986],[141.466719,38.406206],[141.465613,38.405838],[141.469425,38.404308],[141.471643,38.40526],[141.472976,38.408875],[141.471707,38.409009],[141.471231,38.408553]]],[[[141.49487,38.408556],[141.492321,38.408443],[141.489976,38.405371],[141.486673,38.405361],[141.485893,38.404208],[141.484514,38.404297],[141.483814,38.40145],[141.482632,38.400773],[141.483221,38.400909],[141.481798,38.3987],[141.48036,38.398556],[141.480487,38.397194],[141.483074,38.396529],[141.486312,38.392671],[141.487415,38.389972],[141.487563,38.387217],[141.481543,38.385041],[141.486149,38.380248],[141.488026,38.37928],[141.490718,38.379841],[141.489183,38.381985],[141.487698,38.382667],[141.488667,38.384465],[141.489782,38.384489],[141.490226,38.385632],[141.492889,38.383484],[141.495188,38.383055],[141.497192,38.383686],[141.502202,38.388004],[141.503297,38.390374],[141.502352,38.392153],[141.504041,38.393147],[141.512142,38.393103],[141.514361,38.391519],[141.515974,38.39171],[141.515619,38.393762],[141.516736,38.395009],[141.502944,38.408123],[141.499666,38.406419],[141.498315,38.407445],[141.496095,38.407126],[141.495839,38.408391],[141.494992,38.408699],[141.49487,38.408556]]],[[[141.591209,38.401079],[141.589288,38.399057],[141.590096,38.397866],[141.589668,38.397401],[141.590704,38.397674],[141.591795,38.396617],[141.592409,38.397172],[141.591608,38.398199],[141.59414,38.398759],[141.595398,38.398187],[141.596196,38.39897],[141.596634,38.402801],[141.591209,38.401079]]],[[[141.524536,38.392385],[141.521505,38.392058],[141.523083,38.389528],[141.526541,38.388708],[141.527983,38.391547],[141.52596,38.392335],[141.524536,38.392385]]],[[[141.515432,38.389072],[141.516941,38.389598],[141.517091,38.391778],[141.515324,38.390775],[141.515001,38.388894],[141.515432,38.389072]]],[[[141.46934,38.391637],[141.471212,38.391789],[141.472982,38.393413],[141.468616,38.397505],[141.466754,38.400748],[141.465764,38.399786],[141.462937,38.399244],[141.467103,38.393142],[141.466854,38.391532],[141.467567,38.390952],[141.466979,38.3898],[141.469088,38.391566],[141.46934,38.391637]]],[[[141.476528,38.375428],[141.473616,38.37313],[141.477465,38.371921],[141.479673,38.372177],[141.479313,38.369804],[141.477709,38.367707],[141.478628,38.36702],[141.480321,38.36659],[141.483332,38.370821],[141.48437,38.370435],[141.484026,38.368743],[141.484775,38.366742],[141.483726,38.363233],[141.484658,38.362231],[141.484128,38.361403],[141.489394,38.36451],[141.490023,38.363906],[141.490185,38.364943],[141.492415,38.362817],[141.492559,38.364842],[141.491269,38.365679],[141.491696,38.366885],[141.491037,38.368168],[141.486264,38.373715],[141.480853,38.375468],[141.476235,38.373762],[141.477532,38.376197],[141.476583,38.375599],[141.476528,38.375428]]],[[[141.439521,38.364962],[141.441243,38.365289],[141.441105,38.366566],[141.430374,38.364858],[141.431306,38.363793],[141.431176,38.361653],[141.434034,38.363456],[141.436013,38.36011],[141.438068,38.361419],[141.437855,38.363451],[141.43958,38.364006],[141.439583,38.364731],[141.439521,38.364962]]],[[[141.519437,38.358747],[141.516559,38.358137],[141.515763,38.35698],[141.516854,38.357062],[141.51776,38.356411],[141.517347,38.355715],[141.519286,38.355136],[141.519,38.354081],[141.521571,38.355551],[141.523953,38.355588],[141.523159,38.357568],[141.519454,38.358786],[141.519437,38.358747]]],[[[141.463792,38.354866],[141.462713,38.354699],[141.461356,38.357997],[141.459534,38.354345],[141.455803,38.351399],[141.455722,38.349781],[141.456695,38.348453],[141.463652,38.347156],[141.462543,38.349072],[141.46206,38.353051],[141.463948,38.354684],[141.463792,38.354866]]],[[[141.424283,38.349883],[141.423609,38.351152],[141.424559,38.352041],[141.424053,38.352336],[141.419561,38.350723],[141.42004,38.349368],[141.42121,38.348906],[141.424258,38.349754],[141.424283,38.349883]]],[[[141.441198,38.350207],[141.448429,38.351047],[141.44777,38.35183],[141.44854,38.352537],[141.448179,38.355416],[141.446483,38.355776],[141.444666,38.353837],[141.443279,38.354806],[141.442162,38.354361],[141.439864,38.351165],[141.441001,38.350348],[141.441198,38.350207]]],[[[141.478388,38.339088],[141.474231,38.337507],[141.470913,38.334837],[141.469904,38.334896],[141.466926,38.321871],[141.471622,38.318532],[141.4737,38.319522],[141.475731,38.318729],[141.475735,38.317894],[141.479255,38.318474],[141.481146,38.317473],[141.482178,38.320114],[141.480007,38.321478],[141.478717,38.324057],[141.478334,38.334548],[141.479378,38.338485],[141.478755,38.339042],[141.478388,38.339088]]],[[[141.520994,38.327263],[141.525506,38.327185],[141.527789,38.327956],[141.526637,38.329418],[141.524992,38.329873],[141.521261,38.327667],[141.520994,38.327263]]],[[[141.487949,38.307057],[141.496875,38.302639],[141.502981,38.302098],[141.503715,38.298495],[141.501672,38.295381],[141.509586,38.290525],[141.510187,38.291488],[141.509482,38.29397],[141.507766,38.294507],[141.509068,38.294704],[141.509028,38.295928],[141.510144,38.295971],[141.511941,38.291743],[141.511352,38.29061],[141.512935,38.289086],[141.514607,38.295267],[141.514022,38.300906],[141.515478,38.303132],[141.51525,38.304835],[141.513876,38.306114],[141.512743,38.306876],[141.510716,38.306489],[141.510401,38.304363],[141.509901,38.304597],[141.509297,38.303186],[141.506534,38.304937],[141.506111,38.306748],[141.505391,38.306882],[141.502651,38.303247],[141.499985,38.305503],[141.50241,38.3061],[141.501515,38.308024],[141.498034,38.311695],[141.4949,38.312613],[141.493478,38.313982],[141.491137,38.313407],[141.489507,38.311194],[141.487878,38.310395],[141.487448,38.307275],[141.487949,38.307057]]],[[[141.481062,38.290407],[141.480327,38.292395],[141.475347,38.291773],[141.481395,38.289841],[141.481062,38.290407]]],[[[141.465077,38.278919],[141.46456,38.278124],[141.463265,38.278595],[141.459194,38.274361],[141.459832,38.271893],[141.460548,38.271718],[141.45925,38.27163],[141.459342,38.27045],[141.463242,38.271572],[141.466764,38.268997],[141.467786,38.270509],[141.470185,38.271393],[141.472253,38.275497],[141.470444,38.280192],[141.468558,38.280974],[141.466678,38.280488],[141.46542,38.279187],[141.465077,38.278919]]],[[[141.489939,38.250654],[141.492087,38.251442],[141.494783,38.251222],[141.495838,38.250534],[141.495924,38.248995],[141.49668,38.250511],[141.496011,38.254787],[141.497276,38.256586],[141.491525,38.258766],[141.48914,38.258278],[141.48879,38.255728],[141.487317,38.253197],[141.489145,38.250809],[141.489939,38.250654]]],[[[141.433655,38.308027],[141.433342,38.304519],[141.434097,38.302268],[141.443798,38.29709],[141.445953,38.294695],[141.447622,38.291191],[141.448242,38.288747],[141.447865,38.285679],[141.444212,38.280997],[141.44095,38.279406],[141.437318,38.278753],[141.427779,38.28051],[141.424577,38.279193],[141.419344,38.278794],[141.412106,38.276306],[141.408429,38.275841],[141.402086,38.277381],[141.396871,38.281944],[141.394987,38.28683],[141.394735,38.290454],[141.395964,38.294843],[141.398577,38.299431],[141.397866,38.306869],[141.401182,38.313416],[141.407684,38.319049],[141.411311,38.320756],[141.415311,38.321477],[141.423481,38.320147],[141.430276,38.315553],[141.432503,38.312315],[141.433536,38.308609],[141.433655,38.308027]]],[[[141.422053,38.289324],[141.422507,38.288652],[141.423973,38.291606],[141.428673,38.29233],[141.429443,38.293765],[141.426083,38.29342],[141.42507,38.294075],[141.426099,38.29455],[141.425167,38.295162],[141.424989,38.294182],[141.424229,38.294528],[141.423883,38.295925],[141.424613,38.296623],[141.422844,38.298396],[141.422748,38.3005],[141.421245,38.301135],[141.421659,38.302156],[141.420158,38.303127],[141.42106,38.303711],[141.419457,38.306077],[141.420188,38.306629],[141.417587,38.307582],[141.415704,38.306342],[141.416695,38.305276],[141.417321,38.3017],[141.416563,38.299333],[141.418005,38.29664],[141.418683,38.290407],[141.421294,38.289835],[141.422053,38.289324]]],[[[141.318334,38.600755],[141.319366,38.599891],[141.317725,38.597399],[141.318758,38.597409],[141.320441,38.593598],[141.322138,38.592039],[141.322914,38.588337],[141.330832,38.587351],[141.333595,38.585385],[141.33343,38.583799],[141.334611,38.582273],[141.341649,38.579921],[141.343816,38.581265],[141.344278,38.580107],[141.342207,38.578871],[141.339255,38.578606],[141.33686,38.576907],[141.330686,38.575851],[141.324373,38.576485],[141.322999,38.578183],[141.318513,38.579299],[141.315416,38.581439],[141.31441,38.581058],[141.314219,38.582087],[141.309246,38.58266],[141.308634,38.586066],[141.307176,38.588294],[141.304441,38.587835],[141.304791,38.594531],[141.302261,38.603003],[141.305438,38.608206],[141.313851,38.612086],[141.315771,38.612252],[141.318487,38.614672],[141.317659,38.609369],[141.315344,38.605971],[141.31708,38.603961],[141.317664,38.601658],[141.318334,38.600755]]],[[[141.357331,38.638185],[141.360288,38.636934],[141.360261,38.636266],[141.352098,38.63229],[141.349032,38.63157],[141.344257,38.628142],[141.338036,38.627877],[141.323802,38.621927],[141.321348,38.619683],[141.316414,38.618226],[141.316403,38.621517],[141.317421,38.623101],[141.319749,38.624153],[141.322785,38.624145],[141.329972,38.630534],[141.332895,38.630613],[141.335,38.631989],[141.335783,38.631105],[141.338828,38.632948],[141.339762,38.632505],[141.342249,38.635261],[141.345249,38.635663],[141.346829,38.636864],[141.349068,38.636331],[141.353653,38.637373],[141.354332,38.638135],[141.356881,38.638127],[141.357331,38.638185]]],[[[141.468978,38.752728],[141.47098,38.753059],[141.471288,38.752486],[141.475263,38.753502],[141.479199,38.751964],[141.478545,38.748401],[141.481735,38.744636],[141.475032,38.741406],[141.471922,38.742924],[141.468232,38.742396],[141.468568,38.740741],[141.46743,38.740252],[141.465769,38.74169],[141.463598,38.742167],[141.462975,38.743305],[141.460015,38.743662],[141.459478,38.743516],[141.46034,38.740255],[141.45876,38.739669],[141.457671,38.741746],[141.453069,38.741616],[141.45441,38.743598],[141.456884,38.744458],[141.457891,38.747596],[141.460205,38.747562],[141.460785,38.746618],[141.462245,38.748182],[141.464379,38.74885],[141.463214,38.750063],[141.464734,38.750803],[141.465203,38.752135],[141.464567,38.754042],[141.463145,38.75427],[141.461709,38.755868],[141.462674,38.757265],[141.464099,38.757618],[141.464557,38.757219],[141.464001,38.756902],[141.468192,38.753107],[141.468978,38.752728]]],[[[141.640011,39.00927],[141.641919,39.009285],[141.642266,39.007493],[141.644883,39.007731],[141.64559,39.005951],[141.648311,39.005215],[141.648383,39.006456],[141.657011,39.005928],[141.661884,39.003594],[141.663132,39.004624],[141.667268,39.005711],[141.670818,39.004798],[141.675567,39.001728],[141.673496,38.99856],[141.669603,38.995393],[141.665346,38.992755],[141.660919,38.991433],[141.653801,38.991805],[141.650033,38.993503],[141.64713,38.996256],[141.640873,38.997385],[141.63509,38.995401],[141.630444,38.992583],[141.628384,38.992664],[141.626268,38.99109],[141.624775,38.991515],[141.623826,38.99305],[141.622899,38.992972],[141.622266,38.994032],[141.628327,38.995139],[141.624293,38.999076],[141.623799,39.001092],[141.624772,39.001619],[141.624231,39.003569],[141.629946,39.00574],[141.630589,39.008177],[141.632081,39.008948],[141.639777,39.009339],[141.640011,39.00927]]],[[[141.917756,39.120102],[141.919476,39.116683],[141.926486,39.114504],[141.93156,39.109623],[141.9331,39.105574],[141.932194,39.101058],[141.929863,39.098105],[141.926255,39.095994],[141.922215,39.095086],[141.916872,39.095147],[141.911445,39.093377],[141.902243,39.087938],[141.898684,39.083252],[141.893722,39.080485],[141.890455,39.077061],[141.884001,39.074777],[141.887137,39.066895],[141.887396,39.063125],[141.885499,39.059309],[141.880883,39.055233],[141.869417,39.050688],[141.861161,39.049966],[141.850814,39.047563],[141.860241,39.041623],[141.863049,39.038048],[141.864305,39.027909],[141.863126,39.024939],[141.860513,39.0221],[141.850044,39.017489],[141.837318,39.015683],[141.826815,39.016434],[141.823419,39.014493],[141.819055,39.013614],[141.8129,39.014493],[141.806583,39.013773],[141.797371,39.015263],[141.791743,39.017165],[141.788332,39.019517],[141.780751,39.018205],[141.775238,39.019283],[141.772586,39.010855],[141.767467,39.006415],[141.761034,39.004938],[141.752045,39.006617],[141.752708,39.003204],[141.755326,38.999423],[141.756883,38.991585],[141.754132,38.98349],[141.751748,38.979424],[141.747863,38.976634],[141.742079,38.975464],[141.738344,38.975966],[141.732672,38.978615],[141.728687,38.979419],[141.725155,38.975128],[141.733224,38.968315],[141.737216,38.967615],[141.742959,38.96481],[141.745725,38.961242],[141.746502,38.95712],[141.744496,38.952648],[141.739973,38.949601],[141.736542,38.944944],[141.733617,38.9431],[141.729341,38.941952],[141.731207,38.9376],[141.730651,38.933531],[141.727656,38.928942],[141.722353,38.925449],[141.718028,38.92433],[141.713225,38.924574],[141.704896,38.928833],[141.694768,38.930679],[141.678986,38.942373],[141.677482,38.945548],[141.67684,38.949957],[141.679786,38.954956],[141.684684,38.957856],[141.688764,38.958366],[141.688195,38.957187],[141.686805,38.957521],[141.686986,38.956459],[141.689455,38.955996],[141.691084,38.956911],[141.690813,38.955934],[141.69189,38.955682],[141.6915,38.953182],[141.692562,38.953081],[141.692414,38.952238],[141.690933,38.95037],[141.689275,38.949986],[141.689034,38.948387],[141.690363,38.948395],[141.690716,38.947303],[141.692595,38.946364],[141.694611,38.948064],[141.698055,38.945873],[141.698635,38.944208],[141.702494,38.942432],[141.703543,38.942995],[141.704363,38.94499],[141.707179,38.944748],[141.709834,38.946138],[141.712432,38.946374],[141.712561,38.947281],[141.714234,38.948107],[141.711858,38.949607],[141.713191,38.951943],[141.714346,38.951339],[141.716937,38.951939],[141.718031,38.953105],[141.7177,38.953635],[141.719538,38.954073],[141.72061,38.953501],[141.720154,38.955507],[141.722415,38.955813],[141.721139,38.956918],[141.722767,38.957337],[141.723264,38.95824],[141.721901,38.960552],[141.72296,38.961307],[141.721131,38.964018],[141.715125,38.96346],[141.717126,38.965068],[141.712745,38.967407],[141.708309,38.966405],[141.706802,38.966997],[141.706733,38.96563],[141.702684,38.965188],[141.697717,38.967895],[141.696246,38.971803],[141.698264,38.972431],[141.697271,38.973703],[141.698584,38.97464],[141.699071,38.976776],[141.700579,38.976534],[141.702902,38.977742],[141.703873,38.976791],[141.703546,38.977709],[141.705923,38.978728],[141.709086,38.978083],[141.709463,38.978517],[141.708315,38.979266],[141.709159,38.979829],[141.708621,38.980123],[141.709289,38.98169],[141.708711,38.981606],[141.708486,38.983368],[141.710176,38.984623],[141.713222,38.984172],[141.713568,38.984904],[141.711979,38.986493],[141.712474,38.987573],[141.711377,38.989604],[141.711995,38.992118],[141.710462,38.994073],[141.710178,38.995893],[141.712095,38.997325],[141.716552,38.998027],[141.716618,38.996605],[141.720428,38.997098],[141.723345,38.993695],[141.724081,38.990132],[141.725805,38.991079],[141.727648,38.990583],[141.728143,38.991251],[141.729111,38.990604],[141.728139,38.990014],[141.729528,38.989401],[141.731398,38.990521],[141.732834,38.989889],[141.733209,38.988857],[141.735853,38.988571],[141.735489,38.988969],[141.736506,38.988696],[141.737774,38.989998],[141.736759,38.99181],[141.737938,38.994572],[141.735106,38.997164],[141.73401,38.997022],[141.731544,38.998672],[141.729129,39.001593],[141.727311,39.002266],[141.727186,39.002837],[141.730113,39.004065],[141.731003,39.005388],[141.730078,39.008906],[141.728364,39.009455],[141.727497,39.011463],[141.725213,39.013589],[141.723686,39.017016],[141.721537,39.018946],[141.716623,39.031853],[141.727636,39.038401],[141.727175,39.038607],[141.732907,39.047289],[141.734488,39.048198],[141.736435,39.047878],[141.734905,39.046051],[141.733345,39.045541],[141.733196,39.044035],[141.733828,39.04287],[141.735674,39.043084],[141.736423,39.040359],[141.73858,39.037638],[141.736733,39.03807],[141.736416,39.037535],[141.737693,39.036453],[141.737126,39.035279],[141.731699,39.03462],[141.730564,39.032253],[141.733074,39.032272],[141.734377,39.033702],[141.73553,39.033452],[141.735963,39.032375],[141.738011,39.032813],[141.738339,39.032343],[141.737403,39.032037],[141.7385,39.030679],[141.737249,39.030063],[141.734879,39.030684],[141.731211,39.02822],[141.728036,39.028343],[141.728888,39.024838],[141.733676,39.021725],[141.734463,39.022707],[141.735895,39.021589],[141.73642,39.022937],[141.738675,39.021918],[141.739638,39.022726],[141.741124,39.022457],[141.742431,39.024285],[141.745029,39.024744],[141.745968,39.025691],[141.747304,39.023667],[141.74845,39.023699],[141.748302,39.022557],[141.751156,39.019216],[141.751114,39.020369],[141.75329,39.020406],[141.753877,39.020015],[141.753615,39.01869],[141.756586,39.01926],[141.757833,39.018782],[141.75814,39.017693],[141.759277,39.018008],[141.759939,39.022203],[141.761774,39.024691],[141.761672,39.027182],[141.762829,39.026863],[141.762498,39.028574],[141.761015,39.029619],[141.762378,39.030652],[141.761444,39.032123],[141.762446,39.033814],[141.765465,39.034456],[141.76584,39.035432],[141.764154,39.035782],[141.765499,39.036353],[141.765826,39.037602],[141.771895,39.034939],[141.773938,39.032238],[141.776198,39.032142],[141.777173,39.030866],[141.780696,39.029737],[141.78448,39.033931],[141.785049,39.032721],[141.787299,39.033143],[141.788345,39.034236],[141.789405,39.034066],[141.789841,39.033104],[141.791629,39.038082],[141.79302,39.03877],[141.795716,39.03356],[141.7941,39.030545],[141.795649,39.029128],[141.796398,39.026163],[141.798614,39.028205],[141.800786,39.028932],[141.802455,39.032474],[141.81004,39.035389],[141.80982,39.036923],[141.814712,39.039573],[141.816347,39.039259],[141.81938,39.036068],[141.822569,39.03575],[141.82575,39.039184],[141.825324,39.0423],[141.826655,39.045943],[141.823506,39.046375],[141.823543,39.047095],[141.817913,39.049295],[141.816967,39.050795],[141.821191,39.05351],[141.826376,39.054401],[141.824401,39.057225],[141.824623,39.058225],[141.826321,39.059346],[141.829732,39.058389],[141.833627,39.059234],[141.834155,39.060314],[141.835934,39.060208],[141.836449,39.062985],[141.835723,39.065141],[141.839727,39.066723],[141.845989,39.066881],[141.854369,39.064643],[141.856723,39.064899],[141.857535,39.071548],[141.855929,39.07165],[141.85639,39.072651],[141.855384,39.073234],[141.848768,39.073396],[141.847353,39.074159],[141.847846,39.075558],[141.850852,39.07818],[141.855771,39.080097],[141.869784,39.081175],[141.869246,39.084511],[141.870359,39.087843],[141.87233,39.090094],[141.876962,39.093033],[141.877735,39.093001],[141.877955,39.091325],[141.87889,39.0905],[141.878307,39.085106],[141.880784,39.083947],[141.88236,39.084979],[141.880618,39.08558],[141.880268,39.086907],[141.883565,39.092973],[141.887097,39.095241],[141.888013,39.0969],[141.887696,39.104474],[141.890397,39.10634],[141.891466,39.105586],[141.895824,39.105521],[141.897091,39.106166],[141.900924,39.114274],[141.899301,39.115888],[141.899976,39.116954],[141.899174,39.119762],[141.895886,39.117765],[141.894705,39.118414],[141.893126,39.118126],[141.891447,39.116481],[141.889698,39.11733],[141.889318,39.116393],[141.888434,39.116514],[141.887841,39.121725],[141.890542,39.125888],[141.896469,39.128665],[141.903651,39.128714],[141.909699,39.126709],[141.917248,39.120767],[141.917756,39.120102]]],[[[141.920943,39.195056],[141.925951,39.195377],[141.930303,39.194433],[141.934872,39.191857],[141.937343,39.188914],[141.938151,39.186252],[141.937777,39.18298],[141.933946,39.178362],[141.933809,39.175244],[141.932025,39.17197],[141.924175,39.165696],[141.914458,39.161774],[141.91033,39.158902],[141.908285,39.154451],[141.903742,39.15141],[141.899143,39.150148],[141.894306,39.150176],[141.890791,39.151237],[141.885091,39.154484],[141.885144,39.155508],[141.887354,39.155897],[141.887274,39.156899],[141.890588,39.157398],[141.889733,39.157595],[141.892692,39.159146],[141.892707,39.160314],[141.894415,39.16025],[141.894779,39.163226],[141.896264,39.164529],[141.896752,39.164175],[141.896512,39.166064],[141.89485,39.167967],[141.895671,39.169655],[141.899172,39.170389],[141.900466,39.172124],[141.902286,39.172525],[141.905401,39.176536],[141.910973,39.178633],[141.911591,39.181041],[141.913836,39.183008],[141.914081,39.185179],[141.911528,39.186163],[141.902259,39.184195],[141.902599,39.187701],[141.90419,39.190362],[141.907389,39.19323],[141.910934,39.19493],[141.915374,39.195581],[141.920193,39.195081],[141.920943,39.195056]]],[[[141.820021,40.189189],[141.832502,40.188753],[141.838989,40.187201],[141.842775,40.18522],[141.848018,40.180238],[141.860321,40.176298],[141.869457,40.169999],[141.873607,40.166084],[141.875284,40.163102],[141.875682,40.160268],[141.880033,40.157003],[141.881973,40.152416],[141.886139,40.14948],[141.888379,40.145563],[141.888416,40.142333],[141.887173,40.139029],[141.879847,40.128763],[141.871329,40.124442],[141.865398,40.122741],[141.857456,40.122317],[141.851269,40.124271],[141.847482,40.120285],[141.847444,40.116343],[141.84587,40.112911],[141.839621,40.10846],[141.838389,40.100642],[141.841146,40.097452],[141.842626,40.093805],[141.842831,40.089381],[141.841251,40.08597],[141.844013,40.08247],[141.845,40.078301],[141.849706,40.07487],[141.858003,40.065574],[141.859314,40.062817],[141.859288,40.059381],[141.865254,40.06197],[141.871314,40.062229],[141.875523,40.060852],[141.878726,40.058342],[141.883254,40.056608],[141.886311,40.054442],[141.893325,40.045465],[141.896899,40.038096],[141.908222,40.028508],[141.913283,40.01967],[141.92,40.017404],[141.926301,40.018822],[141.934692,40.019303],[141.941004,40.017761],[141.944778,40.015777],[141.947581,40.012533],[141.949101,40.007911],[141.954939,40.001889],[141.957907,39.997069],[141.963593,39.991815],[141.967095,39.986559],[141.968989,39.978473],[141.968573,39.975555],[141.967318,39.973317],[141.968341,39.969259],[141.968524,39.963052],[141.9696,39.961127],[141.973411,39.957997],[141.974907,39.954239],[141.9738,39.945774],[141.971579,39.939757],[141.966728,39.935606],[141.96097,39.934155],[141.953774,39.935238],[141.955113,39.925429],[141.953887,39.921341],[141.957208,39.919464],[141.959703,39.91652],[141.96139,39.907547],[141.965925,39.896622],[141.968223,39.894395],[141.974405,39.893747],[141.980509,39.890207],[141.98793,39.875005],[141.990743,39.865341],[141.990369,39.862015],[141.988815,39.859424],[141.99014,39.852097],[141.989482,39.848472],[141.992657,39.841748],[141.99244,39.837709],[141.996941,39.83384],[142.002951,39.821381],[142.002372,39.817314],[141.99578,39.806368],[141.999965,39.799635],[142.000042,39.796392],[141.998586,39.793151],[142.001288,39.790647],[142.002737,39.787556],[142.008769,39.785171],[142.01276,39.782111],[142.015189,39.778916],[142.01601,39.77605],[142.015365,39.77257],[142.012573,39.768934],[142.001516,39.763383],[142.001059,39.760805],[142.006095,39.758696],[142.009487,39.754658],[142.010027,39.750936],[142.008815,39.746746],[142.003895,39.742162],[141.997048,39.73947],[141.993502,39.733183],[141.998439,39.729421],[142.000407,39.726252],[142.000835,39.721467],[141.999581,39.717288],[142.000643,39.71447],[142.000336,39.710461],[141.993104,39.700572],[141.989463,39.698462],[141.985482,39.697563],[141.990016,39.696685],[141.996055,39.694162],[141.998785,39.69135],[141.999941,39.688109],[141.9993,39.682714],[141.996322,39.678265],[142.000247,39.673792],[142.001188,39.670034],[142.000773,39.667116],[141.996928,39.662317],[141.990526,39.65945],[141.995708,39.655396],[141.997049,39.652535],[141.997267,39.649814],[142.001764,39.654149],[142.006988,39.661045],[142.013187,39.664953],[142.019697,39.665881],[142.028176,39.665496],[142.033465,39.663755],[142.036644,39.661241],[142.038336,39.657978],[142.041265,39.654718],[142.042325,39.6519],[142.040163,39.641556],[142.041384,39.637946],[142.041188,39.629511],[142.044247,39.624222],[142.043298,39.619277],[142.047198,39.616256],[142.049004,39.613589],[142.049545,39.610099],[142.047916,39.605821],[142.050413,39.603176],[142.051472,39.600358],[142.050877,39.596198],[142.047473,39.592353],[142.053361,39.589134],[142.056039,39.583807],[142.061002,39.583062],[142.066064,39.580474],[142.069289,39.576832],[142.070783,39.571897],[142.077722,39.567163],[142.082545,39.557805],[142.082725,39.553184],[142.084063,39.548772],[142.083892,39.545208],[142.081862,39.539062],[142.077531,39.534012],[142.076466,39.530293],[142.073884,39.527355],[142.073416,39.521981],[142.068246,39.513543],[142.062605,39.510496],[142.055857,39.510381],[142.049129,39.51323],[142.044053,39.518262],[142.043493,39.511454],[142.038733,39.503642],[142.030742,39.494421],[142.024159,39.490866],[142.025336,39.487678],[142.028654,39.490642],[142.033292,39.492304],[142.043762,39.492101],[142.05006,39.493752],[142.055953,39.492955],[142.061084,39.489742],[142.062978,39.486533],[142.064669,39.480823],[142.069809,39.477965],[142.072538,39.474288],[142.073111,39.471138],[142.07175,39.461557],[142.066822,39.455492],[142.061369,39.452626],[142.059783,39.445687],[142.054824,39.441649],[142.053862,39.436988],[142.054797,39.43395],[142.054609,39.431072],[142.056246,39.426086],[142.05423,39.420679],[142.050566,39.4176],[142.049112,39.414632],[142.046548,39.412185],[142.036493,39.407629],[142.02824,39.40652],[142.020889,39.407779],[142.017615,39.405547],[142.014064,39.400299],[142.0103,39.398144],[142.00736,39.393974],[142.002554,39.391057],[141.997683,39.390276],[141.99176,39.391114],[141.98484,39.394699],[141.981893,39.39937],[141.975333,39.400021],[141.971104,39.401758],[141.967968,39.399411],[141.965795,39.395233],[141.9558,39.386302],[141.965367,39.39045],[141.971167,39.390998],[141.977523,39.388672],[141.979718,39.386527],[141.981006,39.383875],[141.980405,39.37686],[141.981021,39.373785],[141.980353,39.370776],[141.970445,39.358697],[141.969311,39.353638],[141.965542,39.349536],[141.965914,39.349125],[141.968843,39.34756],[141.973532,39.352488],[141.978297,39.355718],[141.994445,39.360469],[141.998104,39.360436],[142.002307,39.359245],[142.005301,39.357237],[142.007675,39.35414],[142.008514,39.351384],[142.008191,39.348373],[142.003467,39.340282],[142.000541,39.337181],[141.993318,39.333111],[141.99202,39.328795],[141.988028,39.324118],[141.988645,39.318046],[141.992725,39.318106],[141.996529,39.317151],[141.999576,39.315415],[142.002049,39.31247],[142.002766,39.30784],[141.9999,39.301344],[141.99679,39.298157],[141.990817,39.295239],[141.986809,39.294069],[141.98285,39.293992],[141.971953,39.297409],[141.967361,39.300508],[141.964647,39.304303],[141.961218,39.305544],[141.955889,39.304192],[141.950842,39.30443],[141.946551,39.301524],[141.9395,39.299345],[141.929036,39.299637],[141.924584,39.295653],[141.933354,39.292416],[141.937208,39.288608],[141.938731,39.285921],[141.939063,39.282997],[141.938039,39.279293],[141.940835,39.273289],[141.941178,39.269391],[141.939246,39.263915],[141.934991,39.259987],[141.940275,39.259737],[141.945473,39.257737],[141.962754,39.261866],[141.974663,39.260791],[141.979383,39.257912],[141.983167,39.251509],[141.984054,39.247836],[141.983122,39.24428],[141.977611,39.238767],[141.974198,39.236658],[141.969902,39.235564],[141.964989,39.235869],[141.963866,39.232698],[141.968543,39.228623],[141.970686,39.222903],[141.969385,39.218647],[141.963859,39.212593],[141.958263,39.210819],[141.955472,39.208824],[141.952019,39.207641],[141.943907,39.207671],[141.938369,39.20915],[141.935332,39.206543],[141.931771,39.205127],[141.922502,39.20487],[141.910559,39.19752],[141.903524,39.195268],[141.89884,39.195526],[141.8917,39.198068],[141.893369,39.199921],[141.891815,39.202066],[141.892902,39.202571],[141.893501,39.204092],[141.891484,39.204419],[141.891456,39.206895],[141.887526,39.207875],[141.88695,39.208253],[141.887398,39.208903],[141.891844,39.209119],[141.892695,39.208396],[141.896104,39.208915],[141.895694,39.208139],[141.898745,39.207275],[141.898271,39.206204],[141.899215,39.205917],[141.904445,39.209744],[141.905536,39.209288],[141.905511,39.210686],[141.907321,39.210935],[141.908418,39.213686],[141.912565,39.213595],[141.918298,39.216283],[141.924969,39.215995],[141.926287,39.216544],[141.92572,39.217755],[141.926485,39.218826],[141.925289,39.219047],[141.925261,39.219941],[141.923569,39.219985],[141.923519,39.220651],[141.925761,39.221276],[141.924066,39.221474],[141.924281,39.222356],[141.927125,39.221046],[141.929609,39.221935],[141.930841,39.220956],[141.932556,39.222532],[141.934925,39.222135],[141.937765,39.223505],[141.942895,39.217771],[141.947507,39.221151],[141.946394,39.22449],[141.943861,39.227139],[141.945898,39.231367],[141.945112,39.232665],[141.945464,39.234867],[141.94458,39.237737],[141.943518,39.237368],[141.944319,39.23991],[141.942736,39.242337],[141.940389,39.242012],[141.938396,39.239299],[141.93328,39.240408],[141.930333,39.239241],[141.929568,39.238071],[141.929491,39.241047],[141.925293,39.241463],[141.923798,39.23944],[141.924102,39.238737],[141.921153,39.237605],[141.917593,39.240584],[141.914918,39.239494],[141.913483,39.240434],[141.913454,39.241689],[141.91128,39.241327],[141.908712,39.242401],[141.910119,39.244112],[141.907766,39.24585],[141.906429,39.249512],[141.904816,39.251166],[141.91369,39.266518],[141.911762,39.269306],[141.909865,39.275411],[141.911628,39.276613],[141.918421,39.276158],[141.919444,39.279928],[141.92199,39.281566],[141.924671,39.282051],[141.924544,39.284273],[141.914601,39.285483],[141.914634,39.287526],[141.913823,39.288712],[141.910674,39.287796],[141.907028,39.289376],[141.906063,39.287878],[141.902182,39.292167],[141.90568,39.294715],[141.905499,39.295788],[141.904376,39.295989],[141.901809,39.294765],[141.902544,39.295881],[141.901977,39.297047],[141.903188,39.298115],[141.89922,39.298993],[141.898262,39.299893],[141.897239,39.299166],[141.894693,39.29929],[141.893532,39.300122],[141.907427,39.306745],[141.910284,39.304506],[141.910618,39.305431],[141.913302,39.304658],[141.914024,39.305542],[141.915768,39.305679],[141.91671,39.303691],[141.917882,39.303266],[141.917027,39.305269],[141.920914,39.313897],[141.933658,39.313376],[141.938391,39.31542],[141.942701,39.314447],[141.947321,39.315992],[141.9485,39.314533],[141.94922,39.315386],[141.952117,39.315882],[141.951455,39.317201],[141.951659,39.32138],[141.950549,39.32282],[141.956427,39.327082],[141.956883,39.328108],[141.956027,39.330175],[141.94912,39.33334],[141.948346,39.332374],[141.945121,39.331333],[141.944406,39.329606],[141.943277,39.329865],[141.943478,39.329152],[141.942576,39.328901],[141.937468,39.329452],[141.933775,39.331036],[141.928261,39.352352],[141.929138,39.353228],[141.931842,39.351997],[141.932333,39.352951],[141.932009,39.351834],[141.936122,39.35035],[141.939165,39.351197],[141.938414,39.351966],[141.939375,39.353074],[141.938571,39.353576],[141.936758,39.353018],[141.937312,39.354109],[141.940296,39.354376],[141.942513,39.355925],[141.942603,39.357164],[141.944525,39.358228],[141.945703,39.356836],[141.948003,39.356602],[141.949295,39.36127],[141.953766,39.362664],[141.956462,39.365769],[141.960243,39.367993],[141.960844,39.370372],[141.955759,39.372548],[141.953049,39.372857],[141.952472,39.371758],[141.94819,39.370411],[141.945744,39.371513],[141.943474,39.374237],[141.942925,39.373954],[141.940591,39.378566],[141.937721,39.381686],[141.937893,39.386743],[141.941771,39.389077],[141.946517,39.396326],[141.954043,39.403388],[141.95602,39.406376],[141.958981,39.408518],[141.962865,39.413335],[141.97088,39.420563],[141.972007,39.423597],[141.973871,39.423445],[141.97389,39.425859],[141.976201,39.427593],[141.976462,39.427016],[141.978123,39.427457],[141.981956,39.426278],[141.98243,39.425266],[141.979631,39.424455],[141.979552,39.423748],[141.982065,39.424396],[141.983376,39.421371],[141.981663,39.420927],[141.981893,39.4204],[141.983768,39.420885],[141.986133,39.41415],[141.985885,39.412235],[141.987372,39.411779],[141.99015,39.41393],[141.991398,39.412245],[141.992846,39.414178],[141.99592,39.412445],[141.997038,39.412791],[141.996809,39.417002],[142.00086,39.420181],[141.998592,39.425442],[141.999561,39.425951],[142.004165,39.426714],[142.006804,39.425299],[142.008825,39.42654],[142.009218,39.425803],[142.013093,39.426709],[142.014722,39.425537],[142.013477,39.425102],[142.0154,39.425565],[142.018262,39.424198],[142.018108,39.423259],[142.02602,39.423579],[142.0265,39.425091],[142.025738,39.427034],[142.022496,39.427256],[142.021652,39.426457],[142.018943,39.426158],[142.017491,39.426493],[142.017628,39.427299],[142.015646,39.428381],[142.020501,39.433115],[142.025698,39.433044],[142.025738,39.435553],[142.027557,39.437538],[142.026066,39.445388],[142.024387,39.446327],[142.026098,39.447595],[142.026464,39.448875],[142.022926,39.449055],[142.021404,39.450262],[142.021868,39.451828],[142.027428,39.451641],[142.029797,39.450516],[142.029419,39.451906],[142.033661,39.451556],[142.035804,39.453856],[142.032354,39.455401],[142.030775,39.457072],[142.02877,39.457465],[142.028145,39.458181],[142.028537,39.460604],[142.026875,39.461592],[142.022771,39.457464],[142.019077,39.458573],[142.017972,39.457343],[142.01637,39.457436],[142.013959,39.454252],[142.009549,39.454254],[142.005213,39.456116],[142.002805,39.455904],[142.002947,39.4501],[142.004794,39.445247],[142.004128,39.445867],[142.002973,39.445482],[141.998363,39.449571],[141.994903,39.446523],[141.989292,39.448776],[141.990014,39.447661],[141.986851,39.447915],[141.987319,39.447303],[141.983818,39.441704],[141.980904,39.441033],[141.979655,39.438734],[141.972956,39.439558],[141.970695,39.445885],[141.970026,39.446396],[141.966788,39.443427],[141.966933,39.447671],[141.964701,39.448111],[141.964359,39.449521],[141.962594,39.449939],[141.961859,39.454961],[141.960008,39.454866],[141.95716,39.456637],[141.95766,39.457659],[141.961527,39.458133],[141.961518,39.458698],[141.959129,39.460244],[141.95729,39.460247],[141.954544,39.466025],[141.953797,39.466095],[141.95502,39.47414],[141.957905,39.476128],[141.960543,39.47584],[141.964632,39.477301],[141.96586,39.47693],[141.968541,39.479511],[141.968144,39.479818],[141.97419,39.482605],[141.975288,39.482711],[141.973748,39.482005],[141.977564,39.4818],[141.976253,39.482447],[141.98011,39.482523],[141.979784,39.481483],[141.983086,39.48052],[141.985156,39.48203],[141.991234,39.483835],[141.991586,39.483018],[141.992799,39.483333],[142.000685,39.479358],[142.002809,39.479575],[142.003189,39.484585],[142.001121,39.486465],[142.000395,39.490887],[142.001329,39.492383],[141.997582,39.498484],[141.997524,39.501993],[142.000111,39.502882],[142.002896,39.502358],[142.005637,39.502992],[142.010524,39.49988],[142.011332,39.501998],[142.01529,39.502794],[142.015573,39.502159],[142.017179,39.502562],[142.018583,39.501764],[142.020443,39.502701],[142.020011,39.503646],[142.021539,39.502941],[142.023991,39.505498],[142.024738,39.507732],[142.026866,39.509136],[142.028322,39.512279],[142.0287,39.515722],[142.027823,39.516679],[142.029539,39.518256],[142.027973,39.519033],[142.028164,39.519856],[142.02987,39.520687],[142.029152,39.522212],[142.030315,39.524804],[142.032251,39.525829],[142.03329,39.528807],[142.034283,39.528525],[142.033496,39.529313],[142.03761,39.531594],[142.040788,39.530651],[142.041327,39.532339],[142.043128,39.533138],[142.045418,39.532879],[142.04689,39.53143],[142.051074,39.531326],[142.051298,39.531872],[142.048524,39.532956],[142.052379,39.53329],[142.054159,39.540368],[142.055561,39.5405],[142.055931,39.541327],[142.056031,39.547929],[142.055695,39.549356],[142.051914,39.549272],[142.047901,39.550692],[142.045776,39.554628],[142.047301,39.559715],[142.046613,39.563664],[142.041174,39.568742],[142.040457,39.57081],[142.032585,39.572028],[142.031324,39.571486],[142.02982,39.573853],[142.028391,39.574155],[142.024156,39.57349],[142.026362,39.57515],[142.02502,39.578885],[142.026958,39.581684],[142.027184,39.584247],[142.028463,39.584759],[142.02653,39.585336],[142.026319,39.586635],[142.028862,39.586922],[142.029281,39.588234],[142.030069,39.588254],[142.027543,39.589329],[142.026989,39.590553],[142.028101,39.590765],[142.02712,39.592214],[142.028173,39.593202],[142.027903,39.594284],[142.029328,39.596238],[142.02935,39.597729],[142.024426,39.600656],[142.022292,39.59981],[142.021977,39.600272],[142.024042,39.601328],[142.024479,39.603416],[142.018883,39.605783],[142.01164,39.606085],[142.005648,39.605358],[142.00573,39.606688],[142.002213,39.614625],[141.99688,39.614151],[141.991831,39.611031],[141.984015,39.611826],[141.98159,39.611357],[141.982555,39.612602],[141.979592,39.611705],[141.976789,39.612019],[141.976031,39.643109],[141.975041,39.64481],[141.97665,39.645419],[141.972341,39.646165],[141.972305,39.647832],[141.974019,39.649245],[141.972346,39.649718],[141.971154,39.647515],[141.970745,39.64786],[141.971267,39.650009],[141.969065,39.653363],[141.970743,39.656448],[141.97267,39.657529],[141.970534,39.659192],[141.970562,39.661194],[141.971786,39.662935],[141.968082,39.665188],[141.96815,39.666339],[141.968709,39.667765],[141.973344,39.66856],[141.978712,39.672632],[141.978482,39.673165],[141.980167,39.674428],[141.979577,39.675573],[141.981016,39.676967],[141.980564,39.679254],[141.982086,39.67998],[141.982738,39.681723],[141.977556,39.682642],[141.977607,39.685296],[141.974278,39.685715],[141.972877,39.687025],[141.96757,39.685949],[141.966596,39.687142],[141.964849,39.686719],[141.965625,39.687698],[141.964719,39.688353],[141.966287,39.691149],[141.965379,39.691668],[141.965553,39.692812],[141.967346,39.692529],[141.967578,39.693282],[141.971029,39.694228],[141.971744,39.697975],[141.970577,39.700226],[141.971408,39.701446],[141.972669,39.701565],[141.971557,39.702579],[141.974008,39.703558],[141.974592,39.705472],[141.97278,39.706136],[141.974253,39.706978],[141.975999,39.706753],[141.976843,39.707586],[141.979114,39.706882],[141.980487,39.707665],[141.980316,39.70898],[141.981562,39.708838],[141.983303,39.710385],[141.984666,39.710549],[141.9838,39.713446],[141.984371,39.713675],[141.982457,39.714684],[141.981259,39.714154],[141.980815,39.714829],[141.981503,39.715363],[141.980298,39.715695],[141.982746,39.720754],[141.981854,39.721082],[141.982325,39.722425],[141.980927,39.722853],[141.98162,39.72368],[141.981203,39.725326],[141.97832,39.724949],[141.977654,39.724005],[141.975676,39.724692],[141.974585,39.723502],[141.974265,39.726438],[141.972353,39.725829],[141.970215,39.726354],[141.970438,39.726955],[141.971927,39.726526],[141.971144,39.728085],[141.972133,39.730968],[141.973681,39.730629],[141.97449,39.731495],[141.97603,39.731443],[141.97658,39.732641],[141.978385,39.733182],[141.978377,39.735512],[141.981008,39.735222],[141.98506,39.742668],[141.98697,39.744669],[141.985913,39.745371],[141.987809,39.748347],[141.989428,39.747618],[141.991495,39.74875],[141.989888,39.750303],[141.986808,39.74946],[141.98584,39.750084],[141.987412,39.75289],[141.988268,39.752997],[141.98548,39.754241],[141.984613,39.755985],[141.98314,39.756826],[141.987521,39.76053],[141.987707,39.76544],[141.989259,39.767979],[141.990826,39.768387],[141.992147,39.770385],[141.993357,39.770551],[141.997085,39.774094],[141.998478,39.774518],[141.999748,39.776412],[142.001031,39.77626],[141.994362,39.777741],[141.993725,39.779219],[141.99112,39.779846],[141.991329,39.781606],[141.988461,39.784808],[141.983216,39.787175],[141.982771,39.790977],[141.984255,39.792335],[141.98362,39.793446],[141.985205,39.793877],[141.984858,39.795507],[141.98643,39.797845],[141.986389,39.798358],[141.984037,39.798067],[141.984303,39.799304],[141.982441,39.799974],[141.983179,39.8022],[141.981488,39.807443],[141.982917,39.808602],[141.981306,39.809487],[141.981449,39.812128],[141.983672,39.811819],[141.983718,39.813662],[141.985109,39.814073],[141.980216,39.813713],[141.980378,39.814957],[141.980494,39.815549],[141.984653,39.815638],[141.988381,39.817931],[141.98743,39.819402],[141.985245,39.819645],[141.987933,39.820598],[141.987172,39.821766],[141.984689,39.8216],[141.984422,39.82329],[141.980979,39.824031],[141.978809,39.825325],[141.978647,39.827613],[141.977185,39.827363],[141.976887,39.830365],[141.978372,39.832173],[141.978598,39.833959],[141.977524,39.835542],[141.97812,39.836728],[141.977206,39.837276],[141.978916,39.839727],[141.97292,39.840112],[141.97307,39.841626],[141.974312,39.842437],[141.975249,39.84487],[141.971517,39.845918],[141.972304,39.846574],[141.970951,39.847168],[141.971595,39.847846],[141.970424,39.84839],[141.972802,39.849817],[141.97041,39.852877],[141.971267,39.855774],[141.972655,39.856],[141.970784,39.858229],[141.971114,39.862324],[141.974745,39.863848],[141.973352,39.866941],[141.974603,39.87028],[141.971802,39.872577],[141.971133,39.874676],[141.970092,39.875223],[141.968469,39.878527],[141.96803,39.883197],[141.962681,39.883779],[141.957813,39.886694],[141.956832,39.885567],[141.95528,39.885994],[141.953518,39.885328],[141.951137,39.886713],[141.951773,39.887927],[141.951377,39.890389],[141.954023,39.892875],[141.951306,39.896545],[141.951266,39.898806],[141.950266,39.900054],[141.950721,39.900488],[141.94926,39.900937],[141.949722,39.902889],[141.947496,39.905513],[141.94654,39.908059],[141.948381,39.908654],[141.948281,39.91016],[141.947251,39.909805],[141.946843,39.912917],[141.945424,39.914423],[141.942348,39.915547],[141.940893,39.915277],[141.940011,39.916279],[141.940715,39.917777],[141.938745,39.923039],[141.940156,39.9241],[141.939432,39.926836],[141.940305,39.928329],[141.941458,39.928465],[141.94152,39.930374],[141.94033,39.929965],[141.938818,39.930741],[141.938165,39.932334],[141.939116,39.933621],[141.938549,39.934122],[141.940728,39.936861],[141.93974,39.940534],[141.941638,39.942061],[141.941803,39.944515],[141.937036,39.947247],[141.936427,39.951652],[141.936562,39.952635],[141.940737,39.953093],[141.941575,39.954304],[141.940796,39.954589],[141.942422,39.954847],[141.944056,39.958047],[141.942375,39.958718],[141.941454,39.958252],[141.938184,39.959708],[141.935964,39.963228],[141.937458,39.965963],[141.934828,39.966778],[141.934459,39.967715],[141.936631,39.967676],[141.93552,39.968049],[141.935815,39.969531],[141.933919,39.970623],[141.934737,39.973032],[141.937755,39.973844],[141.938482,39.974991],[141.941712,39.976303],[141.940286,39.97732],[141.930945,39.978165],[141.931357,39.981073],[141.928568,39.984399],[141.925498,39.985012],[141.921567,39.987753],[141.920234,39.987697],[141.917391,39.989779],[141.915941,39.992157],[141.908637,39.996477],[141.908916,39.998726],[141.907649,40.000863],[141.908413,40.003917],[141.907205,40.004944],[141.909251,40.005699],[141.908993,40.007088],[141.907914,40.008228],[141.905126,40.009092],[141.903832,40.01098],[141.90182,40.011792],[141.901202,40.013169],[141.898774,40.01317],[141.89411,40.010544],[141.891469,40.007974],[141.889271,40.009506],[141.895401,40.013204],[141.892791,40.015799],[141.896206,40.019311],[141.894622,40.021203],[141.892746,40.026294],[141.890811,40.026786],[141.888829,40.029668],[141.886657,40.029983],[141.886448,40.031776],[141.884209,40.032868],[141.881922,40.03629],[141.880506,40.040959],[141.87789,40.042949],[141.87753,40.045162],[141.873364,40.047522],[141.872129,40.046084],[141.868464,40.049456],[141.867578,40.051992],[141.863476,40.051307],[141.859789,40.053388],[141.856407,40.054129],[141.855908,40.055312],[141.851702,40.055418],[141.85018,40.056439],[141.848554,40.060558],[141.846467,40.05972],[141.845103,40.060507],[141.84298,40.063528],[141.840513,40.065197],[141.838933,40.067858],[141.832198,40.072119],[141.832406,40.073131],[141.831149,40.073892],[141.83066,40.075644],[141.830272,40.079747],[141.826541,40.088454],[141.82356,40.088711],[141.824489,40.089851],[141.823306,40.090547],[141.827523,40.094703],[141.827102,40.095755],[141.825099,40.09586],[141.824398,40.096903],[141.825925,40.09901],[141.825004,40.102043],[141.825612,40.10587],[141.825136,40.111169],[141.824106,40.112528],[141.829848,40.115666],[141.834268,40.115698],[141.833368,40.116845],[141.83495,40.117451],[141.836434,40.116367],[141.835136,40.119964],[141.836087,40.123105],[141.844327,40.132237],[141.84901,40.134939],[141.84737,40.135817],[141.846806,40.137257],[141.848012,40.140567],[141.85121,40.14117],[141.850332,40.141695],[141.850989,40.142119],[141.853402,40.141314],[141.853531,40.142333],[141.856381,40.142973],[141.858972,40.142274],[141.857759,40.140245],[141.858692,40.140346],[141.860343,40.141978],[141.864018,40.143399],[141.862145,40.144503],[141.861851,40.147009],[141.860901,40.147463],[141.859806,40.147453],[141.858711,40.145584],[141.856145,40.145317],[141.855404,40.143785],[141.85471,40.144165],[141.855842,40.147178],[141.861629,40.149746],[141.860509,40.151488],[141.85593,40.152309],[141.854484,40.154036],[141.853147,40.153348],[141.852171,40.155429],[141.854717,40.155893],[141.854634,40.156734],[141.859278,40.157272],[141.859968,40.158393],[141.856672,40.159454],[141.857772,40.159822],[141.8575,40.164168],[141.852266,40.168575],[141.847327,40.168376],[141.836131,40.17389],[141.833457,40.176698],[141.823794,40.179067],[141.821608,40.178157],[141.820806,40.17949],[141.81608,40.178781],[141.813438,40.182303],[141.806211,40.182553],[141.807917,40.185443],[141.811187,40.187906],[141.814687,40.189092],[141.819263,40.18929],[141.820021,40.189189]]],[[[141.807913,40.295754],[141.815325,40.290487],[141.819406,40.283682],[141.826749,40.275396],[141.831848,40.264699],[141.832872,40.25827],[141.83665,40.253009],[141.836893,40.248413],[141.840429,40.243618],[141.843152,40.2377],[141.843893,40.233511],[141.843366,40.228347],[141.845963,40.21719],[141.843976,40.212871],[141.839476,40.209858],[141.834464,40.20892],[141.829719,40.209615],[141.825512,40.211904],[141.822942,40.215477],[141.822501,40.217761],[141.823141,40.222032],[141.824915,40.222885],[141.825733,40.221536],[141.827432,40.22096],[141.830644,40.222754],[141.830703,40.223753],[141.831417,40.22324],[141.832811,40.224227],[141.831747,40.224463],[141.831918,40.225601],[141.831028,40.225877],[141.829782,40.228832],[141.82894,40.229162],[141.82893,40.23028],[141.830171,40.230802],[141.829718,40.232256],[141.830902,40.233842],[141.830544,40.235358],[141.828791,40.239119],[141.826733,40.240016],[141.825087,40.242929],[141.821673,40.245476],[141.821827,40.249457],[141.818013,40.259791],[141.816808,40.265241],[141.814092,40.266251],[141.807354,40.264894],[141.809054,40.269027],[141.807839,40.271878],[141.809225,40.275212],[141.804382,40.284499],[141.80065,40.287219],[141.798326,40.290741],[141.799504,40.290874],[141.799066,40.291859],[141.797907,40.292191],[141.798435,40.292147],[141.798116,40.293049],[141.795195,40.295316],[141.796368,40.29634],[141.800562,40.297202],[141.807486,40.295959],[141.807913,40.295754]]],[[[141.627006,40.437489],[141.629222,40.43787],[141.630581,40.435249],[141.632358,40.434292],[141.632546,40.432338],[141.634328,40.431969],[141.634753,40.429209],[141.636744,40.427102],[141.638962,40.422807],[141.631507,40.420359],[141.620551,40.420875],[141.616494,40.420307],[141.614696,40.419386],[141.613463,40.417645],[141.613525,40.416315],[141.612349,40.415428],[141.598014,40.413186],[141.595246,40.412193],[141.593381,40.409183],[141.592014,40.409133],[141.589983,40.407072],[141.5869,40.406955],[141.585613,40.404625],[141.585186,40.401208],[141.581237,40.398606],[141.581157,40.392167],[141.584489,40.389643],[141.582863,40.385396],[141.583174,40.384095],[141.579892,40.382007],[141.578317,40.382189],[141.578077,40.380641],[141.575192,40.380461],[141.572708,40.378522],[141.557795,40.378262],[141.555526,40.379419],[141.548124,40.379621],[141.543667,40.384138],[141.544871,40.386237],[141.543114,40.389303],[141.545109,40.39111],[141.541861,40.39108],[141.541468,40.393928],[141.542998,40.394587],[141.543384,40.39575],[141.541619,40.397939],[141.542539,40.39907],[141.540912,40.401106],[141.540434,40.403227],[141.541722,40.403282],[141.540842,40.404724],[141.542266,40.404506],[141.542015,40.407777],[141.543791,40.406966],[141.545481,40.40776],[141.543873,40.409766],[141.543744,40.411008],[141.544698,40.411427],[141.544785,40.412411],[141.54754,40.41267],[141.549552,40.411586],[141.551672,40.411727],[141.552487,40.412102],[141.552105,40.413799],[141.553781,40.412989],[141.555632,40.414025],[141.557452,40.413819],[141.558725,40.416841],[141.559216,40.416354],[141.564872,40.417674],[141.569945,40.415696],[141.571603,40.417368],[141.578857,40.417937],[141.580621,40.420381],[141.586777,40.417686],[141.584158,40.421665],[141.588571,40.423535],[141.590525,40.424963],[141.590893,40.426248],[141.598094,40.427407],[141.597966,40.428709],[141.599225,40.429914],[141.598134,40.431918],[141.599955,40.431787],[141.599568,40.432773],[141.600427,40.433586],[141.600976,40.432947],[141.60125,40.434869],[141.604161,40.434717],[141.607165,40.431644],[141.60931,40.432253],[141.611249,40.434165],[141.613213,40.434473],[141.613507,40.432004],[141.621594,40.43249],[141.62389,40.43144],[141.624687,40.432385],[141.625527,40.438099],[141.626503,40.438718],[141.626826,40.437605],[141.627006,40.437489]]],[[[141.579259,40.552667],[141.587834,40.548923],[141.592853,40.543119],[141.595404,40.535174],[141.595666,40.529908],[141.604478,40.528304],[141.61011,40.525168],[141.615569,40.523942],[141.619742,40.521228],[141.623879,40.515221],[141.628489,40.513595],[141.631815,40.511035],[141.633377,40.508353],[141.633726,40.50543],[141.63968,40.504319],[141.644243,40.501219],[141.647587,40.49532],[141.647429,40.489901],[141.65042,40.486034],[141.657525,40.483025],[141.659741,40.480627],[141.660822,40.477844],[141.664249,40.474923],[141.669562,40.472086],[141.676117,40.464769],[141.691114,40.458773],[141.693983,40.455025],[141.69426,40.452018],[141.682197,40.450028],[141.680261,40.452436],[141.676052,40.453672],[141.67329,40.453379],[141.671727,40.455506],[141.668256,40.456276],[141.667325,40.457926],[141.662031,40.462521],[141.660052,40.462664],[141.655789,40.467043],[141.647965,40.470297],[141.644385,40.475987],[141.639056,40.479029],[141.636323,40.479688],[141.632312,40.483591],[141.631918,40.485685],[141.632845,40.48718],[141.629036,40.490726],[141.630297,40.493949],[141.624704,40.495814],[141.622576,40.497545],[141.621453,40.497011],[141.618016,40.502804],[141.613965,40.503368],[141.610931,40.504768],[141.609018,40.508146],[141.607832,40.508301],[141.607364,40.509354],[141.607985,40.509536],[141.608113,40.511759],[141.607152,40.513251],[141.603969,40.514966],[141.586892,40.517773],[141.585899,40.518977],[141.585343,40.521954],[141.580283,40.525431],[141.579091,40.528878],[141.579523,40.531839],[141.577564,40.535766],[141.578159,40.538114],[141.577172,40.537628],[141.576311,40.539318],[141.570535,40.538095],[141.570903,40.5405],[141.568285,40.540765],[141.56236,40.538994],[141.560458,40.53749],[141.556837,40.538252],[141.556718,40.538927],[141.558089,40.539866],[141.55876,40.538539],[141.559937,40.538486],[141.5616,40.539163],[141.562747,40.541025],[141.564245,40.540498],[141.565596,40.541484],[141.565087,40.542476],[141.56364,40.54233],[141.566177,40.543018],[141.56639,40.546146],[141.561188,40.55076],[141.561728,40.551363],[141.569955,40.552649],[141.57845,40.552799],[141.579259,40.552667]]]]}}
