{"type":"Feature","id":"attraction-W1362664803","properties":{"id":"attraction-W1362664803","kind":"attraction","name":"ジャイアンツタウンスタジアム","shortName":"ジャイアンツタウンスタジアム","context":"東京都稲城市","subtype":"sports-baseball","subtypeLabel":"野球場・NPBファーム本拠地","statusLabel":"NPB 12球団ファーム主要本拠地（2026年）","aliases":["GIANTS TOWN STADIUM","Gタウン"],"osmType":"way","osmId":1362664803,"osmDate":null,"officialAreaKm2":null,"areaSourceLabel":"","areaSourceUrl":"","boundarySourceLabel":"© OpenStreetMap contributors","boundarySourceUrl":"https://www.openstreetmap.org/copyright","geometryFile":"attractions/W1362664803.geojson"},"geometry":{"type":"Polygon","coordinates":[[[139.5112159,35.6290175],[139.511903,35.6284789],[139.5120453,35.6284459],[139.5122201,35.6284657],[139.5123543,35.6285186],[139.5128421,35.6288821],[139.5127941,35.6289317],[139.5123806,35.6293591],[139.5124071,35.629381],[139.5121429,35.6296355],[139.5119721,35.6296388],[139.5116379,35.6293642],[139.5112159,35.6290175]]]}}
