{"type":"Feature","id":"attraction-W1385731142","properties":{"id":"attraction-W1385731142","kind":"attraction","name":"IGアリーナ","shortName":"IGアリーナ","context":"愛知県名古屋市","subtype":"sports-arena","subtypeLabel":"武道館・大規模アリーナ","statusLabel":"大規模スポーツ・競技会場","aliases":["愛知国際アリーナ","愛知県新体育館"],"osmType":"way","osmId":1385731142,"osmDate":null,"officialAreaKm2":0.0265,"areaSourceLabel":"愛知県「愛知県新体育館」建築面積","areaSourceUrl":"https://www.pref.aichi.jp/soshiki/kokusai-arena/kokusai-arena.html","boundarySourceLabel":"© OpenStreetMap contributors（建物外周）","boundarySourceUrl":"https://www.openstreetmap.org/copyright","geometryFile":"attractions/W1385731142.geojson"},"geometry":{"type":"Polygon","coordinates":[[[136.9023765,35.1906067],[136.9022447,35.1906571],[136.9021729,35.1906356],[136.9021021,35.1906143],[136.9020432,35.1905943],[136.9020071,35.190582],[136.901993,35.1905772],[136.9018646,35.190507],[136.9017378,35.1904077],[136.901627,35.1902875],[136.9015487,35.1901688],[136.901485,35.1900175],[136.9014778,35.1899626],[136.901473,35.1899263],[136.9014644,35.1898611],[136.9014813,35.1897419],[136.9014965,35.1897299],[136.9016074,35.1896423],[136.9017997,35.1895128],[136.9018867,35.1894625],[136.9020019,35.1893959],[136.9020658,35.1893591],[136.9023549,35.1892278],[136.9024658,35.1892672],[136.9025393,35.1892945],[136.9026147,35.1893329],[136.9027438,35.1894095],[136.9028806,35.1895178],[136.9029049,35.1895443],[136.9029411,35.1895835],[136.9029741,35.1896222],[136.9029794,35.1896302],[136.9030485,35.1897129],[136.9030596,35.1897304],[136.9030973,35.1898218],[136.9031019,35.1898291],[136.9031146,35.1898622],[136.9031268,35.1898941],[136.9031318,35.1899183],[136.9031401,35.1899586],[136.9031438,35.1899708],[136.9031535,35.1900755],[136.9031081,35.1900727],[136.903052,35.1901783],[136.9030348,35.190222],[136.902992,35.1902064],[136.9029648,35.1902316],[136.9029214,35.1902719],[136.9026929,35.1904033],[136.9024935,35.190518],[136.9024656,35.1904874],[136.9023939,35.1905331],[136.9024352,35.1905841],[136.902408,35.1905946],[136.9023765,35.1906067]]]}}
