{"type":"Feature","id":"attraction-W1491742303","properties":{"id":"attraction-W1491742303","kind":"attraction","name":"グラングリーン大阪","shortName":"グラングリーン大阪","context":"大阪府大阪市北区","subtype":"landmark","subtypeLabel":"建築物・ランドマーク","statusLabel":"うめきた2期の都市開発地区","aliases":["Grand Green Osaka","うめきた2期","うめきた2期地区"],"osmType":"way","osmId":1491742303,"osmDate":null,"officialAreaKm2":0.091,"areaSourceLabel":"日建設計「グラングリーン大阪」","areaSourceUrl":"https://www.nikken.co.jp/ja/news/press_release/2024_09_06.html","boundarySourceLabel":"© OpenStreetMap contributors","boundarySourceUrl":"https://www.openstreetmap.org/copyright","geometryFile":"attractions/W1491742303.geojson"},"geometry":{"type":"Polygon","coordinates":[[[135.4929444,34.7078194],[135.4927826,34.7076414],[135.492263,34.7063532],[135.491534,34.7044835],[135.4916989,34.7044282],[135.4916073,34.7041142],[135.491502,34.7040164],[135.4914692,34.7039543],[135.4913042,34.70337],[135.4908187,34.701758],[135.4906482,34.7017611],[135.4901225,34.7003629],[135.4902034,34.7003791],[135.4904453,34.7004229],[135.4905861,34.7005314],[135.490944,34.700776],[135.491203,34.7009956],[135.4917952,34.701404],[135.4919533,34.7015364],[135.4922967,34.7019278],[135.4927607,34.7024207],[135.4927567,34.702553],[135.4928743,34.7027001],[135.4930521,34.7029302],[135.4932435,34.7033259],[135.4934514,34.7039223],[135.4934877,34.7040525],[135.4935164,34.7041554],[135.4935412,34.7043286],[135.493607,34.7045502],[135.4936975,34.7047988],[135.4936847,34.7048844],[135.4935029,34.7062992],[135.4933949,34.7070285],[135.4933245,34.7075672],[135.4932243,34.7077183],[135.4929444,34.7078194]]]}}
