{"type":"Feature","id":"attraction-W150587439","properties":{"id":"attraction-W150587439","kind":"attraction","name":"ヤクルト戸田球場","shortName":"ヤクルト戸田球場","context":"埼玉県戸田市","subtype":"sports-baseball","subtypeLabel":"野球場・NPBファーム本拠地","statusLabel":"NPB 12球団ファーム主要本拠地（2026年）","aliases":["戸田球場","東京ヤクルトスワローズ 戸田グラウンド"],"osmType":"way","osmId":150587439,"osmDate":null,"officialAreaKm2":null,"areaSourceLabel":"","areaSourceUrl":"","boundarySourceLabel":"© OpenStreetMap contributors","boundarySourceUrl":"https://www.openstreetmap.org/copyright","geometryFile":"attractions/W150587439.geojson"},"geometry":{"type":"Polygon","coordinates":[[[139.6333765,35.8226763],[139.6333818,35.8225066],[139.633414,35.8223587],[139.6334765,35.8222293],[139.6335677,35.8221336],[139.6337144,35.8220369],[139.6340041,35.8219281],[139.6342348,35.8219151],[139.6344494,35.8219412],[139.6346318,35.8220108],[139.634782,35.8221282],[139.6348839,35.8222413],[139.6345548,35.8231123],[139.6344655,35.8231373],[139.6334301,35.8228198],[139.6333765,35.8226763]]]}}
