{"type":"Feature","id":"attraction-W165013675","properties":{"id":"attraction-W165013675","kind":"attraction","name":"CAR3219フィールド","shortName":"CAR3219フィールド","context":"埼玉県所沢市","subtype":"sports-baseball","subtypeLabel":"野球場・NPBファーム本拠地","statusLabel":"NPB 12球団ファーム主要本拠地（2026年）","aliases":["西武第二球場","カーミニークフィールド"],"osmType":"way","osmId":165013675,"osmDate":null,"officialAreaKm2":null,"areaSourceLabel":"","areaSourceUrl":"","boundarySourceLabel":"© OpenStreetMap contributors","boundarySourceUrl":"https://www.openstreetmap.org/copyright","geometryFile":"attractions/W165013675.geojson"},"geometry":{"type":"Polygon","coordinates":[[[139.4170996,35.7673948],[139.4171157,35.7672294],[139.4171908,35.7671119],[139.4173088,35.76699],[139.4174805,35.7669247],[139.4180078,35.7669176],[139.4182956,35.7669247],[139.4184136,35.7669465],[139.4184833,35.7670161],[139.4185102,35.7670988],[139.4184638,35.7673528],[139.4182634,35.7679461],[139.4181918,35.7680005],[139.4180757,35.7680173],[139.4179112,35.7680188],[139.417738,35.7679955],[139.4175556,35.767952],[139.4173802,35.7678577],[139.4172444,35.7677169],[139.4171586,35.7675646],[139.4170996,35.7673948]]]}}
