{"type":"Feature","id":"attraction-W233104120","properties":{"id":"attraction-W233104120","kind":"attraction","name":"広島東洋カープ由宇練習場","shortName":"広島東洋カープ由宇練習場","context":"山口県岩国市","subtype":"sports-baseball","subtypeLabel":"野球場・NPBファーム本拠地","statusLabel":"NPB 12球団ファーム主要本拠地（2026年）","aliases":["由宇球場","由宇練習場","広島東洋カープ由宇二軍練習場"],"osmType":"way","osmId":233104120,"osmDate":null,"officialAreaKm2":null,"areaSourceLabel":"","areaSourceUrl":"","boundarySourceLabel":"© OpenStreetMap contributors","boundarySourceUrl":"https://www.openstreetmap.org/copyright","geometryFile":"attractions/W233104120.geojson"},"geometry":{"type":"Polygon","coordinates":[[[132.1455801,34.0335748],[132.1456108,34.0334899],[132.1456614,34.0334037],[132.14573,34.0333301],[132.1458151,34.033262],[132.1459158,34.0332038],[132.1460382,34.0331551],[132.1461665,34.0331224],[132.1463133,34.03311],[132.1464294,34.0331108],[132.1465563,34.0331284],[132.1466678,34.0331616],[132.1467819,34.0332106],[132.1468816,34.0332822],[132.1469752,34.0333688],[132.1470412,34.0334522],[132.1470928,34.033556],[132.1470911,34.0338407],[132.1470565,34.03394],[132.1469912,34.0340281],[132.1465294,34.0344149],[132.146155,34.0344181],[132.145673,34.0340295],[132.1456143,34.0339499],[132.1455818,34.0338596],[132.1455801,34.0335748]]]}}
