{"type":"Feature","id":"attraction-W440207870","properties":{"id":"attraction-W440207870","kind":"attraction","name":"横須賀スタジアム","shortName":"横須賀スタジアム","context":"神奈川県横須賀市","subtype":"sports-baseball","subtypeLabel":"野球場・NPBファーム本拠地","statusLabel":"NPB 12球団ファーム主要本拠地（2026年）","aliases":["追浜球場"],"osmType":"way","osmId":440207870,"osmDate":null,"officialAreaKm2":null,"areaSourceLabel":"","areaSourceUrl":"","boundarySourceLabel":"© OpenStreetMap contributors","boundarySourceUrl":"https://www.openstreetmap.org/copyright","geometryFile":"attractions/W440207870.geojson"},"geometry":{"type":"Polygon","coordinates":[[[139.6344485,35.3187267],[139.634655,35.3179213],[139.6347123,35.3178467],[139.6347784,35.3177988],[139.6349055,35.3177515],[139.6350315,35.3177176],[139.6351764,35.3177121],[139.6353309,35.3177134],[139.635576,35.3177953],[139.6358218,35.317836],[139.6359998,35.3179748],[139.6360199,35.3181225],[139.6360631,35.3182845],[139.6360789,35.318384],[139.6360749,35.3185066],[139.6360628,35.3185886],[139.6360283,35.3186807],[139.6359193,35.3188305],[139.6357906,35.3189268],[139.6356582,35.3189412],[139.6347328,35.3189937],[139.6346386,35.318964],[139.6345611,35.3189149],[139.6344964,35.3188305],[139.6344485,35.3187267]]]}}
