{"type":"Feature","id":"attraction-W603207951","properties":{"id":"attraction-W603207951","kind":"attraction","name":"森林どりスタジアム泉","shortName":"森林どりスタジアム泉","context":"宮城県仙台市","subtype":"sports-baseball","subtypeLabel":"野球場・NPBファーム本拠地","statusLabel":"NPB 12球団ファーム主要本拠地（2026年）","aliases":["楽天イーグルス泉練習場","森林どり泉"],"osmType":"way","osmId":603207951,"osmDate":null,"officialAreaKm2":null,"areaSourceLabel":"","areaSourceUrl":"","boundarySourceLabel":"© OpenStreetMap contributors","boundarySourceUrl":"https://www.openstreetmap.org/copyright","geometryFile":"attractions/W603207951.geojson"},"geometry":{"type":"Polygon","coordinates":[[[140.8787438,38.3485569],[140.8787931,38.3483587],[140.8788609,38.3481993],[140.8790149,38.3480494],[140.8791875,38.3479625],[140.879397,38.3478948],[140.879625,38.3478755],[140.8798591,38.3479093],[140.880081,38.3479818],[140.8802474,38.3480881],[140.8803829,38.3482427],[140.880463,38.3484361],[140.8797421,38.3490885],[140.8796065,38.3490933],[140.8787438,38.3485569]]]}}
