{"type":"Feature","id":"attraction-W708496563","properties":{"id":"attraction-W708496563","kind":"attraction","name":"杉本商事バファローズスタジアム舞洲","shortName":"杉本商事バファローズスタジアム舞洲","context":"大阪府大阪市","subtype":"sports-baseball","subtypeLabel":"野球場・NPBファーム本拠地","statusLabel":"NPB 12球団ファーム主要本拠地（2026年）","aliases":["舞洲バファローズスタジアム","杉本商事BS","舞洲サブ球場"],"osmType":"way","osmId":708496563,"osmDate":null,"officialAreaKm2":null,"areaSourceLabel":"","areaSourceUrl":"","boundarySourceLabel":"© OpenStreetMap contributors","boundarySourceUrl":"https://www.openstreetmap.org/copyright","geometryFile":"attractions/W708496563.geojson"},"geometry":{"type":"Polygon","coordinates":[[[135.394793,34.6660991],[135.394797,34.6660517],[135.3948171,34.6659624],[135.3948493,34.665873],[135.3949016,34.6657804],[135.3950049,34.665669],[135.3951229,34.6655818],[135.3952517,34.6655212],[135.3953791,34.6654781],[135.3954475,34.665466],[135.3955252,34.6654539],[135.3956835,34.6654517],[135.3957626,34.6654627],[135.3958257,34.6654715],[135.3959826,34.6655178],[135.3961998,34.6661378],[135.3962186,34.6663606],[135.3962186,34.6664477],[135.3962079,34.6664852],[135.3961784,34.6665227],[135.3961153,34.6665657],[135.3960416,34.6665856],[135.3959893,34.6665845],[135.395835,34.66659],[135.3958163,34.6666021],[135.3956956,34.6665977],[135.3949714,34.6665304],[135.3948949,34.6664532],[135.3948426,34.6663595],[135.3948051,34.6662591],[135.3947943,34.6661532],[135.394793,34.6660991]]]}}
