{"type":"Feature","id":"attraction-zoo-W637680775","properties":{"id":"attraction-zoo-W637680775","kind":"attraction","name":"多摩動物公園","shortName":"多摩動物公園","context":"日本","subtype":"zoo","subtypeLabel":"動物園","statusLabel":"","aliases":["Tama Zoological Park"],"osmType":"way","osmId":637680775,"osmDate":null,"officialAreaKm2":null,"areaSourceLabel":"","areaSourceUrl":"","boundarySourceLabel":"© OpenStreetMap contributors","boundarySourceUrl":"https://www.openstreetmap.org/copyright","geometryFile":"attractions/zoo-W637680775.geojson"},"geometry":{"type":"Polygon","coordinates":[[[139.4017249,35.6547921],[139.4015358,35.6539716],[139.4012113,35.6538746],[139.4008063,35.6539073],[139.4005944,35.6540337],[139.4004214,35.6538583],[139.4002041,35.6532992],[139.3993771,35.6528589],[139.399372,35.6528133],[139.3992723,35.6527055],[139.3992425,35.6526139],[139.3991551,35.6525249],[139.3991141,35.6523993],[139.3992015,35.6522615],[139.3991651,35.6519836],[139.3993079,35.6516301],[139.3990588,35.6514413],[139.3989559,35.6511659],[139.3987239,35.6511071],[139.398512,35.6508468],[139.3982955,35.6506517],[139.3978424,35.6505268],[139.3977347,35.6504233],[139.3974394,35.6503745],[139.3968232,35.6499741],[139.3964888,35.649786],[139.3959716,35.6497654],[139.3955227,35.6498716],[139.3954032,35.6497218],[139.3954653,35.6495551],[139.3955037,35.6492984],[139.3954115,35.6490654],[139.3952193,35.6488341],[139.3947169,35.6486835],[139.3947191,35.6485762],[139.3946568,35.6483911],[139.394713,35.6481195],[139.3947102,35.6479114],[139.3945673,35.6476564],[139.3946321,35.6475307],[139.3947195,35.6473612],[139.3949557,35.6471685],[139.3947567,35.6468383],[139.3947547,35.6465524],[139.3950273,35.6463362],[139.3952876,35.6462459],[139.3954947,35.6462424],[139.3956647,35.6462933],[139.3958526,35.6465209],[139.3958785,35.6469932],[139.3963022,35.6467925],[139.396612,35.6467573],[139.3971589,35.6467721],[139.3975023,35.646437],[139.3978306,35.6464075],[139.3981024,35.6464826],[139.3983681,35.6467066],[139.3985775,35.6471296],[139.3985981,35.6473147],[139.3990472,35.6475997],[139.3994071,35.6477299],[139.3999067,35.6476902],[139.4002265,35.6477427],[139.4007451,35.647963],[139.4009577,35.6475681],[139.401171,35.647373],[139.401706,35.6470373],[139.402013,35.6470069],[139.4022597,35.6469923],[139.4023168,35.6470765],[139.4023529,35.6472866],[139.4027293,35.6475847],[139.4028571,35.6476201],[139.4033096,35.6481155],[139.4034214,35.6485544],[139.4035379,35.6487889],[139.4036008,35.6490998],[139.4037021,35.6491321],[139.4039061,35.6494998],[139.4033775,35.649803],[139.4034241,35.6499454],[139.4034306,35.6500407],[139.403509,35.650092],[139.4037575,35.6501904],[139.4034546,35.6505188],[139.4033002,35.6510447],[139.4032329,35.6514008],[139.4035837,35.6515269],[139.4038835,35.651531],[139.4041878,35.6516157],[139.4042801,35.6516751],[139.4045355,35.6517383],[139.4045254,35.652116],[139.404488,35.6521599],[139.4045295,35.6525268],[139.4045875,35.6525722],[139.4047147,35.6528296],[139.4049238,35.6531496],[139.4049887,35.6533631],[139.4050399,35.6537155],[139.4047269,35.6546185],[139.4046225,35.6550948],[139.4042422,35.6551376],[139.4038734,35.6550264],[139.4035462,35.6547496],[139.4033657,35.6548278],[139.4027398,35.6548142],[139.4024138,35.65475],[139.4017249,35.6547921]]]}}
