{"type":"Feature","id":"attraction-zoo-W827844157","properties":{"id":"attraction-zoo-W827844157","kind":"attraction","name":"しろとり動物園","shortName":"しろとり動物園","context":"日本","subtype":"zoo","subtypeLabel":"動物園","statusLabel":"","aliases":["Shirotori Zoo"],"osmType":"way","osmId":827844157,"osmDate":null,"officialAreaKm2":null,"areaSourceLabel":"","areaSourceUrl":"","boundarySourceLabel":"© OpenStreetMap contributors","boundarySourceUrl":"https://www.openstreetmap.org/copyright","geometryFile":"attractions/zoo-W827844157.geojson"},"geometry":{"type":"Polygon","coordinates":[[[134.3849818,34.2497607],[134.3849158,34.2497186],[134.3848886,34.2496548],[134.3848947,34.2495181],[134.3849199,34.2494691],[134.3849437,34.2494512],[134.3849766,34.2494264],[134.385016,34.2493967],[134.3851016,34.2493322],[134.3852524,34.2492829],[134.3852987,34.249253],[134.3853316,34.2491793],[134.3852872,34.2491483],[134.3852994,34.2491288],[134.3852819,34.2490889],[134.385168,34.2489781],[134.3851277,34.2489138],[134.3851065,34.2488418],[134.3850634,34.2488466],[134.3849872,34.2487636],[134.3849629,34.2486174],[134.3849872,34.2485573],[134.3850339,34.2484211],[134.3850627,34.2483207],[134.3850486,34.2482791],[134.3850084,34.2482209],[134.3849614,34.2482043],[134.3848903,34.2481965],[134.3846865,34.2482148],[134.3843727,34.2483063],[134.3840374,34.2483683],[134.3839221,34.248426],[134.383399,34.248753],[134.3828411,34.2490435],[134.3828073,34.249062],[134.3828711,34.2491596],[134.3829421,34.2492682],[134.383293,34.2497802],[134.3837164,34.2502216],[134.3840414,34.2504369],[134.3841702,34.2505345],[134.3842533,34.2505954],[134.3843526,34.2506098],[134.3843432,34.2506808],[134.3845135,34.250836],[134.3845591,34.2508315],[134.3846342,34.250683],[134.384653,34.2506453],[134.3848099,34.2507085],[134.3849172,34.2506686],[134.3848649,34.2505877],[134.3849547,34.2499514],[134.3849818,34.2497607]]]}}
