{"type":"Feature","id":"attraction-zoo-W422803846","properties":{"id":"attraction-zoo-W422803846","kind":"attraction","name":"新屋島水族館","shortName":"新屋島水族館","context":"香川県・高松市","subtype":"zoo","subtypeLabel":"動物園","statusLabel":"","aliases":["New Yashima Aquarium"],"osmType":"way","osmId":422803846,"osmDate":null,"officialAreaKm2":null,"areaSourceLabel":"","areaSourceUrl":"","boundarySourceLabel":"© OpenStreetMap contributors","boundarySourceUrl":"https://www.openstreetmap.org/copyright","geometryFile":"attractions/zoo-W422803846.geojson"},"geometry":{"type":"Polygon","coordinates":[[[134.0993219,34.3585024],[134.0993854,34.3581731],[134.0995244,34.3576471],[134.0995683,34.3575852],[134.0996505,34.3575397],[134.0997543,34.3575344],[134.0999921,34.3575402],[134.099954,34.3579329],[134.1000036,34.3579739],[134.1000455,34.3583192],[134.1000698,34.3586712],[134.0999165,34.3586673],[134.0998235,34.3586468],[134.0997815,34.3586385],[134.0997372,34.3585934],[134.0997136,34.3585713],[134.0996956,34.3585591],[134.099395,34.3585218],[134.0993778,34.358508],[134.0993219,34.3585024]]]}}
