{"type":"Feature","id":"attraction-zoo-W626330760","properties":{"id":"attraction-zoo-W626330760","kind":"attraction","name":"那須ワールドモンキーパーク","shortName":"那須ワールドモンキーパーク","context":"日本","subtype":"zoo","subtypeLabel":"動物園","statusLabel":"","aliases":[],"osmType":"way","osmId":626330760,"osmDate":null,"officialAreaKm2":null,"areaSourceLabel":"","areaSourceUrl":"","boundarySourceLabel":"© OpenStreetMap contributors","boundarySourceUrl":"https://www.openstreetmap.org/copyright","geometryFile":"attractions/zoo-W626330760.geojson"},"geometry":{"type":"Polygon","coordinates":[[[140.049118,37.0360712],[140.0497032,37.0354788],[140.0497258,37.0354559],[140.049583,37.0352288],[140.049482,37.0350185],[140.0494207,37.0348391],[140.0493871,37.034653],[140.0493424,37.0341315],[140.0486976,37.0340619],[140.0472309,37.0353895],[140.0474029,37.0357853],[140.0480099,37.0358893],[140.0484397,37.0356817],[140.0487316,37.0359249],[140.049118,37.0360712]]]}}
