{"type":"Feature","id":"attraction-zoo-R11040564","properties":{"id":"attraction-zoo-R11040564","kind":"attraction","name":"甲府市遊亀公園附属動物園","shortName":"甲府市遊亀公園附属動物園","context":"日本","subtype":"zoo","subtypeLabel":"動物園","statusLabel":"","aliases":[],"osmType":"relation","osmId":11040564,"osmDate":null,"officialAreaKm2":null,"areaSourceLabel":"","areaSourceUrl":"","boundarySourceLabel":"© OpenStreetMap contributors","boundarySourceUrl":"https://www.openstreetmap.org/copyright","geometryFile":"attractions/zoo-R11040564.geojson"},"geometry":{"type":"MultiPolygon","coordinates":[[[[138.5723121,35.6503615],[138.5723837,35.6503716],[138.5724467,35.6503705],[138.572464,35.6503735],[138.5724864,35.6503838],[138.5725041,35.6504061],[138.5725102,35.6504305],[138.5724955,35.6504515],[138.5724796,35.6504655],[138.5724297,35.6505096],[138.5723598,35.6505909],[138.5723456,35.6506225],[138.5722916,35.6508102],[138.5722731,35.6508389],[138.572235,35.6508727],[138.5721669,35.6509036],[138.5720934,35.6509453],[138.5720465,35.650982],[138.5720297,35.6510057],[138.5720067,35.6510675],[138.5719926,35.6511308],[138.5719643,35.6511603],[138.5719193,35.6511805],[138.5718952,35.6511768],[138.5718919,35.6511695],[138.5718174,35.651185],[138.5718094,35.6511595],[138.571751,35.6511085],[138.5717331,35.6510929],[138.5716907,35.6510497],[138.5716464,35.6509893],[138.5716217,35.6509462],[138.5716022,35.6508872],[138.5716004,35.6508312],[138.571588,35.6507808],[138.5716004,35.6507334],[138.5716323,35.6506931],[138.5716942,35.6506485],[138.5717561,35.6506342],[138.5718375,35.6505867],[138.5718942,35.6505508],[138.5719455,35.6505076],[138.5719685,35.6504688],[138.5719667,35.6504386],[138.5720752,35.6502953],[138.5721007,35.6502888],[138.5721262,35.6502866],[138.5721543,35.6502942],[138.5722858,35.6503531],[138.5723121,35.6503615]]],[[[138.5717601,35.6514876],[138.5716842,35.6515387],[138.5716254,35.6515605],[138.5715758,35.6515753],[138.5715139,35.6515763],[138.5714392,35.6515507],[138.5715521,35.6518916],[138.5716459,35.6518849],[138.5719906,35.6518475],[138.5719698,35.6517483],[138.5720921,35.6515933],[138.5722906,35.651489],[138.5721567,35.6512611],[138.5721261,35.6513091],[138.5720743,35.6513372],[138.5720103,35.6513581],[138.5719481,35.651379],[138.5718539,35.6514245],[138.5717601,35.6514876]]]]}}
