{"type":"Feature","id":"attraction-zoo-W353554364","properties":{"id":"attraction-zoo-W353554364","kind":"attraction","name":"八木山動物公園 フジサキの杜","shortName":"八木山動物公園 フジサキの杜","context":"宮城県・仙台市","subtype":"zoo","subtypeLabel":"動物園","statusLabel":"","aliases":["Yagiyama Zoological Park","仙台市八木山動物公園"],"osmType":"way","osmId":353554364,"osmDate":null,"officialAreaKm2":null,"areaSourceLabel":"","areaSourceUrl":"","boundarySourceLabel":"© OpenStreetMap contributors","boundarySourceUrl":"https://www.openstreetmap.org/copyright","geometryFile":"attractions/zoo-W353554364.geojson"},"geometry":{"type":"Polygon","coordinates":[[[140.8444095,38.2436003],[140.8449569,38.2438984],[140.8450844,38.2439397],[140.8453643,38.2440302],[140.8462452,38.2445257],[140.8465704,38.2447327],[140.8468021,38.2449415],[140.8469473,38.2451018],[140.8466815,38.2452483],[140.8467026,38.2452707],[140.8467493,38.2453179],[140.8468608,38.2454334],[140.8471038,38.2456756],[140.8472572,38.2458962],[140.8474514,38.2461754],[140.8477665,38.2466891],[140.8478594,38.2468164],[140.8478821,38.246874],[140.8478737,38.2469415],[140.8478042,38.2470297],[140.8476559,38.2471058],[140.8475369,38.2471897],[140.8474786,38.2472425],[140.847397,38.2473383],[140.8472573,38.2475174],[140.8470838,38.247809],[140.846981,38.2478371],[140.8467976,38.2477465],[140.8465758,38.247637],[140.8463543,38.2473874],[140.8462356,38.2472369],[140.846005,38.2470388],[140.8457613,38.2468264],[140.8458768,38.246297],[140.8451589,38.2460754],[140.8446799,38.2455224],[140.8445318,38.245406],[140.843388,38.2455968],[140.8433596,38.2454617],[140.8433118,38.2451733],[140.8435526,38.2450316],[140.8434045,38.2448141],[140.8433272,38.2445257],[140.8432663,38.2443615],[140.8431029,38.2443263],[140.842681,38.2444233],[140.8419851,38.2438784],[140.842002,38.2438443],[140.8422843,38.2437143],[140.8424162,38.2436292],[140.8424849,38.2435587],[140.8431226,38.2439424],[140.8440489,38.2437103],[140.844254,38.2436168],[140.8444095,38.2436003]]]}}
