{"type":"Feature","id":"attraction-zoo-W171597175","properties":{"id":"attraction-zoo-W171597175","kind":"attraction","name":"広島市安佐動物公園","shortName":"広島市安佐動物公園","context":"日本","subtype":"zoo","subtypeLabel":"動物園","statusLabel":"","aliases":["Hiroshima City Asa Zoological Park"],"osmType":"way","osmId":171597175,"osmDate":null,"officialAreaKm2":null,"areaSourceLabel":"","areaSourceUrl":"","boundarySourceLabel":"© OpenStreetMap contributors","boundarySourceUrl":"https://www.openstreetmap.org/copyright","geometryFile":"attractions/zoo-W171597175.geojson"},"geometry":{"type":"Polygon","coordinates":[[[132.4392971,34.4965139],[132.4401069,34.4963509],[132.4402222,34.4962714],[132.4406013,34.4962791],[132.4409326,34.4962235],[132.4410725,34.4962001],[132.4412069,34.4962301],[132.4412132,34.4964955],[132.4417218,34.4967409],[132.4418631,34.4966284],[132.4421997,34.4966342],[132.4423739,34.4965915],[132.4427953,34.496444],[132.4431038,34.4969689],[132.4436004,34.4977304],[132.4437181,34.4981126],[132.4437534,34.4984463],[132.4436852,34.4988052],[132.4435769,34.4990923],[132.4432337,34.4998599],[132.4429241,34.4998791],[132.4420818,34.5000272],[132.4415421,34.4998332],[132.441376,34.4998819],[132.4411759,34.4998257],[132.4409666,34.4998894],[132.4404253,34.4998651],[132.4401754,34.4997447],[132.4400137,34.4996645],[132.4396543,34.4996401],[132.4392768,34.4995652],[132.4392017,34.4995033],[132.4390248,34.4993082],[132.4389108,34.4992019],[132.4388058,34.4991766],[132.4386807,34.499186],[132.4384123,34.4992534],[132.4382144,34.4992609],[132.4378787,34.4992595],[132.4377185,34.4993292],[132.4376208,34.4994203],[132.4374957,34.4995421],[132.4373921,34.4995533],[132.4371659,34.499424],[132.4367802,34.499188],[132.4367406,34.4990304],[132.43675,34.4988159],[132.436761,34.4986473],[132.4372577,34.4983497],[132.4376024,34.4981214],[132.4376024,34.4976283],[132.4373161,34.4974693],[132.4372743,34.4974242],[132.437329,34.4973871],[132.4374994,34.4973447],[132.4376152,34.4972148],[132.4373172,34.4970427],[132.4372814,34.4968702],[132.4372904,34.4966793],[132.4374448,34.4964142],[132.4376536,34.4963162],[132.4378758,34.4963612],[132.4382714,34.4965706],[132.4385384,34.4966607],[132.4388225,34.4966332],[132.4392971,34.4965139]]]}}
