{"type":"Feature","id":"attraction-zoo-W506335385","properties":{"id":"attraction-zoo-W506335385","kind":"attraction","name":"飯田市立動物園","shortName":"飯田市立動物園","context":"日本","subtype":"zoo","subtypeLabel":"動物園","statusLabel":"","aliases":[],"osmType":"way","osmId":506335385,"osmDate":null,"officialAreaKm2":null,"areaSourceLabel":"","areaSourceUrl":"","boundarySourceLabel":"© OpenStreetMap contributors","boundarySourceUrl":"https://www.openstreetmap.org/copyright","geometryFile":"attractions/zoo-W506335385.geojson"},"geometry":{"type":"Polygon","coordinates":[[[137.8233305,35.5144663],[137.8231926,35.5142618],[137.8233147,35.5142001],[137.82337,35.5140331],[137.8234941,35.513865],[137.8235842,35.5136882],[137.8238672,35.5134393],[137.824145,35.5135373],[137.8242561,35.5135988],[137.8244278,35.513639],[137.8247245,35.513655],[137.8248135,35.513772],[137.8243294,35.5139987],[137.8233305,35.5144663]]]}}
