{"type":"Feature","id":"attraction-zoo-W238017346","properties":{"id":"attraction-zoo-W238017346","kind":"attraction","name":"大森山動物園","shortName":"大森山動物園","context":"日本","subtype":"zoo","subtypeLabel":"動物園","statusLabel":"","aliases":[],"osmType":"way","osmId":238017346,"osmDate":null,"officialAreaKm2":null,"areaSourceLabel":"","areaSourceUrl":"","boundarySourceLabel":"© OpenStreetMap contributors","boundarySourceUrl":"https://www.openstreetmap.org/copyright","geometryFile":"attractions/zoo-W238017346.geojson"},"geometry":{"type":"Polygon","coordinates":[[[140.0732877,39.6733479],[140.0747824,39.6727655],[140.0760913,39.6724125],[140.0769918,39.6723921],[140.0778927,39.6720504],[140.0780715,39.6719159],[140.0782089,39.6716197],[140.0783819,39.6710726],[140.0779554,39.6705482],[140.0772393,39.6704491],[140.0772229,39.6700393],[140.0766357,39.6699229],[140.0757265,39.6689481],[140.0750353,39.6689592],[140.0745,39.6698299],[140.0738809,39.6703611],[140.0729872,39.6707466],[140.0728182,39.6708065],[140.0722429,39.6708818],[140.0721886,39.6709917],[140.0722714,39.6711603],[140.0726761,39.6712173],[140.073065,39.6712627],[140.073246,39.6714217],[140.0732239,39.6718026],[140.073014,39.6722847],[140.0725983,39.6724736],[140.0719452,39.6726671],[140.071793,39.6729105],[140.0718993,39.6731127],[140.0720785,39.6733469],[140.0725715,39.6734057],[140.0728974,39.6734325],[140.0732877,39.6733479]]]}}
