{"type":"Feature","id":"attraction-zoo-R3251534","properties":{"id":"attraction-zoo-R3251534","kind":"attraction","name":"姫路市立動物園","shortName":"姫路市立動物園","context":"日本","subtype":"zoo","subtypeLabel":"動物園","statusLabel":"","aliases":["Himeji City Zoo"],"osmType":"relation","osmId":3251534,"osmDate":null,"officialAreaKm2":null,"areaSourceLabel":"","areaSourceUrl":"","boundarySourceLabel":"© OpenStreetMap contributors","boundarySourceUrl":"https://www.openstreetmap.org/copyright","geometryFile":"attractions/zoo-R3251534.geojson"},"geometry":{"type":"Polygon","coordinates":[[[134.6942386,34.838236],[134.694346,34.838231],[134.6944391,34.8382027],[134.6946067,34.8381242],[134.6950115,34.8376486],[134.6949007,34.8374721],[134.6948258,34.8374693],[134.6948109,34.8373855],[134.6950465,34.837344],[134.6952145,34.8375892],[134.6953934,34.8375381],[134.6955494,34.8377683],[134.6958759,34.8384724],[134.6958926,34.8385086],[134.6964127,34.8383716],[134.6960672,34.8373658],[134.6960289,34.8373403],[134.6959803,34.8372197],[134.6958907,34.8370124],[134.6957201,34.836494],[134.6954837,34.8358664],[134.6949501,34.8360101],[134.6949808,34.8360904],[134.6947758,34.8361633],[134.6948698,34.8362813],[134.6948114,34.8365502],[134.6948272,34.836727],[134.6948411,34.836907],[134.6948683,34.8372639],[134.6946458,34.8373026],[134.6945463,34.8365407],[134.6946377,34.8364344],[134.694594,34.8362704],[134.6943983,34.8362891],[134.6943861,34.8363245],[134.6941354,34.8363154],[134.6940958,34.8365367],[134.6940939,34.8365474],[134.6940939,34.8368031],[134.6939627,34.8368928],[134.6939651,34.8369361],[134.6940781,34.8369345],[134.6940601,34.8377724],[134.6941214,34.8378103],[134.69422,34.8378108],[134.6942186,34.8379176],[134.694114,34.8379182],[134.6942386,34.838236]],[[134.6954035,34.8373819],[134.6956717,34.8373574],[134.695653,34.8372197],[134.6953848,34.8372442],[134.6954035,34.8373819]],[[134.695604,34.8378707],[134.695829,34.8377949],[134.6959022,34.8379065],[134.6959354,34.8378965],[134.6960819,34.83824],[134.6961569,34.8382944],[134.6961673,34.8383903],[134.6961202,34.838409],[134.6961125,34.8384285],[134.6959048,34.8384884],[134.6957865,34.838242],[134.695604,34.8378707]],[[134.6961408,34.8378005],[134.6959737,34.8378495],[134.6960793,34.838092],[134.6962464,34.838043],[134.6961408,34.8378005]],[[134.6948359,34.8365982],[134.6948656,34.8366183],[134.6949057,34.8366218],[134.6949319,34.8366154],[134.6949528,34.8366032],[134.6949711,34.836571],[134.6949798,34.8365352],[134.6949924,34.8365023],[134.6950417,34.8364794],[134.6950644,34.8364529],[134.6950749,34.8364179],[134.6950609,34.8363635],[134.6950496,34.8363134],[134.6950116,34.8362717],[134.694965,34.8362711],[134.6949327,34.8362718],[134.6948987,34.8362955],[134.6948629,34.8363797],[134.694829,34.8365181],[134.6948316,34.8365581],[134.6948359,34.8365982]],[[134.6945886,34.837841],[134.6943508,34.8378442],[134.6943542,34.8381036],[134.6944615,34.8380835],[134.694478,34.8380506],[134.6944798,34.8379626],[134.6945932,34.8379633],[134.6945886,34.837841]]]}}
