{"type":"Feature","id":"attraction-zoo-W415712228","properties":{"id":"attraction-zoo-W415712228","kind":"attraction","name":"ネオパークオキナワ","shortName":"ネオパークオキナワ","context":"日本","subtype":"zoo","subtypeLabel":"動物園","statusLabel":"","aliases":[],"osmType":"way","osmId":415712228,"osmDate":null,"officialAreaKm2":null,"areaSourceLabel":"","areaSourceUrl":"","boundarySourceLabel":"© OpenStreetMap contributors","boundarySourceUrl":"https://www.openstreetmap.org/copyright","geometryFile":"attractions/zoo-W415712228.geojson"},"geometry":{"type":"Polygon","coordinates":[[[127.987726,26.6137437],[127.987624,26.6137984],[127.9880509,26.6139846],[127.9883239,26.6137146],[127.9892579,26.613786],[127.9896246,26.6139779],[127.9899307,26.6140044],[127.9903346,26.6137426],[127.9906136,26.6136537],[127.990926,26.6137127],[127.9913889,26.6136139],[127.9914653,26.6135056],[127.9918282,26.6130037],[127.99214,26.6130147],[127.9923331,26.6132598],[127.9925354,26.6133233],[127.9929683,26.6128412],[127.9927358,26.6123971],[127.9927487,26.6123175],[127.9937569,26.6110942],[127.9939756,26.6111258],[127.9945547,26.6115687],[127.9947538,26.6115679],[127.9947774,26.6115519],[127.9948449,26.6114783],[127.9950906,26.6111101],[127.994729,26.6101655],[127.9944681,26.6098524],[127.9941586,26.6097032],[127.9939463,26.6096518],[127.9937266,26.6096412],[127.9935522,26.6095586],[127.993178,26.6095656],[127.9929635,26.6095094],[127.9924485,26.6093391],[127.9923017,26.6093844],[127.9922059,26.609621],[127.9905785,26.6094844],[127.9903677,26.6099494],[127.9902253,26.6101174],[127.9900485,26.6101508],[127.9898252,26.6101467],[127.9895929,26.6100941],[127.9892718,26.6102267],[127.9892764,26.6104736],[127.9891989,26.6104846],[127.9890971,26.610773],[127.9890952,26.611117],[127.9888547,26.6116366],[127.9888412,26.611956],[127.9887624,26.6121899],[127.9885768,26.6123651],[127.9883972,26.6124313],[127.988227,26.6126142],[127.9880726,26.6130086],[127.9878422,26.6132309],[127.987726,26.6137437]]]}}
