{"type":"Feature","id":"attraction-zoo-W579430112","properties":{"id":"attraction-zoo-W579430112","kind":"attraction","name":"天王寺動物園","shortName":"天王寺動物園","context":"日本","subtype":"zoo","subtypeLabel":"動物園","statusLabel":"","aliases":["Tennoji Zoo"],"osmType":"way","osmId":579430112,"osmDate":null,"officialAreaKm2":null,"areaSourceLabel":"","areaSourceUrl":"","boundarySourceLabel":"© OpenStreetMap contributors","boundarySourceUrl":"https://www.openstreetmap.org/copyright","geometryFile":"attractions/zoo-W579430112.geojson"},"geometry":{"type":"Polygon","coordinates":[[[135.5082571,34.6538402],[135.5081344,34.6533648],[135.5079316,34.6526932],[135.506672,34.6490324],[135.5080184,34.648772],[135.5086333,34.6486479],[135.5089102,34.6485889],[135.5091269,34.6489668],[135.5095641,34.6490125],[135.5096814,34.6488485],[135.5098386,34.6490528],[135.5092818,34.6492023],[135.509271,34.6494428],[135.5091798,34.649509],[135.5091476,34.6495961],[135.5091597,34.6497087],[135.5098262,34.6515754],[135.509788,34.6517232],[135.5095795,34.6518754],[135.5095419,34.6519306],[135.5095419,34.6525815],[135.5094682,34.6529301],[135.5096264,34.653619],[135.5095922,34.6536246],[135.5095822,34.6536924],[135.5082571,34.6538402]]]}}
