{"type":"Feature","id":"attraction-zoo-W1222893581","properties":{"id":"attraction-zoo-W1222893581","kind":"attraction","name":"昭和新山熊牧場","shortName":"昭和新山熊牧場","context":"日本","subtype":"zoo","subtypeLabel":"動物園","statusLabel":"","aliases":[],"osmType":"way","osmId":1222893581,"osmDate":null,"officialAreaKm2":null,"areaSourceLabel":"","areaSourceUrl":"","boundarySourceLabel":"© OpenStreetMap contributors","boundarySourceUrl":"https://www.openstreetmap.org/copyright","geometryFile":"attractions/zoo-W1222893581.geojson"},"geometry":{"type":"Polygon","coordinates":[[[140.8611819,42.5389672],[140.8618619,42.5386905],[140.8625847,42.5380195],[140.8623822,42.5379395],[140.8614206,42.5381035],[140.8615454,42.5384375],[140.8613294,42.5386579],[140.8610398,42.5387695],[140.8611819,42.5389672]]]}}
