{"type":"Feature","id":"attraction-zoo-W145220677","properties":{"id":"attraction-zoo-W145220677","kind":"attraction","name":"円山動物園","shortName":"円山動物園","context":"日本","subtype":"zoo","subtypeLabel":"動物園","statusLabel":"","aliases":["Maruyama Zoo","札幌市円山動物園"],"osmType":"way","osmId":145220677,"osmDate":null,"officialAreaKm2":null,"areaSourceLabel":"","areaSourceUrl":"","boundarySourceLabel":"© OpenStreetMap contributors","boundarySourceUrl":"https://www.openstreetmap.org/copyright","geometryFile":"attractions/zoo-W145220677.geojson"},"geometry":{"type":"Polygon","coordinates":[[[141.3085877,43.0510859],[141.3082591,43.051436],[141.3084399,43.0515947],[141.3085087,43.0517152],[141.3084717,43.0518796],[141.3085476,43.0520676],[141.308431,43.0520218],[141.3082658,43.0519439],[141.3080361,43.0518839],[141.3077648,43.0518011],[141.307504,43.0517039],[141.3068252,43.051331],[141.3065292,43.0512372],[141.306207,43.0512029],[141.3049664,43.0512473],[141.3046742,43.0511684],[141.3044921,43.0510347],[141.3043712,43.0508811],[141.3039919,43.0500733],[141.3039876,43.0498451],[141.3040028,43.0494812],[141.3041996,43.04862],[141.3046501,43.0465056],[141.3047757,43.0462383],[141.3050166,43.0459251],[141.3052311,43.0460373],[141.3053494,43.0460334],[141.3055429,43.0458763],[141.305656,43.045625],[141.3059245,43.0456302],[141.3067442,43.046943],[141.3068792,43.0469224],[141.3070401,43.0470442],[141.3073063,43.0469634],[141.3075852,43.0472324],[141.3075927,43.047823],[141.3077958,43.0480781],[141.3079896,43.0484839],[141.3081311,43.0488828],[141.3081633,43.0494395],[141.3082799,43.0499251],[141.308555,43.0506673],[141.3085877,43.0510859]]]}}
