{"type":"Feature","id":"attraction-zoo-W415203822","properties":{"id":"attraction-zoo-W415203822","kind":"attraction","name":"阿蘇カドリー・ドミニオン","shortName":"阿蘇カドリー・ドミニオン","context":"日本","subtype":"zoo","subtypeLabel":"動物園","statusLabel":"","aliases":[],"osmType":"way","osmId":415203822,"osmDate":null,"officialAreaKm2":null,"areaSourceLabel":"","areaSourceUrl":"","boundarySourceLabel":"© OpenStreetMap contributors","boundarySourceUrl":"https://www.openstreetmap.org/copyright","geometryFile":"attractions/zoo-W415203822.geojson"},"geometry":{"type":"Polygon","coordinates":[[[131.0658347,32.9302023],[131.0659302,32.9302974],[131.0659479,32.9303033],[131.0661319,32.9303004],[131.0662381,32.9303004],[131.0662983,32.9301251],[131.0662063,32.9298607],[131.0662452,32.9297003],[131.0668539,32.9296944],[131.0670557,32.9298786],[131.0670981,32.9299498],[131.0674202,32.9299914],[131.0675337,32.9300042],[131.0675502,32.9300883],[131.0677531,32.9299903],[131.0678919,32.9300193],[131.0679256,32.9303034],[131.0682767,32.9302855],[131.0682838,32.9306568],[131.0681493,32.9307014],[131.0679582,32.9306836],[131.0674308,32.9306212],[131.0674542,32.9306841],[131.0675249,32.9307691],[131.0676489,32.9309119],[131.067765,32.9309764],[131.0680156,32.9310384],[131.0684402,32.9310817],[131.0685231,32.9311242],[131.0685228,32.9315728],[131.0684908,32.9318954],[131.0684729,32.9321031],[131.068261,32.9322438],[131.0680266,32.9322164],[131.0677628,32.932371],[131.0678416,32.9324545],[131.0676529,32.9325841],[131.0677141,32.9327401],[131.0677187,32.932874],[131.0679228,32.9328764],[131.0679301,32.9332085],[131.0675995,32.9331987],[131.0675952,32.9335899],[131.0666895,32.9335924],[131.066624,32.9336133],[131.0660005,32.9336059],[131.0657896,32.9332091],[131.0655973,32.9328183],[131.0654689,32.93255],[131.0654738,32.9323579],[131.0655302,32.932109],[131.0655364,32.9318647],[131.0655121,32.9316338],[131.0655192,32.9314182],[131.0654978,32.9312902],[131.0654513,32.9309288],[131.0654527,32.9307949],[131.0654702,32.9307199],[131.0655011,32.9306303],[131.0656543,32.9304035],[131.0657965,32.9302031],[131.0658347,32.9302023]]]}}
