{"type":"Feature","id":"attraction-zoo-W1005425338","properties":{"id":"attraction-zoo-W1005425338","kind":"attraction","name":"大牟田市動物園","shortName":"大牟田市動物園","context":"日本","subtype":"zoo","subtypeLabel":"動物園","statusLabel":"","aliases":[],"osmType":"way","osmId":1005425338,"osmDate":null,"officialAreaKm2":null,"areaSourceLabel":"","areaSourceUrl":"","boundarySourceLabel":"© OpenStreetMap contributors","boundarySourceUrl":"https://www.openstreetmap.org/copyright","geometryFile":"attractions/zoo-W1005425338.geojson"},"geometry":{"type":"Polygon","coordinates":[[[130.443831,33.020219],[130.443831,33.0194356],[130.4439124,33.0192457],[130.4443796,33.0194208],[130.4445884,33.0199965],[130.4442239,33.0202902],[130.443831,33.020219]]]}}
