{"type":"Feature","id":"attraction-zoo-W552024541","properties":{"id":"attraction-zoo-W552024541","kind":"attraction","name":"ベアマウンテン","shortName":"ベアマウンテン","context":"北海道・新得町狩勝高原","subtype":"zoo","subtypeLabel":"動物園","statusLabel":"","aliases":[],"osmType":"way","osmId":552024541,"osmDate":null,"officialAreaKm2":null,"areaSourceLabel":"","areaSourceUrl":"","boundarySourceLabel":"© OpenStreetMap contributors","boundarySourceUrl":"https://www.openstreetmap.org/copyright","geometryFile":"attractions/zoo-W552024541.geojson"},"geometry":{"type":"Polygon","coordinates":[[[142.8061372,43.1762017],[142.8072464,43.1807666],[142.8102969,43.1803969],[142.8093237,43.1757552],[142.8061372,43.1762017]]]}}
