{"type":"Feature","id":"attraction-zoo-W814613607","properties":{"id":"attraction-zoo-W814613607","kind":"attraction","name":"東北サファリパーク","shortName":"東北サファリパーク","context":"日本","subtype":"zoo","subtypeLabel":"動物園","statusLabel":"","aliases":["Tohoku Safari Park"],"osmType":"way","osmId":814613607,"osmDate":null,"officialAreaKm2":null,"areaSourceLabel":"","areaSourceUrl":"","boundarySourceLabel":"© OpenStreetMap contributors","boundarySourceUrl":"https://www.openstreetmap.org/copyright","geometryFile":"attractions/zoo-W814613607.geojson"},"geometry":{"type":"Polygon","coordinates":[[[140.3642178,37.6401933],[140.3636495,37.6399555],[140.3620634,37.6407467],[140.3619042,37.6420436],[140.3618173,37.6433089],[140.3619686,37.6444817],[140.3635088,37.6440108],[140.3644878,37.6434234],[140.364944,37.6422794],[140.3644324,37.6418746],[140.3643799,37.6415513],[140.3640687,37.6413841],[140.3642178,37.6401933]]]}}
