{"type":"Feature","id":"attraction-zoo-W400583082","properties":{"id":"attraction-zoo-W400583082","kind":"attraction","name":"高知県立のいち動物公園","shortName":"高知県立のいち動物公園","context":"日本","subtype":"zoo","subtypeLabel":"動物園","statusLabel":"","aliases":[],"osmType":"way","osmId":400583082,"osmDate":null,"officialAreaKm2":null,"areaSourceLabel":"","areaSourceUrl":"","boundarySourceLabel":"© OpenStreetMap contributors","boundarySourceUrl":"https://www.openstreetmap.org/copyright","geometryFile":"attractions/zoo-W400583082.geojson"},"geometry":{"type":"Polygon","coordinates":[[[133.7100566,33.569279],[133.7099251,33.5692229],[133.7096845,33.5691695],[133.7089307,33.5691133],[133.7085778,33.569255],[133.7083276,33.5694314],[133.7082346,33.5694127],[133.7081319,33.5692897],[133.7077791,33.5692603],[133.7073428,33.5692897],[133.7070766,33.5692202],[133.7068649,33.5691775],[133.7067686,33.5690973],[133.7068837,33.568913],[133.7068217,33.5688665],[133.7067435,33.5688185],[133.7066575,33.5688198],[133.7064499,33.5689758],[133.7063481,33.5690386],[133.7062707,33.569075],[133.7058872,33.569204],[133.7055881,33.5692871],[133.7056555,33.5695116],[133.705463,33.5698457],[133.7054406,33.5700916],[133.7056234,33.5702974],[133.7054117,33.5707624],[133.7051583,33.5709389],[133.7049339,33.5710759],[133.7048343,33.5711366],[133.7050444,33.5712134],[133.7053186,33.5712941],[133.7054653,33.5713632],[133.7055209,33.5713702],[133.7055697,33.5713542],[133.7056278,33.5712643],[133.7061103,33.5711624],[133.7061494,33.5711568],[133.7062181,33.5713544],[133.7062515,33.5714694],[133.7062531,33.5715653],[133.7064197,33.5715891],[133.7067333,33.5715295],[133.7070894,33.5715215],[133.7072796,33.5714847],[133.7074223,33.5714965],[133.7075289,33.5715803],[133.707596,33.5716822],[133.7080165,33.5715883],[133.7084431,33.5714841],[133.7088441,33.5713638],[133.7092515,33.5714413],[133.7096688,33.5715276],[133.7103806,33.5714627],[133.7104929,33.5712355],[133.710618,33.571019],[133.710695,33.5708373],[133.7105859,33.5706288],[133.710464,33.5703883],[133.7103903,33.5701317],[133.7103486,33.5699018],[133.7103261,33.5696826],[133.710294,33.5694955],[133.7102106,33.5693806],[133.7100566,33.569279]]]}}
