{"type":"Feature","id":"attraction-zoo-W832883030","properties":{"id":"attraction-zoo-W832883030","kind":"attraction","name":"のぼりべつクマ牧場","shortName":"のぼりべつクマ牧場","context":"日本","subtype":"zoo","subtypeLabel":"動物園","statusLabel":"","aliases":["Noboribetsu Bear Park"],"osmType":"way","osmId":832883030,"osmDate":null,"officialAreaKm2":null,"areaSourceLabel":"","areaSourceUrl":"","boundarySourceLabel":"© OpenStreetMap contributors","boundarySourceUrl":"https://www.openstreetmap.org/copyright","geometryFile":"attractions/zoo-W832883030.geojson"},"geometry":{"type":"Polygon","coordinates":[[[141.1600112,42.4904024],[141.1592831,42.4903431],[141.158576,42.4892053],[141.1584714,42.4890142],[141.1581737,42.4890568],[141.1585944,42.4902405],[141.1582733,42.4903967],[141.1583684,42.4906099],[141.1592886,42.4909593],[141.1599592,42.490962],[141.1600112,42.4904024]]]}}
