{"type":"Feature","id":"attraction-zoo-W248390054","properties":{"id":"attraction-zoo-W248390054","kind":"attraction","name":"ぐんま昆虫の森","shortName":"ぐんま昆虫の森","context":"日本","subtype":"zoo","subtypeLabel":"動物園","statusLabel":"","aliases":["Gunma Insect World"],"osmType":"way","osmId":248390054,"osmDate":null,"officialAreaKm2":null,"areaSourceLabel":"","areaSourceUrl":"","boundarySourceLabel":"© OpenStreetMap contributors","boundarySourceUrl":"https://www.openstreetmap.org/copyright","geometryFile":"attractions/zoo-W248390054.geojson"},"geometry":{"type":"Polygon","coordinates":[[[139.2484129,36.4341175],[139.2484708,36.4341224],[139.2485207,36.4341251],[139.2486273,36.434123],[139.2487197,36.4341198],[139.2488189,36.4341154],[139.2488846,36.4341101],[139.2489606,36.4341061],[139.2494252,36.4340577],[139.2495639,36.4340327],[139.2497211,36.4340143],[139.2499356,36.433996],[139.2505345,36.4339412],[139.2508382,36.4339108],[139.2509843,36.4338999],[139.2510422,36.4338933],[139.2511132,36.4338854],[139.2512997,36.4338693],[139.2520279,36.4338093],[139.2525691,36.4337642],[139.2527187,36.4337732],[139.2528092,36.4337882],[139.2529061,36.4338109],[139.253088,36.4338537],[139.2537526,36.4340539],[139.2544327,36.4342566],[139.254843,36.4343796],[139.2553232,36.4344853],[139.2555941,36.4345004],[139.2559213,36.4344767],[139.2563397,36.4344098],[139.2580518,36.434041],[139.2581837,36.4340122],[139.258249,36.4339979],[139.258301,36.4339802],[139.2588732,36.4338606],[139.2589186,36.4338518],[139.2589627,36.4338432],[139.2589898,36.4338379],[139.2591068,36.4338163],[139.2592574,36.433776],[139.2593167,36.4337544],[139.2593446,36.4337308],[139.2593821,36.4337149],[139.2594604,36.4336858],[139.2595144,36.433678],[139.2596462,36.4342556],[139.2595999,36.4344392],[139.2595355,36.4347815],[139.259526,36.4348161],[139.2593794,36.435115],[139.2591886,36.4355406],[139.2592042,36.4355445],[139.2592265,36.4355491],[139.2595691,36.4356595],[139.2596438,36.4356814],[139.25952,36.4359095],[139.2590823,36.4367077],[139.2587899,36.4373236],[139.2587673,36.4373887],[139.2586345,36.4377279],[139.258196,36.4383468],[139.2580732,36.4384968],[139.2579506,36.4386467],[139.2576978,36.4387809],[139.2576824,36.4387891],[139.2574107,36.4389237],[139.2572305,36.4390129],[139.2570266,36.4391139],[139.2568917,36.4391852],[139.2568146,36.439226],[139.25658,36.4393502],[139.2563811,36.4394277],[139.2562309,36.4394532],[139.2560565,36.4394769],[139.2557753,36.4395055],[139.2555925,36.4395373],[139.2553837,36.43958],[139.2551877,36.4396312],[139.2550883,36.4396723],[139.2550112,36.4396911],[139.2549567,36.439693],[139.2549327,36.4397018],[139.2548163,36.4397538],[139.2546818,36.4395272],[139.2544068,36.4396142],[139.2543455,36.4396381],[139.2538552,36.439836],[139.2537447,36.4398722],[139.2537401,36.4399094],[139.2537164,36.439928],[139.2530745,36.439916],[139.2530908,36.4394575],[139.2528117,36.4394516],[139.252522,36.4394388],[139.2522678,36.4394251],[139.2522495,36.4398982],[139.2516812,36.4398856],[139.2516922,36.4395676],[139.2517109,36.4392437],[139.2516623,36.4391476],[139.251581,36.439039],[139.2514409,36.4389216],[139.2510695,36.4386902],[139.2508657,36.4385111],[139.2508267,36.4384188],[139.2507589,36.4382482],[139.2506999,36.4381425],[139.2506564,36.4380428],[139.2504446,36.4375443],[139.2501951,36.4367287],[139.2499685,36.4363666],[139.2499298,36.4363252],[139.2498299,36.4361453],[139.2496129,36.435625],[139.2494452,36.4354619],[139.2492806,36.4352548],[139.2492594,36.4352287],[139.2491537,36.4351592],[139.249029,36.4350772],[139.248848,36.4349627],[139.2488064,36.4349261],[139.2486951,36.4347664],[139.2486106,36.4346606],[139.2485241,36.4344941],[139.2483572,36.4342066],[139.2484129,36.4341175]]]}}
