{"type":"Feature","id":"attraction-zoo-R11685246","properties":{"id":"attraction-zoo-R11685246","kind":"attraction","name":"京都市動物園","shortName":"京都市動物園","context":"日本","subtype":"zoo","subtypeLabel":"動物園","statusLabel":"","aliases":["Kyoto City Zoo"],"osmType":"relation","osmId":11685246,"osmDate":null,"officialAreaKm2":null,"areaSourceLabel":"","areaSourceUrl":"","boundarySourceLabel":"© OpenStreetMap contributors","boundarySourceUrl":"https://www.openstreetmap.org/copyright","geometryFile":"attractions/zoo-R11685246.geojson"},"geometry":{"type":"Polygon","coordinates":[[[135.7869648,35.0121773],[135.7871663,35.0124944],[135.7873149,35.012452],[135.7873927,35.0124509],[135.7873945,35.0124096],[135.7875933,35.0124133],[135.7875931,35.0124485],[135.7876054,35.0124669],[135.78763,35.012467],[135.78764,35.0124531],[135.7876395,35.0124371],[135.7878421,35.012434],[135.7878543,35.0123615],[135.787863,35.0123619],[135.7878711,35.0123248],[135.7879067,35.0123261],[135.7879433,35.0122147],[135.788295,35.0122075],[135.7883049,35.0122978],[135.7883089,35.0124797],[135.788374,35.0124794],[135.7884411,35.0125896],[135.7884132,35.0126124],[135.7877233,35.0126168],[135.7878817,35.0134541],[135.7871538,35.0134913],[135.7866016,35.0135111],[135.7849129,35.0135509],[135.7848022,35.0134519],[135.7848257,35.012186],[135.7848798,35.0121529],[135.7848796,35.0121473],[135.7868841,35.0121473],[135.7869073,35.0121477],[135.7869295,35.0121531],[135.7869491,35.0121632],[135.7869648,35.0121773]]]}}
