{"type":"Feature","id":"attraction-zoo-W169652278","properties":{"id":"attraction-zoo-W169652278","kind":"attraction","name":"福岡市動植物園","shortName":"福岡市動植物園","context":"日本","subtype":"zoo","subtypeLabel":"動物園","statusLabel":"","aliases":["Fukuoka Municipal Zoo and Botanical Garden"],"osmType":"way","osmId":169652278,"osmDate":null,"officialAreaKm2":null,"areaSourceLabel":"","areaSourceUrl":"","boundarySourceLabel":"© OpenStreetMap contributors","boundarySourceUrl":"https://www.openstreetmap.org/copyright","geometryFile":"attractions/zoo-W169652278.geojson"},"geometry":{"type":"Polygon","coordinates":[[[130.3905881,33.5732787],[130.3906681,33.5732057],[130.3909604,33.5730917],[130.3910892,33.5730783],[130.3913011,33.5730135],[130.3909966,33.5725946],[130.3909503,33.572411],[130.3909402,33.572371],[130.3908888,33.5721777],[130.3904976,33.5719051],[130.3901349,33.5718656],[130.3897517,33.571846],[130.3897253,33.5718447],[130.3893658,33.5720034],[130.3885666,33.5719006],[130.3885451,33.5718715],[130.3884938,33.571827],[130.388419,33.571762],[130.388293,33.5714648],[130.3883198,33.5714223],[130.3884754,33.5713329],[130.3884056,33.5712905],[130.3882125,33.5712659],[130.3880033,33.5712771],[130.3877646,33.5713106],[130.3876197,33.5712636],[130.3875446,33.5713486],[130.3875527,33.5718022],[130.387786,33.5718067],[130.3878289,33.5719341],[130.3877002,33.5719832],[130.3874052,33.5720101],[130.3872367,33.5719754],[130.3872107,33.5720447],[130.3872778,33.5720447],[130.387326,33.5721755],[130.3873596,33.5721972],[130.3873508,33.5722213],[130.3873133,33.5722347],[130.3870082,33.5723168],[130.3869498,33.5723458],[130.3868211,33.5724665],[130.3867105,33.5726202],[130.3867078,33.5728124],[130.3866863,33.5728548],[130.3866702,33.572904],[130.3866971,33.5729598],[130.3867641,33.5729978],[130.3868955,33.5730023],[130.3871369,33.5729353],[130.3873493,33.5729155],[130.389001,33.5728061],[130.3890547,33.5728861],[130.3891325,33.5728727],[130.3892451,33.5728772],[130.3893819,33.572866],[130.389677,33.5728012],[130.3895375,33.5728906],[130.3893498,33.5729621],[130.3890869,33.5730604],[130.3889366,33.5731945],[130.3890056,33.5732678],[130.3894596,33.5734716],[130.3894182,33.5736006],[130.3894114,33.5736359],[130.3894209,33.5736649],[130.3894114,33.5737241],[130.3893236,33.5737388],[130.3892519,33.5737577],[130.3891855,33.5737677],[130.3891515,33.5737821],[130.3891258,33.5737929],[130.3891043,33.5738398],[130.389103,33.573885],[130.3891345,33.5739415],[130.3894054,33.574056],[130.3897132,33.5741845],[130.3898627,33.5742538],[130.3898358,33.5742905],[130.3897682,33.5743376],[130.389729,33.5743844],[130.3897286,33.5744214],[130.389744,33.574446],[130.3898379,33.5745286],[130.39008,33.5747113],[130.3900968,33.5747258],[130.3901128,33.574746],[130.3901196,33.5747711],[130.3901296,33.5747806],[130.3902537,33.5747633],[130.3902275,33.5747996],[130.3901544,33.5748147],[130.3900471,33.574875],[130.3899962,33.5748571],[130.3898406,33.5748125],[130.3898028,33.5748272],[130.389795,33.5748303],[130.3897789,33.5748616],[130.389795,33.5749085],[130.3900552,33.5750426],[130.3901739,33.5750839],[130.390259,33.5750566],[130.3902617,33.575089],[130.3904119,33.5752449],[130.3904253,33.5752583],[130.3904548,33.5752616],[130.3908022,33.5750851],[130.3909779,33.5748348],[130.3909913,33.5748449],[130.391061,33.5748024],[130.3912608,33.574875],[130.391352,33.5748247],[130.3913359,33.5746549],[130.391212,33.5745509],[130.391313,33.5740906],[130.3910355,33.5734761],[130.3910033,33.5734582],[130.3907203,33.5734381],[130.3906439,33.5734023],[130.3905881,33.5732787]]]}}
