{"type":"Feature","id":"attraction-zoo-W1111683166","properties":{"id":"attraction-zoo-W1111683166","kind":"attraction","name":"徳島県立出島野鳥公園","shortName":"徳島県立出島野鳥公園","context":"徳島県・阿南市","subtype":"zoo","subtypeLabel":"動物園","statusLabel":"","aliases":[],"osmType":"way","osmId":1111683166,"osmDate":null,"officialAreaKm2":null,"areaSourceLabel":"","areaSourceUrl":"","boundarySourceLabel":"© OpenStreetMap contributors","boundarySourceUrl":"https://www.openstreetmap.org/copyright","geometryFile":"attractions/zoo-W1111683166.geojson"},"geometry":{"type":"Polygon","coordinates":[[[134.6712377,33.9604043],[134.6734232,33.9598931],[134.6740911,33.9589053],[134.6741564,33.9585257],[134.6737875,33.958057],[134.6726247,33.9583785],[134.6718915,33.9587736],[134.6718635,33.9589402],[134.6709388,33.9594902],[134.6709949,33.9600674],[134.6712377,33.9604043]]]}}
