{"type":"Feature","id":"attraction-zoo-W494324832","properties":{"id":"attraction-zoo-W494324832","kind":"attraction","name":"渋川動物公園","shortName":"渋川動物公園","context":"日本","subtype":"zoo","subtypeLabel":"動物園","statusLabel":"","aliases":[],"osmType":"way","osmId":494324832,"osmDate":null,"officialAreaKm2":null,"areaSourceLabel":"","areaSourceUrl":"","boundarySourceLabel":"© OpenStreetMap contributors","boundarySourceUrl":"https://www.openstreetmap.org/copyright","geometryFile":"attractions/zoo-W494324832.geojson"},"geometry":{"type":"Polygon","coordinates":[[[133.8936624,34.4701222],[133.8935209,34.4688097],[133.8946988,34.4682932],[133.8957998,34.4675451],[133.8964137,34.4674988],[133.8964595,34.4671196],[133.8961309,34.4663978],[133.8946843,34.4671419],[133.8935209,34.4681079],[133.8923143,34.4689549],[133.8928008,34.4692575],[133.8933904,34.4700915],[133.8936624,34.4701222]]]}}
