{"type":"Feature","id":"attraction-zoo-W161786418","properties":{"id":"attraction-zoo-W161786418","kind":"attraction","name":"羽村市動物公園","shortName":"羽村市動物公園","context":"東京都・羽村市","subtype":"zoo","subtypeLabel":"動物園","statusLabel":"","aliases":["Hamura Zoological Park"],"osmType":"way","osmId":161786418,"osmDate":null,"officialAreaKm2":null,"areaSourceLabel":"","areaSourceUrl":"","boundarySourceLabel":"© OpenStreetMap contributors","boundarySourceUrl":"https://www.openstreetmap.org/copyright","geometryFile":"attractions/zoo-W161786418.geojson"},"geometry":{"type":"Polygon","coordinates":[[[139.3284918,35.7683998],[139.3284495,35.7684031],[139.3283685,35.7683625],[139.3282743,35.7683212],[139.3273921,35.7679654],[139.3273582,35.7678681],[139.32788,35.7671522],[139.3282709,35.7666223],[139.3287314,35.7659839],[139.3289786,35.7656476],[139.3290176,35.7656402],[139.3290406,35.7656425],[139.3292142,35.7658051],[139.3299827,35.7665529],[139.3304611,35.7670206],[139.3304586,35.7670651],[139.3298795,35.7674492],[139.3291961,35.767918],[139.3288422,35.7681585],[139.3284918,35.7683998]]]}}
