{"type":"Feature","id":"attraction-zoo-W311114658","properties":{"id":"attraction-zoo-W311114658","kind":"attraction","name":"東武動物公園","shortName":"東武動物公園","context":"埼玉県・宮代町","subtype":"zoo","subtypeLabel":"動物園","statusLabel":"","aliases":["Tobu Zoo"],"osmType":"way","osmId":311114658,"osmDate":null,"officialAreaKm2":null,"areaSourceLabel":"","areaSourceUrl":"","boundarySourceLabel":"© OpenStreetMap contributors","boundarySourceUrl":"https://www.openstreetmap.org/copyright","geometryFile":"attractions/zoo-W311114658.geojson"},"geometry":{"type":"Polygon","coordinates":[[[139.7195103,36.0203138],[139.7188881,36.0204413],[139.7187573,36.0204809],[139.718412,36.0206413],[139.7180379,36.020815],[139.7175896,36.0210343],[139.71728,36.0211374],[139.7159672,36.0214339],[139.715797,36.0214723],[139.7151215,36.0217268],[139.7143991,36.021999],[139.7134943,36.0223737],[139.7132478,36.0224858],[139.7127999,36.0225905],[139.7124301,36.0226454],[139.7117523,36.0227201],[139.7111669,36.0227675],[139.7107562,36.0228057],[139.7108457,36.0234786],[139.709864,36.023522],[139.7094174,36.023496],[139.7089923,36.0234352],[139.7083794,36.0232617],[139.7080656,36.0231879],[139.7078014,36.0231359],[139.707611,36.0230881],[139.7071733,36.0229323],[139.7069746,36.0228821],[139.7069554,36.0229052],[139.7069008,36.0229758],[139.7068701,36.0230122],[139.7067471,36.0231578],[139.7067297,36.0231818],[139.7066875,36.0232344],[139.707134,36.0232812],[139.7077762,36.0233738],[139.7077225,36.0234408],[139.7064419,36.0237806],[139.7063484,36.0238326],[139.7063933,36.0238845],[139.7064326,36.0239281],[139.7064592,36.0239584],[139.7067275,36.0242493],[139.7069104,36.0244031],[139.7066052,36.0246721],[139.7065843,36.0246905],[139.7061517,36.0251218],[139.7055582,36.0257268],[139.7052074,36.0261409],[139.7045944,36.025759],[139.7045266,36.0258213],[139.7043526,36.0259671],[139.7038417,36.0262361],[139.7032399,36.026534],[139.702738,36.0259134],[139.7039834,36.0252358],[139.7034273,36.0248733],[139.7034266,36.0245839],[139.7028336,36.024599],[139.7027476,36.023145],[139.7035053,36.0232025],[139.7039384,36.0232151],[139.7045377,36.0232001],[139.7059503,36.0231055],[139.7061312,36.0230924],[139.7062526,36.0231198],[139.7065717,36.0232091],[139.7066113,36.023158],[139.7066342,36.0231327],[139.7067415,36.0229921],[139.7067582,36.0229721],[139.7067753,36.0229539],[139.7068301,36.0228819],[139.7068577,36.0228501],[139.7064264,36.0227847],[139.7069121,36.0221687],[139.706971,36.0221554],[139.7074567,36.0222164],[139.707518,36.0219933],[139.7079165,36.0219971],[139.708461,36.021138],[139.7084927,36.0211269],[139.709614,36.0195028],[139.7096447,36.0194875],[139.7104602,36.0199411],[139.7107439,36.020085],[139.7111014,36.020431],[139.7111484,36.0204505],[139.7112033,36.0204592],[139.7112637,36.0204581],[139.7121687,36.0203538],[139.7122364,36.0203293],[139.7123742,36.0201706],[139.7123858,36.020114],[139.7123146,36.0198545],[139.7130238,36.0197089],[139.7130607,36.0196909],[139.7132016,36.0192196],[139.7134047,36.0187287],[139.7135385,36.0185297],[139.7138815,36.0183775],[139.7139464,36.0183852],[139.7141594,36.0186296],[139.7140456,36.0187086],[139.7142067,36.0188943],[139.7145603,36.0186797],[139.7146092,36.0185918],[139.7151705,36.0183926],[139.7153462,36.01823],[139.715386,36.0182081],[139.7154403,36.0182139],[139.7154928,36.0182798],[139.7155617,36.0183238],[139.7156757,36.0183209],[139.716726,36.0179986],[139.7171135,36.0178317],[139.7171479,36.0178375],[139.7173978,36.0182945],[139.7176205,36.0186328],[139.7177811,36.0188389],[139.7178613,36.0189418],[139.7179042,36.0190114],[139.7181222,36.0189387],[139.7197034,36.0184111],[139.7197916,36.0183971],[139.7200485,36.0186437],[139.7205629,36.0195507],[139.7198472,36.0196827],[139.7198508,36.0196965],[139.7198765,36.019778],[139.719978,36.0200992],[139.7198648,36.0201234],[139.7197761,36.0201438],[139.7197867,36.0201737],[139.7194863,36.020243],[139.7195103,36.0203138]]]}}
