{"type":"Feature","id":"attraction-zoo-W738827950","properties":{"id":"attraction-zoo-W738827950","kind":"attraction","name":"くまくま園","shortName":"くまくま園","context":"日本","subtype":"zoo","subtypeLabel":"動物園","statusLabel":"","aliases":[],"osmType":"way","osmId":738827950,"osmDate":null,"officialAreaKm2":null,"areaSourceLabel":"","areaSourceUrl":"","boundarySourceLabel":"© OpenStreetMap contributors","boundarySourceUrl":"https://www.openstreetmap.org/copyright","geometryFile":"attractions/zoo-W738827950.geojson"},"geometry":{"type":"Polygon","coordinates":[[[140.5347879,39.9138355],[140.5352009,39.9141009],[140.5359654,39.914214],[140.5360726,39.9141276],[140.5365233,39.9142593],[140.5368424,39.9142675],[140.5370785,39.9141749],[140.5371563,39.9139569],[140.5370141,39.9136092],[140.5368317,39.9134528],[140.5365152,39.9133849],[140.5362416,39.913494],[140.5359224,39.9136606],[140.5356784,39.9136606],[140.5353082,39.9136092],[140.5347879,39.9138355]]]}}
