{"type":"Feature","id":"attraction-zoo-W153789019","properties":{"id":"attraction-zoo-W153789019","kind":"attraction","name":"井の頭自然文化園","shortName":"井の頭自然文化園","context":"日本","subtype":"zoo","subtypeLabel":"動物園","statusLabel":"","aliases":["Inokashira Park Zoo","東京都井の頭自然文化園"],"osmType":"way","osmId":153789019,"osmDate":null,"officialAreaKm2":null,"areaSourceLabel":"","areaSourceUrl":"","boundarySourceLabel":"© OpenStreetMap contributors","boundarySourceUrl":"https://www.openstreetmap.org/copyright","geometryFile":"attractions/zoo-W153789019.geojson"},"geometry":{"type":"Polygon","coordinates":[[[139.5702858,35.702388],[139.5687073,35.7000377],[139.5704174,35.6993807],[139.5707197,35.6996078],[139.572388,35.700303],[139.5724334,35.7003235],[139.574015,35.7010665],[139.5740129,35.7010839],[139.5702858,35.702388]]]}}
