{"type":"Feature","id":"attraction-zoo-W483374964","properties":{"id":"attraction-zoo-W483374964","kind":"attraction","name":"広島市森林公園","shortName":"広島市森林公園","context":"広島県・広島市","subtype":"zoo","subtypeLabel":"動物園","statusLabel":"","aliases":[],"osmType":"way","osmId":483374964,"osmDate":null,"officialAreaKm2":null,"areaSourceLabel":"","areaSourceUrl":"","boundarySourceLabel":"© OpenStreetMap contributors","boundarySourceUrl":"https://www.openstreetmap.org/copyright","geometryFile":"attractions/zoo-W483374964.geojson"},"geometry":{"type":"Polygon","coordinates":[[[132.549868,34.4390092],[132.5497017,34.4391065],[132.5495354,34.4392857],[132.5493744,34.4396861],[132.5492242,34.4398896],[132.5490177,34.4400842],[132.5487656,34.4401196],[132.5485805,34.4402302],[132.5482855,34.4403762],[132.5481058,34.4405266],[132.5481084,34.4407346],[132.5482774,34.4409115],[132.5483901,34.4409646],[132.5486771,34.4410531],[132.5488787,34.4411913],[132.5488997,34.4412057],[132.5491384,34.4412301],[132.5492511,34.4410376],[132.5493154,34.4408872],[132.549463,34.4407257],[132.5496185,34.4406395],[132.5498438,34.4405333],[132.5500209,34.440416],[132.5501898,34.4401993],[132.5504956,34.4401749],[132.5506029,34.4400643],[132.5509489,34.4400267],[132.5511983,34.439978],[132.5515604,34.4399714],[132.5517643,34.4400444],[132.5517267,34.4402413],[132.5517804,34.4404116],[132.5518152,34.4404957],[132.5520164,34.4406328],[132.5521854,34.4407456],[132.5522927,34.4408231],[132.5524965,34.4408164],[132.5526414,34.4408031],[132.5528855,34.4407655],[132.5531644,34.4407213],[132.5533119,34.4406815],[132.5534487,34.4409049],[132.5535319,34.4410929],[132.5535158,34.4412256],[132.5535265,34.4413694],[132.5536579,34.4414247],[132.553725,34.4414955],[132.5538215,34.4416105],[132.5539664,34.4417698],[132.5540683,34.4418959],[132.5542802,34.4418738],[132.5544894,34.441845],[132.5545431,34.4418362],[132.5546074,34.4417698],[132.5546611,34.441688],[132.5547389,34.4415973],[132.5549534,34.4414336],[132.5550285,34.4413805],[132.5551117,34.4413539],[132.5551841,34.4412832],[132.5552485,34.4412279],[132.5553102,34.4411372],[132.5553772,34.4410244],[132.5554228,34.4409115],[132.555455,34.4408363],[132.5555355,34.4407036],[132.5556508,34.4406461],[132.5557635,34.4405687],[132.5557769,34.4404382],[132.555734,34.4402922],[132.5555972,34.4401307],[132.5555435,34.4398918],[132.5555542,34.4396352],[132.5556401,34.4394936],[132.555734,34.4393587],[132.5558439,34.4392967],[132.5559217,34.4392016],[132.5559056,34.4390799],[132.5558493,34.4389539],[132.5557822,34.4388344],[132.5557179,34.4386995],[132.5556857,34.4385933],[132.5557152,34.4384893],[132.5557608,34.4383433],[132.5558305,34.4382769],[132.5557635,34.4380889],[132.5555757,34.4379319],[132.5552163,34.437808],[132.5549776,34.4376531],[132.5548381,34.4374872],[132.5546959,34.4372151],[132.5546879,34.4370028],[132.5546798,34.4367727],[132.554771,34.4365072],[132.5548783,34.4363258],[132.5549749,34.4361467],[132.5549749,34.4359011],[132.5550098,34.4356998],[132.5550554,34.4355339],[132.5549749,34.4353127],[132.5549722,34.4349786],[132.5550017,34.4346689],[132.5550232,34.4344632],[132.5549883,34.4341645],[132.5550259,34.43393],[132.5550527,34.4335938],[132.5550956,34.433169],[132.5550741,34.4326691],[132.5551331,34.4323195],[132.5553048,34.4318284],[132.5554872,34.4317001],[132.5558198,34.4315673],[132.556029,34.4310275],[132.5561738,34.4307311],[132.5559968,34.4301293],[132.5562382,34.4298727],[132.5565333,34.4296293],[132.5565493,34.4291957],[132.5566084,34.4288418],[132.5569356,34.4286471],[132.5572628,34.4285232],[132.557531,34.4282842],[132.5578475,34.4279789],[132.5583947,34.4279922],[132.558856,34.4280276],[132.5593603,34.4280984],[132.5596339,34.4281869],[132.5598002,34.4284612],[132.560047,34.4284634],[132.5600242,34.4282251],[132.5602803,34.4280586],[132.5603823,34.4278329],[132.5603956,34.427656],[132.560334,34.4274059],[132.5600952,34.4270895],[132.5598216,34.4270674],[132.5592101,34.4271072],[132.558679,34.4271072],[132.5583518,34.4272134],[132.5578797,34.4274347],[132.5576222,34.4273904],[132.5573272,34.4272533],[132.556941,34.4270453],[132.55678,34.4269745],[132.5563455,34.4270276],[132.556029,34.427178],[132.5556803,34.427178],[132.5552833,34.4271825],[132.5549186,34.4271648],[132.5547845,34.4269789],[132.5547308,34.4264435],[132.554645,34.4260364],[132.5544572,34.425678],[132.5541836,34.4253815],[132.5537062,34.4248107],[132.5533307,34.4245718],[132.552923,34.4242842],[132.5523276,34.4240585],[132.5517697,34.4237709],[132.5513029,34.4235186],[132.5509006,34.4233549],[132.5502998,34.4232487],[132.5499028,34.4231735],[132.5494737,34.4231248],[132.5491411,34.4230009],[132.5486958,34.4228903],[132.5482345,34.4227531],[132.5477356,34.4225982],[132.5476176,34.4227044],[132.5475479,34.4228549],[132.5477088,34.4230009],[132.547859,34.4232],[132.5477624,34.4233549],[132.5475747,34.4235009],[132.547741,34.4236425],[132.5479931,34.4237133],[132.5481272,34.4238638],[132.5481648,34.424085],[132.5481916,34.4244125],[132.5482881,34.4248063],[132.5483525,34.4250098],[132.5483364,34.4252355],[132.5483525,34.4254479],[132.548213,34.425678],[132.5484115,34.4259435],[132.5486207,34.4262886],[132.5488192,34.4265984],[132.5490016,34.4268948],[132.5491411,34.4269922],[132.5492591,34.4270143],[132.5495327,34.4270099],[132.5497151,34.4271028],[132.5496722,34.4273595],[132.5496185,34.4275807],[132.5496185,34.4277842],[132.5496829,34.4279214],[132.5498116,34.4281869],[132.5497795,34.4284258],[132.5497097,34.4285497],[132.5494361,34.4286648],[132.5491733,34.428855],[132.5491089,34.4290674],[132.5491679,34.429417],[132.5492698,34.4299347],[132.5495488,34.4303284],[132.5499404,34.4305541],[132.5500209,34.4307621],[132.5500209,34.4309656],[132.5500262,34.4311603],[132.5498385,34.4314258],[132.5497848,34.431647],[132.5498116,34.4318638],[132.549876,34.4321647],[132.5501281,34.4324744],[132.5503749,34.4326425],[132.5504983,34.4328859],[132.5504822,34.433023],[132.5503803,34.4332177],[132.5502462,34.433461],[132.5500262,34.4337752],[132.5498653,34.4340583],[132.5496561,34.4344831],[132.5495649,34.4347486],[132.549581,34.4349388],[132.5499994,34.4350715],[132.5501871,34.4353724],[132.5505412,34.4355626],[132.5508953,34.4357396],[132.5511206,34.4359785],[132.5513673,34.4361909],[132.5518394,34.436421],[132.5522364,34.436651],[132.5524617,34.4367926],[132.5525073,34.4368413],[132.5525287,34.4369253],[132.5525394,34.4370758],[132.5525394,34.4371554],[132.5526467,34.4373103],[132.5526575,34.4374209],[132.5523141,34.4377438],[132.552062,34.437996],[132.5519655,34.4381199],[132.551708,34.4381818],[132.5513807,34.4383544],[132.5512091,34.4386066],[132.5509677,34.4387393],[132.5505975,34.4387879],[132.5502918,34.4389207],[132.5501188,34.4389273],[132.5500437,34.4389229],[132.549868,34.4390092]]]}}
