{"type":"Feature","id":"attraction-zoo-W1065775336","properties":{"id":"attraction-zoo-W1065775336","kind":"attraction","name":"恩賜上野動物園","shortName":"恩賜上野動物園","context":"東京都","subtype":"zoo","subtypeLabel":"動物園","statusLabel":"","aliases":["Ueno Zoological Gardens"],"osmType":"way","osmId":1065775336,"osmDate":null,"officialAreaKm2":null,"areaSourceLabel":"","areaSourceUrl":"","boundarySourceLabel":"© OpenStreetMap contributors","boundarySourceUrl":"https://www.openstreetmap.org/copyright","geometryFile":"attractions/zoo-W1065775336.geojson"},"geometry":{"type":"Polygon","coordinates":[[[139.7729274,35.7157412],[139.7728592,35.7158074],[139.7728882,35.7158495],[139.7729111,35.7158829],[139.7729618,35.7159537],[139.7730041,35.7159364],[139.7730277,35.7159326],[139.7730525,35.7159344],[139.7730676,35.7159386],[139.7731905,35.7161297],[139.7731841,35.7162753],[139.7731694,35.7163333],[139.7731567,35.7163659],[139.7731369,35.7163965],[139.7730967,35.7164472],[139.7730438,35.7164897],[139.7725353,35.7166794],[139.772207,35.7168035],[139.7723091,35.717173],[139.7723474,35.7173093],[139.7723991,35.7174983],[139.7724953,35.717823],[139.7724946,35.7178698],[139.7720517,35.7180085],[139.7719535,35.7180373],[139.7713214,35.7182426],[139.7703645,35.7181582],[139.7699861,35.7181123],[139.7703629,35.7177057],[139.7704319,35.7176141],[139.7704352,35.7174316],[139.7702413,35.7173453],[139.7701244,35.7172937],[139.769975,35.7172276],[139.7698978,35.7171927],[139.7698906,35.7171831],[139.7699034,35.7171615],[139.7699234,35.7171261],[139.7698857,35.7171112],[139.7698696,35.7171051],[139.7699133,35.7169804],[139.7699393,35.7166849],[139.7698911,35.7164916],[139.7698824,35.7164864],[139.7698759,35.7164812],[139.7698707,35.7164716],[139.7698675,35.7164652],[139.7698654,35.7164579],[139.7698605,35.716341],[139.7698562,35.7162324],[139.7698445,35.7161284],[139.7698319,35.7160756],[139.7698213,35.7160467],[139.7698105,35.716008],[139.7698015,35.7159603],[139.7697936,35.7159176],[139.769805,35.7158042],[139.7698164,35.7157354],[139.7698429,35.7156226],[139.7698678,35.715519],[139.7698764,35.7154781],[139.769894,35.7154235],[139.7699351,35.7152906],[139.7700647,35.7148946],[139.7700899,35.7148673],[139.7701345,35.7148311],[139.7702062,35.7147914],[139.7702415,35.7147755],[139.770568,35.7146709],[139.770833,35.7145966],[139.7708073,35.7144977],[139.77025,35.7146767],[139.7701264,35.7147224],[139.7700579,35.7147577],[139.7699694,35.7148344],[139.7697891,35.7154006],[139.7693625,35.7152998],[139.7692145,35.7154368],[139.7691751,35.7154237],[139.7690863,35.7154462],[139.7685727,35.7155062],[139.7684549,35.7155165],[139.7684892,35.7152287],[139.7678948,35.7151376],[139.7679273,35.7149683],[139.7679595,35.7146434],[139.7681945,35.7139369],[139.768467,35.7131207],[139.7686558,35.7131024],[139.7686859,35.7130902],[139.7687406,35.7130466],[139.7687921,35.7130458],[139.7688296,35.7130876],[139.7688683,35.7131015],[139.7689316,35.7131233],[139.7690315,35.7131411],[139.769112,35.7131407],[139.7692091,35.7131154],[139.7693373,35.7130923],[139.769664,35.7130762],[139.769724,35.7130662],[139.769782,35.7130501],[139.7698667,35.7130183],[139.7699936,35.7129548],[139.7701408,35.7128738],[139.7702834,35.7128239],[139.7703547,35.7127875],[139.7704389,35.7127253],[139.7704644,35.7126978],[139.7706143,35.7127406],[139.770718,35.7127545],[139.7708831,35.712764],[139.7711384,35.712764],[139.7711429,35.7127559],[139.7711516,35.7127475],[139.7711611,35.7127446],[139.7711748,35.7127414],[139.7711874,35.7127416],[139.7711994,35.7127436],[139.7712119,35.7127484],[139.7712235,35.7127538],[139.7713546,35.7127469],[139.7715267,35.7127449],[139.7717056,35.7127677],[139.7717745,35.7127804],[139.771856,35.712797],[139.7719153,35.7128111],[139.7719756,35.7128254],[139.7720624,35.7126842],[139.7721598,35.712534],[139.772195,35.7124716],[139.7722241,35.7124097],[139.7725427,35.712477],[139.7725735,35.7124856],[139.7724805,35.7126339],[139.7719818,35.7134672],[139.7719298,35.7135438],[139.7718319,35.7136878],[139.771647,35.7139598],[139.7715352,35.7141243],[139.7713966,35.7142664],[139.7713168,35.7143267],[139.7712963,35.7143366],[139.7712952,35.7143483],[139.7712666,35.7143687],[139.7711282,35.7144006],[139.7711244,35.714413],[139.7708731,35.7144799],[139.7708951,35.7145792],[139.7710002,35.7145488],[139.7711276,35.714992],[139.7708737,35.7149311],[139.7703656,35.715027],[139.7703607,35.7152035],[139.7703947,35.715593],[139.7704247,35.7157231],[139.7705564,35.7157739],[139.7710275,35.7158671],[139.7716223,35.7158383],[139.7715801,35.7154178],[139.7719696,35.7153853],[139.7719788,35.7154694],[139.7723489,35.715449],[139.7723566,35.7155553],[139.7723563,35.7155703],[139.772407,35.7155695],[139.7724888,35.7155836],[139.7727565,35.7156446],[139.7728546,35.7156912],[139.7728942,35.7157185],[139.7729274,35.7157412]]]}}
