{"type":"Feature","id":"attraction-zoo-W1005801989","properties":{"id":"attraction-zoo-W1005801989","kind":"attraction","name":"沖縄こどもの国","shortName":"沖縄こどもの国","context":"日本","subtype":"zoo","subtypeLabel":"動物園","statusLabel":"","aliases":[],"osmType":"way","osmId":1005801989,"osmDate":null,"officialAreaKm2":null,"areaSourceLabel":"","areaSourceUrl":"","boundarySourceLabel":"© OpenStreetMap contributors","boundarySourceUrl":"https://www.openstreetmap.org/copyright","geometryFile":"attractions/zoo-W1005801989.geojson"},"geometry":{"type":"Polygon","coordinates":[[[127.8034366,26.3287959],[127.8036997,26.3288545],[127.8041358,26.3287373],[127.8040178,26.3284777],[127.8042028,26.3284272],[127.804235,26.3282181],[127.8041867,26.3281195],[127.8046454,26.3278214],[127.8050236,26.3281219],[127.8055624,26.3276241],[127.8057478,26.3272012],[127.8057773,26.3265978],[127.8063379,26.3261963],[127.8067563,26.3260136],[127.8069232,26.3259518],[127.8070352,26.3263911],[127.8072927,26.3263358],[127.8071801,26.3255545],[127.8071801,26.3251001],[127.8059919,26.3245808],[127.80578,26.324927],[127.8051792,26.3247779],[127.8041572,26.324588],[127.8034733,26.3245568],[127.8030414,26.324838],[127.802623,26.3259127],[127.8017863,26.3262642],[127.8021375,26.3272132],[127.8024487,26.327567],[127.8026629,26.3278388],[127.8031289,26.3284712],[127.8034366,26.3287959]]]}}
