{"type":"Feature","id":"attraction-zoo-W660871771","properties":{"id":"attraction-zoo-W660871771","kind":"attraction","name":"熊本市動植物園","shortName":"熊本市動植物園","context":"日本","subtype":"zoo","subtypeLabel":"動物園","statusLabel":"","aliases":[],"osmType":"way","osmId":660871771,"osmDate":null,"officialAreaKm2":null,"areaSourceLabel":"","areaSourceUrl":"","boundarySourceLabel":"© OpenStreetMap contributors","boundarySourceUrl":"https://www.openstreetmap.org/copyright","geometryFile":"attractions/zoo-W660871771.geojson"},"geometry":{"type":"Polygon","coordinates":[[[130.7515901,32.7777335],[130.7518516,32.7776185],[130.7518598,32.777595],[130.7518771,32.7775452],[130.7506031,32.7760659],[130.7502463,32.7755607],[130.7502383,32.7754998],[130.750532,32.7748762],[130.7506044,32.7747793],[130.7509008,32.7744601],[130.7511623,32.7742008],[130.7512066,32.7740644],[130.7511771,32.7735299],[130.7511409,32.7733979],[130.7509638,32.7731363],[130.7507774,32.7728905],[130.7506929,32.7728736],[130.7506339,32.7728973],[130.7505696,32.7730134],[130.7502879,32.773204],[130.750021,32.7732434],[130.7498024,32.7732175],[130.7494886,32.7731453],[130.7493223,32.7730596],[130.7492378,32.7729694],[130.7487966,32.7728206],[130.7486437,32.7728465],[130.7485431,32.7728285],[130.748354,32.7728961],[130.7482199,32.7729818],[130.7481676,32.7730416],[130.7478176,32.7730247],[130.7475226,32.7729198],[130.7474086,32.7728826],[130.7472061,32.7728826],[130.7470223,32.7729029],[130.7468788,32.7729954],[130.7466294,32.7731059],[130.7463719,32.7731318],[130.7460956,32.7731047],[130.7458542,32.7730495],[130.7456008,32.7730315],[130.7453701,32.773089],[130.7453138,32.7731318],[130.7449329,32.7735817],[130.7448497,32.7736111],[130.7447988,32.7736167],[130.744725,32.7735975],[130.744613,32.7736249],[130.7446486,32.7737565],[130.7446875,32.7740644],[130.7446794,32.7743406],[130.7446285,32.775139],[130.7446003,32.7753532],[130.7444622,32.775855],[130.7444608,32.7759114],[130.7445493,32.7760174],[130.7447062,32.7761515],[130.7450268,32.7762733],[130.7452172,32.7762981],[130.7456866,32.7763365],[130.7457711,32.7762666],[130.7466562,32.776235],[130.7466589,32.7763229],[130.7475212,32.7764853],[130.7475896,32.7764064],[130.748165,32.7763286],[130.7485659,32.776403],[130.7487363,32.7765214],[130.74892,32.7767977],[130.7490152,32.7769578],[130.7492647,32.7771495],[130.7493062,32.7771145],[130.7494162,32.7771754],[130.7494792,32.7771165],[130.750127,32.7774077],[130.7503637,32.7771247],[130.7503858,32.7770863],[130.7513447,32.777605],[130.7515901,32.7777335]]]}}
