{"type":"Feature","id":"attraction-zoo-W595972708","properties":{"id":"attraction-zoo-W595972708","kind":"attraction","name":"市川市動植物園","shortName":"市川市動植物園","context":"日本","subtype":"zoo","subtypeLabel":"動物園","statusLabel":"","aliases":[],"osmType":"way","osmId":595972708,"osmDate":null,"officialAreaKm2":null,"areaSourceLabel":"","areaSourceUrl":"","boundarySourceLabel":"© OpenStreetMap contributors","boundarySourceUrl":"https://www.openstreetmap.org/copyright","geometryFile":"attractions/zoo-W595972708.geojson"},"geometry":{"type":"Polygon","coordinates":[[[139.9652356,35.7652728],[139.9648708,35.765633],[139.9652007,35.7658408],[139.9659028,35.7651429],[139.9662455,35.7653233],[139.9666319,35.7649257],[139.9670635,35.7642499],[139.9664547,35.7641389],[139.9657378,35.7636549],[139.9655553,35.7640467],[139.9653059,35.764254],[139.9649124,35.7640638],[139.9645758,35.7643631],[139.9636531,35.7637907],[139.9630013,35.7644294],[139.9643714,35.7652398],[139.9647367,35.7649061],[139.9652369,35.7652336],[139.9652356,35.7652728]]]}}
