{"type":"Feature","id":"attraction-zoo-W1127520289","properties":{"id":"attraction-zoo-W1127520289","kind":"attraction","name":"動物の森","shortName":"動物の森","context":"日本","subtype":"zoo","subtypeLabel":"動物園","statusLabel":"","aliases":[],"osmType":"way","osmId":1127520289,"osmDate":null,"officialAreaKm2":null,"areaSourceLabel":"","areaSourceUrl":"","boundarySourceLabel":"© OpenStreetMap contributors","boundarySourceUrl":"https://www.openstreetmap.org/copyright","geometryFile":"attractions/zoo-W1127520289.geojson"},"geometry":{"type":"Polygon","coordinates":[[[130.351538,33.6593502],[130.3512322,33.6595338],[130.3509553,33.6598274],[130.3508507,33.6600149],[130.3507823,33.6602214],[130.3507595,33.6604167],[130.3507796,33.6606311],[130.3508292,33.6607907],[130.3509687,33.6610742],[130.3511135,33.6613857],[130.3503987,33.6617306],[130.349995,33.6614839],[130.3496464,33.6615229],[130.3481859,33.6607996],[130.3474054,33.660438],[130.34797,33.6600439],[130.3484568,33.6594579],[130.3490335,33.658355],[130.3501868,33.6583818],[130.3507608,33.6585492],[130.3511055,33.6588038],[130.351538,33.6593502]]]}}
