{"type":"Feature","id":"attraction-zoo-W128915152","properties":{"id":"attraction-zoo-W128915152","kind":"attraction","name":"市立日本平動物園","shortName":"市立日本平動物園","context":"日本","subtype":"zoo","subtypeLabel":"動物園","statusLabel":"","aliases":["日本平動物園"],"osmType":"way","osmId":128915152,"osmDate":null,"officialAreaKm2":null,"areaSourceLabel":"","areaSourceUrl":"","boundarySourceLabel":"© OpenStreetMap contributors","boundarySourceUrl":"https://www.openstreetmap.org/copyright","geometryFile":"attractions/zoo-W128915152.geojson"},"geometry":{"type":"Polygon","coordinates":[[[138.4366496,34.9807251],[138.4370845,34.9801685],[138.4371757,34.9800938],[138.4372723,34.9800718],[138.4373742,34.9800806],[138.4374925,34.9801285],[138.4376373,34.9801856],[138.4377819,34.9801905],[138.4378999,34.9801685],[138.4380128,34.9801065],[138.4384151,34.9798692],[138.4386295,34.9797641],[138.4388282,34.9796846],[138.4390318,34.9795663],[138.4391444,34.9794696],[138.4392144,34.9793549],[138.4393539,34.9790868],[138.4394437,34.9789232],[138.4393531,34.9788333],[138.4391876,34.9788978],[138.4388967,34.9786677],[138.4388931,34.9784272],[138.4389835,34.9782301],[138.438946,34.9780543],[138.4388497,34.9778341],[138.4387314,34.9777598],[138.4386187,34.9777598],[138.4385707,34.9777682],[138.4384927,34.9777727],[138.4385347,34.9780156],[138.4381533,34.9780685],[138.4381551,34.9781017],[138.4379654,34.978156],[138.4379235,34.9780409],[138.4379537,34.9780378],[138.4379949,34.9779975],[138.4377987,34.9776428],[138.4377362,34.9776577],[138.4376788,34.9774859],[138.437713,34.9774273],[138.4380335,34.9773514],[138.4381257,34.9773529],[138.4383059,34.9773998],[138.4383654,34.977223],[138.4386995,34.9773506],[138.4388121,34.9774385],[138.4389368,34.9774231],[138.4389945,34.9775791],[138.439109,34.9775598],[138.4392151,34.9776188],[138.4394091,34.9780737],[138.4394021,34.9783652],[138.4394944,34.9785947],[138.4394323,34.9786836],[138.4394717,34.9787664],[138.4395146,34.9788279],[138.4395736,34.978718],[138.4396594,34.9786389],[138.4397882,34.978551],[138.4399652,34.9784587],[138.4402176,34.9783527],[138.440577,34.9782604],[138.4407323,34.9782169],[138.4409311,34.9781769],[138.4411561,34.9782037],[138.4412466,34.9782238],[138.4414514,34.9782692],[138.4418537,34.9783659],[138.4419557,34.978445],[138.442009,34.9785378],[138.4419447,34.9787532],[138.4418859,34.9788362],[138.4417623,34.9789026],[138.4412151,34.9791444],[138.4412473,34.9791883],[138.4412741,34.9793026],[138.4412205,34.9793949],[138.4412419,34.9794608],[138.4416925,34.9796147],[138.4417625,34.979623],[138.4418484,34.9795922],[138.441902,34.9795351],[138.4420039,34.9794956],[138.4421271,34.9795004],[138.44224,34.9795703],[138.4423202,34.9796894],[138.4426481,34.979926],[138.442299,34.9805416],[138.4410756,34.9799883],[138.4409576,34.9801333],[138.4407591,34.9801949],[138.4397131,34.9806344],[138.4392033,34.980822],[138.4390727,34.9807647],[138.4390489,34.9805704],[138.4390103,34.9805289],[138.4389364,34.9805818],[138.4389466,34.9806743],[138.4389501,34.9807739],[138.4389088,34.9808702],[138.4386993,34.9809652],[138.438427,34.9810751],[138.4379637,34.9812952],[138.4376058,34.9815096],[138.4374805,34.9816464],[138.4372719,34.9819138],[138.4371622,34.982076],[138.437107,34.982207],[138.4370229,34.9823062],[138.4368935,34.9823769],[138.436773,34.9823903],[138.4366633,34.9823793],[138.4365765,34.9823523],[138.4364968,34.9822826],[138.4364508,34.9821925],[138.4364457,34.9821155],[138.4364771,34.9820067],[138.436534,34.9819394],[138.4365975,34.9818796],[138.4367217,34.9818071],[138.4373724,34.9815157],[138.4374428,34.9814194],[138.4374817,34.9813196],[138.437494,34.9812535],[138.4374879,34.9811713],[138.4374707,34.9811058],[138.4374211,34.9810331],[138.4373559,34.9809834],[138.4372555,34.9808961],[138.4372473,34.9808234],[138.4372725,34.9807702],[138.4370901,34.9808317],[138.4369343,34.9808454],[138.4367948,34.9808234],[138.4366496,34.9807251]]]}}
