{"type":"Feature","id":"attraction-zoo-W1429931910","properties":{"id":"attraction-zoo-W1429931910","kind":"attraction","name":"掛川花鳥園","shortName":"掛川花鳥園","context":"日本","subtype":"zoo","subtypeLabel":"動物園","statusLabel":"","aliases":[],"osmType":"way","osmId":1429931910,"osmDate":null,"officialAreaKm2":null,"areaSourceLabel":"","areaSourceUrl":"","boundarySourceLabel":"© OpenStreetMap contributors","boundarySourceUrl":"https://www.openstreetmap.org/copyright","geometryFile":"attractions/zoo-W1429931910.geojson"},"geometry":{"type":"Polygon","coordinates":[[[138.0136523,34.7593268],[138.0137917,34.7590976],[138.0144033,34.7588883],[138.0159375,34.758853],[138.0166215,34.7601818],[138.0171113,34.7615984],[138.0160535,34.7619319],[138.0153226,34.7622553],[138.015218,34.7622487],[138.0150591,34.7620079],[138.0149987,34.761998],[138.014471,34.7612229],[138.0138702,34.7603206],[138.013612,34.7599559],[138.0135329,34.7598094],[138.0136523,34.7593268]]]}}
