{"type":"Feature","id":"attraction-zoo-W1408505319","properties":{"id":"attraction-zoo-W1408505319","kind":"attraction","name":"釧路市丹頂鶴自然公園","shortName":"釧路市丹頂鶴自然公園","context":"日本","subtype":"zoo","subtypeLabel":"動物園","statusLabel":"","aliases":[],"osmType":"way","osmId":1408505319,"osmDate":null,"officialAreaKm2":null,"areaSourceLabel":"","areaSourceUrl":"","boundarySourceLabel":"© OpenStreetMap contributors","boundarySourceUrl":"https://www.openstreetmap.org/copyright","geometryFile":"attractions/zoo-W1408505319.geojson"},"geometry":{"type":"Polygon","coordinates":[[[144.1963918,43.0587823],[144.196682,43.0586229],[144.1971819,43.0583972],[144.1976939,43.0581991],[144.1982247,43.0580402],[144.1980308,43.0576819],[144.1964696,43.0542215],[144.1960423,43.0533778],[144.1943155,43.0537968],[144.1938136,43.0539186],[144.1959963,43.0584759],[144.1960975,43.0585742],[144.1963918,43.0587823]]]}}
