{"type":"Feature","id":"attraction-zoo-W561960091","properties":{"id":"attraction-zoo-W561960091","kind":"attraction","name":"秋吉台サファリランド","shortName":"秋吉台サファリランド","context":"日本","subtype":"zoo","subtypeLabel":"動物園","statusLabel":"","aliases":[],"osmType":"way","osmId":561960091,"osmDate":null,"officialAreaKm2":null,"areaSourceLabel":"","areaSourceUrl":"","boundarySourceLabel":"© OpenStreetMap contributors","boundarySourceUrl":"https://www.openstreetmap.org/copyright","geometryFile":"attractions/zoo-W561960091.geojson"},"geometry":{"type":"Polygon","coordinates":[[[131.3276826,34.2868539],[131.3272942,34.2870793],[131.327187,34.2871041],[131.3267475,34.2870102],[131.3266828,34.2869358],[131.3267013,34.2868689],[131.326825,34.2867092],[131.3270178,34.286532],[131.3271957,34.286193],[131.3271223,34.2858972],[131.3271184,34.2856217],[131.3270831,34.28524],[131.3270698,34.2850271],[131.3272151,34.2844131],[131.3272971,34.2841479],[131.3273806,34.284016],[131.327564,34.2837949],[131.3278113,34.2835764],[131.3281054,34.2833454],[131.3283167,34.2832278],[131.3288058,34.283231],[131.3294241,34.2829954],[131.330226,34.2827554],[131.3306682,34.2825493],[131.3310861,34.282324],[131.3313577,34.2822548],[131.3315582,34.2822918],[131.3317684,34.2824013],[131.3321576,34.282207],[131.3326144,34.281729],[131.3329656,34.2814786],[131.3332005,34.2813922],[131.3333368,34.2813982],[131.3338217,34.2815327],[131.3339853,34.2815993],[131.3341669,34.2815996],[131.3343418,34.2815196],[131.3346277,34.2814447],[131.3348385,34.2814414],[131.3349987,34.2815212],[131.3350991,34.2815853],[131.335208,34.2817311],[131.3354301,34.2819866],[131.335535,34.2820399],[131.3357412,34.2820389],[131.3361938,34.2820099],[131.3364508,34.2820865],[131.3367169,34.2821591],[131.3360754,34.2831744],[131.3360282,34.283404],[131.335816,34.283767],[131.3356875,34.2839181],[131.3353942,34.284191],[131.3352882,34.284292],[131.3351402,34.2843703],[131.3350051,34.2843996],[131.334445,34.284405],[131.3343065,34.284439],[131.3340471,34.284567],[131.3338465,34.284717],[131.3336283,34.2848609],[131.3336144,34.285042],[131.3337742,34.2853289],[131.3337592,34.2854279],[131.3336295,34.285587],[131.3335855,34.285727],[131.3335359,34.285917],[131.333584,34.2861521],[131.333677,34.2865439],[131.3335965,34.286755],[131.3335828,34.2869359],[131.333454,34.287139],[131.3329952,34.287454],[131.3321701,34.2879621],[131.3316153,34.288264],[131.3314047,34.2883465],[131.3311169,34.2884849],[131.3308732,34.2885714],[131.3307438,34.28859],[131.3303878,34.2885797],[131.3301538,34.288537],[131.3296149,34.2883583],[131.329511,34.2882521],[131.3294388,34.2880485],[131.3294265,34.2878395],[131.3294774,34.2877331],[131.3294613,34.2876511],[131.3293624,34.2875131],[131.3289724,34.2870809],[131.3286593,34.286858],[131.3285322,34.2868175],[131.3281665,34.2867687],[131.3278213,34.2867872],[131.3276826,34.2868539]]]}}
