{"type":"Feature","id":"attraction-zoo-W753629107","properties":{"id":"attraction-zoo-W753629107","kind":"attraction","name":"ふれあい動物村","shortName":"ふれあい動物村","context":"日本","subtype":"zoo","subtypeLabel":"動物園","statusLabel":"","aliases":[],"osmType":"way","osmId":753629107,"osmDate":null,"officialAreaKm2":null,"areaSourceLabel":"","areaSourceUrl":"","boundarySourceLabel":"© OpenStreetMap contributors","boundarySourceUrl":"https://www.openstreetmap.org/copyright","geometryFile":"attractions/zoo-W753629107.geojson"},"geometry":{"type":"Polygon","coordinates":[[[139.6118465,35.1929572],[139.6117379,35.1929057],[139.6116601,35.1928268],[139.6115877,35.1924607],[139.6117486,35.1920541],[139.6117231,35.1918448],[139.6117446,35.1918251],[139.612159,35.1919149],[139.6125157,35.1920585],[139.6125948,35.1920936],[139.6125989,35.192178],[139.612741,35.1923763],[139.6123521,35.1925703],[139.6123186,35.1926635],[139.6122006,35.1927566],[139.6121925,35.1928542],[139.6120825,35.1929397],[139.6120182,35.1929638],[139.6118465,35.1929572]]]}}
