{"type":"Feature","id":"attraction-zoo-W120075392","properties":{"id":"attraction-zoo-W120075392","kind":"attraction","name":"わんぱーくこうちアニマルランド","shortName":"わんぱーくこうちアニマルランド","context":"日本","subtype":"zoo","subtypeLabel":"動物園","statusLabel":"","aliases":[],"osmType":"way","osmId":120075392,"osmDate":null,"officialAreaKm2":null,"areaSourceLabel":"","areaSourceUrl":"","boundarySourceLabel":"© OpenStreetMap contributors","boundarySourceUrl":"https://www.openstreetmap.org/copyright","geometryFile":"attractions/zoo-W120075392.geojson"},"geometry":{"type":"Polygon","coordinates":[[[133.5563535,33.5429464],[133.5562331,33.542191],[133.5560958,33.5413295],[133.5555466,33.5413909],[133.5554483,33.5408832],[133.556199,33.5408222],[133.5562339,33.5410183],[133.5566316,33.5409716],[133.5575963,33.5408584],[133.5579981,33.5411866],[133.5583176,33.5411506],[133.5585408,33.5413296],[133.5585488,33.541338],[133.5585505,33.5413468],[133.5585489,33.5413552],[133.5585454,33.5413607],[133.5585424,33.5413639],[133.5585383,33.541367],[133.5585263,33.5413711],[133.5585035,33.5413737],[133.5581258,33.5414204],[133.5581354,33.5414975],[133.5586254,33.5414421],[133.558652,33.5414427],[133.558677,33.5414486],[133.5587001,33.5414579],[133.5587481,33.5414977],[133.5587938,33.5415355],[133.5588512,33.5415894],[133.5589202,33.5416583],[133.5589973,33.5417552],[133.5590851,33.5419014],[133.5590742,33.5419172],[133.559078,33.5419352],[133.5582178,33.5420017],[133.5582515,33.542613],[133.558235,33.5426196],[133.5579442,33.5426505],[133.5576965,33.5427752],[133.5576199,33.5428101],[133.5575772,33.5428238],[133.5574929,33.5428477],[133.5572776,33.5428852],[133.5565313,33.5429596],[133.5565282,33.5429267],[133.5563535,33.5429464]]]}}
