{"type":"Feature","id":"attraction-zoo-W263159082","properties":{"id":"attraction-zoo-W263159082","kind":"attraction","name":"動物ふれあいランド","shortName":"動物ふれあいランド","context":"日本","subtype":"zoo","subtypeLabel":"動物園","statusLabel":"","aliases":[],"osmType":"way","osmId":263159082,"osmDate":null,"officialAreaKm2":null,"areaSourceLabel":"","areaSourceUrl":"","boundarySourceLabel":"© OpenStreetMap contributors","boundarySourceUrl":"https://www.openstreetmap.org/copyright","geometryFile":"attractions/zoo-W263159082.geojson"},"geometry":{"type":"Polygon","coordinates":[[[141.8013173,45.3937808],[141.800749,45.3937591],[141.80058,45.3938439],[141.8002876,45.3938345],[141.8002984,45.3937761],[141.8003386,45.3933994],[141.8004003,45.3933937],[141.8004352,45.3929737],[141.8005049,45.3929172],[141.8013758,45.3929686],[141.8013173,45.3937808]]]}}
