{"type":"Feature","id":"attraction-zoo-W267361081","properties":{"id":"attraction-zoo-W267361081","kind":"attraction","name":"旭山動物園","shortName":"旭山動物園","context":"日本","subtype":"zoo","subtypeLabel":"動物園","statusLabel":"","aliases":["Asahiyama Zoo"],"osmType":"way","osmId":267361081,"osmDate":null,"officialAreaKm2":null,"areaSourceLabel":"","areaSourceUrl":"","boundarySourceLabel":"© OpenStreetMap contributors","boundarySourceUrl":"https://www.openstreetmap.org/copyright","geometryFile":"attractions/zoo-W267361081.geojson"},"geometry":{"type":"Polygon","coordinates":[[[142.4825521,43.7673527],[142.4826252,43.7673376],[142.4826237,43.7673117],[142.482596,43.7671966],[142.4825887,43.7671662],[142.4825516,43.7671711],[142.4825325,43.7671423],[142.482499,43.7670026],[142.4825003,43.7669601],[142.4825379,43.7669552],[142.4825363,43.7669503],[142.4825738,43.7669455],[142.4825235,43.7667284],[142.4824626,43.7667404],[142.4824183,43.7666871],[142.4823034,43.7666276],[142.4821852,43.7665849],[142.4816646,43.7666249],[142.4812658,43.7666702],[142.4809852,43.7667609],[142.4807452,43.7667502],[142.4805163,43.7666782],[142.480088,43.7666729],[142.4795791,43.7667602],[142.4792673,43.7667676],[142.4791569,43.7667998],[142.479008,43.7670382],[142.47842,43.7677693],[142.4782912,43.7679301],[142.4781544,43.7679843],[142.4765344,43.7677887],[142.4759362,43.7678236],[142.4759966,43.7683853],[142.4759024,43.7683889],[142.4759074,43.7684482],[142.4759402,43.7688366],[142.4765223,43.7688385],[142.476812,43.7688792],[142.4770695,43.768854],[142.4776488,43.7688424],[142.4778242,43.7689142],[142.4778741,43.7689354],[142.4777749,43.7690613],[142.4799272,43.7706816],[142.4813891,43.7696593],[142.4822396,43.7692025],[142.4824965,43.7690634],[142.4826063,43.7689753],[142.4826431,43.7689082],[142.4826007,43.7683752],[142.4827247,43.7682272],[142.482625,43.7679529],[142.4824693,43.7679079],[142.4824907,43.7678388],[142.4826301,43.7677825],[142.4825521,43.7673527]]]}}
