{"type":"Feature","id":"attraction-zoo-W1343714212","properties":{"id":"attraction-zoo-W1343714212","kind":"attraction","name":"嵐山モンキーパークいわたやま","shortName":"嵐山モンキーパークいわたやま","context":"日本","subtype":"zoo","subtypeLabel":"動物園","statusLabel":"","aliases":["Monkey Park Iwatayama"],"osmType":"way","osmId":1343714212,"osmDate":null,"officialAreaKm2":null,"areaSourceLabel":"","areaSourceUrl":"","boundarySourceLabel":"© OpenStreetMap contributors","boundarySourceUrl":"https://www.openstreetmap.org/copyright","geometryFile":"attractions/zoo-W1343714212.geojson"},"geometry":{"type":"Polygon","coordinates":[[[135.6741049,35.0094615],[135.6740928,35.0087112],[135.6748652,35.0082871],[135.6757531,35.0082762],[135.6758496,35.0085398],[135.6758147,35.0099216],[135.67431,35.0098755],[135.6741049,35.0094615]]]}}
