{"type":"Feature","id":"attraction-zoo-W1390944526","properties":{"id":"attraction-zoo-W1390944526","kind":"attraction","name":"富士自然動物公園富士サファリパーク","shortName":"富士自然動物公園富士サファリパーク","context":"静岡県・裾野市","subtype":"zoo","subtypeLabel":"動物園","statusLabel":"","aliases":[],"osmType":"way","osmId":1390944526,"osmDate":null,"officialAreaKm2":null,"areaSourceLabel":"","areaSourceUrl":"","boundarySourceLabel":"© OpenStreetMap contributors","boundarySourceUrl":"https://www.openstreetmap.org/copyright","geometryFile":"attractions/zoo-W1390944526.geojson"},"geometry":{"type":"Polygon","coordinates":[[[138.8090702,35.2584543],[138.8082446,35.2585117],[138.8071495,35.2581579],[138.8064703,35.2577754],[138.8056622,35.2571681],[138.8025762,35.2572589],[138.8001284,35.2592003],[138.7999001,35.2607638],[138.8006847,35.2613806],[138.8049419,35.2630828],[138.8073252,35.2634701],[138.8084144,35.2629919],[138.8106806,35.2609025],[138.812449,35.2605391],[138.8123261,35.2598553],[138.8126598,35.2590138],[138.8104991,35.2585308],[138.8090702,35.2584543]]]}}
