{"type":"Feature","id":"attraction-zoo-W471714222","properties":{"id":"attraction-zoo-W471714222","kind":"attraction","name":"千葉市動物公園","shortName":"千葉市動物公園","context":"千葉県・千葉市","subtype":"zoo","subtypeLabel":"動物園","statusLabel":"","aliases":["Chiba Zoological park"],"osmType":"way","osmId":471714222,"osmDate":null,"officialAreaKm2":null,"areaSourceLabel":"","areaSourceUrl":"","boundarySourceLabel":"© OpenStreetMap contributors","boundarySourceUrl":"https://www.openstreetmap.org/copyright","geometryFile":"attractions/zoo-W471714222.geojson"},"geometry":{"type":"Polygon","coordinates":[[[140.1278763,35.641905],[140.1282518,35.6421796],[140.1283001,35.6426025],[140.128107,35.6430515],[140.1278763,35.6433959],[140.1280587,35.6437708],[140.1286005,35.6443332],[140.1288634,35.6449871],[140.1301025,35.6449871],[140.1303225,35.6453053],[140.1303064,35.6459156],[140.1296104,35.6468164],[140.1295822,35.6468529],[140.1292496,35.6474893],[140.1288902,35.6479994],[140.128622,35.6482435],[140.1278978,35.6482348],[140.1268141,35.6480778],[140.1257681,35.6480691],[140.1254462,35.6480517],[140.1251834,35.6478817],[140.1249741,35.6476463],[140.1243251,35.6474283],[140.1241158,35.6471842],[140.1239174,35.6468529],[140.1242607,35.6460072],[140.1242607,35.6456148],[140.1239549,35.6449304],[140.1239978,35.6444727],[140.1241319,35.6440019],[140.1247864,35.6430951],[140.1253282,35.6428553],[140.1256876,35.6431169],[140.1264547,35.6428335],[140.126621,35.6423714],[140.1278763,35.641905]]]}}
