{"type":"Feature","id":"attraction-zoo-W306637188","properties":{"id":"attraction-zoo-W306637188","kind":"attraction","name":"釧路市動物園","shortName":"釧路市動物園","context":"日本","subtype":"zoo","subtypeLabel":"動物園","statusLabel":"","aliases":["KUSHIRO ZOO"],"osmType":"way","osmId":306637188,"osmDate":null,"officialAreaKm2":null,"areaSourceLabel":"","areaSourceUrl":"","boundarySourceLabel":"© OpenStreetMap contributors","boundarySourceUrl":"https://www.openstreetmap.org/copyright","geometryFile":"attractions/zoo-W306637188.geojson"},"geometry":{"type":"Polygon","coordinates":[[[144.237701,43.0813609],[144.2375331,43.0818127],[144.2356334,43.082955],[144.23572,43.0836524],[144.2356334,43.0841489],[144.2345465,43.0849298],[144.2338028,43.0850345],[144.2330797,43.0851363],[144.2318073,43.0845426],[144.2324965,43.0831809],[144.2337513,43.0830776],[144.2320725,43.0822633],[144.2325054,43.0816449],[144.2370913,43.0805155],[144.237701,43.0813609]]]}}
