{"type":"Feature","id":"attraction-zoo-W568485035","properties":{"id":"attraction-zoo-W568485035","kind":"attraction","name":"ときわ動物園","shortName":"ときわ動物園","context":"日本","subtype":"zoo","subtypeLabel":"動物園","statusLabel":"","aliases":["Tokiwa Zoo"],"osmType":"way","osmId":568485035,"osmDate":null,"officialAreaKm2":null,"areaSourceLabel":"","areaSourceUrl":"","boundarySourceLabel":"© OpenStreetMap contributors","boundarySourceUrl":"https://www.openstreetmap.org/copyright","geometryFile":"attractions/zoo-W568485035.geojson"},"geometry":{"type":"Polygon","coordinates":[[[131.2841508,33.9455317],[131.2842234,33.9455919],[131.2842554,33.9456184],[131.2844002,33.9456184],[131.2845169,33.9456652],[131.2843909,33.9458977],[131.2842742,33.9460601],[131.2839201,33.9463271],[131.2836747,33.9464562],[131.2833676,33.9465218],[131.2832817,33.9465307],[131.2832609,33.9464363],[131.2833461,33.9463656],[131.2835891,33.9463292],[131.2835272,33.946134],[131.2833215,33.9462324],[131.2832394,33.9462329],[131.2831662,33.9461537],[131.2830641,33.946054],[131.283013,33.9458359],[131.2832941,33.9457915],[131.2833836,33.9457519],[131.2834148,33.9456502],[131.283221,33.9452109],[131.2831064,33.9451431],[131.2830373,33.9451381],[131.2829867,33.9450082],[131.2829039,33.9448777],[131.2828901,33.9447484],[131.2828284,33.9446394],[131.2827909,33.9445548],[131.2827131,33.944448],[131.2827292,33.9443435],[131.2828767,33.9442544],[131.2832925,33.9444547],[131.2837082,33.9448408],[131.2840864,33.9452669],[131.2841548,33.945278],[131.2841508,33.9455317]]]}}
