{"type":"Feature","id":"attraction-zoo-W562120887","properties":{"id":"attraction-zoo-W562120887","kind":"attraction","name":"淡路ファームパーク","shortName":"淡路ファームパーク","context":"日本","subtype":"zoo","subtypeLabel":"動物園","statusLabel":"","aliases":[],"osmType":"way","osmId":562120887,"osmDate":null,"officialAreaKm2":null,"areaSourceLabel":"","areaSourceUrl":"","boundarySourceLabel":"© OpenStreetMap contributors","boundarySourceUrl":"https://www.openstreetmap.org/copyright","geometryFile":"attractions/zoo-W562120887.geojson"},"geometry":{"type":"Polygon","coordinates":[[[134.7938287,34.315406],[134.7924018,34.3152731],[134.7913396,34.3149895],[134.7912538,34.3144224],[134.7917044,34.3132526],[134.7919726,34.3126146],[134.79267,34.3119588],[134.7933996,34.3115866],[134.7940623,34.3119623],[134.7945797,34.3117195],[134.7952879,34.3111967],[134.7965217,34.310922],[134.7977769,34.3102485],[134.798764,34.3092027],[134.7994292,34.3080063],[134.8001802,34.3069429],[134.8005235,34.3065263],[134.8015535,34.3065086],[134.802326,34.3066238],[134.8030019,34.306739],[134.8033345,34.3067922],[134.8035705,34.3065795],[134.8043966,34.3074037],[134.8042357,34.3077671],[134.803077,34.3081038],[134.8020256,34.3081836],[134.8013604,34.3080241],[134.8007703,34.3076164],[134.8002982,34.307838],[134.7990429,34.3094332],[134.7980988,34.3104611],[134.7970045,34.311498],[134.7972512,34.3123221],[134.7965539,34.3127032],[134.7967255,34.3137311],[134.7968435,34.3145641],[134.7966826,34.3149984],[134.7955239,34.3152465],[134.7946119,34.3153262],[134.7938287,34.315406]]]}}
