{"type":"Feature","id":"attraction-zoo-R6003632","properties":{"id":"attraction-zoo-R6003632","kind":"attraction","name":"日立市かみね動物園","shortName":"日立市かみね動物園","context":"日立市","subtype":"zoo","subtypeLabel":"動物園","statusLabel":"","aliases":["Hitachi Kamine Zoo"],"osmType":"relation","osmId":6003632,"osmDate":null,"officialAreaKm2":null,"areaSourceLabel":"","areaSourceUrl":"","boundarySourceLabel":"© OpenStreetMap contributors","boundarySourceUrl":"https://www.openstreetmap.org/copyright","geometryFile":"attractions/zoo-R6003632.geojson"},"geometry":{"type":"Polygon","coordinates":[[[140.6580267,36.6066571],[140.6583021,36.6070475],[140.658203,36.6071242],[140.6583728,36.6074822],[140.6584012,36.6079765],[140.6586701,36.6085902],[140.6587125,36.6088651],[140.6589107,36.6090242],[140.6592101,36.6090763],[140.6596554,36.6088093],[140.6598163,36.6084562],[140.6601291,36.6080321],[140.660135,36.6076765],[140.6600382,36.6075621],[140.6599931,36.6075089],[140.6599895,36.6075046],[140.6599619,36.6073935],[140.6600465,36.6072628],[140.6600172,36.6071778],[140.6596124,36.6065124],[140.6595215,36.6063933],[140.6594205,36.606267],[140.6591985,36.6060465],[140.6589574,36.6062445],[140.6589165,36.606207],[140.6587937,36.6062546],[140.658735,36.6062249],[140.6583482,36.6064922],[140.6582343,36.606566],[140.6581642,36.6065059],[140.6581525,36.6065323],[140.6581447,36.6065909],[140.6580267,36.6066571]]]}}
