{"type":"Feature","id":"attraction-zoo-W238822707","properties":{"id":"attraction-zoo-W238822707","kind":"attraction","name":"鹿苑","shortName":"鹿苑","context":"Nara","subtype":"zoo","subtypeLabel":"動物園","statusLabel":"","aliases":["Deer Park"],"osmType":"way","osmId":238822707,"osmDate":null,"officialAreaKm2":null,"areaSourceLabel":"","areaSourceUrl":"","boundarySourceLabel":"© OpenStreetMap contributors","boundarySourceUrl":"https://www.openstreetmap.org/copyright","geometryFile":"attractions/zoo-W238822707.geojson"},"geometry":{"type":"Polygon","coordinates":[[[135.8430679,34.68125],[135.8428507,34.6811329],[135.8424716,34.6808975],[135.8423879,34.680723],[135.8423205,34.6805424],[135.8420985,34.6803958],[135.8420964,34.6798861],[135.8421472,34.6798803],[135.8426707,34.6800452],[135.843205,34.6802223],[135.8433132,34.6802582],[135.8433588,34.6802344],[135.8434391,34.6802782],[135.8438295,34.6804375],[135.8439194,34.6804743],[135.8438934,34.6805012],[135.8438627,34.6805621],[135.8438334,34.6806426],[135.8437952,34.6807439],[135.8437071,34.6810061],[135.84366,34.6811177],[135.8436043,34.6812495],[135.8435525,34.6812823],[135.8434334,34.681306],[135.8433253,34.6813329],[135.8430679,34.68125]]]}}
