{"type":"Feature","id":"attraction-zoo-W484154154","properties":{"id":"attraction-zoo-W484154154","kind":"attraction","name":"アフリカンサファリ","shortName":"アフリカンサファリ","context":"日本","subtype":"zoo","subtypeLabel":"動物園","statusLabel":"","aliases":["九州自然動物公園"],"osmType":"way","osmId":484154154,"osmDate":null,"officialAreaKm2":null,"areaSourceLabel":"","areaSourceUrl":"","boundarySourceLabel":"© OpenStreetMap contributors","boundarySourceUrl":"https://www.openstreetmap.org/copyright","geometryFile":"attractions/zoo-W484154154.geojson"},"geometry":{"type":"Polygon","coordinates":[[[131.4157748,33.3598314],[131.4050889,33.3593117],[131.4050782,33.3579137],[131.4050565,33.3575697],[131.4050138,33.3568921],[131.4046061,33.3558526],[131.404692,33.3554762],[131.4052177,33.3545263],[131.4055073,33.3542485],[131.4059472,33.3541499],[131.4061511,33.3538452],[131.4059794,33.3532448],[131.4061725,33.352949],[131.4062691,33.3525637],[131.4069718,33.350899],[131.4069262,33.3506705],[131.4069691,33.3505562],[131.4071328,33.3504778],[131.4076021,33.3504263],[131.4079294,33.3503344],[131.4081359,33.3500364],[131.4083505,33.3496757],[131.408549,33.3495592],[131.4086723,33.3495928],[131.4091632,33.3496891],[131.4100215,33.349707],[131.4105606,33.3490506],[131.4107859,33.3488579],[131.4116764,33.3484456],[131.4118132,33.3484792],[131.4126259,33.3490147],[131.4146191,33.3501526],[131.4147847,33.3502471],[131.4150828,33.3504173],[131.4152545,33.3514793],[131.4156622,33.3531865],[131.4159411,33.3535091],[131.4163757,33.3537466],[131.4179099,33.3546069],[131.4179957,33.3548489],[131.4180547,33.3554225],[131.417647,33.3563948],[131.4170408,33.3581243],[131.4168853,33.3584021],[131.4163488,33.3589577],[131.4158768,33.3596253],[131.4157748,33.3598314]]]}}
