{"type":"Feature","id":"attraction-zoo-W580921823","properties":{"id":"attraction-zoo-W580921823","kind":"attraction","name":"大宮公園小動物園","shortName":"大宮公園小動物園","context":"大宮区","subtype":"zoo","subtypeLabel":"動物園","statusLabel":"","aliases":["Omiya Park Small Zoo"],"osmType":"way","osmId":580921823,"osmDate":null,"officialAreaKm2":null,"areaSourceLabel":"","areaSourceUrl":"","boundarySourceLabel":"© OpenStreetMap contributors","boundarySourceUrl":"https://www.openstreetmap.org/copyright","geometryFile":"attractions/zoo-W580921823.geojson"},"geometry":{"type":"Polygon","coordinates":[[[139.6329072,35.918567],[139.631892,35.9191497],[139.6316138,35.9189533],[139.631523,35.9187393],[139.6314654,35.9186129],[139.6323497,35.9184054],[139.6324392,35.9183813],[139.6324318,35.9183351],[139.632332,35.9182442],[139.6321854,35.9180972],[139.6321471,35.9180173],[139.6321825,35.9179436],[139.6322943,35.9179673],[139.632373,35.9179956],[139.6324573,35.9180429],[139.6325625,35.9181999],[139.6326417,35.9182596],[139.6327858,35.9182949],[139.6328817,35.9182976],[139.6329072,35.918567]]]}}
