{"type":"Feature","id":"attraction-zoo-W649755592","properties":{"id":"attraction-zoo-W649755592","kind":"attraction","name":"町田リス園","shortName":"町田リス園","context":"東京都・町田市","subtype":"zoo","subtypeLabel":"動物園","statusLabel":"","aliases":["Machida Squirrel Garden"],"osmType":"way","osmId":649755592,"osmDate":null,"officialAreaKm2":null,"areaSourceLabel":"","areaSourceUrl":"","boundarySourceLabel":"© OpenStreetMap contributors","boundarySourceUrl":"https://www.openstreetmap.org/copyright","geometryFile":"attractions/zoo-W649755592.geojson"},"geometry":{"type":"Polygon","coordinates":[[[139.4495058,35.5782412],[139.4496057,35.5782492],[139.4498305,35.5782354],[139.449819,35.5782723],[139.4498919,35.5782911],[139.449945,35.5783083],[139.4499792,35.5783225],[139.450058,35.5783616],[139.4501086,35.5783923],[139.450224,35.5784771],[139.4504518,35.5782996],[139.4502435,35.5780185],[139.4503343,35.5779992],[139.4504519,35.577872],[139.4504496,35.5776843],[139.4503265,35.5775526],[139.4501999,35.577501],[139.4500414,35.577481],[139.4498963,35.5774807],[139.449784,35.5775147],[139.449713,35.5775766],[139.4496848,35.5776528],[139.4496846,35.5777659],[139.4496785,35.5778295],[139.4496529,35.5778887],[139.4496121,35.5779504],[139.4495766,35.5780489],[139.4495302,35.5780604],[139.4495443,35.5781106],[139.4495058,35.5782412]]]}}
