{"type":"Feature","id":"attraction-zoo-W158801232","properties":{"id":"attraction-zoo-W158801232","kind":"attraction","name":"横浜市立野毛山動物園","shortName":"横浜市立野毛山動物園","context":"神奈川県・横浜市","subtype":"zoo","subtypeLabel":"動物園","statusLabel":"","aliases":["Nogeyama zoo"],"osmType":"way","osmId":158801232,"osmDate":null,"officialAreaKm2":null,"areaSourceLabel":"","areaSourceUrl":"","boundarySourceLabel":"© OpenStreetMap contributors","boundarySourceUrl":"https://www.openstreetmap.org/copyright","geometryFile":"attractions/zoo-W158801232.geojson"},"geometry":{"type":"Polygon","coordinates":[[[139.6214132,35.4478932],[139.621657,35.4476546],[139.6216849,35.4473463],[139.6221173,35.4469344],[139.6227506,35.4462293],[139.6228925,35.4464701],[139.6231754,35.4465173],[139.623426,35.4465072],[139.6237661,35.4466438],[139.6237041,35.4469346],[139.6236448,35.4471302],[139.6236749,35.4474245],[139.623522,35.4477167],[139.6232443,35.4481311],[139.6231264,35.4480927],[139.6228925,35.4481633],[139.6226245,35.4485107],[139.622496,35.4486508],[139.6222164,35.4483777],[139.6218877,35.4481902],[139.6215337,35.4480346],[139.6214132,35.4478932]]]}}
