{"type":"Feature","id":"attraction-zoo-W493506639","properties":{"id":"attraction-zoo-W493506639","kind":"attraction","name":"夢見ヶ崎動物公園","shortName":"夢見ヶ崎動物公園","context":"日本","subtype":"zoo","subtypeLabel":"動物園","statusLabel":"","aliases":["yumemigasaki Zoological park"],"osmType":"way","osmId":493506639,"osmDate":null,"officialAreaKm2":null,"areaSourceLabel":"","areaSourceUrl":"","boundarySourceLabel":"© OpenStreetMap contributors","boundarySourceUrl":"https://www.openstreetmap.org/copyright","geometryFile":"attractions/zoo-W493506639.geojson"},"geometry":{"type":"Polygon","coordinates":[[[139.6657991,35.5486345],[139.6648765,35.549132],[139.664501,35.5493066],[139.6642842,35.5493695],[139.6638973,35.5497755],[139.6639645,35.5503454],[139.6636767,35.5505757],[139.6635622,35.5504545],[139.6634495,35.5505593],[139.6634442,35.5512357],[139.664619,35.550389],[139.6643968,35.5501626],[139.6649848,35.5497729],[139.6652675,35.5500211],[139.6660633,35.5493776],[139.6657723,35.5490852],[139.6660352,35.5488833],[139.6661746,35.5488473],[139.6657991,35.5486345]]]}}
