{"type":"Feature","id":"attraction-zoo-W740163856","properties":{"id":"attraction-zoo-W740163856","kind":"attraction","name":"宮崎市フェニックス自然動物園","shortName":"宮崎市フェニックス自然動物園","context":"日本","subtype":"zoo","subtypeLabel":"動物園","statusLabel":"","aliases":[],"osmType":"way","osmId":740163856,"osmDate":null,"officialAreaKm2":null,"areaSourceLabel":"","areaSourceUrl":"","boundarySourceLabel":"© OpenStreetMap contributors","boundarySourceUrl":"https://www.openstreetmap.org/copyright","geometryFile":"attractions/zoo-W740163856.geojson"},"geometry":{"type":"Polygon","coordinates":[[[131.4787945,31.9839595],[131.4760584,31.9836733],[131.4761478,31.9836182],[131.4761926,31.9835457],[131.4762169,31.983432],[131.4761519,31.9831182],[131.4760447,31.9830802],[131.4759318,31.9826649],[131.4763193,31.9826035],[131.4763448,31.9827444],[131.476447,31.9827949],[131.4766301,31.9829917],[131.4767791,31.9831705],[131.4770282,31.9832843],[131.4774561,31.9832861],[131.4775477,31.9831618],[131.4773454,31.9826614],[131.4772499,31.9825566],[131.4773623,31.9819847],[131.4774353,31.9818608],[131.4801264,31.9804884],[131.4803118,31.9805837],[131.4811433,31.9824851],[131.4809803,31.9827805],[131.480086,31.9832616],[131.480067,31.9832945],[131.4804394,31.9838802],[131.4801247,31.9840693],[131.4795228,31.9840734],[131.4787945,31.9839595]]]}}
