{"type":"Feature","id":"attraction-zoo-W1304188965","properties":{"id":"attraction-zoo-W1304188965","kind":"attraction","name":"神戸どうぶつ王国","shortName":"神戸どうぶつ王国","context":"日本","subtype":"zoo","subtypeLabel":"動物園","statusLabel":"","aliases":["KOBE Animal Kingdom"],"osmType":"way","osmId":1304188965,"osmDate":null,"officialAreaKm2":null,"areaSourceLabel":"","areaSourceUrl":"","boundarySourceLabel":"© OpenStreetMap contributors","boundarySourceUrl":"https://www.openstreetmap.org/copyright","geometryFile":"attractions/zoo-W1304188965.geojson"},"geometry":{"type":"Polygon","coordinates":[[[135.2220031,34.6548071],[135.2222487,34.6549077],[135.2222192,34.6549564],[135.222311,34.654994],[135.2223422,34.6549424],[135.2225832,34.6550411],[135.2228499,34.6551496],[135.2229519,34.6549676],[135.2230001,34.6549875],[135.2230149,34.6549632],[135.2234145,34.6551188],[135.224338,34.6535752],[135.2231687,34.6530996],[135.2229828,34.6534064],[135.2228771,34.6533631],[135.2220031,34.6548071]]]}}
