{"type":"Feature","id":"attraction-zoo-W1043624138","properties":{"id":"attraction-zoo-W1043624138","kind":"attraction","name":"ひびき動物ワールド","shortName":"ひびき動物ワールド","context":"日本","subtype":"zoo","subtypeLabel":"動物園","statusLabel":"","aliases":[],"osmType":"way","osmId":1043624138,"osmDate":null,"officialAreaKm2":null,"areaSourceLabel":"","areaSourceUrl":"","boundarySourceLabel":"© OpenStreetMap contributors","boundarySourceUrl":"https://www.openstreetmap.org/copyright","geometryFile":"attractions/zoo-W1043624138.geojson"},"geometry":{"type":"Polygon","coordinates":[[[130.7281408,33.914277],[130.727835,33.9142705],[130.7272784,33.9149378],[130.7274556,33.9151222],[130.727698,33.9153207],[130.7277686,33.9156352],[130.7279767,33.9157385],[130.7283201,33.9156174],[130.7285647,33.9158898],[130.7285775,33.9160002],[130.7284788,33.9161409],[130.7285218,33.9161605],[130.7286226,33.9160501],[130.7287342,33.9157438],[130.7287987,33.9154865],[130.7288114,33.9154172],[130.7286439,33.9152057],[130.7286246,33.9150853],[130.7285964,33.9148406],[130.7283887,33.9145576],[130.7281408,33.914277]]]}}
