{"type":"Feature","id":"attraction-zoo-R12408703","properties":{"id":"attraction-zoo-R12408703","kind":"attraction","name":"宮内庁新浜鴨場","shortName":"宮内庁新浜鴨場","context":"日本","subtype":"zoo","subtypeLabel":"動物園","statusLabel":"","aliases":["Shinhama Imperial Wild Duck Preserve"],"osmType":"relation","osmId":12408703,"osmDate":null,"officialAreaKm2":null,"areaSourceLabel":"","areaSourceUrl":"","boundarySourceLabel":"© OpenStreetMap contributors","boundarySourceUrl":"https://www.openstreetmap.org/copyright","geometryFile":"attractions/zoo-R12408703.geojson"},"geometry":{"type":"Polygon","coordinates":[[[139.9220815,35.6735296],[139.9220923,35.6736625],[139.9204226,35.6753316],[139.9181952,35.67423],[139.9177644,35.674017],[139.9144853,35.6723953],[139.9144616,35.6723941],[139.9142394,35.6723822],[139.9142,35.6723801],[139.9141261,35.6723762],[139.9141355,35.6722353],[139.9141476,35.6721199],[139.9155211,35.6699476],[139.9155643,35.6699046],[139.9157032,35.6698243],[139.9158709,35.6698167],[139.9160322,35.6698721],[139.9164206,35.6701865],[139.9166475,35.6705203],[139.9168196,35.6706449],[139.9193627,35.6719089],[139.9199451,35.6721874],[139.9202241,35.6723181],[139.9208692,35.6726777],[139.9212152,35.6729032],[139.921585,35.6731671],[139.9220815,35.6735296]]]}}
