{"type":"Feature","id":"attraction-zoo-W1513339346","properties":{"id":"attraction-zoo-W1513339346","kind":"attraction","name":"六甲山牧場","shortName":"六甲山牧場","context":"日本","subtype":"zoo","subtypeLabel":"動物園","statusLabel":"","aliases":["Rokkosan Pasture"],"osmType":"way","osmId":1513339346,"osmDate":null,"officialAreaKm2":null,"areaSourceLabel":"","areaSourceUrl":"","boundarySourceLabel":"© OpenStreetMap contributors","boundarySourceUrl":"https://www.openstreetmap.org/copyright","geometryFile":"attractions/zoo-W1513339346.geojson"},"geometry":{"type":"Polygon","coordinates":[[[135.2072753,34.7511895],[135.2073978,34.750696],[135.2074943,34.7504602],[135.2074742,34.7503004],[135.2073374,34.7502718],[135.2072288,34.750188],[135.2071846,34.750101],[135.20721,34.750036],[135.2072918,34.7499732],[135.2073629,34.7499544],[135.2075467,34.7499434],[135.2076995,34.749917],[135.2078229,34.7498828],[135.2079275,34.7498123],[135.2084573,34.7495952],[135.2083258,34.7493153],[135.2084801,34.7488663],[135.2085552,34.7488066],[135.2083567,34.7484294],[135.2080804,34.7482971],[135.2077747,34.7482683],[135.2078953,34.7478938],[135.2077526,34.74766],[135.2075842,34.74742],[135.2079373,34.7472582],[135.2082941,34.7472465],[135.2087188,34.7471423],[135.2090876,34.7473492],[135.2094161,34.7471687],[135.2098439,34.7472011],[135.2099091,34.7474683],[135.2097541,34.7476293],[135.2096705,34.7479216],[135.2096079,34.748096],[135.2095275,34.7482046],[135.2094738,34.7481759],[135.2093223,34.7483368],[135.209276,34.748312],[135.2092222,34.7483484],[135.2088268,34.7488209],[135.2087908,34.7488601],[135.2088046,34.7488635],[135.2089032,34.7489175],[135.2089729,34.7488442],[135.2090628,34.7488927],[135.2090286,34.7489368],[135.2095979,34.7492288],[135.2096488,34.7493511],[135.2098498,34.7493085],[135.2098916,34.7493021],[135.2098822,34.7493544],[135.2098594,34.7494076],[135.2098332,34.7494464],[135.2097793,34.7494941],[135.2097414,34.7495192],[135.2096029,34.7495858],[135.2094825,34.7496522],[135.2093719,34.7497269],[135.2093229,34.749788],[135.2092921,34.7498481],[135.2092666,34.7499373],[135.209268,34.7500484],[135.2093018,34.750158],[135.2093595,34.7503018],[135.2093749,34.7503861],[135.2093742,34.7504982],[135.2093471,34.7506448],[135.2093578,34.7507767],[135.2094239,34.7509401],[135.2094715,34.7511136],[135.2094882,34.7512357],[135.2094842,34.7513406],[135.2094601,34.751431],[135.2095076,34.7514509],[135.2095533,34.7514701],[135.2095717,34.7514213],[135.2095845,34.7513417],[135.2095945,34.7512343],[135.2095878,34.7511208],[135.2095771,34.7510503],[135.2095261,34.750874],[135.2094966,34.7507698],[135.2094899,34.7506707],[135.2094959,34.7504905],[135.2095033,34.750399],[135.2094959,34.7503285],[135.2094691,34.7502497],[135.2094229,34.7501649],[135.2093806,34.750085],[135.2093732,34.7500293],[135.2093732,34.749961],[135.2093887,34.7498977],[135.2094322,34.7498271],[135.2094939,34.7497588],[135.2097662,34.7496321],[135.2098426,34.7495935],[135.209907,34.749544],[135.2099707,34.7494828],[135.2100096,34.7494211],[135.2100357,34.7493489],[135.2100485,34.7492911],[135.2100411,34.749171],[135.2100371,34.7490536],[135.2100136,34.7488806],[135.2100103,34.7488079],[135.210015,34.7487379],[135.2100391,34.7486861],[135.210082,34.7486194],[135.210139,34.748571],[135.2102463,34.7487048],[135.2103898,34.7486922],[135.21054,34.748734],[135.2107117,34.7489671],[135.2110405,34.7491804],[135.2108907,34.7496949],[135.2109023,34.7499818],[135.2114286,34.7500919],[135.2112317,34.750272],[135.2111334,34.7503847],[135.2110818,34.7505123],[135.2110557,34.750567],[135.2110382,34.7506139],[135.2110288,34.7506448],[135.2110264,34.750688],[135.2110352,34.7507396],[135.2110516,34.7508238],[135.2111181,34.7511783],[135.2112088,34.7516307],[135.2112468,34.7518583],[135.2112746,34.7520855],[135.211282,34.7522194],[135.2112789,34.7523356],[135.2112731,34.7523755],[135.2112675,34.7524136],[135.2112575,34.7524681],[135.211242,34.7525221],[135.2112196,34.7525742],[135.2111817,34.7526279],[135.2111351,34.7526825],[135.2109668,34.7528753],[135.210941,34.7528998],[135.2109172,34.7529147],[135.2108833,34.7529257],[135.2108263,34.7529417],[135.2107673,34.752945],[135.2107224,34.7529472],[135.2106687,34.7529389],[135.2105621,34.7528943],[135.2104548,34.7528491],[135.2104112,34.7528111],[135.2103811,34.7527582],[135.2103562,34.752688],[135.2101625,34.752461],[135.2101226,34.7524353],[135.210083,34.7524205],[135.210016,34.7524026],[135.2099704,34.7523921],[135.2099207,34.7523786],[135.2098681,34.752351],[135.2098161,34.7523188],[135.2097762,34.7522814],[135.209737,34.7522334],[135.2097052,34.7521971],[135.2096562,34.7521579],[135.2096052,34.7521329],[135.2095573,34.7521144],[135.2094953,34.7520993],[135.2094115,34.7520836],[135.2093095,34.7520717],[135.2092281,34.7520659],[135.2091529,34.7520665],[135.2090428,34.7519034],[135.2090272,34.7518816],[135.2091409,34.7518304],[135.2092083,34.7517962],[135.209276,34.7517569],[135.2094074,34.7516648],[135.2094594,34.7516048],[135.2095322,34.7515147],[135.2094816,34.7514953],[135.2094316,34.7514761],[135.2094074,34.7515106],[135.2093521,34.7515877],[135.2092636,34.7516632],[135.2091359,34.7517434],[135.208938,34.751831],[135.2088375,34.7518555],[135.2088515,34.7518767],[135.2088157,34.7518783],[135.2087845,34.751877],[135.2087533,34.7518703],[135.2087288,34.7518593],[135.2087091,34.7518486],[135.208694,34.7518304],[135.2086812,34.751807],[135.2086661,34.7517513],[135.2086504,34.7516949],[135.2086383,34.7516637],[135.2086229,34.7516434],[135.2087599,34.7515346],[135.2087075,34.751473],[135.2086988,34.7514323],[135.2087199,34.7513444],[135.2087177,34.7511919],[135.2085285,34.7512087],[135.2084193,34.7512123],[135.2083029,34.7511405],[135.2081508,34.7510753],[135.2080329,34.7510652],[135.2078524,34.7510538],[135.2077105,34.7510825],[135.2075912,34.7511483],[135.2072753,34.7513009],[135.2072753,34.7511895]]]}}
