{"type":"Feature","id":"attraction-zoo-W213842521","properties":{"id":"attraction-zoo-W213842521","kind":"attraction","name":"埼玉県こども動物自然公園","shortName":"埼玉県こども動物自然公園","context":"日本","subtype":"zoo","subtypeLabel":"動物園","statusLabel":"","aliases":["Saitama Children's Zoo"],"osmType":"way","osmId":213842521,"osmDate":null,"officialAreaKm2":null,"areaSourceLabel":"","areaSourceUrl":"","boundarySourceLabel":"© OpenStreetMap contributors","boundarySourceUrl":"https://www.openstreetmap.org/copyright","geometryFile":"attractions/zoo-W213842521.geojson"},"geometry":{"type":"Polygon","coordinates":[[[139.3764456,36.0011827],[139.376349,36.0016665],[139.3762262,36.00165],[139.3762166,36.0016856],[139.3753303,36.0015611],[139.3747733,36.0014673],[139.3742842,36.0013967],[139.3743072,36.0012588],[139.3735202,36.0011557],[139.3735655,36.0009293],[139.3732484,36.0007632],[139.3726024,36.0006432],[139.3726913,36.0003677],[139.3713127,36.0001096],[139.3710602,35.9998364],[139.370744,35.9995977],[139.3701815,35.9995371],[139.3699643,35.9993935],[139.3696856,35.9993065],[139.3694706,35.9992153],[139.3690955,35.9991565],[139.3690633,35.9992857],[139.3683674,35.9993174],[139.3682373,35.9991851],[139.3686039,35.9987483],[139.3678233,35.9989137],[139.3676992,35.9988102],[139.3678806,35.9986922],[139.3683094,35.9983554],[139.3685737,35.9981596],[139.3687739,35.9978902],[139.3696281,35.997307],[139.3701275,35.9966982],[139.3716899,35.9958332],[139.3721111,35.9955935],[139.3723456,35.9951279],[139.3723821,35.9950129],[139.3723994,35.9949069],[139.3725429,35.9945185],[139.3729908,35.9939391],[139.3731597,35.9936393],[139.3732065,35.993464],[139.3731991,35.9933053],[139.3730958,35.9929107],[139.3731134,35.9926462],[139.373145,35.9924852],[139.3737418,35.9919034],[139.3739563,35.9916926],[139.3740802,35.9913856],[139.374171,35.991222],[139.3743762,35.9910441],[139.3746096,35.9909183],[139.3749313,35.9907027],[139.3755015,35.9904492],[139.3757279,35.9903118],[139.3758279,35.9901596],[139.3759377,35.9899394],[139.3759886,35.9897649],[139.3760485,35.9895933],[139.3761137,35.98951],[139.3763085,35.9893612],[139.3767076,35.9890592],[139.3775338,35.9884334],[139.3776893,35.9884016],[139.3778394,35.9883663],[139.3780041,35.9882735],[139.3783692,35.9885353],[139.3780953,35.9888225],[139.3788226,35.9892754],[139.378807,35.9894693],[139.3787991,35.9896345],[139.3785468,35.9900737],[139.3784369,35.9905501],[139.378449,35.9909873],[139.3783502,35.9914181],[139.3783361,35.9914788],[139.3783057,35.99161],[139.3782948,35.9917116],[139.3782675,35.9919661],[139.3783061,35.9921379],[139.3785144,35.9923342],[139.377969,35.9926891],[139.3779247,35.9927282],[139.3780535,35.9927596],[139.3776966,35.9935579],[139.3772662,35.994308],[139.3766473,35.9949987],[139.3764991,35.9952639],[139.3763821,35.9954764],[139.3763586,35.9955178],[139.3763332,35.9955549],[139.3772791,35.9956282],[139.377948,35.9957025],[139.3782002,35.9957698],[139.3784066,35.9959029],[139.3787843,35.9960952],[139.3790929,35.9962233],[139.3797775,35.9964024],[139.3803461,35.9964538],[139.3802645,35.9966814],[139.3802556,35.9967095],[139.380228,35.9968277],[139.3801845,35.9970118],[139.3802247,35.9971637],[139.3802649,35.9973047],[139.3802863,35.9973588],[139.3802837,35.9974458],[139.3802582,35.9975314],[139.3802194,35.9975651],[139.3801737,35.9975912],[139.379935,35.997563],[139.3797874,35.9975259],[139.3796454,35.9975044],[139.3795299,35.9976452],[139.3793289,35.9975196],[139.3793691,35.9974176],[139.3792108,35.9974024],[139.379176,35.9974219],[139.3790365,35.9973807],[139.3789292,35.997283],[139.3788219,35.9971897],[139.3787064,35.997259],[139.3788729,35.997448],[139.3788727,35.9977038],[139.379208,35.9979273],[139.378889,35.9982791],[139.3784893,35.9984158],[139.3783096,35.99852],[139.3782612,35.9986217],[139.3781004,35.9985417],[139.3778402,35.9983941],[139.3775264,35.9982661],[139.3772823,35.9983225],[139.376912,35.9984199],[139.3764491,35.9986198],[139.3763838,35.998648],[139.375968,35.998865],[139.3760752,35.9989407],[139.3763086,35.9989841],[139.3765902,35.9990167],[139.3766841,35.999136],[139.3766654,35.9992447],[139.3766362,35.9993529],[139.3768466,35.9994766],[139.3768031,35.9997241],[139.3767283,35.9997377],[139.3766751,35.9998434],[139.3765581,35.9998198],[139.3765528,35.9999565],[139.3764777,35.9999825],[139.3763878,36.0000411],[139.3763234,36.0001082],[139.3762761,36.0001836],[139.3761667,36.0004857],[139.3761136,36.000754],[139.3764468,36.0008039],[139.3765221,36.0008485],[139.3765617,36.0009128],[139.3765595,36.0010272],[139.3765404,36.0011904],[139.3764456,36.0011827]]]}}
