{"type":"Feature","id":"attraction-zoo-W204268632","properties":{"id":"attraction-zoo-W204268632","kind":"attraction","name":"宇都宮動物園","shortName":"宇都宮動物園","context":"日本","subtype":"zoo","subtypeLabel":"動物園","statusLabel":"","aliases":[],"osmType":"way","osmId":204268632,"osmDate":null,"officialAreaKm2":null,"areaSourceLabel":"","areaSourceUrl":"","boundarySourceLabel":"© OpenStreetMap contributors","boundarySourceUrl":"https://www.openstreetmap.org/copyright","geometryFile":"attractions/zoo-W204268632.geojson"},"geometry":{"type":"Polygon","coordinates":[[[139.8548879,36.6308697],[139.8545707,36.6308855],[139.8544998,36.631129],[139.8542992,36.631433],[139.8543047,36.6314484],[139.8542535,36.6315781],[139.8540702,36.63182],[139.8540356,36.6318408],[139.8539976,36.6318707],[139.8535658,36.6321726],[139.8534535,36.6321268],[139.8532288,36.6327245],[139.8534081,36.6329806],[139.8542712,36.6338851],[139.8549057,36.6339167],[139.8549392,36.6336969],[139.8560663,36.6317615],[139.8554988,36.6316856],[139.8550791,36.6315417],[139.8551145,36.631363],[139.8548879,36.6313488],[139.8548879,36.6308697]]]}}
