{"type":"Feature","id":"attraction-zoo-R5411543","properties":{"id":"attraction-zoo-R5411543","kind":"attraction","name":"井の頭自然文化園（分園）","shortName":"井の頭自然文化園（分園）","context":"日本","subtype":"zoo","subtypeLabel":"動物園","statusLabel":"","aliases":["Inokashira nature culture garden (branch garden)"],"osmType":"relation","osmId":5411543,"osmDate":null,"officialAreaKm2":null,"areaSourceLabel":"","areaSourceUrl":"","boundarySourceLabel":"© OpenStreetMap contributors","boundarySourceUrl":"https://www.openstreetmap.org/copyright","geometryFile":"attractions/zoo-R5411543.geojson"},"geometry":{"type":"Polygon","coordinates":[[[139.5768842,35.6999144],[139.5767594,35.6995679],[139.5765417,35.699597],[139.576501,35.6995788],[139.5764378,35.6995854],[139.5763562,35.6996003],[139.5762778,35.6996089],[139.576256,35.6995876],[139.5762263,35.6995774],[139.5761892,35.6995796],[139.5761562,35.6995903],[139.5761363,35.6996114],[139.5759833,35.6996021],[139.5758968,35.6996419],[139.5757901,35.6997121],[139.5753089,35.6997909],[139.575223,35.6997909],[139.5751286,35.6997979],[139.5751029,35.6998467],[139.5750857,35.6999234],[139.5750342,35.6999652],[139.5749312,35.7000001],[139.5748625,35.700014],[139.5747681,35.700014],[139.5746222,35.6999513],[139.5745362,35.6999905],[139.5746821,35.7000881],[139.5749482,35.7003948],[139.5750169,35.7005412],[139.5751769,35.7009049],[139.5754025,35.7008013],[139.5755977,35.7006792],[139.5768842,35.6999144]]]}}
