{"type":"Feature","id":"attraction-zoo-W414394428","properties":{"id":"attraction-zoo-W414394428","kind":"attraction","name":"五桂池ふるさと村　花と動物ふれあい広場","shortName":"五桂池ふるさと村　花と動物ふれあい広場","context":"日本","subtype":"zoo","subtypeLabel":"動物園","statusLabel":"","aliases":[],"osmType":"way","osmId":414394428,"osmDate":null,"officialAreaKm2":null,"areaSourceLabel":"","areaSourceUrl":"","boundarySourceLabel":"© OpenStreetMap contributors","boundarySourceUrl":"https://www.openstreetmap.org/copyright","geometryFile":"attractions/zoo-W414394428.geojson"},"geometry":{"type":"Polygon","coordinates":[[[136.5533798,34.4660433],[136.5536682,34.4659162],[136.5538881,34.465862],[136.5541255,34.4658587],[136.5546646,34.4660964],[136.5549194,34.4661738],[136.554855,34.466302],[136.5551327,34.4664414],[136.5552171,34.4664867],[136.5552306,34.4665387],[136.5552265,34.4666172],[136.555248,34.4667023],[136.555303,34.4667642],[136.5554264,34.4668958],[136.5554639,34.4669544],[136.5554733,34.4670174],[136.5554438,34.4670771],[136.5553982,34.4671059],[136.5553271,34.4671258],[136.5552252,34.4671258],[136.555185,34.4671026],[136.5550455,34.4670108],[136.5549556,34.4670008],[136.5548819,34.4670207],[136.554847,34.4670605],[136.5548577,34.4671236],[136.5548282,34.4671424],[136.5547773,34.4671357],[136.5546955,34.4670981],[136.5546083,34.4670351],[136.5545211,34.4670196],[136.5544634,34.4670429],[136.554328,34.4670849],[136.5541121,34.467065],[136.5541228,34.4669234],[136.5539994,34.4668129],[136.5540115,34.46672],[136.5541349,34.4666492],[136.5541268,34.4666006],[136.5539699,34.4665442],[136.5539404,34.4665088],[136.5538358,34.4665541],[136.5535095,34.4662639],[136.5533798,34.4660433]]]}}
