{"type":"Feature","id":"attraction-zoo-W312367525","properties":{"id":"attraction-zoo-W312367525","kind":"attraction","name":"徳山動物園","shortName":"徳山動物園","context":"日本","subtype":"zoo","subtypeLabel":"動物園","statusLabel":"","aliases":[],"osmType":"way","osmId":312367525,"osmDate":null,"officialAreaKm2":null,"areaSourceLabel":"","areaSourceUrl":"","boundarySourceLabel":"© OpenStreetMap contributors","boundarySourceUrl":"https://www.openstreetmap.org/copyright","geometryFile":"attractions/zoo-W312367525.geojson"},"geometry":{"type":"Polygon","coordinates":[[[131.8143865,34.0610506],[131.8148498,34.0608901],[131.8153401,34.0610667],[131.8154809,34.0612042],[131.8158078,34.061694],[131.81595,34.0617236],[131.8161557,34.0617101],[131.8162925,34.0617822],[131.8164333,34.061901],[131.8167044,34.062242],[131.8167955,34.0623504],[131.8170224,34.0623518],[131.8172231,34.0625671],[131.8169218,34.0627826],[131.8164967,34.0629607],[131.8163313,34.0629774],[131.8158615,34.0629335],[131.8154698,34.0627503],[131.8143865,34.0610506]]]}}
