{"type":"Feature","id":"attraction-zoo-W955325761","properties":{"id":"attraction-zoo-W955325761","kind":"attraction","name":"小鳥と小動物の森","shortName":"小鳥と小動物の森","context":"日本","subtype":"zoo","subtypeLabel":"動物園","statusLabel":"","aliases":[],"osmType":"way","osmId":955325761,"osmDate":null,"officialAreaKm2":null,"areaSourceLabel":"","areaSourceUrl":"","boundarySourceLabel":"© OpenStreetMap contributors","boundarySourceUrl":"https://www.openstreetmap.org/copyright","geometryFile":"attractions/zoo-W955325761.geojson"},"geometry":{"type":"Polygon","coordinates":[[[137.9550487,36.2616959],[137.9545793,36.2620571],[137.954472,36.2623231],[137.9544103,36.2625653],[137.9544157,36.2627881],[137.9544693,36.2628919],[137.9545176,36.2629979],[137.9546249,36.26308],[137.954877,36.2632812],[137.955156,36.2632704],[137.9555449,36.2630736],[137.955907,36.2630671],[137.956023,36.2629601],[137.9564059,36.2622236],[137.9562449,36.2617889],[137.9555717,36.2617067],[137.9550487,36.2616959]]]}}
