{"type":"Feature","id":"attraction-zoo-W238999385","properties":{"id":"attraction-zoo-W238999385","kind":"attraction","name":"久留米市鳥類センター","shortName":"久留米市鳥類センター","context":"日本","subtype":"zoo","subtypeLabel":"動物園","statusLabel":"","aliases":["Kurume Bird Center"],"osmType":"way","osmId":238999385,"osmDate":null,"officialAreaKm2":null,"areaSourceLabel":"","areaSourceUrl":"","boundarySourceLabel":"© OpenStreetMap contributors","boundarySourceUrl":"https://www.openstreetmap.org/copyright","geometryFile":"attractions/zoo-W238999385.geojson"},"geometry":{"type":"Polygon","coordinates":[[[130.52874,33.3205991],[130.5280906,33.3209287],[130.5280069,33.3205898],[130.527575,33.3201069],[130.5272303,33.3190624],[130.5277181,33.3189486],[130.527735,33.3190043],[130.5277886,33.3189925],[130.5277799,33.31896],[130.5278959,33.3189326],[130.5283246,33.3195282],[130.5282935,33.3195626],[130.5283505,33.3196503],[130.5283688,33.3196403],[130.5284003,33.3196413],[130.528551,33.3198971],[130.5286341,33.3201145],[130.5287616,33.3205523],[130.52874,33.3205991]]]}}
