{"type":"Feature","id":"attraction-zoo-W698275273","properties":{"id":"attraction-zoo-W698275273","kind":"attraction","name":"福山市立動物園","shortName":"福山市立動物園","context":"広島県・福山市","subtype":"zoo","subtypeLabel":"動物園","statusLabel":"","aliases":[],"osmType":"way","osmId":698275273,"osmDate":null,"officialAreaKm2":null,"areaSourceLabel":"","areaSourceUrl":"","boundarySourceLabel":"© OpenStreetMap contributors","boundarySourceUrl":"https://www.openstreetmap.org/copyright","geometryFile":"attractions/zoo-W698275273.geojson"},"geometry":{"type":"Polygon","coordinates":[[[133.280435,34.5237932],[133.2803769,34.5238609],[133.2799801,34.5243235],[133.279924,34.5243726],[133.279752,34.5245954],[133.2796812,34.5246513],[133.2796462,34.5246638],[133.279548,34.5246574],[133.2794857,34.5246398],[133.2794695,34.5246318],[133.2793676,34.5244464],[133.27934,34.524425],[133.2793029,34.5244145],[133.2790812,34.5244091],[133.2789561,34.5243744],[133.2788693,34.5243245],[133.2788042,34.5242603],[133.2785715,34.5239258],[133.2785149,34.5238668],[133.2782898,34.5236607],[133.2782385,34.5234914],[133.2781465,34.5235017],[133.277909,34.522817],[133.2783225,34.5227131],[133.2784434,34.5227049],[133.2785831,34.5227013],[133.2786428,34.5227077],[133.2788308,34.5227656],[133.278952,34.5228272],[133.279022,34.5228749],[133.2791454,34.5229786],[133.2793101,34.5231451],[133.2794106,34.5232614],[133.2794057,34.5232987],[133.2795337,34.5233893],[133.2796963,34.523484],[133.279921,34.5236117],[133.2800001,34.523646],[133.2801624,34.5237165],[133.2803856,34.523789],[133.280435,34.5237932]]]}}
