{"type":"Feature","id":"attraction-zoo-W226031840","properties":{"id":"attraction-zoo-W226031840","kind":"attraction","name":"とくしま動物園","shortName":"とくしま動物園","context":"日本","subtype":"zoo","subtypeLabel":"動物園","statusLabel":"","aliases":["Tokushimia Zoo"],"osmType":"way","osmId":226031840,"osmDate":null,"officialAreaKm2":null,"areaSourceLabel":"","areaSourceUrl":"","boundarySourceLabel":"© OpenStreetMap contributors","boundarySourceUrl":"https://www.openstreetmap.org/copyright","geometryFile":"attractions/zoo-W226031840.geojson"},"geometry":{"type":"Polygon","coordinates":[[[134.5209539,34.0137739],[134.5208549,34.0138194],[134.5206229,34.0139282],[134.5205407,34.0139653],[134.5202497,34.0135816],[134.5202233,34.0135594],[134.5196453,34.0135594],[134.5195395,34.013581],[134.5194653,34.0136256],[134.5194031,34.013663],[134.5193209,34.0137357],[134.5192903,34.0138173],[134.519294,34.0138464],[134.5193033,34.0138706],[134.5192727,34.0138772],[134.5192443,34.013884],[134.5192255,34.013844],[134.5191935,34.0138387],[134.5191558,34.0138551],[134.519031,34.0139562],[134.518803,34.0140541],[134.5187782,34.0140945],[134.5187931,34.0143284],[134.5187972,34.0143915],[134.5188039,34.0144332],[134.5188059,34.0145237],[134.5187985,34.014559],[134.5187783,34.0146545],[134.5193211,34.0149029],[134.5196041,34.0146261],[134.5196967,34.0145655],[134.5198169,34.014556],[134.5199002,34.014581],[134.5199564,34.0146165],[134.5200353,34.0147103],[134.5202891,34.0150493],[134.5203571,34.0150943],[134.5204246,34.0151129],[134.5206724,34.0151059],[134.5207557,34.0151052],[134.5208048,34.015131],[134.5208591,34.015179],[134.520924,34.0154314],[134.5209631,34.0155081],[134.5210483,34.0155867],[134.5212387,34.015726],[134.5212598,34.0157038],[134.5212975,34.0156642],[134.5213808,34.0156637],[134.5214947,34.0156455],[134.5215488,34.0156467],[134.5216099,34.0156249],[134.5217293,34.015495],[134.5217969,34.0154295],[134.5218663,34.0154105],[134.5219652,34.0154226],[134.5220272,34.0154614],[134.5220742,34.0155359],[134.5220916,34.0156598],[134.5221164,34.0157443],[134.5221747,34.0158111],[134.5222706,34.0158666],[134.5224182,34.0159012],[134.522597,34.0159223],[134.5226482,34.01594],[134.5226873,34.0159935],[134.5227092,34.0160567],[134.5226395,34.0161873],[134.5226327,34.0162501],[134.5225241,34.0163046],[134.5226301,34.0164491],[134.522728,34.0163979],[134.5228808,34.0164535],[134.5230249,34.0164732],[134.5230941,34.016498],[134.5231316,34.0165435],[134.5233087,34.016877],[134.5237003,34.0167214],[134.5238518,34.0166603],[134.523723,34.0164519],[134.5237123,34.0164346],[134.5234937,34.0165224],[134.5233891,34.0165091],[134.5232483,34.016448],[134.5231598,34.0163701],[134.5231652,34.016259],[134.5233567,34.0158148],[134.5233864,34.0156265],[134.5233905,34.0155709],[134.5234026,34.0154529],[134.5233583,34.0153308],[134.5233635,34.0151868],[134.5234387,34.0149884],[134.5234251,34.0148255],[134.5233014,34.0147229],[134.5231743,34.0146367],[134.5230076,34.0142926],[134.5229028,34.0140607],[134.522707,34.0135672],[134.5225243,34.0130855],[134.5222316,34.0130708],[134.5220614,34.0130152],[134.5220362,34.0129984],[134.5219218,34.0129224],[134.5219059,34.0129118],[134.5218433,34.0128533],[134.5217691,34.012784],[134.5215961,34.012784],[134.5216073,34.0134388],[134.5215875,34.0135131],[134.5214653,34.0136372],[134.5213305,34.013849],[134.5213343,34.0140388],[134.5213017,34.0140624],[134.5212687,34.0140652],[134.5212199,34.0140452],[134.5211433,34.0140074],[134.5210816,34.0139451],[134.5209539,34.0137739]]]}}
