{"type":"Feature","id":"attraction-zoo-W1030341343","properties":{"id":"attraction-zoo-W1030341343","kind":"attraction","name":"ポニーの森","shortName":"ポニーの森","context":"島根県・松江市","subtype":"zoo","subtypeLabel":"動物園","statusLabel":"","aliases":[],"osmType":"way","osmId":1030341343,"osmDate":null,"officialAreaKm2":null,"areaSourceLabel":"","areaSourceUrl":"","boundarySourceLabel":"© OpenStreetMap contributors","boundarySourceUrl":"https://www.openstreetmap.org/copyright","geometryFile":"attractions/zoo-W1030341343.geojson"},"geometry":{"type":"Polygon","coordinates":[[[133.0447309,35.4334907],[133.0452317,35.4334211],[133.0453337,35.4333987],[133.0454039,35.4333603],[133.0454144,35.4331354],[133.0452326,35.4330243],[133.0451544,35.4329765],[133.0450092,35.432867],[133.0446572,35.4326816],[133.0444485,35.4330155],[133.0442272,35.4329782],[133.0441689,35.4331852],[133.0442481,35.4332635],[133.0443563,35.4333558],[133.0445437,35.43346],[133.0447309,35.4334907]]]}}
