{"type":"Feature","id":"attraction-zoo-W42647003","properties":{"id":"attraction-zoo-W42647003","kind":"attraction","name":"福知山市動物園","shortName":"福知山市動物園","context":"日本","subtype":"zoo","subtypeLabel":"動物園","statusLabel":"","aliases":[],"osmType":"way","osmId":42647003,"osmDate":null,"officialAreaKm2":null,"areaSourceLabel":"","areaSourceUrl":"","boundarySourceLabel":"© OpenStreetMap contributors","boundarySourceUrl":"https://www.openstreetmap.org/copyright","geometryFile":"attractions/zoo-W42647003.geojson"},"geometry":{"type":"Polygon","coordinates":[[[135.1385699,35.3106204],[135.1385511,35.3106426],[135.1384482,35.3106216],[135.1384422,35.3106631],[135.1385753,35.3109142],[135.1386716,35.3112116],[135.1387778,35.3113022],[135.1391352,35.3112979],[135.1392208,35.3110062],[135.1392381,35.3109474],[135.1392792,35.3107539],[135.139289,35.3106089],[135.1392796,35.3098213],[135.1387523,35.3097951],[135.1384898,35.3104818],[135.1384881,35.310552],[135.1385788,35.3105762],[135.1385699,35.3106204]]]}}
