{"type":"Feature","id":"attraction-zoo-W510609121","properties":{"id":"attraction-zoo-W510609121","kind":"attraction","name":"江戸川区自然動物園","shortName":"江戸川区自然動物園","context":"日本","subtype":"zoo","subtypeLabel":"動物園","statusLabel":"","aliases":["Edogawa Zoo"],"osmType":"way","osmId":510609121,"osmDate":null,"officialAreaKm2":null,"areaSourceLabel":"","areaSourceUrl":"","boundarySourceLabel":"© OpenStreetMap contributors","boundarySourceUrl":"https://www.openstreetmap.org/copyright","geometryFile":"attractions/zoo-W510609121.geojson"},"geometry":{"type":"Polygon","coordinates":[[[139.8582476,35.6715686],[139.8579808,35.6713245],[139.8581135,35.6712243],[139.8581672,35.6710718],[139.8579687,35.6709149],[139.8579606,35.6708098],[139.8581095,35.6706709],[139.8581665,35.6705739],[139.8582624,35.6705466],[139.8586701,35.6708719],[139.8587331,35.670892],[139.8589477,35.6710625],[139.8582476,35.6715686]]]}}
