{"type":"Feature","id":"attraction-zoological-botanical-park-W1013611752","properties":{"id":"attraction-zoological-botanical-park-W1013611752","kind":"attraction","name":"豊橋総合動植物公園 植物園","shortName":"豊橋総合動植物公園 植物園","context":"日本","subtype":"botanical-garden","subtypeLabel":"植物園・植物公園","statusLabel":"豊橋総合動植物公園内の植物園区域","aliases":[],"osmType":"way","osmId":1013611752,"osmDate":null,"officialAreaKm2":null,"areaSourceLabel":"","areaSourceUrl":"","boundarySourceLabel":"© OpenStreetMap contributors","boundarySourceUrl":"https://www.openstreetmap.org/copyright","geometryFile":"attractions/zoological-botanical-park-W1013611752.geojson"},"geometry":{"type":"Polygon","coordinates":[[[137.4359893,34.7212316],[137.4359483,34.7212923],[137.4358738,34.7213556],[137.4357865,34.7213873],[137.4356915,34.7213957],[137.4356093,34.721381],[137.4355323,34.7213514],[137.435486,34.7213071],[137.4354578,34.7212564],[137.4354377,34.721203],[137.4354256,34.721235],[137.4351745,34.7211708],[137.4351098,34.7211938],[137.435217,34.7214029],[137.4351118,34.7217011],[137.4352678,34.721898],[137.4352424,34.7220232],[137.4351987,34.7221357],[137.4350437,34.7223755],[137.4348034,34.7225343],[137.4345528,34.7225815],[137.4341902,34.7225863],[137.433853,34.7226623],[137.4331246,34.7229685],[137.4330631,34.722984],[137.4330006,34.7229968],[137.4329374,34.7230068],[137.4328736,34.723014],[137.4328095,34.7230184],[137.4327451,34.7230199],[137.4326808,34.7230187],[137.4317328,34.7230259],[137.431679,34.7230265],[137.4316253,34.7230242],[137.4315719,34.723019],[137.431519,34.7230109],[137.4314668,34.723],[137.4314157,34.7229863],[137.4313657,34.7229699],[137.4313172,34.7229509],[137.4312703,34.7229292],[137.4317532,34.7216623],[137.4318031,34.7216936],[137.4318544,34.7217234],[137.431907,34.7217517],[137.4319607,34.7217784],[137.4320156,34.7218035],[137.4320716,34.721827],[137.4321285,34.7218488],[137.432186,34.7218687],[137.4322443,34.721887],[137.4323034,34.7219036],[137.4323631,34.7219184],[137.4324235,34.7219314],[137.4324844,34.7219427],[137.4325457,34.7219522],[137.432597,34.7219576],[137.4331861,34.7205217],[137.4347092,34.7209479],[137.4347719,34.7207829],[137.4348184,34.720614],[137.434832,34.7205375],[137.4353061,34.7206525],[137.4353234,34.7206076],[137.4354404,34.720616],[137.4354114,34.7206889],[137.4354658,34.720703],[137.4354439,34.7207601],[137.4360659,34.720921],[137.4360506,34.720961],[137.4360682,34.7210234],[137.4359893,34.7212316]]]}}
