{"type":"Feature","id":"attraction-zoological-botanical-park-W471312607","properties":{"id":"attraction-zoological-botanical-park-W471312607","kind":"attraction","name":"徳島市総合動植物公園","shortName":"徳島市総合動植物公園","context":"日本","subtype":"zoological-botanical-park","subtypeLabel":"動植物園・総合公園","statusLabel":"","aliases":["とくしま植物園"],"osmType":"way","osmId":471312607,"osmDate":null,"officialAreaKm2":null,"areaSourceLabel":"","areaSourceUrl":"","boundarySourceLabel":"© OpenStreetMap contributors","boundarySourceUrl":"https://www.openstreetmap.org/copyright","geometryFile":"attractions/zoological-botanical-park-W471312607.geojson"},"geometry":{"type":"Polygon","coordinates":[[[134.5232817,34.0112282],[134.5231825,34.0112082],[134.5231221,34.0112027],[134.5227922,34.0113183],[134.5214753,34.0109914],[134.5214323,34.0107647],[134.5211266,34.0104623],[134.5202575,34.0103244],[134.5200986,34.0102955],[134.5200128,34.0103178],[134.5199082,34.0102822],[134.5198022,34.0102844],[134.5196896,34.0103178],[134.5193691,34.0105812],[134.5191384,34.0105412],[134.5188863,34.010519],[134.5187334,34.0105279],[134.5187146,34.0106835],[134.5186555,34.0110661],[134.5188246,34.0112082],[134.5188138,34.0114239],[134.5188165,34.0117946],[134.5185839,34.0120086],[134.5185429,34.0123355],[134.5184625,34.0124533],[134.5184839,34.0126867],[134.5185537,34.0128602],[134.5186737,34.0131481],[134.5186428,34.0131736],[134.5184162,34.0131536],[134.5182928,34.0131314],[134.5179482,34.0130125],[134.5178583,34.0130202],[134.5177255,34.0130291],[134.5177376,34.0131292],[134.5178516,34.0133926],[134.5178516,34.0134259],[134.5177336,34.013456],[134.5177778,34.0135761],[134.5178811,34.0138129],[134.5178797,34.0138906],[134.5177436,34.0139073],[134.5177088,34.0140285],[134.5173829,34.0141885],[134.5174538,34.0144198],[134.5174674,34.0144643],[134.5175277,34.0145009],[134.5175532,34.014551],[134.5175224,34.014601],[134.5173212,34.0146566],[134.5172501,34.0147244],[134.5170986,34.0149334],[134.517116,34.0151246],[134.5171603,34.0152113],[134.5172347,34.0152769],[134.5173312,34.0154325],[134.5173527,34.0155592],[134.5173554,34.0157526],[134.5173259,34.0158371],[134.5173849,34.0158905],[134.5174278,34.0158794],[134.5174788,34.0159416],[134.5174519,34.0160261],[134.5176746,34.0160372],[134.5178516,34.0160617],[134.517916,34.016075],[134.5178865,34.016204],[134.5177819,34.0163685],[134.5179401,34.0164396],[134.5177081,34.0166375],[134.517582,34.0168087],[134.5175579,34.017011],[134.5176115,34.01722],[134.5177108,34.0174112],[134.5176893,34.0174934],[134.5175311,34.0177402],[134.5173889,34.0178691],[134.517354,34.0179647],[134.5174265,34.0180648],[134.517287,34.0182626],[134.5170939,34.0184383],[134.5168525,34.0185739],[134.5167961,34.0186295],[134.516764,34.0187073],[134.5166754,34.0188429],[134.5161873,34.0190519],[134.5150715,34.0196032],[134.5154685,34.0200745],[134.5159191,34.0202968],[134.5162731,34.0206036],[134.5163482,34.0209593],[134.516536,34.0212705],[134.5175016,34.0220353],[134.5192504,34.021773],[134.5200228,34.0214439],[134.5209643,34.0209415],[134.521313,34.0205591],[134.5213921,34.020408],[134.520971,34.0202679],[134.5206022,34.020159],[134.5203742,34.02001],[134.5201865,34.01983],[134.5206505,34.0198566],[134.5209945,34.0198705],[134.5213371,34.0197566],[134.5217234,34.0194187],[134.522121,34.0184922],[134.5221954,34.0182537],[134.5222283,34.0181876],[134.5221364,34.0180915],[134.5223483,34.0179714],[134.5226139,34.0178514],[134.522866,34.0177046],[134.5231107,34.0175318],[134.5233307,34.0174028],[134.5235318,34.0174384],[134.5238832,34.0172783],[134.5236901,34.0170982],[134.5234487,34.0171249],[134.5234132,34.0170088],[134.5235741,34.0168798],[134.5238396,34.0167609],[134.5239194,34.0167225],[134.5239818,34.0166597],[134.5240602,34.0166269],[134.524185,34.0166124],[134.5242607,34.0166353],[134.5243472,34.0166258],[134.5243942,34.0166447],[134.5245182,34.0166575],[134.5246637,34.0166558],[134.5248468,34.0165941],[134.5250439,34.0165202],[134.5251029,34.0164569],[134.5250728,34.0164079],[134.5249641,34.0161756],[134.524944,34.0160934],[134.5249695,34.01602],[134.5249259,34.0159905],[134.5248703,34.0159399],[134.5246557,34.0157254],[134.5245377,34.0156042],[134.5244887,34.0155292],[134.5244612,34.0155409],[134.5243875,34.0155131],[134.5242735,34.0155164],[134.524242,34.0155381],[134.5242239,34.0155653],[134.5242078,34.0156493],[134.5242104,34.0157432],[134.524189,34.0157871],[134.5240569,34.0158127],[134.5238698,34.0157538],[134.523853,34.015786],[134.523566,34.0157148],[134.5234755,34.0156293],[134.5234487,34.0155826],[134.5234702,34.0154536],[134.5233729,34.015328],[134.523379,34.0151935],[134.5234353,34.0150401],[134.5234514,34.0149912],[134.5234433,34.0148244],[134.5232978,34.0147077],[134.5232013,34.0146388],[134.5228553,34.0138584],[134.5225602,34.0130691],[134.5225924,34.0130481],[134.5228326,34.0129808],[134.5227883,34.0128629],[134.5227977,34.0128329],[134.5228433,34.0127807],[134.5228606,34.0127179],[134.5228224,34.0124588],[134.5228345,34.0122376],[134.5228868,34.0120531],[134.5229914,34.0118319],[134.5231322,34.0115539],[134.5232817,34.0112282]]]}}
